{"features":[{"geometry":{"coordinates":[112.08286,-7.58456],"type":"Point"},"id":"cctv-national-07ae676099a9226661076fc6","properties":{"address":"East Java","attribution":"Sumber publik: Sumber publik terindeks OpenCCTV","catalogSourceKey":"national-public-directory-live","city":"East Java","kind":"cctv","mediaFormat":"iframe","mimeType":"","name":"Kertosono › East","operator":"Sumber publik terindeks OpenCCTV","province":"Jawa Timur","publicUrl":"https://opencctv.org/cameras/indonesia/east-java/kertosono/kertosono-east-317726","region":"Jawa Timur","source":"Sumber publik terindeks OpenCCTV","sourceId":"cctv:07ae676099a9226661076fc6","sourceUrl":"https://opencctv.org/cameras/indonesia/east-java/kertosono/kertosono-east-317726","streamStatus":"public-page","streamUrl":"https://opencctv.org/cameras/indonesia/east-java/kertosono/kertosono-east-317726","updatedAt":"2026-08-11T15:20:39.765Z","verification":"public-directory-live"},"type":"Feature"},{"geometry":{"coordinates":[112.02175,-7.60328],"type":"Point"},"id":"cctv-national-08a108f967905f339d123b33","properties":{"address":"East Java","attribution":"Sumber publik: Sumber publik terindeks OpenCCTV","catalogSourceKey":"national-public-directory-live","city":"East Java","kind":"cctv","mediaFormat":"iframe","mimeType":"","name":"Kertosono › East","operator":"Sumber publik terindeks OpenCCTV","province":"Jawa Timur","publicUrl":"https://opencctv.org/cameras/indonesia/east-java/kertosono/kertosono-east-318188","region":"Jawa Timur","source":"Sumber publik terindeks OpenCCTV","sourceId":"cctv:08a108f967905f339d123b33","sourceUrl":"https://opencctv.org/cameras/indonesia/east-java/kertosono/kertosono-east-318188","streamStatus":"public-page","streamUrl":"https://opencctv.org/cameras/indonesia/east-java/kertosono/kertosono-east-318188","updatedAt":"2026-08-11T15:20:39.765Z","verification":"public-directory-live"},"type":"Feature"},{"geometry":{"coordinates":[111.90434,-7.59],"type":"Point"},"id":"cctv-national-0be37ba2abd83ea8235fa3b2","properties":{"address":"East Java","attribution":"Sumber publik: Sumber publik terindeks OpenCCTV","catalogSourceKey":"national-public-directory-live","city":"East Java","kind":"cctv","mediaFormat":"iframe","mimeType":"","name":"Nganjuk › East","operator":"Sumber publik terindeks OpenCCTV","province":"Jawa Timur","publicUrl":"https://opencctv.org/cameras/indonesia/east-java/nganjuk/nganjuk-east-318338","region":"Jawa Timur","source":"Sumber publik terindeks OpenCCTV","sourceId":"cctv:0be37ba2abd83ea8235fa3b2","sourceUrl":"https://opencctv.org/cameras/indonesia/east-java/nganjuk/nganjuk-east-318338","streamStatus":"public-page","streamUrl":"https://opencctv.org/cameras/indonesia/east-java/nganjuk/nganjuk-east-318338","updatedAt":"2026-08-11T15:20:39.770Z","verification":"public-directory-live"},"type":"Feature"},{"geometry":{"coordinates":[111.91498,-7.58218],"type":"Point"},"id":"cctv-national-11cbdad2f9e942505ae024e7","properties":{"address":"East Java","attribution":"Sumber publik: Sumber publik terindeks OpenCCTV","catalogSourceKey":"national-public-directory-live","city":"East Java","kind":"cctv","mediaFormat":"iframe","mimeType":"","name":"Nganjuk › East","operator":"Sumber publik terindeks OpenCCTV","province":"Jawa Timur","publicUrl":"https://opencctv.org/cameras/indonesia/east-java/nganjuk/nganjuk-east-318574","region":"Jawa Timur","source":"Sumber publik terindeks OpenCCTV","sourceId":"cctv:11cbdad2f9e942505ae024e7","sourceUrl":"https://opencctv.org/cameras/indonesia/east-java/nganjuk/nganjuk-east-318574","streamStatus":"public-page","streamUrl":"https://opencctv.org/cameras/indonesia/east-java/nganjuk/nganjuk-east-318574","updatedAt":"2026-08-11T15:20:39.770Z","verification":"public-directory-live"},"type":"Feature"},{"geometry":{"coordinates":[111.87412,-7.6322],"type":"Point"},"id":"cctv-national-12b301ac4c9eb88bb36a4450","properties":{"address":"East Java","attribution":"Sumber publik: Sumber publik terindeks OpenCCTV","catalogSourceKey":"national-public-directory-live","city":"East Java","kind":"cctv","mediaFormat":"iframe","mimeType":"","name":"Nganjuk › South","operator":"Sumber publik terindeks OpenCCTV","province":"Jawa Timur","publicUrl":"https://opencctv.org/cameras/indonesia/east-java/nganjuk/nganjuk-south-318455","region":"Jawa Timur","source":"Sumber publik terindeks OpenCCTV","sourceId":"cctv:12b301ac4c9eb88bb36a4450","sourceUrl":"https://opencctv.org/cameras/indonesia/east-java/nganjuk/nganjuk-south-318455","streamStatus":"public-page","streamUrl":"https://opencctv.org/cameras/indonesia/east-java/nganjuk/nganjuk-south-318455","updatedAt":"2026-08-11T15:20:39.770Z","verification":"public-directory-live"},"type":"Feature"},{"geometry":{"coordinates":[112.06707,-7.64513],"type":"Point"},"id":"cctv-national-13463fff6e3a5690ed755401","properties":{"address":"East Java","attribution":"Sumber publik: Sumber publik terindeks OpenCCTV","catalogSourceKey":"national-public-directory-live","city":"East Java","kind":"cctv","mediaFormat":"iframe","mimeType":"","name":"Kertosono › East","operator":"Sumber publik terindeks OpenCCTV","province":"Jawa Timur","publicUrl":"https://opencctv.org/cameras/indonesia/east-java/kertosono/kertosono-east-321232","region":"Jawa Timur","source":"Sumber publik terindeks OpenCCTV","sourceId":"cctv:13463fff6e3a5690ed755401","sourceUrl":"https://opencctv.org/cameras/indonesia/east-java/kertosono/kertosono-east-321232","streamStatus":"public-page","streamUrl":"https://opencctv.org/cameras/indonesia/east-java/kertosono/kertosono-east-321232","updatedAt":"2026-08-11T15:20:39.765Z","verification":"public-directory-live"},"type":"Feature"},{"geometry":{"coordinates":[111.98982,-7.71522],"type":"Point"},"id":"cctv-national-1401ae0fe104e7ca46e2cb8f","properties":{"address":"East Java","attribution":"Sumber publik: Sumber publik terindeks OpenCCTV","catalogSourceKey":"national-public-directory-live","city":"East Java","kind":"cctv","mediaFormat":"iframe","mimeType":"","name":"Kediri","operator":"Sumber publik terindeks OpenCCTV","province":"Jawa Timur","publicUrl":"https://opencctv.org/cameras/indonesia/east-java/kediri/kediri-315471","region":"Jawa Timur","source":"Sumber publik terindeks OpenCCTV","sourceId":"cctv:1401ae0fe104e7ca46e2cb8f","sourceUrl":"https://opencctv.org/cameras/indonesia/east-java/kediri/kediri-315471","streamStatus":"public-page","streamUrl":"https://opencctv.org/cameras/indonesia/east-java/kediri/kediri-315471","updatedAt":"2026-08-11T15:20:39.764Z","verification":"public-directory-live"},"type":"Feature"},{"geometry":{"coordinates":[111.87,-7.64275],"type":"Point"},"id":"cctv-national-14527c0f3ecd45d58b02f86f","properties":{"address":"East Java","attribution":"Sumber publik: Sumber publik terindeks OpenCCTV","catalogSourceKey":"national-public-directory-live","city":"East Java","kind":"cctv","mediaFormat":"iframe","mimeType":"","name":"Nganjuk: SMA Negeri 1 Berbek","operator":"Sumber publik terindeks OpenCCTV","province":"Jawa Timur","publicUrl":"https://opencctv.org/cameras/indonesia/east-java/nganjuk/nganjuk-sma-negeri-1-berbek-318599","region":"Jawa Timur","source":"Sumber publik terindeks OpenCCTV","sourceId":"cctv:14527c0f3ecd45d58b02f86f","sourceUrl":"https://opencctv.org/cameras/indonesia/east-java/nganjuk/nganjuk-sma-negeri-1-berbek-318599","streamStatus":"public-page","streamUrl":"https://opencctv.org/cameras/indonesia/east-java/nganjuk/nganjuk-sma-negeri-1-berbek-318599","updatedAt":"2026-08-11T15:20:39.770Z","verification":"public-directory-live"},"type":"Feature"},{"geometry":{"coordinates":[111.91635,-7.58898],"type":"Point"},"id":"cctv-national-18c153f17b3c46d710b41ade","properties":{"address":"East Java","attribution":"Sumber publik: Sumber publik terindeks OpenCCTV","catalogSourceKey":"national-public-directory-live","city":"East Java","kind":"cctv","mediaFormat":"iframe","mimeType":"","name":"Nganjuk › West","operator":"Sumber publik terindeks OpenCCTV","province":"Jawa Timur","publicUrl":"https://opencctv.org/cameras/indonesia/east-java/nganjuk/nganjuk-west-318621","region":"Jawa Timur","source":"Sumber publik terindeks OpenCCTV","sourceId":"cctv:18c153f17b3c46d710b41ade","sourceUrl":"https://opencctv.org/cameras/indonesia/east-java/nganjuk/nganjuk-west-318621","streamStatus":"public-page","streamUrl":"https://opencctv.org/cameras/indonesia/east-java/nganjuk/nganjuk-west-318621","updatedAt":"2026-08-11T15:20:39.770Z","verification":"public-directory-live"},"type":"Feature"},{"geometry":{"coordinates":[112.1391212,-7.58479],"type":"Point"},"id":"cctv-national-198fcbb1cdc612f0403d7880","properties":{"address":"Kertosono - Mojokerto","attribution":"Sumber publik: BPJT / MHI","catalogSourceKey":"national-official-bpjt-online-directory","city":"Kertosono - Mojokerto","kind":"cctv","mediaFormat":"hls","mimeType":"application/vnd.apple.mpegurl","name":"Akses Tol Bandar Arah Perak","operator":"BPJT / MHI","province":"Jawa Timur","publicUrl":"https://bpjt.pu.go.id/cctv/","region":"Jawa Timur","source":"BPJT / MHI","sourceId":"1985","sourceUrl":"https://bpjt.pu.go.id/cctv/","streamStatus":"verified-live","streamUrl":"https://api-cctv.margaharjaya.co.id/hls/aksesbandararahperak/stream.m3u8","updatedAt":"2026-08-11T15:52:11.156Z","verification":"official-bpjt-online-directory"},"type":"Feature"},{"geometry":{"coordinates":[111.847,-7.67303],"type":"Point"},"id":"cctv-national-1a6132d02baa005417d12b36","properties":{"address":"East Java","attribution":"Sumber publik: Sumber publik terindeks OpenCCTV","catalogSourceKey":"national-public-directory-live","city":"East Java","kind":"cctv","mediaFormat":"iframe","mimeType":"","name":"Nganjuk: Balai Desa Kuncir","operator":"Sumber publik terindeks OpenCCTV","province":"Jawa Timur","publicUrl":"https://opencctv.org/cameras/indonesia/east-java/nganjuk/nganjuk-balai-desa-kuncir-318433","region":"Jawa Timur","source":"Sumber publik terindeks OpenCCTV","sourceId":"cctv:1a6132d02baa005417d12b36","sourceUrl":"https://opencctv.org/cameras/indonesia/east-java/nganjuk/nganjuk-balai-desa-kuncir-318433","streamStatus":"public-page","streamUrl":"https://opencctv.org/cameras/indonesia/east-java/nganjuk/nganjuk-balai-desa-kuncir-318433","updatedAt":"2026-08-11T15:20:39.770Z","verification":"public-directory-live"},"type":"Feature"},{"geometry":{"coordinates":[112.07428,-7.69481],"type":"Point"},"id":"cctv-national-1b5b02dcfc1b0a15b7d2c897","properties":{"address":"East Java","attribution":"Sumber publik: Sumber publik terindeks OpenCCTV","catalogSourceKey":"national-public-directory-live","city":"East Java","kind":"cctv","mediaFormat":"iframe","mimeType":"","name":"Plemahan › South","operator":"Sumber publik terindeks OpenCCTV","province":"Jawa Timur","publicUrl":"https://opencctv.org/cameras/indonesia/east-java/plemahan/plemahan-south-316508","region":"Jawa Timur","source":"Sumber publik terindeks OpenCCTV","sourceId":"cctv:1b5b02dcfc1b0a15b7d2c897","sourceUrl":"https://opencctv.org/cameras/indonesia/east-java/plemahan/plemahan-south-316508","streamStatus":"public-page","streamUrl":"https://opencctv.org/cameras/indonesia/east-java/plemahan/plemahan-south-316508","updatedAt":"2026-08-11T15:20:39.771Z","verification":"public-directory-live"},"type":"Feature"},{"geometry":{"coordinates":[112.09942,-7.6222],"type":"Point"},"id":"cctv-national-1dec94808fabfe2abff58481","properties":{"address":"East Java","attribution":"Sumber publik: Sumber publik terindeks OpenCCTV","catalogSourceKey":"national-public-directory-live","city":"East Java","kind":"cctv","mediaFormat":"iframe","mimeType":"","name":"Kertosono › North: Krupuk Padang Pasir","operator":"Sumber publik terindeks OpenCCTV","province":"Jawa Timur","publicUrl":"https://opencctv.org/cameras/indonesia/east-java/kertosono/kertosono-north-krupuk-padang-pasir-315268","region":"Jawa Timur","source":"Sumber publik terindeks OpenCCTV","sourceId":"cctv:1dec94808fabfe2abff58481","sourceUrl":"https://opencctv.org/cameras/indonesia/east-java/kertosono/kertosono-north-krupuk-padang-pasir-315268","streamStatus":"public-page","streamUrl":"https://opencctv.org/cameras/indonesia/east-java/kertosono/kertosono-north-krupuk-padang-pasir-315268","updatedAt":"2026-08-11T15:20:39.765Z","verification":"public-directory-live"},"type":"Feature"},{"geometry":{"coordinates":[111.96957,-7.60294],"type":"Point"},"id":"cctv-national-22ab628ab86a053a7192e908","properties":{"address":"East Java","attribution":"Sumber publik: Sumber publik terindeks OpenCCTV","catalogSourceKey":"national-public-directory-live","city":"East Java","kind":"cctv","mediaFormat":"iframe","mimeType":"","name":"Nganjuk","operator":"Sumber publik terindeks OpenCCTV","province":"Jawa Timur","publicUrl":"https://opencctv.org/cameras/indonesia/east-java/nganjuk/nganjuk-318523","region":"Jawa Timur","source":"Sumber publik terindeks OpenCCTV","sourceId":"cctv:22ab628ab86a053a7192e908","sourceUrl":"https://opencctv.org/cameras/indonesia/east-java/nganjuk/nganjuk-318523","streamStatus":"public-page","streamUrl":"https://opencctv.org/cameras/indonesia/east-java/nganjuk/nganjuk-318523","updatedAt":"2026-08-11T15:20:39.770Z","verification":"public-directory-live"},"type":"Feature"},{"geometry":{"coordinates":[111.87996,-7.65432],"type":"Point"},"id":"cctv-national-2368060b04a935948ad095b0","properties":{"address":"East Java","attribution":"Sumber publik: Sumber publik terindeks OpenCCTV","catalogSourceKey":"national-public-directory-live","city":"East Java","kind":"cctv","mediaFormat":"iframe","mimeType":"","name":"Nganjuk › East","operator":"Sumber publik terindeks OpenCCTV","province":"Jawa Timur","publicUrl":"https://opencctv.org/cameras/indonesia/east-java/nganjuk/nganjuk-east-318337","region":"Jawa Timur","source":"Sumber publik terindeks OpenCCTV","sourceId":"cctv:2368060b04a935948ad095b0","sourceUrl":"https://opencctv.org/cameras/indonesia/east-java/nganjuk/nganjuk-east-318337","streamStatus":"public-page","streamUrl":"https://opencctv.org/cameras/indonesia/east-java/nganjuk/nganjuk-east-318337","updatedAt":"2026-08-11T15:20:39.770Z","verification":"public-directory-live"},"type":"Feature"},{"geometry":{"coordinates":[112.08115,-7.58388],"type":"Point"},"id":"cctv-national-24c72111a638d1a9a0fe09af","properties":{"address":"East Java","attribution":"Sumber publik: Sumber publik terindeks OpenCCTV","catalogSourceKey":"national-public-directory-live","city":"East Java","kind":"cctv","mediaFormat":"iframe","mimeType":"","name":"Kertosono › East","operator":"Sumber publik terindeks OpenCCTV","province":"Jawa Timur","publicUrl":"https://opencctv.org/cameras/indonesia/east-java/kertosono/kertosono-east-317865","region":"Jawa Timur","source":"Sumber publik terindeks OpenCCTV","sourceId":"cctv:24c72111a638d1a9a0fe09af","sourceUrl":"https://opencctv.org/cameras/indonesia/east-java/kertosono/kertosono-east-317865","streamStatus":"public-page","streamUrl":"https://opencctv.org/cameras/indonesia/east-java/kertosono/kertosono-east-317865","updatedAt":"2026-08-11T15:20:39.765Z","verification":"public-directory-live"},"type":"Feature"},{"geometry":{"coordinates":[112.11104,-7.58013],"type":"Point"},"id":"cctv-national-282b9166c2609634247af937","properties":{"address":"East Java","attribution":"Sumber publik: Sumber publik terindeks OpenCCTV","catalogSourceKey":"national-public-directory-live","city":"East Java","kind":"cctv","mediaFormat":"iframe","mimeType":"","name":"Kertosono › North: SDN LESTARI 1","operator":"Sumber publik terindeks OpenCCTV","province":"Jawa Timur","publicUrl":"https://opencctv.org/cameras/indonesia/east-java/kertosono/kertosono-north-sdn-lestari-1-317510","region":"Jawa Timur","source":"Sumber publik terindeks OpenCCTV","sourceId":"cctv:282b9166c2609634247af937","sourceUrl":"https://opencctv.org/cameras/indonesia/east-java/kertosono/kertosono-north-sdn-lestari-1-317510","streamStatus":"public-page","streamUrl":"https://opencctv.org/cameras/indonesia/east-java/kertosono/kertosono-north-sdn-lestari-1-317510","updatedAt":"2026-08-11T15:20:39.765Z","verification":"public-directory-live"},"type":"Feature"},{"geometry":{"coordinates":[111.90468,-7.59],"type":"Point"},"id":"cctv-national-2aed8be55027a096c8458d19","properties":{"address":"East Java","attribution":"Sumber publik: Sumber publik terindeks OpenCCTV","catalogSourceKey":"national-public-directory-live","city":"East Java","kind":"cctv","mediaFormat":"iframe","mimeType":"","name":"Nganjuk › North","operator":"Sumber publik terindeks OpenCCTV","province":"Jawa Timur","publicUrl":"https://opencctv.org/cameras/indonesia/east-java/nganjuk/nganjuk-north-318304","region":"Jawa Timur","source":"Sumber publik terindeks OpenCCTV","sourceId":"cctv:2aed8be55027a096c8458d19","sourceUrl":"https://opencctv.org/cameras/indonesia/east-java/nganjuk/nganjuk-north-318304","streamStatus":"public-page","streamUrl":"https://opencctv.org/cameras/indonesia/east-java/nganjuk/nganjuk-north-318304","updatedAt":"2026-08-11T15:20:39.770Z","verification":"public-directory-live"},"type":"Feature"},{"geometry":{"coordinates":[111.87721,-7.6026],"type":"Point"},"id":"cctv-national-2bff3044fbe37811305b9a6c","properties":{"address":"East Java","attribution":"Sumber publik: Sumber publik terindeks OpenCCTV","catalogSourceKey":"national-public-directory-live","city":"East Java","kind":"cctv","mediaFormat":"iframe","mimeType":"","name":"Nganjuk","operator":"Sumber publik terindeks OpenCCTV","province":"Jawa Timur","publicUrl":"https://opencctv.org/cameras/indonesia/east-java/nganjuk/nganjuk-318550","region":"Jawa Timur","source":"Sumber publik terindeks OpenCCTV","sourceId":"cctv:2bff3044fbe37811305b9a6c","sourceUrl":"https://opencctv.org/cameras/indonesia/east-java/nganjuk/nganjuk-318550","streamStatus":"public-page","streamUrl":"https://opencctv.org/cameras/indonesia/east-java/nganjuk/nganjuk-318550","updatedAt":"2026-08-11T15:20:39.770Z","verification":"public-directory-live"},"type":"Feature"},{"geometry":{"coordinates":[111.90845,-7.67439],"type":"Point"},"id":"cctv-national-2c0d4d6b74a097be428dd58c","properties":{"address":"East Java","attribution":"Sumber publik: Sumber publik terindeks OpenCCTV","catalogSourceKey":"national-public-directory-live","city":"East Java","kind":"cctv","mediaFormat":"iframe","mimeType":"","name":"Nganjuk","operator":"Sumber publik terindeks OpenCCTV","province":"Jawa Timur","publicUrl":"https://opencctv.org/cameras/indonesia/east-java/nganjuk/nganjuk-318250","region":"Jawa Timur","source":"Sumber publik terindeks OpenCCTV","sourceId":"cctv:2c0d4d6b74a097be428dd58c","sourceUrl":"https://opencctv.org/cameras/indonesia/east-java/nganjuk/nganjuk-318250","streamStatus":"public-page","streamUrl":"https://opencctv.org/cameras/indonesia/east-java/nganjuk/nganjuk-318250","updatedAt":"2026-08-11T15:20:39.770Z","verification":"public-directory-live"},"type":"Feature"},{"geometry":{"coordinates":[111.87412,-7.6322],"type":"Point"},"id":"cctv-national-33ff6981be1d2eaba808fb2a","properties":{"address":"East Java","attribution":"Sumber publik: Sumber publik terindeks OpenCCTV","catalogSourceKey":"national-public-directory-live","city":"East Java","kind":"cctv","mediaFormat":"iframe","mimeType":"","name":"Nganjuk › West","operator":"Sumber publik terindeks OpenCCTV","province":"Jawa Timur","publicUrl":"https://opencctv.org/cameras/indonesia/east-java/nganjuk/nganjuk-west-318592","region":"Jawa Timur","source":"Sumber publik terindeks OpenCCTV","sourceId":"cctv:33ff6981be1d2eaba808fb2a","sourceUrl":"https://opencctv.org/cameras/indonesia/east-java/nganjuk/nganjuk-west-318592","streamStatus":"public-page","streamUrl":"https://opencctv.org/cameras/indonesia/east-java/nganjuk/nganjuk-west-318592","updatedAt":"2026-08-11T15:20:39.770Z","verification":"public-directory-live"},"type":"Feature"},{"geometry":{"coordinates":[111.91669,-7.58932],"type":"Point"},"id":"cctv-national-34cc23dc78ae9d369df1b574","properties":{"address":"East Java","attribution":"Sumber publik: Sumber publik terindeks OpenCCTV","catalogSourceKey":"national-public-directory-live","city":"East Java","kind":"cctv","mediaFormat":"iframe","mimeType":"","name":"Nganjuk › South","operator":"Sumber publik terindeks OpenCCTV","province":"Jawa Timur","publicUrl":"https://opencctv.org/cameras/indonesia/east-java/nganjuk/nganjuk-south-318543","region":"Jawa Timur","source":"Sumber publik terindeks OpenCCTV","sourceId":"cctv:34cc23dc78ae9d369df1b574","sourceUrl":"https://opencctv.org/cameras/indonesia/east-java/nganjuk/nganjuk-south-318543","streamStatus":"public-page","streamUrl":"https://opencctv.org/cameras/indonesia/east-java/nganjuk/nganjuk-south-318543","updatedAt":"2026-08-11T15:20:39.770Z","verification":"public-directory-live"},"type":"Feature"},{"geometry":{"coordinates":[111.92631,-7.68154],"type":"Point"},"id":"cctv-national-351d43b529a3ca8801e45bc8","properties":{"address":"East Java","attribution":"Sumber publik: Sumber publik terindeks OpenCCTV","catalogSourceKey":"national-public-directory-live","city":"East Java","kind":"cctv","mediaFormat":"iframe","mimeType":"","name":"Nganjuk › South","operator":"Sumber publik terindeks OpenCCTV","province":"Jawa Timur","publicUrl":"https://opencctv.org/cameras/indonesia/east-java/nganjuk/nganjuk-south-317601","region":"Jawa Timur","source":"Sumber publik terindeks OpenCCTV","sourceId":"cctv:351d43b529a3ca8801e45bc8","sourceUrl":"https://opencctv.org/cameras/indonesia/east-java/nganjuk/nganjuk-south-317601","streamStatus":"public-page","streamUrl":"https://opencctv.org/cameras/indonesia/east-java/nganjuk/nganjuk-south-317601","updatedAt":"2026-08-11T15:20:39.770Z","verification":"public-directory-live"},"type":"Feature"},{"geometry":{"coordinates":[111.92631,-7.68154],"type":"Point"},"id":"cctv-national-3751ca2b8ff468a0c4f2161f","properties":{"address":"East Java","attribution":"Sumber publik: Sumber publik terindeks OpenCCTV","catalogSourceKey":"national-public-directory-live","city":"East Java","kind":"cctv","mediaFormat":"iframe","mimeType":"","name":"Nganjuk › East","operator":"Sumber publik terindeks OpenCCTV","province":"Jawa Timur","publicUrl":"https://opencctv.org/cameras/indonesia/east-java/nganjuk/nganjuk-east-317692","region":"Jawa Timur","source":"Sumber publik terindeks OpenCCTV","sourceId":"cctv:3751ca2b8ff468a0c4f2161f","sourceUrl":"https://opencctv.org/cameras/indonesia/east-java/nganjuk/nganjuk-east-317692","streamStatus":"public-page","streamUrl":"https://opencctv.org/cameras/indonesia/east-java/nganjuk/nganjuk-east-317692","updatedAt":"2026-08-11T15:20:39.770Z","verification":"public-directory-live"},"type":"Feature"},{"geometry":{"coordinates":[111.99154,-7.57027],"type":"Point"},"id":"cctv-national-391b0e3c1292e36d105a75f1","properties":{"address":"East Java","attribution":"Sumber publik: Sumber publik terindeks OpenCCTV","catalogSourceKey":"national-public-directory-live","city":"East Java","kind":"cctv","mediaFormat":"iframe","mimeType":"","name":"Lengkong","operator":"Sumber publik terindeks OpenCCTV","province":"Jawa Timur","publicUrl":"https://opencctv.org/cameras/indonesia/east-java/lengkong/lengkong-318408","region":"Jawa Timur","source":"Sumber publik terindeks OpenCCTV","sourceId":"cctv:391b0e3c1292e36d105a75f1","sourceUrl":"https://opencctv.org/cameras/indonesia/east-java/lengkong/lengkong-318408","streamStatus":"public-page","streamUrl":"https://opencctv.org/cameras/indonesia/east-java/lengkong/lengkong-318408","updatedAt":"2026-08-11T15:20:39.766Z","verification":"public-directory-live"},"type":"Feature"},{"geometry":{"coordinates":[112.09917,-7.62411],"type":"Point"},"id":"cctv-national-3d5e2d9be7626ab40509bdd6","properties":{"address":"East Java","attribution":"Sumber publik: Sumber publik terindeks OpenCCTV","catalogSourceKey":"national-public-directory-live","city":"East Java","kind":"cctv","mediaFormat":"iframe","mimeType":"","name":"Kertosono › West: Panti Asuhan Putra Muhammadiyah","operator":"Sumber publik terindeks OpenCCTV","province":"Jawa Timur","publicUrl":"https://opencctv.org/cameras/indonesia/east-java/kertosono/kertosono-west-panti-asuhan-putra-muhammadiyah-315106","region":"Jawa Timur","source":"Sumber publik terindeks OpenCCTV","sourceId":"cctv:3d5e2d9be7626ab40509bdd6","sourceUrl":"https://opencctv.org/cameras/indonesia/east-java/kertosono/kertosono-west-panti-asuhan-putra-muhammadiyah-315106","streamStatus":"public-page","streamUrl":"https://opencctv.org/cameras/indonesia/east-java/kertosono/kertosono-west-panti-asuhan-putra-muhammadiyah-315106","updatedAt":"2026-08-11T15:20:39.765Z","verification":"public-directory-live"},"type":"Feature"},{"geometry":{"coordinates":[112.08321,-7.58456],"type":"Point"},"id":"cctv-national-3f515e91451b313fa0d3a255","properties":{"address":"East Java","attribution":"Sumber publik: Sumber publik terindeks OpenCCTV","catalogSourceKey":"national-public-directory-live","city":"East Java","kind":"cctv","mediaFormat":"iframe","mimeType":"","name":"Kertosono › West","operator":"Sumber publik terindeks OpenCCTV","province":"Jawa Timur","publicUrl":"https://opencctv.org/cameras/indonesia/east-java/kertosono/kertosono-west-317531","region":"Jawa Timur","source":"Sumber publik terindeks OpenCCTV","sourceId":"cctv:3f515e91451b313fa0d3a255","sourceUrl":"https://opencctv.org/cameras/indonesia/east-java/kertosono/kertosono-west-317531","streamStatus":"public-page","streamUrl":"https://opencctv.org/cameras/indonesia/east-java/kertosono/kertosono-west-317531","updatedAt":"2026-08-11T15:20:39.765Z","verification":"public-directory-live"},"type":"Feature"},{"geometry":{"coordinates":[111.98776,-7.7159],"type":"Point"},"id":"cctv-national-3ff4d34cc37b386997826e40","properties":{"address":"East Java","attribution":"Sumber publik: Sumber publik terindeks OpenCCTV","catalogSourceKey":"national-public-directory-live","city":"East Java","kind":"cctv","mediaFormat":"iframe","mimeType":"","name":"Kediri › North","operator":"Sumber publik terindeks OpenCCTV","province":"Jawa Timur","publicUrl":"https://opencctv.org/cameras/indonesia/east-java/kediri/kediri-north-316052","region":"Jawa Timur","source":"Sumber publik terindeks OpenCCTV","sourceId":"cctv:3ff4d34cc37b386997826e40","sourceUrl":"https://opencctv.org/cameras/indonesia/east-java/kediri/kediri-north-316052","streamStatus":"public-page","streamUrl":"https://opencctv.org/cameras/indonesia/east-java/kediri/kediri-north-316052","updatedAt":"2026-08-11T15:20:39.764Z","verification":"public-directory-live"},"type":"Feature"},{"geometry":{"coordinates":[111.87447,-7.63186],"type":"Point"},"id":"cctv-national-44f22e1fb997fab97db4c913","properties":{"address":"East Java","attribution":"Sumber publik: Sumber publik terindeks OpenCCTV","catalogSourceKey":"national-public-directory-live","city":"East Java","kind":"cctv","mediaFormat":"iframe","mimeType":"","name":"Nganjuk › North","operator":"Sumber publik terindeks OpenCCTV","province":"Jawa Timur","publicUrl":"https://opencctv.org/cameras/indonesia/east-java/nganjuk/nganjuk-north-318664","region":"Jawa Timur","source":"Sumber publik terindeks OpenCCTV","sourceId":"cctv:44f22e1fb997fab97db4c913","sourceUrl":"https://opencctv.org/cameras/indonesia/east-java/nganjuk/nganjuk-north-318664","streamStatus":"public-page","streamUrl":"https://opencctv.org/cameras/indonesia/east-java/nganjuk/nganjuk-north-318664","updatedAt":"2026-08-11T15:20:39.770Z","verification":"public-directory-live"},"type":"Feature"},{"geometry":{"coordinates":[111.9912,-7.57027],"type":"Point"},"id":"cctv-national-45029d1e10a27a5f8db09436","properties":{"address":"East Java","attribution":"Sumber publik: Sumber publik terindeks OpenCCTV","catalogSourceKey":"national-public-directory-live","city":"East Java","kind":"cctv","mediaFormat":"iframe","mimeType":"","name":"Lengkong › East","operator":"Sumber publik terindeks OpenCCTV","province":"Jawa Timur","publicUrl":"https://opencctv.org/cameras/indonesia/east-java/lengkong/lengkong-east-318593","region":"Jawa Timur","source":"Sumber publik terindeks OpenCCTV","sourceId":"cctv:45029d1e10a27a5f8db09436","sourceUrl":"https://opencctv.org/cameras/indonesia/east-java/lengkong/lengkong-east-318593","streamStatus":"public-page","streamUrl":"https://opencctv.org/cameras/indonesia/east-java/lengkong/lengkong-east-318593","updatedAt":"2026-08-11T15:20:39.766Z","verification":"public-directory-live"},"type":"Feature"},{"geometry":{"coordinates":[111.91635,-7.58898],"type":"Point"},"id":"cctv-national-47def7d0f0b93ee7cd660fca","properties":{"address":"East Java","attribution":"Sumber publik: Sumber publik terindeks OpenCCTV","catalogSourceKey":"national-public-directory-live","city":"East Java","kind":"cctv","mediaFormat":"iframe","mimeType":"","name":"Nganjuk › South","operator":"Sumber publik terindeks OpenCCTV","province":"Jawa Timur","publicUrl":"https://opencctv.org/cameras/indonesia/east-java/nganjuk/nganjuk-south-318609","region":"Jawa Timur","source":"Sumber publik terindeks OpenCCTV","sourceId":"cctv:47def7d0f0b93ee7cd660fca","sourceUrl":"https://opencctv.org/cameras/indonesia/east-java/nganjuk/nganjuk-south-318609","streamStatus":"public-page","streamUrl":"https://opencctv.org/cameras/indonesia/east-java/nganjuk/nganjuk-south-318609","updatedAt":"2026-08-11T15:20:39.770Z","verification":"public-directory-live"},"type":"Feature"},{"geometry":{"coordinates":[111.9912,-7.57027],"type":"Point"},"id":"cctv-national-49f6210e3b7116d856ac15c5","properties":{"address":"East Java","attribution":"Sumber publik: Sumber publik terindeks OpenCCTV","catalogSourceKey":"national-public-directory-live","city":"East Java","kind":"cctv","mediaFormat":"iframe","mimeType":"","name":"Lengkong › North","operator":"Sumber publik terindeks OpenCCTV","province":"Jawa Timur","publicUrl":"https://opencctv.org/cameras/indonesia/east-java/lengkong/lengkong-north-318514","region":"Jawa Timur","source":"Sumber publik terindeks OpenCCTV","sourceId":"cctv:49f6210e3b7116d856ac15c5","sourceUrl":"https://opencctv.org/cameras/indonesia/east-java/lengkong/lengkong-north-318514","streamStatus":"public-page","streamUrl":"https://opencctv.org/cameras/indonesia/east-java/lengkong/lengkong-north-318514","updatedAt":"2026-08-11T15:20:39.766Z","verification":"public-directory-live"},"type":"Feature"},{"geometry":{"coordinates":[111.84357,-7.67337],"type":"Point"},"id":"cctv-national-5a320fe996a500bb54c8aa9d","properties":{"address":"East Java","attribution":"Sumber publik: Sumber publik terindeks OpenCCTV","catalogSourceKey":"national-public-directory-live","city":"East Java","kind":"cctv","mediaFormat":"iframe","mimeType":"","name":"Nganjuk › East","operator":"Sumber publik terindeks OpenCCTV","province":"Jawa Timur","publicUrl":"https://opencctv.org/cameras/indonesia/east-java/nganjuk/nganjuk-east-318168","region":"Jawa Timur","source":"Sumber publik terindeks OpenCCTV","sourceId":"cctv:5a320fe996a500bb54c8aa9d","sourceUrl":"https://opencctv.org/cameras/indonesia/east-java/nganjuk/nganjuk-east-318168","streamStatus":"public-page","streamUrl":"https://opencctv.org/cameras/indonesia/east-java/nganjuk/nganjuk-east-318168","updatedAt":"2026-08-11T15:20:39.770Z","verification":"public-directory-live"},"type":"Feature"},{"geometry":{"coordinates":[111.90468,-7.58218],"type":"Point"},"id":"cctv-national-5adfc54baa78e022970a6c42","properties":{"address":"East Java","attribution":"Sumber publik: Sumber publik terindeks OpenCCTV","catalogSourceKey":"national-public-directory-live","city":"East Java","kind":"cctv","mediaFormat":"iframe","mimeType":"","name":"Nganjuk › West","operator":"Sumber publik terindeks OpenCCTV","province":"Jawa Timur","publicUrl":"https://opencctv.org/cameras/indonesia/east-java/nganjuk/nganjuk-west-317955","region":"Jawa Timur","source":"Sumber publik terindeks OpenCCTV","sourceId":"cctv:5adfc54baa78e022970a6c42","sourceUrl":"https://opencctv.org/cameras/indonesia/east-java/nganjuk/nganjuk-west-317955","streamStatus":"public-page","streamUrl":"https://opencctv.org/cameras/indonesia/east-java/nganjuk/nganjuk-west-317955","updatedAt":"2026-08-11T15:20:39.770Z","verification":"public-directory-live"},"type":"Feature"},{"geometry":{"coordinates":[112.1108,-7.58212],"type":"Point"},"id":"cctv-national-5f33dfad55fbf4c286106bb2","properties":{"address":"East Java","attribution":"Sumber publik: Sumber publik terindeks OpenCCTV","catalogSourceKey":"national-public-directory-live","city":"East Java","kind":"cctv","mediaFormat":"iframe","mimeType":"","name":"Kertosono › South: Bu Desi","operator":"Sumber publik terindeks OpenCCTV","province":"Jawa Timur","publicUrl":"https://opencctv.org/cameras/indonesia/east-java/kertosono/kertosono-south-bu-desi-316323","region":"Jawa Timur","source":"Sumber publik terindeks OpenCCTV","sourceId":"cctv:5f33dfad55fbf4c286106bb2","sourceUrl":"https://opencctv.org/cameras/indonesia/east-java/kertosono/kertosono-south-bu-desi-316323","streamStatus":"public-page","streamUrl":"https://opencctv.org/cameras/indonesia/east-java/kertosono/kertosono-south-bu-desi-316323","updatedAt":"2026-08-11T15:20:39.765Z","verification":"public-directory-live"},"type":"Feature"},{"geometry":{"coordinates":[112.06707,-7.64513],"type":"Point"},"id":"cctv-national-5f3df275b7ee6c9708b13585","properties":{"address":"East Java","attribution":"Sumber publik: Sumber publik terindeks OpenCCTV","catalogSourceKey":"national-public-directory-live","city":"East Java","kind":"cctv","mediaFormat":"iframe","mimeType":"","name":"Kertosono › West","operator":"Sumber publik terindeks OpenCCTV","province":"Jawa Timur","publicUrl":"https://opencctv.org/cameras/indonesia/east-java/kertosono/kertosono-west-317556","region":"Jawa Timur","source":"Sumber publik terindeks OpenCCTV","sourceId":"cctv:5f3df275b7ee6c9708b13585","sourceUrl":"https://opencctv.org/cameras/indonesia/east-java/kertosono/kertosono-west-317556","streamStatus":"public-page","streamUrl":"https://opencctv.org/cameras/indonesia/east-java/kertosono/kertosono-west-317556","updatedAt":"2026-08-11T15:20:39.765Z","verification":"public-directory-live"},"type":"Feature"},{"geometry":{"coordinates":[111.90468,-7.58218],"type":"Point"},"id":"cctv-national-5ff158af6c8feef7aee74704","properties":{"address":"East Java","attribution":"Sumber publik: Sumber publik terindeks OpenCCTV","catalogSourceKey":"national-public-directory-live","city":"East Java","kind":"cctv","mediaFormat":"iframe","mimeType":"","name":"Nganjuk › South","operator":"Sumber publik terindeks OpenCCTV","province":"Jawa Timur","publicUrl":"https://opencctv.org/cameras/indonesia/east-java/nganjuk/nganjuk-south-317993","region":"Jawa Timur","source":"Sumber publik terindeks OpenCCTV","sourceId":"cctv:5ff158af6c8feef7aee74704","sourceUrl":"https://opencctv.org/cameras/indonesia/east-java/nganjuk/nganjuk-south-317993","streamStatus":"public-page","streamUrl":"https://opencctv.org/cameras/indonesia/east-java/nganjuk/nganjuk-south-317993","updatedAt":"2026-08-11T15:20:39.770Z","verification":"public-directory-live"},"type":"Feature"},{"geometry":{"coordinates":[111.86932,-7.64445],"type":"Point"},"id":"cctv-national-60aacfe327d3232caf4549d6","properties":{"address":"East Java","attribution":"Sumber publik: Sumber publik terindeks OpenCCTV","catalogSourceKey":"national-public-directory-live","city":"East Java","kind":"cctv","mediaFormat":"iframe","mimeType":"","name":"Nganjuk: Sendang Bumen","operator":"Sumber publik terindeks OpenCCTV","province":"Jawa Timur","publicUrl":"https://opencctv.org/cameras/indonesia/east-java/nganjuk/nganjuk-sendang-bumen-318618","region":"Jawa Timur","source":"Sumber publik terindeks OpenCCTV","sourceId":"cctv:60aacfe327d3232caf4549d6","sourceUrl":"https://opencctv.org/cameras/indonesia/east-java/nganjuk/nganjuk-sendang-bumen-318618","streamStatus":"public-page","streamUrl":"https://opencctv.org/cameras/indonesia/east-java/nganjuk/nganjuk-sendang-bumen-318618","updatedAt":"2026-08-11T15:20:39.770Z","verification":"public-directory-live"},"type":"Feature"},{"geometry":{"coordinates":[112.01591,-7.63969],"type":"Point"},"id":"cctv-national-61f109da979b551e0d87d64d","properties":{"address":"East Java","attribution":"Sumber publik: Sumber publik terindeks OpenCCTV","catalogSourceKey":"national-public-directory-live","city":"East Java","kind":"cctv","mediaFormat":"iframe","mimeType":"","name":"Kertosono › North","operator":"Sumber publik terindeks OpenCCTV","province":"Jawa Timur","publicUrl":"https://opencctv.org/cameras/indonesia/east-java/kertosono/kertosono-north-317982","region":"Jawa Timur","source":"Sumber publik terindeks OpenCCTV","sourceId":"cctv:61f109da979b551e0d87d64d","sourceUrl":"https://opencctv.org/cameras/indonesia/east-java/kertosono/kertosono-north-317982","streamStatus":"public-page","streamUrl":"https://opencctv.org/cameras/indonesia/east-java/kertosono/kertosono-north-317982","updatedAt":"2026-08-11T15:20:39.765Z","verification":"public-directory-live"},"type":"Feature"},{"geometry":{"coordinates":[111.87756,-7.65262],"type":"Point"},"id":"cctv-national-625ad5eb6f4fe10cf588cc0c","properties":{"address":"East Java","attribution":"Sumber publik: Sumber publik terindeks OpenCCTV","catalogSourceKey":"national-public-directory-live","city":"East Java","kind":"cctv","mediaFormat":"iframe","mimeType":"","name":"Nganjuk","operator":"Sumber publik terindeks OpenCCTV","province":"Jawa Timur","publicUrl":"https://opencctv.org/cameras/indonesia/east-java/nganjuk/nganjuk-318251","region":"Jawa Timur","source":"Sumber publik terindeks OpenCCTV","sourceId":"cctv:625ad5eb6f4fe10cf588cc0c","sourceUrl":"https://opencctv.org/cameras/indonesia/east-java/nganjuk/nganjuk-318251","streamStatus":"public-page","streamUrl":"https://opencctv.org/cameras/indonesia/east-java/nganjuk/nganjuk-318251","updatedAt":"2026-08-11T15:20:39.770Z","verification":"public-directory-live"},"type":"Feature"},{"geometry":{"coordinates":[112.01797,-7.68766],"type":"Point"},"id":"cctv-national-628ee3049af7866684893502","properties":{"address":"East Java","attribution":"Sumber publik: Sumber publik terindeks OpenCCTV","catalogSourceKey":"national-public-directory-live","city":"East Java","kind":"cctv","mediaFormat":"iframe","mimeType":"","name":"Pagu › South","operator":"Sumber publik terindeks OpenCCTV","province":"Jawa Timur","publicUrl":"https://opencctv.org/cameras/indonesia/east-java/pagu/pagu-south-316662","region":"Jawa Timur","source":"Sumber publik terindeks OpenCCTV","sourceId":"cctv:628ee3049af7866684893502","sourceUrl":"https://opencctv.org/cameras/indonesia/east-java/pagu/pagu-south-316662","streamStatus":"public-page","streamUrl":"https://opencctv.org/cameras/indonesia/east-java/pagu/pagu-south-316662","updatedAt":"2026-08-11T15:20:39.770Z","verification":"public-directory-live"},"type":"Feature"},{"geometry":{"coordinates":[112.01797,-7.68732],"type":"Point"},"id":"cctv-national-65a24e7e30ab1460238622ee","properties":{"address":"East Java","attribution":"Sumber publik: Sumber publik terindeks OpenCCTV","catalogSourceKey":"national-public-directory-live","city":"East Java","kind":"cctv","mediaFormat":"iframe","mimeType":"","name":"Pagu › North","operator":"Sumber publik terindeks OpenCCTV","province":"Jawa Timur","publicUrl":"https://opencctv.org/cameras/indonesia/east-java/pagu/pagu-north-317008","region":"Jawa Timur","source":"Sumber publik terindeks OpenCCTV","sourceId":"cctv:65a24e7e30ab1460238622ee","sourceUrl":"https://opencctv.org/cameras/indonesia/east-java/pagu/pagu-north-317008","streamStatus":"public-page","streamUrl":"https://opencctv.org/cameras/indonesia/east-java/pagu/pagu-north-317008","updatedAt":"2026-08-11T15:20:39.770Z","verification":"public-directory-live"},"type":"Feature"},{"geometry":{"coordinates":[111.90399,-7.58864],"type":"Point"},"id":"cctv-national-670d6bc01815388251a2998e","properties":{"address":"East Java","attribution":"Sumber publik: Sumber publik terindeks OpenCCTV","catalogSourceKey":"national-public-directory-live","city":"East Java","kind":"cctv","mediaFormat":"iframe","mimeType":"","name":"Nganjuk › West","operator":"Sumber publik terindeks OpenCCTV","province":"Jawa Timur","publicUrl":"https://opencctv.org/cameras/indonesia/east-java/nganjuk/nganjuk-west-318110","region":"Jawa Timur","source":"Sumber publik terindeks OpenCCTV","sourceId":"cctv:670d6bc01815388251a2998e","sourceUrl":"https://opencctv.org/cameras/indonesia/east-java/nganjuk/nganjuk-west-318110","streamStatus":"public-page","streamUrl":"https://opencctv.org/cameras/indonesia/east-java/nganjuk/nganjuk-west-318110","updatedAt":"2026-08-11T15:20:39.770Z","verification":"public-directory-live"},"type":"Feature"},{"geometry":{"coordinates":[111.82434,-7.56176],"type":"Point"},"id":"cctv-national-68316ce905bb5e8f58c6f190","properties":{"address":"East Java","attribution":"Sumber publik: Sumber publik terindeks OpenCCTV","catalogSourceKey":"national-public-directory-live","city":"East Java","kind":"cctv","mediaFormat":"iframe","mimeType":"","name":"Nganjuk › South","operator":"Sumber publik terindeks OpenCCTV","province":"Jawa Timur","publicUrl":"https://opencctv.org/cameras/indonesia/east-java/nganjuk/nganjuk-south-318470","region":"Jawa Timur","source":"Sumber publik terindeks OpenCCTV","sourceId":"cctv:68316ce905bb5e8f58c6f190","sourceUrl":"https://opencctv.org/cameras/indonesia/east-java/nganjuk/nganjuk-south-318470","streamStatus":"public-page","streamUrl":"https://opencctv.org/cameras/indonesia/east-java/nganjuk/nganjuk-south-318470","updatedAt":"2026-08-11T15:20:39.770Z","verification":"public-directory-live"},"type":"Feature"},{"geometry":{"coordinates":[112.11082,-7.582],"type":"Point"},"id":"cctv-national-6f08dd74b380d13a6e8f37e6","properties":{"address":"East Java","attribution":"Sumber publik: Sumber publik terindeks OpenCCTV","catalogSourceKey":"national-public-directory-live","city":"East Java","kind":"cctv","mediaFormat":"iframe","mimeType":"","name":"Kertosono › North: Bu Desi","operator":"Sumber publik terindeks OpenCCTV","province":"Jawa Timur","publicUrl":"https://opencctv.org/cameras/indonesia/east-java/kertosono/kertosono-north-bu-desi-317874","region":"Jawa Timur","source":"Sumber publik terindeks OpenCCTV","sourceId":"cctv:6f08dd74b380d13a6e8f37e6","sourceUrl":"https://opencctv.org/cameras/indonesia/east-java/kertosono/kertosono-north-bu-desi-317874","streamStatus":"public-page","streamUrl":"https://opencctv.org/cameras/indonesia/east-java/kertosono/kertosono-north-bu-desi-317874","updatedAt":"2026-08-11T15:20:39.765Z","verification":"public-directory-live"},"type":"Feature"},{"geometry":{"coordinates":[111.91669,-7.58932],"type":"Point"},"id":"cctv-national-6f85ae3a9ff34ddca00915d6","properties":{"address":"East Java","attribution":"Sumber publik: Sumber publik terindeks OpenCCTV","catalogSourceKey":"national-public-directory-live","city":"East Java","kind":"cctv","mediaFormat":"iframe","mimeType":"","name":"Nganjuk › East: Taman Kota Pandan Wilis","operator":"Sumber publik terindeks OpenCCTV","province":"Jawa Timur","publicUrl":"https://opencctv.org/cameras/indonesia/east-java/nganjuk/nganjuk-east-taman-kota-pandan-wilis-317828","region":"Jawa Timur","source":"Sumber publik terindeks OpenCCTV","sourceId":"cctv:6f85ae3a9ff34ddca00915d6","sourceUrl":"https://opencctv.org/cameras/indonesia/east-java/nganjuk/nganjuk-east-taman-kota-pandan-wilis-317828","streamStatus":"public-page","streamUrl":"https://opencctv.org/cameras/indonesia/east-java/nganjuk/nganjuk-east-taman-kota-pandan-wilis-317828","updatedAt":"2026-08-11T15:20:39.770Z","verification":"public-directory-live"},"type":"Feature"},{"geometry":{"coordinates":[111.84631,-7.67303],"type":"Point"},"id":"cctv-national-71c215efedeb9031f7d254a5","properties":{"address":"East Java","attribution":"Sumber publik: Sumber publik terindeks OpenCCTV","catalogSourceKey":"national-public-directory-live","city":"East Java","kind":"cctv","mediaFormat":"iframe","mimeType":"","name":"Nganjuk","operator":"Sumber publik terindeks OpenCCTV","province":"Jawa Timur","publicUrl":"https://opencctv.org/cameras/indonesia/east-java/nganjuk/nganjuk-318371","region":"Jawa Timur","source":"Sumber publik terindeks OpenCCTV","sourceId":"cctv:71c215efedeb9031f7d254a5","sourceUrl":"https://opencctv.org/cameras/indonesia/east-java/nganjuk/nganjuk-318371","streamStatus":"public-page","streamUrl":"https://opencctv.org/cameras/indonesia/east-java/nganjuk/nganjuk-318371","updatedAt":"2026-08-11T15:20:39.770Z","verification":"public-directory-live"},"type":"Feature"},{"geometry":{"coordinates":[111.87996,-7.65432],"type":"Point"},"id":"cctv-national-751adf75d2cc05e651af9f93","properties":{"address":"East Java","attribution":"Sumber publik: Sumber publik terindeks OpenCCTV","catalogSourceKey":"national-public-directory-live","city":"East Java","kind":"cctv","mediaFormat":"iframe","mimeType":"","name":"Nganjuk","operator":"Sumber publik terindeks OpenCCTV","province":"Jawa Timur","publicUrl":"https://opencctv.org/cameras/indonesia/east-java/nganjuk/nganjuk-318181","region":"Jawa Timur","source":"Sumber publik terindeks OpenCCTV","sourceId":"cctv:751adf75d2cc05e651af9f93","sourceUrl":"https://opencctv.org/cameras/indonesia/east-java/nganjuk/nganjuk-318181","streamStatus":"public-page","streamUrl":"https://opencctv.org/cameras/indonesia/east-java/nganjuk/nganjuk-318181","updatedAt":"2026-08-11T15:20:39.770Z","verification":"public-directory-live"},"type":"Feature"},{"geometry":{"coordinates":[111.89438,-7.63833],"type":"Point"},"id":"cctv-national-7ab69d28f2b4981d5acef8df","properties":{"address":"East Java","attribution":"Sumber publik: Sumber publik terindeks OpenCCTV","catalogSourceKey":"national-public-directory-live","city":"East Java","kind":"cctv","mediaFormat":"iframe","mimeType":"","name":"Nganjuk › South","operator":"Sumber publik terindeks OpenCCTV","province":"Jawa Timur","publicUrl":"https://opencctv.org/cameras/indonesia/east-java/nganjuk/nganjuk-south-318518","region":"Jawa Timur","source":"Sumber publik terindeks OpenCCTV","sourceId":"cctv:7ab69d28f2b4981d5acef8df","sourceUrl":"https://opencctv.org/cameras/indonesia/east-java/nganjuk/nganjuk-south-318518","streamStatus":"public-page","streamUrl":"https://opencctv.org/cameras/indonesia/east-java/nganjuk/nganjuk-south-318518","updatedAt":"2026-08-11T15:20:39.770Z","verification":"public-directory-live"},"type":"Feature"},{"geometry":{"coordinates":[111.84357,-7.67337],"type":"Point"},"id":"cctv-national-809d53143c03e8740d5b9f9a","properties":{"address":"East Java","attribution":"Sumber publik: Sumber publik terindeks OpenCCTV","catalogSourceKey":"national-public-directory-live","city":"East Java","kind":"cctv","mediaFormat":"iframe","mimeType":"","name":"Nganjuk › South","operator":"Sumber publik terindeks OpenCCTV","province":"Jawa Timur","publicUrl":"https://opencctv.org/cameras/indonesia/east-java/nganjuk/nganjuk-south-318203","region":"Jawa Timur","source":"Sumber publik terindeks OpenCCTV","sourceId":"cctv:809d53143c03e8740d5b9f9a","sourceUrl":"https://opencctv.org/cameras/indonesia/east-java/nganjuk/nganjuk-south-318203","streamStatus":"public-page","streamUrl":"https://opencctv.org/cameras/indonesia/east-java/nganjuk/nganjuk-south-318203","updatedAt":"2026-08-11T15:20:39.770Z","verification":"public-directory-live"},"type":"Feature"},{"geometry":{"coordinates":[111.91635,-7.58864],"type":"Point"},"id":"cctv-national-8580e467fddabcff2ead6153","properties":{"address":"East Java","attribution":"Sumber publik: Sumber publik terindeks OpenCCTV","catalogSourceKey":"national-public-directory-live","city":"East Java","kind":"cctv","mediaFormat":"iframe","mimeType":"","name":"Nganjuk › North: Taman Kota Pandan Wilis","operator":"Sumber publik terindeks OpenCCTV","province":"Jawa Timur","publicUrl":"https://opencctv.org/cameras/indonesia/east-java/nganjuk/nganjuk-north-taman-kota-pandan-wilis-318294","region":"Jawa Timur","source":"Sumber publik terindeks OpenCCTV","sourceId":"cctv:8580e467fddabcff2ead6153","sourceUrl":"https://opencctv.org/cameras/indonesia/east-java/nganjuk/nganjuk-north-taman-kota-pandan-wilis-318294","streamStatus":"public-page","streamUrl":"https://opencctv.org/cameras/indonesia/east-java/nganjuk/nganjuk-north-taman-kota-pandan-wilis-318294","updatedAt":"2026-08-11T15:20:39.770Z","verification":"public-directory-live"},"type":"Feature"},{"geometry":{"coordinates":[111.9912,-7.57027],"type":"Point"},"id":"cctv-national-892d0d82136e0bd534019664","properties":{"address":"East Java","attribution":"Sumber publik: Sumber publik terindeks OpenCCTV","catalogSourceKey":"national-public-directory-live","city":"East Java","kind":"cctv","mediaFormat":"iframe","mimeType":"","name":"Lengkong › South","operator":"Sumber publik terindeks OpenCCTV","province":"Jawa Timur","publicUrl":"https://opencctv.org/cameras/indonesia/east-java/lengkong/lengkong-south-318524","region":"Jawa Timur","source":"Sumber publik terindeks OpenCCTV","sourceId":"cctv:892d0d82136e0bd534019664","sourceUrl":"https://opencctv.org/cameras/indonesia/east-java/lengkong/lengkong-south-318524","streamStatus":"public-page","streamUrl":"https://opencctv.org/cameras/indonesia/east-java/lengkong/lengkong-south-318524","updatedAt":"2026-08-11T15:20:39.766Z","verification":"public-directory-live"},"type":"Feature"},{"geometry":{"coordinates":[111.98776,-7.7159],"type":"Point"},"id":"cctv-national-8cdda628e2cdcf74e6d41935","properties":{"address":"East Java","attribution":"Sumber publik: Sumber publik terindeks OpenCCTV","catalogSourceKey":"national-public-directory-live","city":"East Java","kind":"cctv","mediaFormat":"iframe","mimeType":"","name":"Kediri › South","operator":"Sumber publik terindeks OpenCCTV","province":"Jawa Timur","publicUrl":"https://opencctv.org/cameras/indonesia/east-java/kediri/kediri-south-316103","region":"Jawa Timur","source":"Sumber publik terindeks OpenCCTV","sourceId":"cctv:8cdda628e2cdcf74e6d41935","sourceUrl":"https://opencctv.org/cameras/indonesia/east-java/kediri/kediri-south-316103","streamStatus":"public-page","streamUrl":"https://opencctv.org/cameras/indonesia/east-java/kediri/kediri-south-316103","updatedAt":"2026-08-11T15:20:39.764Z","verification":"public-directory-live"},"type":"Feature"},{"geometry":{"coordinates":[112.01591,-7.63935],"type":"Point"},"id":"cctv-national-91754840f70c4f39ca09eafe","properties":{"address":"East Java","attribution":"Sumber publik: Sumber publik terindeks OpenCCTV","catalogSourceKey":"national-public-directory-live","city":"East Java","kind":"cctv","mediaFormat":"iframe","mimeType":"","name":"Kertosono › South: Apotek Sumber Anom","operator":"Sumber publik terindeks OpenCCTV","province":"Jawa Timur","publicUrl":"https://opencctv.org/cameras/indonesia/east-java/kertosono/kertosono-south-apotek-sumber-anom-318071","region":"Jawa Timur","source":"Sumber publik terindeks OpenCCTV","sourceId":"cctv:91754840f70c4f39ca09eafe","sourceUrl":"https://opencctv.org/cameras/indonesia/east-java/kertosono/kertosono-south-apotek-sumber-anom-318071","streamStatus":"public-page","streamUrl":"https://opencctv.org/cameras/indonesia/east-java/kertosono/kertosono-south-apotek-sumber-anom-318071","updatedAt":"2026-08-11T15:20:39.765Z","verification":"public-directory-live"},"type":"Feature"},{"geometry":{"coordinates":[111.97369,-7.65262],"type":"Point"},"id":"cctv-national-93fe8682cb94a9f5dae945ae","properties":{"address":"East Java","attribution":"Sumber publik: Sumber publik terindeks OpenCCTV","catalogSourceKey":"national-public-directory-live","city":"East Java","kind":"cctv","mediaFormat":"iframe","mimeType":"","name":"Nganjuk › West","operator":"Sumber publik terindeks OpenCCTV","province":"Jawa Timur","publicUrl":"https://opencctv.org/cameras/indonesia/east-java/nganjuk/nganjuk-west-318117","region":"Jawa Timur","source":"Sumber publik terindeks OpenCCTV","sourceId":"cctv:93fe8682cb94a9f5dae945ae","sourceUrl":"https://opencctv.org/cameras/indonesia/east-java/nganjuk/nganjuk-west-318117","streamStatus":"public-page","streamUrl":"https://opencctv.org/cameras/indonesia/east-java/nganjuk/nganjuk-west-318117","updatedAt":"2026-08-11T15:20:39.770Z","verification":"public-directory-live"},"type":"Feature"},{"geometry":{"coordinates":[111.90948,-7.67303],"type":"Point"},"id":"cctv-national-965b43bc7fb991e2015cbc34","properties":{"address":"East Java","attribution":"Sumber publik: Sumber publik terindeks OpenCCTV","catalogSourceKey":"national-public-directory-live","city":"East Java","kind":"cctv","mediaFormat":"iframe","mimeType":"","name":"Nganjuk › West","operator":"Sumber publik terindeks OpenCCTV","province":"Jawa Timur","publicUrl":"https://opencctv.org/cameras/indonesia/east-java/nganjuk/nganjuk-west-318413","region":"Jawa Timur","source":"Sumber publik terindeks OpenCCTV","sourceId":"cctv:965b43bc7fb991e2015cbc34","sourceUrl":"https://opencctv.org/cameras/indonesia/east-java/nganjuk/nganjuk-west-318413","streamStatus":"public-page","streamUrl":"https://opencctv.org/cameras/indonesia/east-java/nganjuk/nganjuk-west-318413","updatedAt":"2026-08-11T15:20:39.770Z","verification":"public-directory-live"},"type":"Feature"},{"geometry":{"coordinates":[112.11106,-7.58034],"type":"Point"},"id":"cctv-national-96af6e3b06d46338d87495d6","properties":{"address":"East Java","attribution":"Sumber publik: Sumber publik terindeks OpenCCTV","catalogSourceKey":"national-public-directory-live","city":"East Java","kind":"cctv","mediaFormat":"iframe","mimeType":"","name":"Kertosono › South: SDN LESTARI 1","operator":"Sumber publik terindeks OpenCCTV","province":"Jawa Timur","publicUrl":"https://opencctv.org/cameras/indonesia/east-java/kertosono/kertosono-south-sdn-lestari-1-317634","region":"Jawa Timur","source":"Sumber publik terindeks OpenCCTV","sourceId":"cctv:96af6e3b06d46338d87495d6","sourceUrl":"https://opencctv.org/cameras/indonesia/east-java/kertosono/kertosono-south-sdn-lestari-1-317634","streamStatus":"public-page","streamUrl":"https://opencctv.org/cameras/indonesia/east-java/kertosono/kertosono-south-sdn-lestari-1-317634","updatedAt":"2026-08-11T15:20:39.765Z","verification":"public-directory-live"},"type":"Feature"},{"geometry":{"coordinates":[111.89438,-7.63799],"type":"Point"},"id":"cctv-national-9746a2430b5670a4b239ff18","properties":{"address":"East Java","attribution":"Sumber publik: Sumber publik terindeks OpenCCTV","catalogSourceKey":"national-public-directory-live","city":"East Java","kind":"cctv","mediaFormat":"iframe","mimeType":"","name":"Nganjuk › West","operator":"Sumber publik terindeks OpenCCTV","province":"Jawa Timur","publicUrl":"https://opencctv.org/cameras/indonesia/east-java/nganjuk/nganjuk-west-318425","region":"Jawa Timur","source":"Sumber publik terindeks OpenCCTV","sourceId":"cctv:9746a2430b5670a4b239ff18","sourceUrl":"https://opencctv.org/cameras/indonesia/east-java/nganjuk/nganjuk-west-318425","streamStatus":"public-page","streamUrl":"https://opencctv.org/cameras/indonesia/east-java/nganjuk/nganjuk-west-318425","updatedAt":"2026-08-11T15:20:39.770Z","verification":"public-directory-live"},"type":"Feature"},{"geometry":{"coordinates":[111.97403,-7.65228],"type":"Point"},"id":"cctv-national-97ee7fdec62386633333cbd1","properties":{"address":"East Java","attribution":"Sumber publik: Sumber publik terindeks OpenCCTV","catalogSourceKey":"national-public-directory-live","city":"East Java","kind":"cctv","mediaFormat":"iframe","mimeType":"","name":"Nganjuk › South","operator":"Sumber publik terindeks OpenCCTV","province":"Jawa Timur","publicUrl":"https://opencctv.org/cameras/indonesia/east-java/nganjuk/nganjuk-south-318127","region":"Jawa Timur","source":"Sumber publik terindeks OpenCCTV","sourceId":"cctv:97ee7fdec62386633333cbd1","sourceUrl":"https://opencctv.org/cameras/indonesia/east-java/nganjuk/nganjuk-south-318127","streamStatus":"public-page","streamUrl":"https://opencctv.org/cameras/indonesia/east-java/nganjuk/nganjuk-south-318127","updatedAt":"2026-08-11T15:20:39.770Z","verification":"public-directory-live"},"type":"Feature"},{"geometry":{"coordinates":[112.07428,-7.69481],"type":"Point"},"id":"cctv-national-98a6fe179120c60408601d10","properties":{"address":"East Java","attribution":"Sumber publik: Sumber publik terindeks OpenCCTV","catalogSourceKey":"national-public-directory-live","city":"East Java","kind":"cctv","mediaFormat":"iframe","mimeType":"","name":"Plemahan › West","operator":"Sumber publik terindeks OpenCCTV","province":"Jawa Timur","publicUrl":"https://opencctv.org/cameras/indonesia/east-java/plemahan/plemahan-west-316419","region":"Jawa Timur","source":"Sumber publik terindeks OpenCCTV","sourceId":"cctv:98a6fe179120c60408601d10","sourceUrl":"https://opencctv.org/cameras/indonesia/east-java/plemahan/plemahan-west-316419","streamStatus":"public-page","streamUrl":"https://opencctv.org/cameras/indonesia/east-java/plemahan/plemahan-west-316419","updatedAt":"2026-08-11T15:20:39.771Z","verification":"public-directory-live"},"type":"Feature"},{"geometry":{"coordinates":[111.90948,-7.67303],"type":"Point"},"id":"cctv-national-995f0cf32beaf3cedb031159","properties":{"address":"East Java","attribution":"Sumber publik: Sumber publik terindeks OpenCCTV","catalogSourceKey":"national-public-directory-live","city":"East Java","kind":"cctv","mediaFormat":"iframe","mimeType":"","name":"Nganjuk › South","operator":"Sumber publik terindeks OpenCCTV","province":"Jawa Timur","publicUrl":"https://opencctv.org/cameras/indonesia/east-java/nganjuk/nganjuk-south-318386","region":"Jawa Timur","source":"Sumber publik terindeks OpenCCTV","sourceId":"cctv:995f0cf32beaf3cedb031159","sourceUrl":"https://opencctv.org/cameras/indonesia/east-java/nganjuk/nganjuk-south-318386","streamStatus":"public-page","streamUrl":"https://opencctv.org/cameras/indonesia/east-java/nganjuk/nganjuk-south-318386","updatedAt":"2026-08-11T15:20:39.770Z","verification":"public-directory-live"},"type":"Feature"},{"geometry":{"coordinates":[111.90434,-7.58864],"type":"Point"},"id":"cctv-national-99c16fd9e7398e3b40b655dc","properties":{"address":"East Java","attribution":"Sumber publik: Sumber publik terindeks OpenCCTV","catalogSourceKey":"national-public-directory-live","city":"East Java","kind":"cctv","mediaFormat":"iframe","mimeType":"","name":"Nganjuk › North","operator":"Sumber publik terindeks OpenCCTV","province":"Jawa Timur","publicUrl":"https://opencctv.org/cameras/indonesia/east-java/nganjuk/nganjuk-north-317338","region":"Jawa Timur","source":"Sumber publik terindeks OpenCCTV","sourceId":"cctv:99c16fd9e7398e3b40b655dc","sourceUrl":"https://opencctv.org/cameras/indonesia/east-java/nganjuk/nganjuk-north-317338","streamStatus":"public-page","streamUrl":"https://opencctv.org/cameras/indonesia/east-java/nganjuk/nganjuk-north-317338","updatedAt":"2026-08-11T15:20:39.770Z","verification":"public-directory-live"},"type":"Feature"},{"geometry":{"coordinates":[111.87756,-7.65194],"type":"Point"},"id":"cctv-national-a0c3e7f9fa7f18ccc9441e20","properties":{"address":"East Java","attribution":"Sumber publik: Sumber publik terindeks OpenCCTV","catalogSourceKey":"national-public-directory-live","city":"East Java","kind":"cctv","mediaFormat":"iframe","mimeType":"","name":"Nganjuk: POLINDES DESA TEMPELWETAN","operator":"Sumber publik terindeks OpenCCTV","province":"Jawa Timur","publicUrl":"https://opencctv.org/cameras/indonesia/east-java/nganjuk/nganjuk-polindes-desa-tempelwetan-318369","region":"Jawa Timur","source":"Sumber publik terindeks OpenCCTV","sourceId":"cctv:a0c3e7f9fa7f18ccc9441e20","sourceUrl":"https://opencctv.org/cameras/indonesia/east-java/nganjuk/nganjuk-polindes-desa-tempelwetan-318369","streamStatus":"public-page","streamUrl":"https://opencctv.org/cameras/indonesia/east-java/nganjuk/nganjuk-polindes-desa-tempelwetan-318369","updatedAt":"2026-08-11T15:20:39.770Z","verification":"public-directory-live"},"type":"Feature"},{"geometry":{"coordinates":[111.82468,-7.56176],"type":"Point"},"id":"cctv-national-a17ba40dbf77017394d14aea","properties":{"address":"East Java","attribution":"Sumber publik: Sumber publik terindeks OpenCCTV","catalogSourceKey":"national-public-directory-live","city":"East Java","kind":"cctv","mediaFormat":"iframe","mimeType":"","name":"Nganjuk › North","operator":"Sumber publik terindeks OpenCCTV","province":"Jawa Timur","publicUrl":"https://opencctv.org/cameras/indonesia/east-java/nganjuk/nganjuk-north-318585","region":"Jawa Timur","source":"Sumber publik terindeks OpenCCTV","sourceId":"cctv:a17ba40dbf77017394d14aea","sourceUrl":"https://opencctv.org/cameras/indonesia/east-java/nganjuk/nganjuk-north-318585","streamStatus":"public-page","streamUrl":"https://opencctv.org/cameras/indonesia/east-java/nganjuk/nganjuk-north-318585","updatedAt":"2026-08-11T15:20:39.770Z","verification":"public-directory-live"},"type":"Feature"},{"geometry":{"coordinates":[112.06776,-7.64513],"type":"Point"},"id":"cctv-national-a2ee94bd8739f7710cc56b4f","properties":{"address":"East Java","attribution":"Sumber publik: Sumber publik terindeks OpenCCTV","catalogSourceKey":"national-public-directory-live","city":"East Java","kind":"cctv","mediaFormat":"iframe","mimeType":"","name":"Kertosono › South","operator":"Sumber publik terindeks OpenCCTV","province":"Jawa Timur","publicUrl":"https://opencctv.org/cameras/indonesia/east-java/kertosono/kertosono-south-317413","region":"Jawa Timur","source":"Sumber publik terindeks OpenCCTV","sourceId":"cctv:a2ee94bd8739f7710cc56b4f","sourceUrl":"https://opencctv.org/cameras/indonesia/east-java/kertosono/kertosono-south-317413","streamStatus":"public-page","streamUrl":"https://opencctv.org/cameras/indonesia/east-java/kertosono/kertosono-south-317413","updatedAt":"2026-08-11T15:20:39.765Z","verification":"public-directory-live"},"type":"Feature"},{"geometry":{"coordinates":[111.96957,-7.60362],"type":"Point"},"id":"cctv-national-a6b73490ea5ec41dbdd16d88","properties":{"address":"East Java","attribution":"Sumber publik: Sumber publik terindeks OpenCCTV","catalogSourceKey":"national-public-directory-live","city":"East Java","kind":"cctv","mediaFormat":"iframe","mimeType":"","name":"Nganjuk › North: Kedai marsinah","operator":"Sumber publik terindeks OpenCCTV","province":"Jawa Timur","publicUrl":"https://opencctv.org/cameras/indonesia/east-java/nganjuk/nganjuk-north-kedai-marsinah-318551","region":"Jawa Timur","source":"Sumber publik terindeks OpenCCTV","sourceId":"cctv:a6b73490ea5ec41dbdd16d88","sourceUrl":"https://opencctv.org/cameras/indonesia/east-java/nganjuk/nganjuk-north-kedai-marsinah-318551","streamStatus":"public-page","streamUrl":"https://opencctv.org/cameras/indonesia/east-java/nganjuk/nganjuk-north-kedai-marsinah-318551","updatedAt":"2026-08-11T15:20:39.770Z","verification":"public-directory-live"},"type":"Feature"},{"geometry":{"coordinates":[112.02164,-7.60344],"type":"Point"},"id":"cctv-national-b18e0e80ed497342df4ccebc","properties":{"address":"East Java","attribution":"Sumber publik: Sumber publik terindeks OpenCCTV","catalogSourceKey":"national-public-directory-live","city":"East Java","kind":"cctv","mediaFormat":"iframe","mimeType":"","name":"Kertosono › West: Barong Police Station","operator":"Sumber publik terindeks OpenCCTV","province":"Jawa Timur","publicUrl":"https://opencctv.org/cameras/indonesia/east-java/kertosono/kertosono-west-barong-police-station-318189","region":"Jawa Timur","source":"Sumber publik terindeks OpenCCTV","sourceId":"cctv:b18e0e80ed497342df4ccebc","sourceUrl":"https://opencctv.org/cameras/indonesia/east-java/kertosono/kertosono-west-barong-police-station-318189","streamStatus":"public-page","streamUrl":"https://opencctv.org/cameras/indonesia/east-java/kertosono/kertosono-west-barong-police-station-318189","updatedAt":"2026-08-11T15:20:39.765Z","verification":"public-directory-live"},"type":"Feature"},{"geometry":{"coordinates":[112.01797,-7.68732],"type":"Point"},"id":"cctv-national-b3b99f90db82d2e821b4d14e","properties":{"address":"East Java","attribution":"Sumber publik: Sumber publik terindeks OpenCCTV","catalogSourceKey":"national-public-directory-live","city":"East Java","kind":"cctv","mediaFormat":"iframe","mimeType":"","name":"Pagu › East","operator":"Sumber publik terindeks OpenCCTV","province":"Jawa Timur","publicUrl":"https://opencctv.org/cameras/indonesia/east-java/pagu/pagu-east-321231","region":"Jawa Timur","source":"Sumber publik terindeks OpenCCTV","sourceId":"cctv:b3b99f90db82d2e821b4d14e","sourceUrl":"https://opencctv.org/cameras/indonesia/east-java/pagu/pagu-east-321231","streamStatus":"public-page","streamUrl":"https://opencctv.org/cameras/indonesia/east-java/pagu/pagu-east-321231","updatedAt":"2026-08-11T15:20:39.770Z","verification":"public-directory-live"},"type":"Feature"},{"geometry":{"coordinates":[111.90468,-7.58898],"type":"Point"},"id":"cctv-national-bbc0f0b58ce6a6f6288c1a69","properties":{"address":"East Java","attribution":"Sumber publik: Sumber publik terindeks OpenCCTV","catalogSourceKey":"national-public-directory-live","city":"East Java","kind":"cctv","mediaFormat":"iframe","mimeType":"","name":"Nganjuk › East","operator":"Sumber publik terindeks OpenCCTV","province":"Jawa Timur","publicUrl":"https://opencctv.org/cameras/indonesia/east-java/nganjuk/nganjuk-east-318504","region":"Jawa Timur","source":"Sumber publik terindeks OpenCCTV","sourceId":"cctv:bbc0f0b58ce6a6f6288c1a69","sourceUrl":"https://opencctv.org/cameras/indonesia/east-java/nganjuk/nganjuk-east-318504","streamStatus":"public-page","streamUrl":"https://opencctv.org/cameras/indonesia/east-java/nganjuk/nganjuk-east-318504","updatedAt":"2026-08-11T15:20:39.770Z","verification":"public-directory-live"},"type":"Feature"},{"geometry":{"coordinates":[111.91463,-7.59987],"type":"Point"},"id":"cctv-national-c31e21aad213b2d0c1ab646b","properties":{"address":"East Java","attribution":"Sumber publik: Sumber publik terindeks OpenCCTV","catalogSourceKey":"national-public-directory-live","city":"East Java","kind":"cctv","mediaFormat":"iframe","mimeType":"","name":"Nganjuk › East","operator":"Sumber publik terindeks OpenCCTV","province":"Jawa Timur","publicUrl":"https://opencctv.org/cameras/indonesia/east-java/nganjuk/nganjuk-east-318164","region":"Jawa Timur","source":"Sumber publik terindeks OpenCCTV","sourceId":"cctv:c31e21aad213b2d0c1ab646b","sourceUrl":"https://opencctv.org/cameras/indonesia/east-java/nganjuk/nganjuk-east-318164","streamStatus":"public-page","streamUrl":"https://opencctv.org/cameras/indonesia/east-java/nganjuk/nganjuk-east-318164","updatedAt":"2026-08-11T15:20:39.770Z","verification":"public-directory-live"},"type":"Feature"},{"geometry":{"coordinates":[111.90468,-7.59],"type":"Point"},"id":"cctv-national-c3f39025d69da8563a969534","properties":{"address":"East Java","attribution":"Sumber publik: Sumber publik terindeks OpenCCTV","catalogSourceKey":"national-public-directory-live","city":"East Java","kind":"cctv","mediaFormat":"iframe","mimeType":"","name":"Nganjuk › South","operator":"Sumber publik terindeks OpenCCTV","province":"Jawa Timur","publicUrl":"https://opencctv.org/cameras/indonesia/east-java/nganjuk/nganjuk-south-318494","region":"Jawa Timur","source":"Sumber publik terindeks OpenCCTV","sourceId":"cctv:c3f39025d69da8563a969534","sourceUrl":"https://opencctv.org/cameras/indonesia/east-java/nganjuk/nganjuk-south-318494","streamStatus":"public-page","streamUrl":"https://opencctv.org/cameras/indonesia/east-java/nganjuk/nganjuk-south-318494","updatedAt":"2026-08-11T15:20:39.770Z","verification":"public-directory-live"},"type":"Feature"},{"geometry":{"coordinates":[112.02177,-7.60361],"type":"Point"},"id":"cctv-national-c49e6d8ccadac53d27a355cb","properties":{"address":"East Java","attribution":"Sumber publik: Sumber publik terindeks OpenCCTV","catalogSourceKey":"national-public-directory-live","city":"East Java","kind":"cctv","mediaFormat":"iframe","mimeType":"","name":"Kertosono › South: YASMINE SOUVENIR","operator":"Sumber publik terindeks OpenCCTV","province":"Jawa Timur","publicUrl":"https://opencctv.org/cameras/indonesia/east-java/kertosono/kertosono-south-yasmine-souvenir-318049","region":"Jawa Timur","source":"Sumber publik terindeks OpenCCTV","sourceId":"cctv:c49e6d8ccadac53d27a355cb","sourceUrl":"https://opencctv.org/cameras/indonesia/east-java/kertosono/kertosono-south-yasmine-souvenir-318049","streamStatus":"public-page","streamUrl":"https://opencctv.org/cameras/indonesia/east-java/kertosono/kertosono-south-yasmine-souvenir-318049","updatedAt":"2026-08-11T15:20:39.765Z","verification":"public-directory-live"},"type":"Feature"},{"geometry":{"coordinates":[111.97369,-7.65228],"type":"Point"},"id":"cctv-national-c78bab59173d5473c7422226","properties":{"address":"East Java","attribution":"Sumber publik: Sumber publik terindeks OpenCCTV","catalogSourceKey":"national-public-directory-live","city":"East Java","kind":"cctv","mediaFormat":"iframe","mimeType":"","name":"Nganjuk › North","operator":"Sumber publik terindeks OpenCCTV","province":"Jawa Timur","publicUrl":"https://opencctv.org/cameras/indonesia/east-java/nganjuk/nganjuk-north-318190","region":"Jawa Timur","source":"Sumber publik terindeks OpenCCTV","sourceId":"cctv:c78bab59173d5473c7422226","sourceUrl":"https://opencctv.org/cameras/indonesia/east-java/nganjuk/nganjuk-north-318190","streamStatus":"public-page","streamUrl":"https://opencctv.org/cameras/indonesia/east-java/nganjuk/nganjuk-north-318190","updatedAt":"2026-08-11T15:20:39.770Z","verification":"public-directory-live"},"type":"Feature"},{"geometry":{"coordinates":[111.96957,-7.60362],"type":"Point"},"id":"cctv-national-c859b2fa2563489958e8e0e5","properties":{"address":"East Java","attribution":"Sumber publik: Sumber publik terindeks OpenCCTV","catalogSourceKey":"national-public-directory-live","city":"East Java","kind":"cctv","mediaFormat":"iframe","mimeType":"","name":"Nganjuk › South: Monumen Pahlawan Buruh Marsinah","operator":"Sumber publik terindeks OpenCCTV","province":"Jawa Timur","publicUrl":"https://opencctv.org/cameras/indonesia/east-java/nganjuk/nganjuk-south-monumen-pahlawan-buruh-marsinah-318477","region":"Jawa Timur","source":"Sumber publik terindeks OpenCCTV","sourceId":"cctv:c859b2fa2563489958e8e0e5","sourceUrl":"https://opencctv.org/cameras/indonesia/east-java/nganjuk/nganjuk-south-monumen-pahlawan-buruh-marsinah-318477","streamStatus":"public-page","streamUrl":"https://opencctv.org/cameras/indonesia/east-java/nganjuk/nganjuk-south-monumen-pahlawan-buruh-marsinah-318477","updatedAt":"2026-08-11T15:20:39.770Z","verification":"public-directory-live"},"type":"Feature"},{"geometry":{"coordinates":[111.86932,-7.64445],"type":"Point"},"id":"cctv-national-d0153ec9cdcf1fdfcf4c289a","properties":{"address":"East Java","attribution":"Sumber publik: Sumber publik terindeks OpenCCTV","catalogSourceKey":"national-public-directory-live","city":"East Java","kind":"cctv","mediaFormat":"iframe","mimeType":"","name":"Nganjuk › East: Sendang Bumen","operator":"Sumber publik terindeks OpenCCTV","province":"Jawa Timur","publicUrl":"https://opencctv.org/cameras/indonesia/east-java/nganjuk/nganjuk-east-sendang-bumen-318616","region":"Jawa Timur","source":"Sumber publik terindeks OpenCCTV","sourceId":"cctv:d0153ec9cdcf1fdfcf4c289a","sourceUrl":"https://opencctv.org/cameras/indonesia/east-java/nganjuk/nganjuk-east-sendang-bumen-318616","streamStatus":"public-page","streamUrl":"https://opencctv.org/cameras/indonesia/east-java/nganjuk/nganjuk-east-sendang-bumen-318616","updatedAt":"2026-08-11T15:20:39.770Z","verification":"public-directory-live"},"type":"Feature"},{"geometry":{"coordinates":[111.87447,-7.6322],"type":"Point"},"id":"cctv-national-d05f115b7cf245b88210ea25","properties":{"address":"East Java","attribution":"Sumber publik: Sumber publik terindeks OpenCCTV","catalogSourceKey":"national-public-directory-live","city":"East Java","kind":"cctv","mediaFormat":"iframe","mimeType":"","name":"Nganjuk › East","operator":"Sumber publik terindeks OpenCCTV","province":"Jawa Timur","publicUrl":"https://opencctv.org/cameras/indonesia/east-java/nganjuk/nganjuk-east-318567","region":"Jawa Timur","source":"Sumber publik terindeks OpenCCTV","sourceId":"cctv:d05f115b7cf245b88210ea25","sourceUrl":"https://opencctv.org/cameras/indonesia/east-java/nganjuk/nganjuk-east-318567","streamStatus":"public-page","streamUrl":"https://opencctv.org/cameras/indonesia/east-java/nganjuk/nganjuk-east-318567","updatedAt":"2026-08-11T15:20:39.770Z","verification":"public-directory-live"},"type":"Feature"},{"geometry":{"coordinates":[111.91498,-7.58218],"type":"Point"},"id":"cctv-national-d09bb42e57a594bdabf09695","properties":{"address":"East Java","attribution":"Sumber publik: Sumber publik terindeks OpenCCTV","catalogSourceKey":"national-public-directory-live","city":"East Java","kind":"cctv","mediaFormat":"iframe","mimeType":"","name":"Nganjuk › North","operator":"Sumber publik terindeks OpenCCTV","province":"Jawa Timur","publicUrl":"https://opencctv.org/cameras/indonesia/east-java/nganjuk/nganjuk-north-318561","region":"Jawa Timur","source":"Sumber publik terindeks OpenCCTV","sourceId":"cctv:d09bb42e57a594bdabf09695","sourceUrl":"https://opencctv.org/cameras/indonesia/east-java/nganjuk/nganjuk-north-318561","streamStatus":"public-page","streamUrl":"https://opencctv.org/cameras/indonesia/east-java/nganjuk/nganjuk-north-318561","updatedAt":"2026-08-11T15:20:39.770Z","verification":"public-directory-live"},"type":"Feature"},{"geometry":{"coordinates":[112.07428,-7.69481],"type":"Point"},"id":"cctv-national-d2f5dfb5601fdbd8ffad0494","properties":{"address":"East Java","attribution":"Sumber publik: Sumber publik terindeks OpenCCTV","catalogSourceKey":"national-public-directory-live","city":"East Java","kind":"cctv","mediaFormat":"iframe","mimeType":"","name":"Plemahan › East","operator":"Sumber publik terindeks OpenCCTV","province":"Jawa Timur","publicUrl":"https://opencctv.org/cameras/indonesia/east-java/plemahan/plemahan-east-316293","region":"Jawa Timur","source":"Sumber publik terindeks OpenCCTV","sourceId":"cctv:d2f5dfb5601fdbd8ffad0494","sourceUrl":"https://opencctv.org/cameras/indonesia/east-java/plemahan/plemahan-east-316293","streamStatus":"public-page","streamUrl":"https://opencctv.org/cameras/indonesia/east-java/plemahan/plemahan-east-316293","updatedAt":"2026-08-11T15:20:39.771Z","verification":"public-directory-live"},"type":"Feature"},{"geometry":{"coordinates":[112.06638,-7.64513],"type":"Point"},"id":"cctv-national-d4ea096074f55085fa80db43","properties":{"address":"East Java","attribution":"Sumber publik: Sumber publik terindeks OpenCCTV","catalogSourceKey":"national-public-directory-live","city":"East Java","kind":"cctv","mediaFormat":"iframe","mimeType":"","name":"Kertosono › West","operator":"Sumber publik terindeks OpenCCTV","province":"Jawa Timur","publicUrl":"https://opencctv.org/cameras/indonesia/east-java/kertosono/kertosono-west-317701","region":"Jawa Timur","source":"Sumber publik terindeks OpenCCTV","sourceId":"cctv:d4ea096074f55085fa80db43","sourceUrl":"https://opencctv.org/cameras/indonesia/east-java/kertosono/kertosono-west-317701","streamStatus":"public-page","streamUrl":"https://opencctv.org/cameras/indonesia/east-java/kertosono/kertosono-west-317701","updatedAt":"2026-08-11T15:20:39.765Z","verification":"public-directory-live"},"type":"Feature"},{"geometry":{"coordinates":[111.96957,-7.6026],"type":"Point"},"id":"cctv-national-d6ca0f724e8161453e0fc4d1","properties":{"address":"East Java","attribution":"Sumber publik: Sumber publik terindeks OpenCCTV","catalogSourceKey":"national-public-directory-live","city":"East Java","kind":"cctv","mediaFormat":"iframe","mimeType":"","name":"Nganjuk","operator":"Sumber publik terindeks OpenCCTV","province":"Jawa Timur","publicUrl":"https://opencctv.org/cameras/indonesia/east-java/nganjuk/nganjuk-318445","region":"Jawa Timur","source":"Sumber publik terindeks OpenCCTV","sourceId":"cctv:d6ca0f724e8161453e0fc4d1","sourceUrl":"https://opencctv.org/cameras/indonesia/east-java/nganjuk/nganjuk-318445","streamStatus":"public-page","streamUrl":"https://opencctv.org/cameras/indonesia/east-java/nganjuk/nganjuk-318445","updatedAt":"2026-08-11T15:20:39.770Z","verification":"public-directory-live"},"type":"Feature"},{"geometry":{"coordinates":[112.09893,-7.62424],"type":"Point"},"id":"cctv-national-d932b23ba779947f6813f420","properties":{"address":"East Java","attribution":"Sumber publik: Sumber publik terindeks OpenCCTV","catalogSourceKey":"national-public-directory-live","city":"East Java","kind":"cctv","mediaFormat":"iframe","mimeType":"","name":"Kertosono › East: Panti Asuhan Putra Muhammadiyah","operator":"Sumber publik terindeks OpenCCTV","province":"Jawa Timur","publicUrl":"https://opencctv.org/cameras/indonesia/east-java/kertosono/kertosono-east-panti-asuhan-putra-muhammadiyah-314520","region":"Jawa Timur","source":"Sumber publik terindeks OpenCCTV","sourceId":"cctv:d932b23ba779947f6813f420","sourceUrl":"https://opencctv.org/cameras/indonesia/east-java/kertosono/kertosono-east-panti-asuhan-putra-muhammadiyah-314520","streamStatus":"public-page","streamUrl":"https://opencctv.org/cameras/indonesia/east-java/kertosono/kertosono-east-panti-asuhan-putra-muhammadiyah-314520","updatedAt":"2026-08-11T15:20:39.765Z","verification":"public-directory-live"},"type":"Feature"},{"geometry":{"coordinates":[111.90468,-7.58218],"type":"Point"},"id":"cctv-national-d98a5209a8cbe0a041972d2f","properties":{"address":"East Java","attribution":"Sumber publik: Sumber publik terindeks OpenCCTV","catalogSourceKey":"national-public-directory-live","city":"East Java","kind":"cctv","mediaFormat":"iframe","mimeType":"","name":"Nganjuk › East: Begadung Timur","operator":"Sumber publik terindeks OpenCCTV","province":"Jawa Timur","publicUrl":"https://opencctv.org/cameras/indonesia/east-java/nganjuk/nganjuk-east-begadung-timur-316748","region":"Jawa Timur","source":"Sumber publik terindeks OpenCCTV","sourceId":"cctv:d98a5209a8cbe0a041972d2f","sourceUrl":"https://opencctv.org/cameras/indonesia/east-java/nganjuk/nganjuk-east-begadung-timur-316748","streamStatus":"public-page","streamUrl":"https://opencctv.org/cameras/indonesia/east-java/nganjuk/nganjuk-east-begadung-timur-316748","updatedAt":"2026-08-11T15:20:39.770Z","verification":"public-directory-live"},"type":"Feature"},{"geometry":{"coordinates":[112.0808,-7.58388],"type":"Point"},"id":"cctv-national-e40e2cde413b15e3524d9257","properties":{"address":"East Java","attribution":"Sumber publik: Sumber publik terindeks OpenCCTV","catalogSourceKey":"national-public-directory-live","city":"East Java","kind":"cctv","mediaFormat":"iframe","mimeType":"","name":"Kertosono › West","operator":"Sumber publik terindeks OpenCCTV","province":"Jawa Timur","publicUrl":"https://opencctv.org/cameras/indonesia/east-java/kertosono/kertosono-west-317876","region":"Jawa Timur","source":"Sumber publik terindeks OpenCCTV","sourceId":"cctv:e40e2cde413b15e3524d9257","sourceUrl":"https://opencctv.org/cameras/indonesia/east-java/kertosono/kertosono-west-317876","streamStatus":"public-page","streamUrl":"https://opencctv.org/cameras/indonesia/east-java/kertosono/kertosono-west-317876","updatedAt":"2026-08-11T15:20:39.765Z","verification":"public-directory-live"},"type":"Feature"},{"geometry":{"coordinates":[111.87721,-7.60294],"type":"Point"},"id":"cctv-national-e5cb44ce91d974a056c9c2fa","properties":{"address":"East Java","attribution":"Sumber publik: Sumber publik terindeks OpenCCTV","catalogSourceKey":"national-public-directory-live","city":"East Java","kind":"cctv","mediaFormat":"iframe","mimeType":"","name":"Nganjuk","operator":"Sumber publik terindeks OpenCCTV","province":"Jawa Timur","publicUrl":"https://opencctv.org/cameras/indonesia/east-java/nganjuk/nganjuk-318598","region":"Jawa Timur","source":"Sumber publik terindeks OpenCCTV","sourceId":"cctv:e5cb44ce91d974a056c9c2fa","sourceUrl":"https://opencctv.org/cameras/indonesia/east-java/nganjuk/nganjuk-318598","streamStatus":"public-page","streamUrl":"https://opencctv.org/cameras/indonesia/east-java/nganjuk/nganjuk-318598","updatedAt":"2026-08-11T15:20:39.770Z","verification":"public-directory-live"},"type":"Feature"},{"geometry":{"coordinates":[111.97403,-7.65262],"type":"Point"},"id":"cctv-national-ec18b01725ef9312cebd33d1","properties":{"address":"East Java","attribution":"Sumber publik: Sumber publik terindeks OpenCCTV","catalogSourceKey":"national-public-directory-live","city":"East Java","kind":"cctv","mediaFormat":"iframe","mimeType":"","name":"Nganjuk › East","operator":"Sumber publik terindeks OpenCCTV","province":"Jawa Timur","publicUrl":"https://opencctv.org/cameras/indonesia/east-java/nganjuk/nganjuk-east-317972","region":"Jawa Timur","source":"Sumber publik terindeks OpenCCTV","sourceId":"cctv:ec18b01725ef9312cebd33d1","sourceUrl":"https://opencctv.org/cameras/indonesia/east-java/nganjuk/nganjuk-east-317972","streamStatus":"public-page","streamUrl":"https://opencctv.org/cameras/indonesia/east-java/nganjuk/nganjuk-east-317972","updatedAt":"2026-08-11T15:20:39.770Z","verification":"public-directory-live"},"type":"Feature"},{"geometry":{"coordinates":[111.91498,-7.58218],"type":"Point"},"id":"cctv-national-ec39386bbe4f687ef1642a9f","properties":{"address":"East Java","attribution":"Sumber publik: Sumber publik terindeks OpenCCTV","catalogSourceKey":"national-public-directory-live","city":"East Java","kind":"cctv","mediaFormat":"iframe","mimeType":"","name":"Nganjuk › West","operator":"Sumber publik terindeks OpenCCTV","province":"Jawa Timur","publicUrl":"https://opencctv.org/cameras/indonesia/east-java/nganjuk/nganjuk-west-318578","region":"Jawa Timur","source":"Sumber publik terindeks OpenCCTV","sourceId":"cctv:ec39386bbe4f687ef1642a9f","sourceUrl":"https://opencctv.org/cameras/indonesia/east-java/nganjuk/nganjuk-west-318578","streamStatus":"public-page","streamUrl":"https://opencctv.org/cameras/indonesia/east-java/nganjuk/nganjuk-west-318578","updatedAt":"2026-08-11T15:20:39.770Z","verification":"public-directory-live"},"type":"Feature"},{"geometry":{"coordinates":[111.92631,-7.6812],"type":"Point"},"id":"cctv-national-f26939a685e2695f65224f9b","properties":{"address":"East Java","attribution":"Sumber publik: Sumber publik terindeks OpenCCTV","catalogSourceKey":"national-public-directory-live","city":"East Java","kind":"cctv","mediaFormat":"iframe","mimeType":"","name":"Nganjuk › North","operator":"Sumber publik terindeks OpenCCTV","province":"Jawa Timur","publicUrl":"https://opencctv.org/cameras/indonesia/east-java/nganjuk/nganjuk-north-317949","region":"Jawa Timur","source":"Sumber publik terindeks OpenCCTV","sourceId":"cctv:f26939a685e2695f65224f9b","sourceUrl":"https://opencctv.org/cameras/indonesia/east-java/nganjuk/nganjuk-north-317949","streamStatus":"public-page","streamUrl":"https://opencctv.org/cameras/indonesia/east-java/nganjuk/nganjuk-north-317949","updatedAt":"2026-08-11T15:20:39.770Z","verification":"public-directory-live"},"type":"Feature"},{"geometry":{"coordinates":[111.80237,-7.55869],"type":"Point"},"id":"cctv-national-f270e3a41c6f0fb51160fdfe","properties":{"address":"East Java","attribution":"Sumber publik: Sumber publik terindeks OpenCCTV","catalogSourceKey":"national-public-directory-live","city":"East Java","kind":"cctv","mediaFormat":"iframe","mimeType":"","name":"Nganjuk › West","operator":"Sumber publik terindeks OpenCCTV","province":"Jawa Timur","publicUrl":"https://opencctv.org/cameras/indonesia/east-java/nganjuk/nganjuk-west-317851","region":"Jawa Timur","source":"Sumber publik terindeks OpenCCTV","sourceId":"cctv:f270e3a41c6f0fb51160fdfe","sourceUrl":"https://opencctv.org/cameras/indonesia/east-java/nganjuk/nganjuk-west-317851","streamStatus":"public-page","streamUrl":"https://opencctv.org/cameras/indonesia/east-java/nganjuk/nganjuk-west-317851","updatedAt":"2026-08-11T15:20:39.770Z","verification":"public-directory-live"},"type":"Feature"},{"geometry":{"coordinates":[111.89987,-7.59919],"type":"Point"},"id":"cctv-national-f9f8ecc3899c515b60e006ee","properties":{"address":"East Java","attribution":"Sumber publik: Sumber publik terindeks OpenCCTV","catalogSourceKey":"national-public-directory-live","city":"East Java","kind":"cctv","mediaFormat":"iframe","mimeType":"","name":"Nganjuk › West","operator":"Sumber publik terindeks OpenCCTV","province":"Jawa Timur","publicUrl":"https://opencctv.org/cameras/indonesia/east-java/nganjuk/nganjuk-west-318676","region":"Jawa Timur","source":"Sumber publik terindeks OpenCCTV","sourceId":"cctv:f9f8ecc3899c515b60e006ee","sourceUrl":"https://opencctv.org/cameras/indonesia/east-java/nganjuk/nganjuk-west-318676","streamStatus":"public-page","streamUrl":"https://opencctv.org/cameras/indonesia/east-java/nganjuk/nganjuk-west-318676","updatedAt":"2026-08-11T15:20:39.770Z","verification":"public-directory-live"},"type":"Feature"},{"geometry":{"coordinates":[111.90948,-7.67303],"type":"Point"},"id":"cctv-national-fa04b825a80c7340c552c208","properties":{"address":"East Java","attribution":"Sumber publik: Sumber publik terindeks OpenCCTV","catalogSourceKey":"national-public-directory-live","city":"East Java","kind":"cctv","mediaFormat":"iframe","mimeType":"","name":"Nganjuk › East","operator":"Sumber publik terindeks OpenCCTV","province":"Jawa Timur","publicUrl":"https://opencctv.org/cameras/indonesia/east-java/nganjuk/nganjuk-east-318384","region":"Jawa Timur","source":"Sumber publik terindeks OpenCCTV","sourceId":"cctv:fa04b825a80c7340c552c208","sourceUrl":"https://opencctv.org/cameras/indonesia/east-java/nganjuk/nganjuk-east-318384","streamStatus":"public-page","streamUrl":"https://opencctv.org/cameras/indonesia/east-java/nganjuk/nganjuk-east-318384","updatedAt":"2026-08-11T15:20:39.770Z","verification":"public-directory-live"},"type":"Feature"},{"geometry":{"coordinates":[111.90434,-7.58932],"type":"Point"},"id":"cctv-national-faf66cfc0481cebcf528f1ff","properties":{"address":"East Java","attribution":"Sumber publik: Sumber publik terindeks OpenCCTV","catalogSourceKey":"national-public-directory-live","city":"East Java","kind":"cctv","mediaFormat":"iframe","mimeType":"","name":"Nganjuk › South","operator":"Sumber publik terindeks OpenCCTV","province":"Jawa Timur","publicUrl":"https://opencctv.org/cameras/indonesia/east-java/nganjuk/nganjuk-south-318257","region":"Jawa Timur","source":"Sumber publik terindeks OpenCCTV","sourceId":"cctv:faf66cfc0481cebcf528f1ff","sourceUrl":"https://opencctv.org/cameras/indonesia/east-java/nganjuk/nganjuk-south-318257","streamStatus":"public-page","streamUrl":"https://opencctv.org/cameras/indonesia/east-java/nganjuk/nganjuk-south-318257","updatedAt":"2026-08-11T15:20:39.770Z","verification":"public-directory-live"},"type":"Feature"},{"geometry":{"coordinates":[111.91635,-7.58932],"type":"Point"},"id":"cctv-national-fc109461139bead8fec3406d","properties":{"address":"East Java","attribution":"Sumber publik: Sumber publik terindeks OpenCCTV","catalogSourceKey":"national-public-directory-live","city":"East Java","kind":"cctv","mediaFormat":"iframe","mimeType":"","name":"Nganjuk","operator":"Sumber publik terindeks OpenCCTV","province":"Jawa Timur","publicUrl":"https://opencctv.org/cameras/indonesia/east-java/nganjuk/nganjuk-318490","region":"Jawa Timur","source":"Sumber publik terindeks OpenCCTV","sourceId":"cctv:fc109461139bead8fec3406d","sourceUrl":"https://opencctv.org/cameras/indonesia/east-java/nganjuk/nganjuk-318490","streamStatus":"public-page","streamUrl":"https://opencctv.org/cameras/indonesia/east-java/nganjuk/nganjuk-318490","updatedAt":"2026-08-11T15:20:39.770Z","verification":"public-directory-live"},"type":"Feature"}],"type":"FeatureCollection"}
