{"features":[{"geometry":{"coordinates":[107.54910637,-6.36983443],"type":"Point"},"id":"binamarga-national-directory-ch-80/ch-jembatan-cilamaya-karawang","properties":{"address":"Jawa Barat","attribution":"Koordinat dan tautan pemutar: Direktorat Jenderal Bina Marga, Kementerian PU","catalogSourceKey":"binamarga-national-directory","category":"ch","city":"","kind":"cctv","mediaFormat":"iframe","mimeType":"","name":"Jembatan Cilamaya — Karawang","operator":"Direktorat Jenderal Bina Marga / penyedia terkait","province":"Jawa Barat","publicUrl":"https://binamarga.pu.go.id/cctv-non-tol","region":"Jawa Barat","source":"Direktori CCTV Jalan Non Tol Direktorat Jenderal Bina Marga","sourceId":"ch/80/ch","sourceUrl":"https://binamarga.pu.go.id/cctv-non-tol","streamStatus":"public-page","streamUrl":"https://binamarga.pu.go.id/play-hls/80/ch","updatedAt":"2026-07-29T15:13:44.212Z","usageNote":"Tautan berasal dari direktori resmi. Kemampuan embed/live bergantung pada kebijakan penyedia asal dan tidak disamakan dengan HLS verified-live.","verification":"directory-verified","verificationMethod":"official-directory-coordinate-and-player-link"},"type":"Feature"},{"geometry":{"coordinates":[107.3444886,-6.35050184],"type":"Point"},"id":"binamarga-national-directory-its-41/its-klari-karawang","properties":{"address":"Jawa Barat","attribution":"Koordinat dan tautan pemutar: Direktorat Jenderal Bina Marga, Kementerian PU","catalogSourceKey":"binamarga-national-directory","category":"its","city":"","kind":"cctv","mediaFormat":"iframe","mimeType":"","name":"Klari — Karawang","operator":"Direktorat Jenderal Bina Marga / penyedia terkait","province":"Jawa Barat","publicUrl":"https://binamarga.pu.go.id/cctv-non-tol","region":"Jawa Barat","source":"Direktori CCTV Jalan Non Tol Direktorat Jenderal Bina Marga","sourceId":"its/41/its","sourceUrl":"https://binamarga.pu.go.id/cctv-non-tol","streamStatus":"public-page","streamUrl":"https://binamarga.pu.go.id/play-hls/41/its","updatedAt":"2026-07-29T15:13:44.212Z","usageNote":"Tautan berasal dari direktori resmi. Kemampuan embed/live bergantung pada kebijakan penyedia asal dan tidak disamakan dengan HLS verified-live.","verification":"directory-verified","verificationMethod":"official-directory-coordinate-and-player-link"},"type":"Feature"},{"geometry":{"coordinates":[107.4344736,-6.39650755],"type":"Point"},"id":"binamarga-national-directory-its-42/its-cikampek-karawang","properties":{"address":"Jawa Barat","attribution":"Koordinat dan tautan pemutar: Direktorat Jenderal Bina Marga, Kementerian PU","catalogSourceKey":"binamarga-national-directory","category":"its","city":"","kind":"cctv","mediaFormat":"iframe","mimeType":"","name":"Cikampek — Karawang","operator":"Direktorat Jenderal Bina Marga / penyedia terkait","province":"Jawa Barat","publicUrl":"https://binamarga.pu.go.id/cctv-non-tol","region":"Jawa Barat","source":"Direktori CCTV Jalan Non Tol Direktorat Jenderal Bina Marga","sourceId":"its/42/its","sourceUrl":"https://binamarga.pu.go.id/cctv-non-tol","streamStatus":"public-page","streamUrl":"https://binamarga.pu.go.id/play-hls/42/its","updatedAt":"2026-07-29T15:13:44.212Z","usageNote":"Tautan berasal dari direktori resmi. Kemampuan embed/live bergantung pada kebijakan penyedia asal dan tidak disamakan dengan HLS verified-live.","verification":"directory-verified","verificationMethod":"official-directory-coordinate-and-player-link"},"type":"Feature"},{"geometry":{"coordinates":[107.436536550522,-6.42746874652198],"type":"Point"},"id":"cctv-national-70656591b5145813de8482bf","properties":{"address":"Jawa Barat","attribution":"Sumber publik: Sumber publik terindeks OpenCCTV","catalogSourceKey":"national-public-directory-live","city":"","kind":"cctv","mediaFormat":"iframe","mimeType":"","name":"CIKAMPEK KM 69+000","operator":"Sumber publik terindeks OpenCCTV","province":"Jawa Barat","publicUrl":"https://opencctv.org/cameras/indonesia/jawa-barat/cikampek-km-69000-389299","region":"Jawa Barat","source":"Sumber publik terindeks OpenCCTV","sourceId":"cctv:70656591b5145813de8482bf","sourceUrl":"https://opencctv.org/cameras/indonesia/jawa-barat/cikampek-km-69000-389299","streamStatus":"public-page","streamUrl":"https://opencctv.org/cameras/indonesia/jawa-barat/cikampek-km-69000-389299","updatedAt":"2026-08-11T15:20:39.762Z","verification":"public-directory-live"},"type":"Feature"},{"geometry":{"coordinates":[107.4283182621,-6.42424899398316],"type":"Point"},"id":"cctv-national-7952393b10c4637f76479c98","properties":{"address":"Jawa Barat","attribution":"Sumber publik: Sumber publik terindeks OpenCCTV","catalogSourceKey":"national-public-directory-live","city":"","kind":"cctv","mediaFormat":"iframe","mimeType":"","name":"CIKAMPEK KM 68+000","operator":"Sumber publik terindeks OpenCCTV","province":"Jawa Barat","publicUrl":"https://opencctv.org/cameras/indonesia/jawa-barat/cikampek-km-68000-389298","region":"Jawa Barat","source":"Sumber publik terindeks OpenCCTV","sourceId":"cctv:7952393b10c4637f76479c98","sourceUrl":"https://opencctv.org/cameras/indonesia/jawa-barat/cikampek-km-68000-389298","streamStatus":"public-page","streamUrl":"https://opencctv.org/cameras/indonesia/jawa-barat/cikampek-km-68000-389298","updatedAt":"2026-08-11T15:20:39.762Z","verification":"public-directory-live"},"type":"Feature"},{"geometry":{"coordinates":[107.453327178955,-6.43413207692439],"type":"Point"},"id":"cctv-national-cf9af49a37bd2f6961e3ac2b","properties":{"address":"Jawa Barat","attribution":"Sumber publik: Sumber publik terindeks OpenCCTV","catalogSourceKey":"national-public-directory-live","city":"","kind":"cctv","mediaFormat":"iframe","mimeType":"","name":"CIKAMPEK KM 71+000","operator":"Sumber publik terindeks OpenCCTV","province":"Jawa Barat","publicUrl":"https://opencctv.org/cameras/indonesia/jawa-barat/cikampek-km-71000-389300","region":"Jawa Barat","source":"Sumber publik terindeks OpenCCTV","sourceId":"cctv:cf9af49a37bd2f6961e3ac2b","sourceUrl":"https://opencctv.org/cameras/indonesia/jawa-barat/cikampek-km-71000-389300","streamStatus":"public-page","streamUrl":"https://opencctv.org/cameras/indonesia/jawa-barat/cikampek-km-71000-389300","updatedAt":"2026-08-11T15:20:39.762Z","verification":"public-directory-live"},"type":"Feature"}],"type":"FeatureCollection"}
