{"type":"FeatureCollection","features":[{"type":"Feature","id":"pmtiles:10/794/497:water:2090:0","properties":{"class":"ocean","water":"ocean","kind":"waterway","verification":"verified","source":"OpenMapTiles/OpenStreetMap national PMTiles","sourceId":"10/794/497:water:2090:0","sourceLayer":"water","archive":"https://its.hanifahseptiani45.workers.dev/v1/map/archive/indonesia.pmtiles","updatedAt":"2026-07-26T09:38:29.146Z"},"geometry":{"type":"Polygon","coordinates":[[[99.1351318359375,5.271477837928373],[99.4976806640625,5.271477837928373],[99.4976806640625,4.910359820532264],[99.1351318359375,4.910359820532264],[99.1351318359375,5.271477837928373]]]}}]}