{"type":"FeatureCollection","features":[{"type":"Feature","id":"pmtiles:10/790/520:water:900:0","properties":{"class":"ocean","water":"ocean","kind":"waterway","verification":"verified","source":"OpenMapTiles/OpenStreetMap national PMTiles","sourceId":"10/790/520:water:900:0","sourceLayer":"water","archive":"https://its.hanifahseptiani45.workers.dev/v1/map/archive/indonesia.pmtiles","updatedAt":"2026-07-26T09:43:05.246Z"},"geometry":{"type":"Polygon","coordinates":[[[97.7288818359375,-2.8058846278244545],[98.0914306640625,-2.8058846278244545],[98.0914306640625,-3.167940314402756],[97.7288818359375,-3.167940314402756],[97.7288818359375,-2.8058846278244545]]]}}]}