{"type":"FeatureCollection","features":[{"type":"Feature","id":"pmtiles:10/787/539:water:2570:0","properties":{"class":"ocean","water":"ocean","kind":"waterway","verification":"verified","source":"OpenMapTiles/OpenStreetMap national PMTiles","sourceId":"10/787/539:water:2570:0","sourceLayer":"water","archive":"https://its.hanifahseptiani45.workers.dev/v1/map/archive/indonesia.pmtiles","updatedAt":"2026-07-26T09:46:49.083Z"},"geometry":{"type":"Polygon","coordinates":[[[96.6741943359375,-9.443643151732559],[97.0367431640625,-9.443643151732559],[97.0367431640625,-9.801090616449585],[96.6741943359375,-9.801090616449585],[96.6741943359375,-9.443643151732559]]]}}]}