{"type":"FeatureCollection","features":[{"type":"Feature","id":"pmtiles:10/796/521:water:1170:0","properties":{"class":"ocean","water":"ocean","kind":"waterway","verification":"verified","source":"OpenMapTiles/OpenStreetMap national PMTiles","sourceId":"10/796/521:water:1170:0","sourceLayer":"water","archive":"https://its.hanifahseptiani45.workers.dev/v1/map/archive/indonesia.pmtiles","updatedAt":"2026-07-26T09:43:30.534Z"},"geometry":{"type":"Polygon","coordinates":[[[99.8382568359375,-3.156970717063345],[100.2008056640625,-3.156970717063345],[100.2008056640625,-3.5189038690258485],[99.8382568359375,-3.5189038690258485],[99.8382568359375,-3.156970717063345]]]}}]}