{"type":"FeatureCollection","features":[{"type":"Feature","id":"pmtiles:10/780/543:water:2510:0","properties":{"class":"ocean","water":"ocean","kind":"waterway","verification":"verified","source":"OpenMapTiles/OpenStreetMap national PMTiles","sourceId":"10/780/543:water:2510:0","sourceLayer":"water","archive":"https://its.hanifahseptiani45.workers.dev/v1/map/archive/indonesia.pmtiles","updatedAt":"2026-07-26T09:47:25.271Z"},"geometry":{"type":"Polygon","coordinates":[[[94.2132568359375,-10.827910669267112],[94.5758056640625,-10.827910669267112],[94.5758056640625,-11.183790773046624],[94.2132568359375,-11.183790773046624],[94.2132568359375,-10.827910669267112]]]}}]}