{"type":"FeatureCollection","features":[{"type":"Feature","id":"pmtiles:10/798/531:water:2620:0","properties":{"class":"ocean","water":"ocean","kind":"waterway","verification":"verified","source":"OpenMapTiles/OpenStreetMap national PMTiles","sourceId":"10/798/531:water:2620:0","sourceLayer":"water","archive":"https://its.hanifahseptiani45.workers.dev/v1/map/archive/indonesia.pmtiles","updatedAt":"2026-07-26T09:45:06.371Z"},"geometry":{"type":"Polygon","coordinates":[[[100.5413818359375,-6.659151487659315],[100.9039306640625,-6.659151487659315],[100.9039306640625,-7.019119954643813],[100.5413818359375,-7.019119954643813],[100.5413818359375,-6.659151487659315]]]}}]}