{"type":"FeatureCollection","features":[{"type":"Feature","id":"pmtiles:10/791/493:water:160:0","properties":{"class":"ocean","water":"ocean","kind":"waterway","verification":"verified","source":"OpenMapTiles/OpenStreetMap national PMTiles","sourceId":"10/791/493:water:160:0","sourceLayer":"water","archive":"https://its.hanifahseptiani45.workers.dev/v1/map/archive/indonesia.pmtiles","updatedAt":"2026-07-26T09:37:45.536Z"},"geometry":{"type":"Polygon","coordinates":[[[98.0804443359375,6.670063575977281],[98.4429931640625,6.670063575977281],[98.4429931640625,6.309838680093364],[98.0804443359375,6.309838680093364],[98.0804443359375,6.670063575977281]]]}}]}