{"type":"FeatureCollection","features":[{"type":"Feature","id":"pmtiles:10/781/513:water:2550:0","properties":{"class":"ocean","water":"ocean","kind":"waterway","verification":"verified","source":"OpenMapTiles/OpenStreetMap national PMTiles","sourceId":"10/781/513:water:2550:0","sourceLayer":"water","archive":"https://its.hanifahseptiani45.workers.dev/v1/map/archive/indonesia.pmtiles","updatedAt":"2026-07-26T09:41:44.009Z"},"geometry":{"type":"Polygon","coordinates":[[[94.5648193359375,-0.34606723172845477],[94.9273681640625,-0.34606723172845477],[94.9273681640625,-0.7086000996551007],[94.5648193359375,-0.7086000996551007],[94.5648193359375,-0.34606723172845477]]]}}]}