{"type":"FeatureCollection","features":[{"type":"Feature","id":"pmtiles:10/789/494:water:1120:0","properties":{"class":"ocean","water":"ocean","kind":"waterway","verification":"verified","source":"OpenMapTiles/OpenStreetMap national PMTiles","sourceId":"10/789/494:water:1120:0","sourceLayer":"water","archive":"https://its.hanifahseptiani45.workers.dev/v1/map/archive/indonesia.pmtiles","updatedAt":"2026-07-26T09:37:58.623Z"},"geometry":{"type":"Polygon","coordinates":[[[97.3773193359375,6.320758338986863],[97.7398681640625,6.320758338986863],[97.7398681640625,5.960290229693385],[97.3773193359375,5.960290229693385],[97.3773193359375,6.320758338986863]]]}}]}