{"type":"FeatureCollection","features":[{"type":"Feature","id":"pmtiles:10/791/519:water:350:0","properties":{"class":"ocean","water":"ocean","kind":"waterway","verification":"verified","source":"OpenMapTiles/OpenStreetMap national PMTiles","sourceId":"10/791/519:water:350:0","sourceLayer":"water","archive":"https://its.hanifahseptiani45.workers.dev/v1/map/archive/indonesia.pmtiles","updatedAt":"2026-07-26T09:42:52.550Z"},"geometry":{"type":"Polygon","coordinates":[[[98.0804443359375,-2.454693068753784],[98.4429931640625,-2.454693068753784],[98.4429931640625,-2.816857733037736],[98.0804443359375,-2.816857733037736],[98.0804443359375,-2.454693068753784]]]}}]}