{"type":"FeatureCollection","features":[{"type":"Feature","id":"pmtiles:10/797/519:landuse:1808443320:0","properties":{"class":"residential","kind":"green","verification":"verified","source":"OpenMapTiles/OpenStreetMap national PMTiles","sourceId":"10/797/519:landuse:1808443320:0","sourceLayer":"landuse","archive":"https://its.hanifahseptiani45.workers.dev/v1/map/archive/indonesia.pmtiles","updatedAt":"2026-07-26T09:42:52.904Z"},"geometry":{"type":"Polygon","coordinates":[[[100.20269393920898,-2.725383490421379],[100.20389556884766,-2.7249548223148707],[100.20466804504395,-2.725640691212007],[100.20312309265137,-2.7271838948012714],[100.20423889160156,-2.7283841628908476],[100.20355224609375,-2.7289842964863027],[100.20106315612793,-2.726240826176351],[100.20269393920898,-2.725383490421379]]]}},{"type":"Feature","id":"pmtiles:10/797/519:landuse:1808443320:1","properties":{"class":"residential","kind":"green","verification":"verified","source":"OpenMapTiles/OpenStreetMap national PMTiles","sourceId":"10/797/519:landuse:1808443320:1","sourceLayer":"landuse","archive":"https://its.hanifahseptiani45.workers.dev/v1/map/archive/indonesia.pmtiles","updatedAt":"2026-07-26T09:42:52.904Z"},"geometry":{"type":"Polygon","coordinates":[[[100.20895957946777,-2.7869386336443682],[100.20784378051758,-2.7893390480120104],[100.20586967468262,-2.788653215835339],[100.20578384399414,-2.787710195939482],[100.2066421508789,-2.787110091975876],[100.20784378051758,-2.786509987706296],[100.20895957946777,-2.7869386336443682]]]}},{"type":"Feature","id":"pmtiles:10/797/519:landuse:1808443320:2","properties":{"class":"residential","kind":"green","verification":"verified","source":"OpenMapTiles/OpenStreetMap national PMTiles","sourceId":"10/797/519:landuse:1808443320:2","sourceLayer":"landuse","archive":"https://its.hanifahseptiani45.workers.dev/v1/map/archive/indonesia.pmtiles","updatedAt":"2026-07-26T09:42:52.904Z"},"geometry":{"type":"Polygon","coordinates":[[[100.2308464050293,-2.7996264826101935],[100.23144721984863,-2.7990263847362513],[100.2323055267334,-2.7991121130227725],[100.23316383361816,-2.7996264826101935],[100.23316383361816,-2.8003980365679126],[100.2308464050293,-2.8003123083754957],[100.2308464050293,-2.7996264826101935]]]}},{"type":"Feature","id":"pmtiles:10/797/519:landuse:1808443320:3","properties":{"class":"residential","kind":"green","verification":"verified","source":"OpenMapTiles/OpenStreetMap national PMTiles","sourceId":"10/797/519:landuse:1808443320:3","sourceLayer":"landuse","archive":"https://its.hanifahseptiani45.workers.dev/v1/map/archive/indonesia.pmtiles","updatedAt":"2026-07-26T09:42:52.904Z"},"geometry":{"type":"Polygon","coordinates":[[[100.22089004516602,-2.7888246739169915],[100.22320747375488,-2.7883960286659857],[100.2227783203125,-2.790367795527061],[100.22080421447754,-2.7893390480120104],[100.22089004516602,-2.7888246739169915]]]}},{"type":"Feature","id":"pmtiles:10/797/519:transportation:8632081770:0","properties":{"class":"ferry","highway":"ferry","kind":"road","verification":"verified","source":"OpenMapTiles/OpenStreetMap national PMTiles","sourceId":"10/797/519:transportation:8632081770:0","sourceLayer":"transportation","archive":"https://its.hanifahseptiani45.workers.dev/v1/map/archive/indonesia.pmtiles","updatedAt":"2026-07-26T09:42:52.904Z"},"geometry":{"type":"LineString","coordinates":[[100.21591186523438,-2.777422657127701],[100.21848678588867,-2.777165467507885],[100.21951675415039,-2.776822547927665],[100.22080421447754,-2.776222438422778],[100.22449493408203,-2.7736505370932036],[100.22878646850586,-2.771850202834287],[100.5523681640625,-2.672313225916895]]}},{"type":"Feature","id":"pmtiles:10/797/519:transportation:8632081770:1","properties":{"class":"ferry","highway":"ferry","kind":"road","verification":"verified","source":"OpenMapTiles/OpenStreetMap national PMTiles","sourceId":"10/797/519:transportation:8632081770:1","sourceLayer":"transportation","archive":"https://its.hanifahseptiani45.workers.dev/v1/map/archive/indonesia.pmtiles","updatedAt":"2026-07-26T09:42:52.904Z"},"geometry":{"type":"LineString","coordinates":[[100.3268051147461,-2.816857733037736],[100.27144432067871,-2.7853097782494274],[100.2626895904541,-2.7826521672428157],[100.24818420410156,-2.781709142541885],[100.23582458496094,-2.779651631486175],[100.23324966430664,-2.7800802799186926],[100.22887229919434,-2.781623412986221],[100.22758483886719,-2.781794872091311],[100.2256965637207,-2.781623412986221],[100.22294998168945,-2.780766117086827],[100.21908760070801,-2.7781942256510916],[100.21771430969238,-2.777508386988515],[100.21591186523438,-2.777422657127701],[100.21865844726562,-2.77656535817718],[100.22037506103516,-2.7757080586045646],[100.2253532409668,-2.7697926746133277],[100.23247718811035,-2.765163223050436],[100.24792671203613,-2.756332922777574],[100.2528190612793,-2.7505889058617754],[100.25436401367188,-2.745873647415337],[100.23548126220703,-2.701635047944521],[100.19119262695312,-2.6412759145756155],[100.1898193359375,-2.6402470400940956]]}},{"type":"Feature","id":"pmtiles:10/797/519:water:350:0","properties":{"class":"ocean","water":"ocean","kind":"waterway","verification":"verified","source":"OpenMapTiles/OpenStreetMap national PMTiles","sourceId":"10/797/519:water:350:0","sourceLayer":"water","archive":"https://its.hanifahseptiani45.workers.dev/v1/map/archive/indonesia.pmtiles","updatedAt":"2026-07-26T09:42:52.904Z"},"geometry":{"type":"Polygon","coordinates":[[[100.25238990783691,-2.8117998301754312],[100.25221824645996,-2.8117998301754312],[100.25341987609863,-2.8111997385493055],[100.25367736816406,-2.810942556329337],[100.25487899780273,-2.80965664437943],[100.2560806274414,-2.8093137342868744],[100.25668144226074,-2.809485189345736],[100.25650978088379,-2.8089708240936204],[100.25668144226074,-2.808199275790642],[100.25616645812988,-2.8079420929097267],[100.2560806274414,-2.8072562716171348],[100.2568531036377,-2.80665617765591],[100.25814056396484,-2.806056083386565],[100.25848388671875,-2.8054559888091717],[100.2583122253418,-2.804512982422409],[100.25771141052246,-2.803484247315211],[100.25779724121094,-2.803227063397074],[100.25848388671875,-2.8031413354117944],[100.25788307189941,-2.8017696867933637],[100.25771141052246,-2.801855414879114],[100.25753974914551,-2.8030556074202337],[100.25599479675293,-2.803398519348775],[100.25590896606445,-2.8042557987304235],[100.25659561157227,-2.805713172237205],[100.25565147399902,-2.8064847221818354],[100.25547981262207,-2.807856365270169],[100.25496482849121,-2.8079420929097267],[100.25341987609863,-2.8075134546490403],[100.25247573852539,-2.8076849099721812],[100.2517032623291,-2.807341999300732],[100.2505874633789,-2.8071705439272563],[100.24861335754395,-2.8072562716171348],[100.24835586547852,-2.8067419053835323],[100.25007247924805,-2.8058846278244545],[100.2505874633789,-2.8059703556086504],[100.25110244750977,-2.8068276331048594],[100.25196075439453,-2.806913360819891],[100.2517032623291,-2.8047701660578497],[100.25230407714844,-2.804512982422409],[100.2517032623291,-2.8041700708205184],[100.25256156921387,-2.803998614981893],[100.25213241577148,-2.8031413354117944],[100.25324821472168,-2.802284055213647],[100.25264739990234,-2.8016839587013465],[100.25204658508301,-2.8019411429585546],[100.25196075439453,-2.801598230603048],[100.25230407714844,-2.801255318147099],[100.25238990783691,-2.80082667743595],[100.25324821472168,-2.8003123083754957],[100.25367736816406,-2.8003980365679126],[100.25402069091797,-2.800998133739242],[100.25453567504883,-2.80082667743595],[100.25444984436035,-2.8005694929339597],[100.25376319885254,-2.7999693955430445],[100.25341987609863,-2.7990263847362513],[100.25213241577148,-2.7987691998390574],[100.25144577026367,-2.798340558218314],[100.25093078613281,-2.798683471527454],[100.24835586547852,-2.798340558218314],[100.24569511413574,-2.7972260892709073],[100.24423599243164,-2.798340558218314],[100.24234771728516,-2.798940656443463],[100.24157524108887,-2.7998836673192358],[100.24174690246582,-2.798683471527454],[100.24251937866211,-2.796883175535527],[100.24209022521973,-2.796025890758443],[100.2432918548584,-2.794482776581134],[100.24354934692383,-2.793796947406662],[100.24303436279297,-2.793196846550373],[100.24260520935059,-2.793711218731673],[100.24243354797363,-2.793625490050445],[100.24286270141602,-2.792511016624829],[100.24226188659668,-2.789853421882057],[100.24166107177734,-2.7899391508385207],[100.24131774902344,-2.78959623497515],[100.24148941040039,-2.788310299597029],[100.24028778076172,-2.7885674867851264],[100.23942947387695,-2.788224570521834],[100.23848533630371,-2.7860813416121317],[100.23702621459961,-2.785138319655715],[100.23659706115723,-2.7842810263128115],[100.2363395690918,-2.7841095675693595],[100.23539543151855,-2.7843667556751797],[100.23393630981445,-2.7841095675693595],[100.2326488494873,-2.7844524850313093],[100.23127555847168,-2.7843667556751797],[100.23076057434082,-2.7849668610370486],[100.2286148071289,-2.7856526953619323],[100.22706985473633,-2.7849668610370486],[100.22526741027832,-2.7834237323460798],[100.22483825683594,-2.7833380029151016],[100.2238941192627,-2.7835951911893346],[100.2238941192627,-2.7838523794074206],[100.22458076477051,-2.7838523794074206],[100.22458076477051,-2.7841095675693595],[100.2238941192627,-2.7843667556751797],[100.22355079650879,-2.7866814461002605],[100.2224349975586,-2.787967383258774],[100.22269248962402,-2.7884817577286753],[100.22192001342773,-2.7887389448792845],[100.22123336791992,-2.7884817577286753],[100.2213191986084,-2.787881654158582],[100.2198600769043,-2.7875387376953853],[100.21814346313477,-2.7861670708434616],[100.21634101867676,-2.785824153880739],[100.21574020385742,-2.7859956123745775],[100.21393775939941,-2.7861670708434616],[100.21333694458008,-2.7859098831307847],[100.21299362182617,-2.7862528000685245],[100.21222114562988,-2.7862528000685245],[100.21204948425293,-2.786509987706296],[100.21170616149902,-2.786338529287349],[100.21136283874512,-2.7865957169063904],[100.20981788635254,-2.7866814461002605],[100.20878791809082,-2.7869386336443682],[100.20853042602539,-2.7869386336443682],[100.20835876464844,-2.7865957169063904],[100.20767211914062,-2.7865957169063904],[100.20578384399414,-2.787710195939482],[100.20432472229004,-2.7872815502824295],[100.20295143127441,-2.7860813416121317],[100.20243644714355,-2.7859098831307847],[100.2019214630127,-2.786509987706296],[100.20174980163574,-2.7875387376953853],[100.20132064819336,-2.7880531123526993],[100.1996898651123,-2.788310299597029],[100.19891738891602,-2.7889104029484457],[100.19900321960449,-2.7901106087326895],[100.20037651062012,-2.7921681015118764],[100.20054817199707,-2.7929396603752252],[100.20029067993164,-2.793625490050445],[100.19926071166992,-2.7939684047378393],[100.19780158996582,-2.7940541333940416],[100.19617080688477,-2.7931111178315717],[100.19539833068848,-2.7931111178315717],[100.19428253173828,-2.7939684047378393],[100.19265174865723,-2.7956829766721825],[100.19222259521484,-2.7958544337278397],[100.19187927246094,-2.795940162246268],[100.19136428833008,-2.7954257910417226],[100.1912784576416,-2.793882676075384],[100.19162178039551,-2.7925967453874136],[100.19265174865723,-2.791482270985739],[100.19265174865723,-2.7912250844352258],[100.19196510314941,-2.79071071116536],[100.19076347351074,-2.7909678978284376],[100.1898193359375,-2.790882168946993],[100.1898193359375,-2.7846239437248386],[100.19050598144531,-2.7852240489556834],[100.19187927246094,-2.7856526953619323],[100.19265174865723,-2.785566966093157],[100.19325256347656,-2.7847954023934136],[100.19471168518066,-2.7847096730622525],[100.1953125,-2.7831665440344437],[100.19625663757324,-2.782309249257011],[100.19634246826172,-2.781709142541885],[100.19599914550781,-2.7799945502446377],[100.1956558227539,-2.779308712628037],[100.19479751586914,-2.7790515234190707],[100.19454002380371,-2.7786228746128927],[100.19548416137695,-2.7781084958400584],[100.19599914550781,-2.7782799554559006],[100.19634246826172,-2.7781084958400584],[100.19617080688477,-2.777508386988515],[100.19625663757324,-2.777079737622145],[100.19659996032715,-2.7766510881002375],[100.19728660583496,-2.7763938983124206],[100.19754409790039,-2.775793788589823],[100.19720077514648,-2.775107948533673],[100.19840240478516,-2.775022218498677],[100.2011489868164,-2.7754508686115003],[100.20552635192871,-2.777165467507885],[100.20638465881348,-2.776822547927665],[100.20707130432129,-2.7769082778320495],[100.20913124084473,-2.778965793670281],[100.21007537841797,-2.7792229828979345],[100.21299362182617,-2.7790515234190707],[100.21410942077637,-2.7780227660228007],[100.21591186523438,-2.7773369272606487],[100.21788597106934,-2.776222438422778],[100.21917343139648,-2.7726217749950166],[100.21908760070801,-2.771164360491312],[100.21925926208496,-2.7684209871466265],[100.21900177001953,-2.76747795109209],[100.21797180175781,-2.765849068867155],[100.21780014038086,-2.764477376837206],[100.21908760070801,-2.7625055667663077],[100.21917343139648,-2.7600193667927755],[100.2198600769043,-2.7595907110991362],[100.21994590759277,-2.758561936803787],[100.21943092346191,-2.757961818053772],[100.21934509277344,-2.757190236358838],[100.21960258483887,-2.756847311000456],[100.22028923034668,-2.7566758482842175],[100.21968841552734,-2.7564186541634967],[100.21917343139648,-2.7566758482842175],[100.21883010864258,-2.7561614599872115],[100.21857261657715,-2.7536752467517402],[100.2187442779541,-2.753160857158477],[100.21943092346191,-2.7525607356856483],[100.2198600769043,-2.7540181730238515],[100.2202033996582,-2.754275367663155],[100.22080421447754,-2.7541039045764677],[100.22140502929688,-2.7537609783290264],[100.22320747375488,-2.751789150490808],[100.2216625213623,-2.749817319390914],[100.22149085998535,-2.7482741449521058],[100.22174835205078,-2.7462165759302906],[100.22157669067383,-2.7439875388237738],[100.22046089172363,-2.7397866499050707],[100.21977424621582,-2.7383291952024535],[100.21737098693848,-2.7354142804785226],[100.21685600280762,-2.7334424223824243],[100.21531105041504,-2.7306989622507274],[100.21445274353027,-2.7276982955577864],[100.21385192871094,-2.7266694938247866],[100.21307945251465,-2.7258978919476675],[100.21204948425293,-2.7254692240243656],[100.20990371704102,-2.7249548223148707],[100.20750045776367,-2.7233258821182176],[100.2051830291748,-2.72006799511756],[100.20346641540527,-2.7164671624041574],[100.20217895507812,-2.711751769997335],[100.20200729370117,-2.708579586579802],[100.2011489868164,-2.707379298795118],[100.20097732543945,-2.7065219496494564],[100.2011489868164,-2.703864163444706],[100.20054817199707,-2.7026638709917847],[100.20003318786621,-2.7002632825255404],[100.1996898651123,-2.699834605514397],[100.19728660583496,-2.6985485735736603],[100.1964282989502,-2.697519747041426],[100.19265174865723,-2.690232200872174],[100.18999099731445,-2.684230659553762],[100.1898193359375,-2.683973449981025],[100.1898193359375,-2.454693068753784],[100.5523681640625,-2.454693068753784],[100.5523681640625,-2.810942556329337],[100.5523681640625,-2.8117998301754312],[100.5523681640625,-2.816857733037736],[100.26483535766602,-2.816857733037736],[100.26449203491211,-2.815829008810283],[100.26492118835449,-2.8153146463558727],[100.2656078338623,-2.815571827611464],[100.26586532592773,-2.8154003734473747],[100.26543617248535,-2.814457375093923],[100.26509284973145,-2.8142859207658546],[100.26483535766602,-2.8149717379267827],[100.26440620422363,-2.815228919258061],[100.26311874389648,-2.8138572848353647],[100.26191711425781,-2.8142859207658546],[100.26123046875,-2.8140287392264725],[100.26097297668457,-2.813085739763295],[100.26140213012695,-2.8123999214928688],[100.26131629943848,-2.8117998301754312],[100.26131629943848,-2.811285465943371],[100.26097297668457,-2.811285465943371],[100.26071548461914,-2.811114011148959],[100.26002883911133,-2.8113711933311265],[100.2601146697998,-2.8129142852334894],[100.26062965393066,-2.8134286487472338],[100.26045799255371,-2.8139430120340734],[100.26131629943848,-2.815057465043523],[100.26123046875,-2.815829008810283],[100.26054382324219,-2.815914735863956],[100.26045799255371,-2.8161719169870594],[100.2615737915039,-2.816857733037736],[100.25985717773438,-2.816857733037736],[100.25959968566895,-2.8162576440154794],[100.25882720947266,-2.81634337103759],[100.25856971740723,-2.81514319215394],[100.25891304016113,-2.815057465043523],[100.26028633117676,-2.8156575546840514],[100.26045799255371,-2.814800283674387],[100.2601146697998,-2.8143716479330436],[100.25934219360352,-2.8139430120340734],[100.2586555480957,-2.8139430120340734],[100.25814056396484,-2.8148860108037326],[100.25822639465332,-2.815571827611464],[100.25676727294922,-2.8164290980533906],[100.25650978088379,-2.816857733037736],[100.2560806274414,-2.816857733037736],[100.25590896606445,-2.8160861899523297],[100.2546215057373,-2.8165148250628818],[100.25247573852539,-2.815914735863956],[100.25238990783691,-2.8154003734473747],[100.2517032623291,-2.814800283674387],[100.25178909301758,-2.8135143759774763],[100.25144577026367,-2.8125713760982904],[100.25153160095215,-2.8121427395374923],[100.25238990783691,-2.8117998301754312]],[[100.25711059570312,-2.8134286487472338],[100.25590896606445,-2.812657103391544],[100.2553939819336,-2.812657103391544],[100.25487899780273,-2.8131714670187336],[100.25444984436035,-2.814800283674387],[100.25496482849121,-2.8148860108037326],[100.25522232055664,-2.8153146463558727],[100.2560806274414,-2.815914735863956],[100.25625228881836,-2.815571827611464],[100.25693893432617,-2.815228919258061],[100.2568531036377,-2.814628829396767],[100.25736808776855,-2.8140287392264725],[100.25711059570312,-2.8134286487472338]],[[100.25419235229492,-2.8020268710317424],[100.25444984436035,-2.8027984234078787],[100.25393486022949,-2.803312791376058],[100.25393486022949,-2.8038271591181285],[100.25487899780273,-2.803998614981893],[100.25505065917969,-2.8039128870531584],[100.25505065917969,-2.803398519348775],[100.25599479675293,-2.802884151418283],[100.2560806274414,-2.802112599098649],[100.25547981262207,-2.802112599098649],[100.25522232055664,-2.8017696867933637],[100.2553939819336,-2.801426774387636],[100.2557373046875,-2.8015125024984826],[100.25590896606445,-2.801255318147099],[100.25565147399902,-2.801083861881466],[100.25479316711426,-2.801255318147099],[100.25419235229492,-2.8020268710317424]],[[100.22818565368652,-2.7787943341540426],[100.2279281616211,-2.7781084958400584],[100.2271556854248,-2.7769082778320495],[100.22432327270508,-2.775365138601373],[100.22380828857422,-2.775365138601373],[100.22346496582031,-2.775879518568857],[100.22380828857422,-2.7769082778320495],[100.22346496582031,-2.7781942256510916],[100.22355079650879,-2.7785371448329954],[100.22458076477051,-2.77870860438658],[100.22509574890137,-2.779137253161622],[100.22561073303223,-2.778965793670281],[100.22664070129395,-2.779651631486175],[100.22724151611328,-2.7797373611851413],[100.22767066955566,-2.7794801720695546],[100.22775650024414,-2.778880063915267],[100.22818565368652,-2.7787943341540426]]]}},{"type":"Feature","id":"pmtiles:10/797/520:water:350:1","properties":{"class":"ocean","water":"ocean","kind":"waterway","verification":"verified","source":"OpenMapTiles/OpenStreetMap national PMTiles","sourceId":"10/797/520:water:350:1","sourceLayer":"water","archive":"https://its.hanifahseptiani45.workers.dev/v1/map/archive/indonesia.pmtiles","updatedAt":"2026-07-26T09:43:06.841Z"},"geometry":{"type":"Polygon","coordinates":[[[100.25178909301758,-2.8058846278244545],[100.25633811950684,-2.8058846278244545],[100.25565147399902,-2.8064847221818354],[100.25547981262207,-2.807856365270169],[100.25496482849121,-2.8079420929097267],[100.25341987609863,-2.8075134546490403],[100.25247573852539,-2.8076849099721812],[100.2517032623291,-2.807341999300732],[100.2505874633789,-2.8071705439272563],[100.24861335754395,-2.8072562716171348],[100.24835586547852,-2.8067419053835323],[100.25007247924805,-2.8058846278244545],[100.2505874633789,-2.8059703556086504],[100.25110244750977,-2.8068276331048594],[100.25196075439453,-2.806913360819891],[100.25178909301758,-2.8058846278244545]]]}}]}