{"type":"FeatureCollection","features":[{"type":"Feature","id":"pmtiles:12/3124/1973:water:460:0","properties":{"class":"ocean","water":"ocean","kind":"waterway","verification":"verified","source":"OpenMapTiles/OpenStreetMap national PMTiles","sourceId":"12/3124/1973:water:460:0","sourceLayer":"water","archive":"https://its.hanifahseptiani45.workers.dev/v1/map/archive/indonesia.pmtiles","updatedAt":"2026-07-26T10:33:46.371Z"},"geometry":{"type":"Polygon","coordinates":[[[94.56893920898438,6.578667368565007],[94.65957641601562,6.578667368565007],[94.65957641601562,6.488618840362278],[94.56893920898438,6.488618840362278],[94.56893920898438,6.578667368565007]]]}},{"type":"Feature","id":"pmtiles:12/3125/1973:water:460:0","properties":{"class":"ocean","water":"ocean","kind":"waterway","verification":"verified","source":"OpenMapTiles/OpenStreetMap national PMTiles","sourceId":"12/3125/1973:water:460:0","sourceLayer":"water","archive":"https://its.hanifahseptiani45.workers.dev/v1/map/archive/indonesia.pmtiles","updatedAt":"2026-07-26T10:33:46.435Z"},"geometry":{"type":"Polygon","coordinates":[[[94.65682983398438,6.578667368565007],[94.74746704101562,6.578667368565007],[94.74746704101562,6.488618840362278],[94.65682983398438,6.488618840362278],[94.65682983398438,6.578667368565007]]]}},{"type":"Feature","id":"pmtiles:12/3126/1973:water:460:0","properties":{"class":"ocean","water":"ocean","kind":"waterway","verification":"verified","source":"OpenMapTiles/OpenStreetMap national PMTiles","sourceId":"12/3126/1973:water:460:0","sourceLayer":"water","archive":"https://its.hanifahseptiani45.workers.dev/v1/map/archive/indonesia.pmtiles","updatedAt":"2026-07-26T10:33:46.502Z"},"geometry":{"type":"Polygon","coordinates":[[[94.74472045898438,6.578667368565007],[94.83535766601562,6.578667368565007],[94.83535766601562,6.488618840362278],[94.74472045898438,6.488618840362278],[94.74472045898438,6.578667368565007]]]}},{"type":"Feature","id":"pmtiles:12/3127/1973:water:460:0","properties":{"class":"ocean","water":"ocean","kind":"waterway","verification":"verified","source":"OpenMapTiles/OpenStreetMap national PMTiles","sourceId":"12/3127/1973:water:460:0","sourceLayer":"water","archive":"https://its.hanifahseptiani45.workers.dev/v1/map/archive/indonesia.pmtiles","updatedAt":"2026-07-26T10:33:46.587Z"},"geometry":{"type":"Polygon","coordinates":[[[94.83261108398438,6.578667368565007],[94.92324829101562,6.578667368565007],[94.92324829101562,6.488618840362278],[94.83261108398438,6.488618840362278],[94.83261108398438,6.578667368565007]]]}},{"type":"Feature","id":"pmtiles:12/3124/1974:water:460:0","properties":{"class":"ocean","water":"ocean","kind":"waterway","verification":"verified","source":"OpenMapTiles/OpenStreetMap national PMTiles","sourceId":"12/3124/1974:water:460:0","sourceLayer":"water","archive":"https://its.hanifahseptiani45.workers.dev/v1/map/archive/indonesia.pmtiles","updatedAt":"2026-07-26T10:34:20.605Z"},"geometry":{"type":"Polygon","coordinates":[[[94.56893920898438,6.491347821282432],[94.65957641601562,6.491347821282432],[94.65957641601562,6.4012836786624945],[94.56893920898438,6.4012836786624945],[94.56893920898438,6.491347821282432]]]}},{"type":"Feature","id":"pmtiles:12/3125/1974:water:460:0","properties":{"class":"ocean","water":"ocean","kind":"waterway","verification":"verified","source":"OpenMapTiles/OpenStreetMap national PMTiles","sourceId":"12/3125/1974:water:460:0","sourceLayer":"water","archive":"https://its.hanifahseptiani45.workers.dev/v1/map/archive/indonesia.pmtiles","updatedAt":"2026-07-26T10:34:20.674Z"},"geometry":{"type":"Polygon","coordinates":[[[94.65682983398438,6.491347821282432],[94.74746704101562,6.491347821282432],[94.74746704101562,6.4012836786624945],[94.65682983398438,6.4012836786624945],[94.65682983398438,6.491347821282432]]]}},{"type":"Feature","id":"pmtiles:12/3126/1974:water:460:0","properties":{"class":"ocean","water":"ocean","kind":"waterway","verification":"verified","source":"OpenMapTiles/OpenStreetMap national PMTiles","sourceId":"12/3126/1974:water:460:0","sourceLayer":"water","archive":"https://its.hanifahseptiani45.workers.dev/v1/map/archive/indonesia.pmtiles","updatedAt":"2026-07-26T10:34:20.743Z"},"geometry":{"type":"Polygon","coordinates":[[[94.74472045898438,6.491347821282432],[94.83535766601562,6.491347821282432],[94.83535766601562,6.4012836786624945],[94.74472045898438,6.4012836786624945],[94.74472045898438,6.491347821282432]]]}},{"type":"Feature","id":"pmtiles:12/3127/1974:water:460:0","properties":{"class":"ocean","water":"ocean","kind":"waterway","verification":"verified","source":"OpenMapTiles/OpenStreetMap national PMTiles","sourceId":"12/3127/1974:water:460:0","sourceLayer":"water","archive":"https://its.hanifahseptiani45.workers.dev/v1/map/archive/indonesia.pmtiles","updatedAt":"2026-07-26T10:34:20.800Z"},"geometry":{"type":"Polygon","coordinates":[[[94.83261108398438,6.491347821282432],[94.92324829101562,6.491347821282432],[94.92324829101562,6.4012836786624945],[94.83261108398438,6.4012836786624945],[94.83261108398438,6.491347821282432]]]}},{"type":"Feature","id":"pmtiles:12/3124/1975:water:460:0","properties":{"class":"ocean","water":"ocean","kind":"waterway","verification":"verified","source":"OpenMapTiles/OpenStreetMap national PMTiles","sourceId":"12/3124/1975:water:460:0","sourceLayer":"water","archive":"https://its.hanifahseptiani45.workers.dev/v1/map/archive/indonesia.pmtiles","updatedAt":"2026-07-26T10:34:52.832Z"},"geometry":{"type":"Polygon","coordinates":[[[94.56893920898438,6.40401312961761],[94.65957641601562,6.40401312961761],[94.65957641601562,6.31393357916707],[94.56893920898438,6.31393357916707],[94.56893920898438,6.40401312961761]]]}},{"type":"Feature","id":"pmtiles:12/3125/1975:water:460:0","properties":{"class":"ocean","water":"ocean","kind":"waterway","verification":"verified","source":"OpenMapTiles/OpenStreetMap national PMTiles","sourceId":"12/3125/1975:water:460:0","sourceLayer":"water","archive":"https://its.hanifahseptiani45.workers.dev/v1/map/archive/indonesia.pmtiles","updatedAt":"2026-07-26T10:34:52.897Z"},"geometry":{"type":"Polygon","coordinates":[[[94.65682983398438,6.40401312961761],[94.74746704101562,6.40401312961761],[94.74746704101562,6.31393357916707],[94.65682983398438,6.31393357916707],[94.65682983398438,6.40401312961761]]]}},{"type":"Feature","id":"pmtiles:12/3126/1975:water:460:0","properties":{"class":"ocean","water":"ocean","kind":"waterway","verification":"verified","source":"OpenMapTiles/OpenStreetMap national PMTiles","sourceId":"12/3126/1975:water:460:0","sourceLayer":"water","archive":"https://its.hanifahseptiani45.workers.dev/v1/map/archive/indonesia.pmtiles","updatedAt":"2026-07-26T10:34:52.980Z"},"geometry":{"type":"Polygon","coordinates":[[[94.74472045898438,6.40401312961761],[94.83535766601562,6.40401312961761],[94.83535766601562,6.31393357916707],[94.74472045898438,6.31393357916707],[94.74472045898438,6.40401312961761]]]}},{"type":"Feature","id":"pmtiles:12/3127/1975:water:460:0","properties":{"class":"ocean","water":"ocean","kind":"waterway","verification":"verified","source":"OpenMapTiles/OpenStreetMap national PMTiles","sourceId":"12/3127/1975:water:460:0","sourceLayer":"water","archive":"https://its.hanifahseptiani45.workers.dev/v1/map/archive/indonesia.pmtiles","updatedAt":"2026-07-26T10:34:53.049Z"},"geometry":{"type":"Polygon","coordinates":[[[94.83261108398438,6.40401312961761],[94.92324829101562,6.40401312961761],[94.92324829101562,6.31393357916707],[94.83261108398438,6.31393357916707],[94.83261108398438,6.40401312961761]]]}},{"type":"Feature","id":"pmtiles:10/781/493:water:460:0","properties":{"class":"ocean","water":"ocean","kind":"waterway","verification":"verified","source":"OpenMapTiles/OpenStreetMap national PMTiles","sourceId":"10/781/493:water:460:0","sourceLayer":"water","archive":"https://its.hanifahseptiani45.workers.dev/v1/map/archive/indonesia.pmtiles","updatedAt":"2026-07-26T09:37:44.331Z"},"geometry":{"type":"Polygon","coordinates":[[[94.5648193359375,6.670063575977281],[94.9273681640625,6.670063575977281],[94.9273681640625,6.309838680093364],[94.5648193359375,6.309838680093364],[94.5648193359375,6.670063575977281]]]}}]}