{"type":"FeatureCollection","features":[{"type":"Feature","id":"pmtiles:10/795/534:water:2620:0","properties":{"class":"ocean","water":"ocean","kind":"waterway","verification":"verified","source":"OpenMapTiles/OpenStreetMap national PMTiles","sourceId":"10/795/534:water:2620:0","sourceLayer":"water","archive":"https://its.hanifahseptiani45.workers.dev/v1/map/archive/indonesia.pmtiles","updatedAt":"2026-07-26T09:45:36.260Z"},"geometry":{"type":"Polygon","coordinates":[[[99.4866943359375,-7.705548128425903],[99.8492431640625,-7.705548128425903],[99.8492431640625,-8.064668502396387],[99.4866943359375,-8.064668502396387],[99.4866943359375,-7.705548128425903]]]}}]}