{"type":"FeatureCollection","features":[{"type":"Feature","id":"pmtiles:10/798/543:water:2600:0","properties":{"class":"ocean","water":"ocean","kind":"waterway","verification":"verified","source":"OpenMapTiles/OpenStreetMap national PMTiles","sourceId":"10/798/543:water:2600:0","sourceLayer":"water","archive":"https://its.hanifahseptiani45.workers.dev/v1/map/archive/indonesia.pmtiles","updatedAt":"2026-07-26T09:47:26.467Z"},"geometry":{"type":"Polygon","coordinates":[[[100.5413818359375,-10.827910669267112],[100.9039306640625,-10.827910669267112],[100.9039306640625,-11.183790773046624],[100.5413818359375,-11.183790773046624],[100.5413818359375,-10.827910669267112]]]}}]}