{"type":"FeatureCollection","features":[{"type":"Feature","id":"pmtiles:10/792/498:water:2090:0","properties":{"class":"ocean","water":"ocean","kind":"waterway","verification":"verified","source":"OpenMapTiles/OpenStreetMap national PMTiles","sourceId":"10/792/498:water:2090:0","sourceLayer":"water","archive":"https://its.hanifahseptiani45.workers.dev/v1/map/archive/indonesia.pmtiles","updatedAt":"2026-07-26T09:38:44.605Z"},"geometry":{"type":"Polygon","coordinates":[[[98.4320068359375,4.921305737130211],[98.7945556640625,4.921305737130211],[98.7945556640625,4.559997795432594],[98.4320068359375,4.559997795432594],[98.4320068359375,4.921305737130211]]]}}]}