{"type":"FeatureCollection","features":[{"type":"Feature","id":"pmtiles:10/792/530:water:2580:0","properties":{"class":"ocean","water":"ocean","kind":"waterway","verification":"verified","source":"OpenMapTiles/OpenStreetMap national PMTiles","sourceId":"10/792/530:water:2580:0","sourceLayer":"water","archive":"https://its.hanifahseptiani45.workers.dev/v1/map/archive/indonesia.pmtiles","updatedAt":"2026-07-26T09:44:56.445Z"},"geometry":{"type":"Polygon","coordinates":[[[98.4320068359375,-6.309838680093364],[98.7945556640625,-6.309838680093364],[98.7945556640625,-6.670063575977267],[98.4320068359375,-6.670063575977267],[98.4320068359375,-6.309838680093364]]]}}]}