{"type":"FeatureCollection","features":[{"type":"Feature","id":"pmtiles:10/792/528:water:1170:0","properties":{"class":"ocean","water":"ocean","kind":"waterway","verification":"verified","source":"OpenMapTiles/OpenStreetMap national PMTiles","sourceId":"10/792/528:water:1170:0","sourceLayer":"water","archive":"https://its.hanifahseptiani45.workers.dev/v1/map/archive/indonesia.pmtiles","updatedAt":"2026-07-26T09:44:36.669Z"},"geometry":{"type":"Polygon","coordinates":[[[98.4320068359375,-5.61051899590089],[98.7945556640625,-5.61051899590089],[98.7945556640625,-5.971217057997222],[98.4320068359375,-5.971217057997222],[98.4320068359375,-5.61051899590089]]]}}]}