{"type":"FeatureCollection","features":[{"type":"Feature","id":"pmtiles:10/784/532:water:2530:0","properties":{"class":"ocean","water":"ocean","kind":"waterway","verification":"verified","source":"OpenMapTiles/OpenStreetMap national PMTiles","sourceId":"10/784/532:water:2530:0","sourceLayer":"water","archive":"https://its.hanifahseptiani45.workers.dev/v1/map/archive/indonesia.pmtiles","updatedAt":"2026-07-26T09:45:15.275Z"},"geometry":{"type":"Polygon","coordinates":[[[95.6195068359375,-7.008215836663396],[95.9820556640625,-7.008215836663396],[95.9820556640625,-7.367914706747754],[95.6195068359375,-7.367914706747754],[95.6195068359375,-7.008215836663396]]]}}]}