{"type":"FeatureCollection","features":[{"type":"Feature","id":"pmtiles:10/791/495:water:160:0","properties":{"class":"ocean","water":"ocean","kind":"waterway","verification":"verified","source":"OpenMapTiles/OpenStreetMap national PMTiles","sourceId":"10/791/495:water:160:0","sourceLayer":"water","archive":"https://its.hanifahseptiani45.workers.dev/v1/map/archive/indonesia.pmtiles","updatedAt":"2026-07-26T09:38:10.369Z"},"geometry":{"type":"Polygon","coordinates":[[[98.0804443359375,5.971217057997222],[98.4429931640625,5.971217057997222],[98.4429931640625,5.61051899590089],[98.0804443359375,5.61051899590089],[98.0804443359375,5.971217057997222]]]}}]}