{"type":"FeatureCollection","features":[{"type":"Feature","id":"pmtiles:10/782/504:water:950:0","properties":{"class":"ocean","water":"ocean","kind":"waterway","verification":"verified","source":"OpenMapTiles/OpenStreetMap national PMTiles","sourceId":"10/782/504:water:950:0","sourceLayer":"water","archive":"https://its.hanifahseptiani45.workers.dev/v1/map/archive/indonesia.pmtiles","updatedAt":"2026-07-26T09:39:52.115Z"},"geometry":{"type":"Polygon","coordinates":[[[94.9163818359375,2.816857733037736],[95.2789306640625,2.816857733037736],[95.2789306640625,2.454693068753784],[94.9163818359375,2.454693068753784],[94.9163818359375,2.816857733037736]]]}}]}