{"type":"FeatureCollection","features":[{"type":"Feature","id":"pmtiles:10/794/539:water:2610:0","properties":{"class":"ocean","water":"ocean","kind":"waterway","verification":"verified","source":"OpenMapTiles/OpenStreetMap national PMTiles","sourceId":"10/794/539:water:2610:0","sourceLayer":"water","archive":"https://its.hanifahseptiani45.workers.dev/v1/map/archive/indonesia.pmtiles","updatedAt":"2026-07-26T09:46:49.538Z"},"geometry":{"type":"Polygon","coordinates":[[[99.1351318359375,-9.443643151732559],[99.4976806640625,-9.443643151732559],[99.4976806640625,-9.801090616449585],[99.1351318359375,-9.801090616449585],[99.1351318359375,-9.443643151732559]]]}}]}