{"type":"FeatureCollection","features":[{"type":"Feature","id":"pmtiles:10/780/519:water:2540:0","properties":{"class":"ocean","water":"ocean","kind":"waterway","verification":"verified","source":"OpenMapTiles/OpenStreetMap national PMTiles","sourceId":"10/780/519:water:2540:0","sourceLayer":"water","archive":"https://its.hanifahseptiani45.workers.dev/v1/map/archive/indonesia.pmtiles","updatedAt":"2026-07-26T09:42:51.823Z"},"geometry":{"type":"Polygon","coordinates":[[[94.2132568359375,-2.454693068753784],[94.5758056640625,-2.454693068753784],[94.5758056640625,-2.816857733037736],[94.2132568359375,-2.816857733037736],[94.2132568359375,-2.454693068753784]]]}}]}