{"type":"FeatureCollection","features":[{"type":"Feature","id":"pmtiles:12/3184/1980:water:160:0","properties":{"class":"ocean","water":"ocean","kind":"waterway","verification":"verified","source":"OpenMapTiles/OpenStreetMap national PMTiles","sourceId":"12/3184/1980:water:160:0","sourceLayer":"water","archive":"https://its.hanifahseptiani45.workers.dev/v1/map/archive/indonesia.pmtiles","updatedAt":"2026-07-26T10:37:38.385Z"},"geometry":{"type":"Polygon","coordinates":[[[99.84237670898438,5.967119522904156],[99.93301391601562,5.967119522904156],[99.93301391601562,5.87696603826862],[99.84237670898438,5.87696603826862],[99.84237670898438,5.967119522904156]]]}},{"type":"Feature","id":"pmtiles:12/3185/1980:water:160:0","properties":{"class":"ocean","water":"ocean","kind":"waterway","verification":"verified","source":"OpenMapTiles/OpenStreetMap national PMTiles","sourceId":"12/3185/1980:water:160:0","sourceLayer":"water","archive":"https://its.hanifahseptiani45.workers.dev/v1/map/archive/indonesia.pmtiles","updatedAt":"2026-07-26T10:37:38.445Z"},"geometry":{"type":"Polygon","coordinates":[[[99.93026733398438,5.967119522904156],[100.02090454101562,5.967119522904156],[100.02090454101562,5.87696603826862],[99.93026733398438,5.87696603826862],[99.93026733398438,5.967119522904156]]]}},{"type":"Feature","id":"pmtiles:12/3186/1980:water:160:0","properties":{"class":"ocean","water":"ocean","kind":"waterway","verification":"verified","source":"OpenMapTiles/OpenStreetMap national PMTiles","sourceId":"12/3186/1980:water:160:0","sourceLayer":"water","archive":"https://its.hanifahseptiani45.workers.dev/v1/map/archive/indonesia.pmtiles","updatedAt":"2026-07-26T10:37:38.515Z"},"geometry":{"type":"Polygon","coordinates":[[[100.01815795898438,5.967119522904156],[100.10879516601562,5.967119522904156],[100.10879516601562,5.87696603826862],[100.01815795898438,5.87696603826862],[100.01815795898438,5.967119522904156]]]}},{"type":"Feature","id":"pmtiles:12/3187/1980:water:160:0","properties":{"class":"ocean","water":"ocean","kind":"waterway","verification":"verified","source":"OpenMapTiles/OpenStreetMap national PMTiles","sourceId":"12/3187/1980:water:160:0","sourceLayer":"water","archive":"https://its.hanifahseptiani45.workers.dev/v1/map/archive/indonesia.pmtiles","updatedAt":"2026-07-26T10:37:38.577Z"},"geometry":{"type":"Polygon","coordinates":[[[100.10604858398438,5.967119522904156],[100.19668579101562,5.967119522904156],[100.19668579101562,5.87696603826862],[100.10604858398438,5.87696603826862],[100.10604858398438,5.967119522904156]]]}},{"type":"Feature","id":"pmtiles:12/3184/1981:water:160:0","properties":{"class":"ocean","water":"ocean","kind":"waterway","verification":"verified","source":"OpenMapTiles/OpenStreetMap national PMTiles","sourceId":"12/3184/1981:water:160:0","sourceLayer":"water","archive":"https://its.hanifahseptiani45.workers.dev/v1/map/archive/indonesia.pmtiles","updatedAt":"2026-07-26T10:38:13.476Z"},"geometry":{"type":"Polygon","coordinates":[[[99.84237670898438,5.879698177726667],[99.93301391601562,5.879698177726667],[99.93301391601562,5.789530528448793],[99.84237670898438,5.789530528448793],[99.84237670898438,5.879698177726667]]]}},{"type":"Feature","id":"pmtiles:12/3185/1981:water:160:0","properties":{"class":"ocean","water":"ocean","kind":"waterway","verification":"verified","source":"OpenMapTiles/OpenStreetMap national PMTiles","sourceId":"12/3185/1981:water:160:0","sourceLayer":"water","archive":"https://its.hanifahseptiani45.workers.dev/v1/map/archive/indonesia.pmtiles","updatedAt":"2026-07-26T10:38:13.534Z"},"geometry":{"type":"Polygon","coordinates":[[[99.93026733398438,5.879698177726667],[100.02090454101562,5.879698177726667],[100.02090454101562,5.789530528448793],[99.93026733398438,5.789530528448793],[99.93026733398438,5.879698177726667]]]}},{"type":"Feature","id":"pmtiles:12/3186/1981:water:160:0","properties":{"class":"ocean","water":"ocean","kind":"waterway","verification":"verified","source":"OpenMapTiles/OpenStreetMap national PMTiles","sourceId":"12/3186/1981:water:160:0","sourceLayer":"water","archive":"https://its.hanifahseptiani45.workers.dev/v1/map/archive/indonesia.pmtiles","updatedAt":"2026-07-26T10:38:13.600Z"},"geometry":{"type":"Polygon","coordinates":[[[100.01815795898438,5.879698177726667],[100.10879516601562,5.879698177726667],[100.10879516601562,5.789530528448793],[100.01815795898438,5.789530528448793],[100.01815795898438,5.879698177726667]]]}},{"type":"Feature","id":"pmtiles:12/3187/1981:water:160:0","properties":{"class":"ocean","water":"ocean","kind":"waterway","verification":"verified","source":"OpenMapTiles/OpenStreetMap national PMTiles","sourceId":"12/3187/1981:water:160:0","sourceLayer":"water","archive":"https://its.hanifahseptiani45.workers.dev/v1/map/archive/indonesia.pmtiles","updatedAt":"2026-07-26T10:38:13.679Z"},"geometry":{"type":"Polygon","coordinates":[[[100.10604858398438,5.879698177726667],[100.19668579101562,5.879698177726667],[100.19668579101562,5.789530528448793],[100.10604858398438,5.789530528448793],[100.10604858398438,5.879698177726667]]]}},{"type":"Feature","id":"pmtiles:12/3184/1982:water:160:0","properties":{"class":"ocean","water":"ocean","kind":"waterway","verification":"verified","source":"OpenMapTiles/OpenStreetMap national PMTiles","sourceId":"12/3184/1982:water:160:0","sourceLayer":"water","archive":"https://its.hanifahseptiani45.workers.dev/v1/map/archive/indonesia.pmtiles","updatedAt":"2026-07-26T10:38:47.245Z"},"geometry":{"type":"Polygon","coordinates":[[[99.84237670898438,5.792263093990954],[99.93301391601562,5.792263093990954],[99.93301391601562,5.702081487858422],[99.84237670898438,5.702081487858422],[99.84237670898438,5.792263093990954]]]}},{"type":"Feature","id":"pmtiles:12/3185/1982:water:160:0","properties":{"class":"ocean","water":"ocean","kind":"waterway","verification":"verified","source":"OpenMapTiles/OpenStreetMap national PMTiles","sourceId":"12/3185/1982:water:160:0","sourceLayer":"water","archive":"https://its.hanifahseptiani45.workers.dev/v1/map/archive/indonesia.pmtiles","updatedAt":"2026-07-26T10:38:47.316Z"},"geometry":{"type":"Polygon","coordinates":[[[99.93026733398438,5.792263093990954],[100.02090454101562,5.792263093990954],[100.02090454101562,5.702081487858422],[99.93026733398438,5.702081487858422],[99.93026733398438,5.792263093990954]]]}},{"type":"Feature","id":"pmtiles:12/3186/1982:water:160:0","properties":{"class":"ocean","water":"ocean","kind":"waterway","verification":"verified","source":"OpenMapTiles/OpenStreetMap national PMTiles","sourceId":"12/3186/1982:water:160:0","sourceLayer":"water","archive":"https://its.hanifahseptiani45.workers.dev/v1/map/archive/indonesia.pmtiles","updatedAt":"2026-07-26T10:38:47.383Z"},"geometry":{"type":"Polygon","coordinates":[[[100.01815795898438,5.792263093990954],[100.10879516601562,5.792263093990954],[100.10879516601562,5.702081487858422],[100.01815795898438,5.702081487858422],[100.01815795898438,5.792263093990954]]]}},{"type":"Feature","id":"pmtiles:12/3187/1982:water:160:0","properties":{"class":"ocean","water":"ocean","kind":"waterway","verification":"verified","source":"OpenMapTiles/OpenStreetMap national PMTiles","sourceId":"12/3187/1982:water:160:0","sourceLayer":"water","archive":"https://its.hanifahseptiani45.workers.dev/v1/map/archive/indonesia.pmtiles","updatedAt":"2026-07-26T10:38:47.441Z"},"geometry":{"type":"Polygon","coordinates":[[[100.10604858398438,5.792263093990954],[100.19668579101562,5.792263093990954],[100.19668579101562,5.702081487858422],[100.10604858398438,5.702081487858422],[100.10604858398438,5.792263093990954]]]}},{"type":"Feature","id":"pmtiles:12/3184/1983:water:160:0","properties":{"class":"ocean","water":"ocean","kind":"waterway","verification":"verified","source":"OpenMapTiles/OpenStreetMap national PMTiles","sourceId":"12/3184/1983:water:160:0","sourceLayer":"water","archive":"https://its.hanifahseptiani45.workers.dev/v1/map/archive/indonesia.pmtiles","updatedAt":"2026-07-26T10:39:19.758Z"},"geometry":{"type":"Polygon","coordinates":[[[99.84237670898438,5.70481447318565],[99.93301391601562,5.70481447318565],[99.93301391601562,5.61461911814834],[99.84237670898438,5.61461911814834],[99.84237670898438,5.70481447318565]]]}},{"type":"Feature","id":"pmtiles:12/3185/1983:water:160:0","properties":{"class":"ocean","water":"ocean","kind":"waterway","verification":"verified","source":"OpenMapTiles/OpenStreetMap national PMTiles","sourceId":"12/3185/1983:water:160:0","sourceLayer":"water","archive":"https://its.hanifahseptiani45.workers.dev/v1/map/archive/indonesia.pmtiles","updatedAt":"2026-07-26T10:39:19.817Z"},"geometry":{"type":"Polygon","coordinates":[[[99.93026733398438,5.70481447318565],[100.02090454101562,5.70481447318565],[100.02090454101562,5.61461911814834],[99.93026733398438,5.61461911814834],[99.93026733398438,5.70481447318565]]]}},{"type":"Feature","id":"pmtiles:12/3186/1983:water:160:0","properties":{"class":"ocean","water":"ocean","kind":"waterway","verification":"verified","source":"OpenMapTiles/OpenStreetMap national PMTiles","sourceId":"12/3186/1983:water:160:0","sourceLayer":"water","archive":"https://its.hanifahseptiani45.workers.dev/v1/map/archive/indonesia.pmtiles","updatedAt":"2026-07-26T10:39:19.887Z"},"geometry":{"type":"Polygon","coordinates":[[[100.01815795898438,5.70481447318565],[100.10879516601562,5.70481447318565],[100.10879516601562,5.61461911814834],[100.01815795898438,5.61461911814834],[100.01815795898438,5.70481447318565]]]}},{"type":"Feature","id":"pmtiles:12/3187/1983:water:160:0","properties":{"class":"ocean","water":"ocean","kind":"waterway","verification":"verified","source":"OpenMapTiles/OpenStreetMap national PMTiles","sourceId":"12/3187/1983:water:160:0","sourceLayer":"water","archive":"https://its.hanifahseptiani45.workers.dev/v1/map/archive/indonesia.pmtiles","updatedAt":"2026-07-26T10:39:19.961Z"},"geometry":{"type":"Polygon","coordinates":[[[100.10604858398438,5.70481447318565],[100.19668579101562,5.70481447318565],[100.19668579101562,5.61461911814834],[100.10604858398438,5.61461911814834],[100.10604858398438,5.70481447318565]]]}},{"type":"Feature","id":"pmtiles:10/796/495:water:160:0","properties":{"class":"ocean","water":"ocean","kind":"waterway","verification":"verified","source":"OpenMapTiles/OpenStreetMap national PMTiles","sourceId":"10/796/495:water:160:0","sourceLayer":"water","archive":"https://its.hanifahseptiani45.workers.dev/v1/map/archive/indonesia.pmtiles","updatedAt":"2026-07-26T09:38:10.699Z"},"geometry":{"type":"Polygon","coordinates":[[[99.8382568359375,5.971217057997222],[100.2008056640625,5.971217057997222],[100.2008056640625,5.61051899590089],[99.8382568359375,5.61051899590089],[99.8382568359375,5.971217057997222]]]}}]}