{"type":"FeatureCollection","features":[{"type":"Feature","id":"pmtiles:10/793/539:water:2610:0","properties":{"class":"ocean","water":"ocean","kind":"waterway","verification":"verified","source":"OpenMapTiles/OpenStreetMap national PMTiles","sourceId":"10/793/539:water:2610:0","sourceLayer":"water","archive":"https://its.hanifahseptiani45.workers.dev/v1/map/archive/indonesia.pmtiles","updatedAt":"2026-07-26T09:46:49.472Z"},"geometry":{"type":"Polygon","coordinates":[[[98.7835693359375,-9.443643151732559],[99.1461181640625,-9.443643151732559],[99.1461181640625,-9.801090616449585],[98.7835693359375,-9.801090616449585],[98.7835693359375,-9.443643151732559]]]}}]}