{"type":"FeatureCollection","features":[{"type":"Feature","id":"pmtiles:10/789/532:water:2580:0","properties":{"class":"ocean","water":"ocean","kind":"waterway","verification":"verified","source":"OpenMapTiles/OpenStreetMap national PMTiles","sourceId":"10/789/532:water:2580:0","sourceLayer":"water","archive":"https://its.hanifahseptiani45.workers.dev/v1/map/archive/indonesia.pmtiles","updatedAt":"2026-07-26T09:45:15.606Z"},"geometry":{"type":"Polygon","coordinates":[[[97.3773193359375,-7.008215836663396],[97.7398681640625,-7.008215836663396],[97.7398681640625,-7.367914706747754],[97.3773193359375,-7.367914706747754],[97.3773193359375,-7.008215836663396]]]}}]}