{"type":"FeatureCollection","features":[{"type":"Feature","id":"pmtiles:10/793/499:water:2090:0","properties":{"class":"ocean","water":"ocean","kind":"waterway","verification":"verified","source":"OpenMapTiles/OpenStreetMap national PMTiles","sourceId":"10/793/499:water:2090:0","sourceLayer":"water","archive":"https://its.hanifahseptiani45.workers.dev/v1/map/archive/indonesia.pmtiles","updatedAt":"2026-07-26T09:39:10.397Z"},"geometry":{"type":"Polygon","coordinates":[[[98.7835693359375,4.570949264200536],[99.1461181640625,4.570949264200536],[99.1461181640625,4.2094648151634715],[98.7835693359375,4.2094648151634715],[98.7835693359375,4.570949264200536]]]}}]}