{"type":"FeatureCollection","features":[{"type":"Feature","id":"pmtiles:12/3132/1973:water:460:0","properties":{"class":"ocean","water":"ocean","kind":"waterway","verification":"verified","source":"OpenMapTiles/OpenStreetMap national PMTiles","sourceId":"12/3132/1973:water:460:0","sourceLayer":"water","archive":"https://its.hanifahseptiani45.workers.dev/v1/map/archive/indonesia.pmtiles","updatedAt":"2026-07-26T10:33:46.993Z"},"geometry":{"type":"Polygon","coordinates":[[[95.27206420898438,6.578667368565007],[95.36270141601562,6.578667368565007],[95.36270141601562,6.488618840362278],[95.27206420898438,6.488618840362278],[95.27206420898438,6.578667368565007]]]}},{"type":"Feature","id":"pmtiles:12/3133/1973:water:460:0","properties":{"class":"ocean","water":"ocean","kind":"waterway","verification":"verified","source":"OpenMapTiles/OpenStreetMap national PMTiles","sourceId":"12/3133/1973:water:460:0","sourceLayer":"water","archive":"https://its.hanifahseptiani45.workers.dev/v1/map/archive/indonesia.pmtiles","updatedAt":"2026-07-26T10:33:47.092Z"},"geometry":{"type":"Polygon","coordinates":[[[95.35995483398438,6.578667368565007],[95.45059204101562,6.578667368565007],[95.45059204101562,6.488618840362278],[95.35995483398438,6.488618840362278],[95.35995483398438,6.578667368565007]]]}},{"type":"Feature","id":"pmtiles:12/3134/1973:water:460:0","properties":{"class":"ocean","water":"ocean","kind":"waterway","verification":"verified","source":"OpenMapTiles/OpenStreetMap national PMTiles","sourceId":"12/3134/1973:water:460:0","sourceLayer":"water","archive":"https://its.hanifahseptiani45.workers.dev/v1/map/archive/indonesia.pmtiles","updatedAt":"2026-07-26T10:33:47.149Z"},"geometry":{"type":"Polygon","coordinates":[[[95.44784545898438,6.578667368565007],[95.53848266601562,6.578667368565007],[95.53848266601562,6.488618840362278],[95.44784545898438,6.488618840362278],[95.44784545898438,6.578667368565007]]]}},{"type":"Feature","id":"pmtiles:12/3135/1973:water:460:0","properties":{"class":"ocean","water":"ocean","kind":"waterway","verification":"verified","source":"OpenMapTiles/OpenStreetMap national PMTiles","sourceId":"12/3135/1973:water:460:0","sourceLayer":"water","archive":"https://its.hanifahseptiani45.workers.dev/v1/map/archive/indonesia.pmtiles","updatedAt":"2026-07-26T10:33:47.235Z"},"geometry":{"type":"Polygon","coordinates":[[[95.53573608398438,6.578667368565007],[95.62637329101562,6.578667368565007],[95.62637329101562,6.488618840362278],[95.53573608398438,6.488618840362278],[95.53573608398438,6.578667368565007]]]}},{"type":"Feature","id":"pmtiles:12/3132/1974:water:460:0","properties":{"class":"ocean","water":"ocean","kind":"waterway","verification":"verified","source":"OpenMapTiles/OpenStreetMap national PMTiles","sourceId":"12/3132/1974:water:460:0","sourceLayer":"water","archive":"https://its.hanifahseptiani45.workers.dev/v1/map/archive/indonesia.pmtiles","updatedAt":"2026-07-26T10:34:21.146Z"},"geometry":{"type":"Polygon","coordinates":[[[95.27206420898438,6.491347821282432],[95.36270141601562,6.491347821282432],[95.36270141601562,6.4012836786624945],[95.27206420898438,6.4012836786624945],[95.27206420898438,6.491347821282432]]]}},{"type":"Feature","id":"pmtiles:12/3133/1974:water:460:0","properties":{"class":"ocean","water":"ocean","kind":"waterway","verification":"verified","source":"OpenMapTiles/OpenStreetMap national PMTiles","sourceId":"12/3133/1974:water:460:0","sourceLayer":"water","archive":"https://its.hanifahseptiani45.workers.dev/v1/map/archive/indonesia.pmtiles","updatedAt":"2026-07-26T10:34:21.207Z"},"geometry":{"type":"Polygon","coordinates":[[[95.35995483398438,6.491347821282432],[95.45059204101562,6.491347821282432],[95.45059204101562,6.4012836786624945],[95.35995483398438,6.4012836786624945],[95.35995483398438,6.491347821282432]]]}},{"type":"Feature","id":"pmtiles:12/3134/1974:water:460:0","properties":{"class":"ocean","water":"ocean","kind":"waterway","verification":"verified","source":"OpenMapTiles/OpenStreetMap national PMTiles","sourceId":"12/3134/1974:water:460:0","sourceLayer":"water","archive":"https://its.hanifahseptiani45.workers.dev/v1/map/archive/indonesia.pmtiles","updatedAt":"2026-07-26T10:34:21.271Z"},"geometry":{"type":"Polygon","coordinates":[[[95.44784545898438,6.491347821282432],[95.53848266601562,6.491347821282432],[95.53848266601562,6.4012836786624945],[95.44784545898438,6.4012836786624945],[95.44784545898438,6.491347821282432]]]}},{"type":"Feature","id":"pmtiles:12/3135/1974:water:460:0","properties":{"class":"ocean","water":"ocean","kind":"waterway","verification":"verified","source":"OpenMapTiles/OpenStreetMap national PMTiles","sourceId":"12/3135/1974:water:460:0","sourceLayer":"water","archive":"https://its.hanifahseptiani45.workers.dev/v1/map/archive/indonesia.pmtiles","updatedAt":"2026-07-26T10:34:21.330Z"},"geometry":{"type":"Polygon","coordinates":[[[95.53573608398438,6.491347821282432],[95.62637329101562,6.491347821282432],[95.62637329101562,6.4012836786624945],[95.53573608398438,6.4012836786624945],[95.53573608398438,6.491347821282432]]]}},{"type":"Feature","id":"pmtiles:12/3132/1975:water:460:0","properties":{"class":"ocean","water":"ocean","kind":"waterway","verification":"verified","source":"OpenMapTiles/OpenStreetMap national PMTiles","sourceId":"12/3132/1975:water:460:0","sourceLayer":"water","archive":"https://its.hanifahseptiani45.workers.dev/v1/map/archive/indonesia.pmtiles","updatedAt":"2026-07-26T10:34:53.376Z"},"geometry":{"type":"Polygon","coordinates":[[[95.27206420898438,6.40401312961761],[95.36270141601562,6.40401312961761],[95.36270141601562,6.31393357916707],[95.27206420898438,6.31393357916707],[95.27206420898438,6.40401312961761]]]}},{"type":"Feature","id":"pmtiles:12/3133/1975:water:460:0","properties":{"class":"ocean","water":"ocean","kind":"waterway","verification":"verified","source":"OpenMapTiles/OpenStreetMap national PMTiles","sourceId":"12/3133/1975:water:460:0","sourceLayer":"water","archive":"https://its.hanifahseptiani45.workers.dev/v1/map/archive/indonesia.pmtiles","updatedAt":"2026-07-26T10:34:53.437Z"},"geometry":{"type":"Polygon","coordinates":[[[95.35995483398438,6.40401312961761],[95.45059204101562,6.40401312961761],[95.45059204101562,6.31393357916707],[95.35995483398438,6.31393357916707],[95.35995483398438,6.40401312961761]]]}},{"type":"Feature","id":"pmtiles:12/3134/1975:water:460:0","properties":{"class":"ocean","water":"ocean","kind":"waterway","verification":"verified","source":"OpenMapTiles/OpenStreetMap national PMTiles","sourceId":"12/3134/1975:water:460:0","sourceLayer":"water","archive":"https://its.hanifahseptiani45.workers.dev/v1/map/archive/indonesia.pmtiles","updatedAt":"2026-07-26T10:34:53.498Z"},"geometry":{"type":"Polygon","coordinates":[[[95.44784545898438,6.40401312961761],[95.53848266601562,6.40401312961761],[95.53848266601562,6.31393357916707],[95.44784545898438,6.31393357916707],[95.44784545898438,6.40401312961761]]]}},{"type":"Feature","id":"pmtiles:12/3135/1975:water:460:0","properties":{"class":"ocean","water":"ocean","kind":"waterway","verification":"verified","source":"OpenMapTiles/OpenStreetMap national PMTiles","sourceId":"12/3135/1975:water:460:0","sourceLayer":"water","archive":"https://its.hanifahseptiani45.workers.dev/v1/map/archive/indonesia.pmtiles","updatedAt":"2026-07-26T10:34:53.561Z"},"geometry":{"type":"Polygon","coordinates":[[[95.53573608398438,6.40401312961761],[95.62637329101562,6.40401312961761],[95.62637329101562,6.31393357916707],[95.53573608398438,6.31393357916707],[95.53573608398438,6.40401312961761]]]}},{"type":"Feature","id":"pmtiles:10/783/493:water:460:0","properties":{"class":"ocean","water":"ocean","kind":"waterway","verification":"verified","source":"OpenMapTiles/OpenStreetMap national PMTiles","sourceId":"10/783/493:water:460:0","sourceLayer":"water","archive":"https://its.hanifahseptiani45.workers.dev/v1/map/archive/indonesia.pmtiles","updatedAt":"2026-07-26T09:37:44.487Z"},"geometry":{"type":"Polygon","coordinates":[[[95.2679443359375,6.670063575977281],[95.6304931640625,6.670063575977281],[95.6304931640625,6.309838680093364],[95.2679443359375,6.309838680093364],[95.2679443359375,6.670063575977281]]]}}]}