{"type":"FeatureCollection","features":[{"type":"Feature","id":"pmtiles:10/788/510:water:730:0","properties":{"class":"ocean","water":"ocean","kind":"waterway","verification":"verified","source":"OpenMapTiles/OpenStreetMap national PMTiles","sourceId":"10/788/510:water:730:0","sourceLayer":"water","archive":"https://its.hanifahseptiani45.workers.dev/v1/map/archive/indonesia.pmtiles","updatedAt":"2026-07-26T09:41:01.211Z"},"geometry":{"type":"Polygon","coordinates":[[[97.0257568359375,0.708600099655115],[97.3883056640625,0.708600099655115],[97.3883056640625,0.34606723172845477],[97.0257568359375,0.34606723172845477],[97.0257568359375,0.708600099655115]]]}}]}