{"type":"FeatureCollection","features":[{"type":"Feature","id":"pmtiles:10/792/532:water:2580:0","properties":{"class":"ocean","water":"ocean","kind":"waterway","verification":"verified","source":"OpenMapTiles/OpenStreetMap national PMTiles","sourceId":"10/792/532:water:2580:0","sourceLayer":"water","archive":"https://its.hanifahseptiani45.workers.dev/v1/map/archive/indonesia.pmtiles","updatedAt":"2026-07-26T09:45:15.793Z"},"geometry":{"type":"Polygon","coordinates":[[[98.4320068359375,-7.008215836663396],[98.7945556640625,-7.008215836663396],[98.7945556640625,-7.367914706747754],[98.4320068359375,-7.367914706747754],[98.4320068359375,-7.008215836663396]]]}}]}