{"type":"FeatureCollection","features":[{"type":"Feature","id":"pmtiles:10/792/536:water:2570:0","properties":{"class":"ocean","water":"ocean","kind":"waterway","verification":"verified","source":"OpenMapTiles/OpenStreetMap national PMTiles","sourceId":"10/792/536:water:2570:0","sourceLayer":"water","archive":"https://its.hanifahseptiani45.workers.dev/v1/map/archive/indonesia.pmtiles","updatedAt":"2026-07-26T09:45:57.680Z"},"geometry":{"type":"Polygon","coordinates":[[[98.4320068359375,-8.401733990731856],[98.7945556640625,-8.401733990731856],[98.7945556640625,-8.760223824796952],[98.4320068359375,-8.760223824796952],[98.4320068359375,-8.401733990731856]]]}}]}