{"type":"FeatureCollection","features":[{"type":"Feature","id":"pmtiles:10/780/537:water:2520:0","properties":{"class":"ocean","water":"ocean","kind":"waterway","verification":"verified","source":"OpenMapTiles/OpenStreetMap national PMTiles","sourceId":"10/780/537:water:2520:0","sourceLayer":"water","archive":"https://its.hanifahseptiani45.workers.dev/v1/map/archive/indonesia.pmtiles","updatedAt":"2026-07-26T09:46:08.808Z"},"geometry":{"type":"Polygon","coordinates":[[[94.2132568359375,-8.74936550084881],[94.5758056640625,-8.74936550084881],[94.5758056640625,-9.107520691827688],[94.2132568359375,-9.107520691827688],[94.2132568359375,-8.74936550084881]]]}}]}