{"type":"FeatureCollection","features":[{"type":"Feature","id":"pmtiles:10/780/513:water:2550:0","properties":{"class":"ocean","water":"ocean","kind":"waterway","verification":"verified","source":"OpenMapTiles/OpenStreetMap national PMTiles","sourceId":"10/780/513:water:2550:0","sourceLayer":"water","archive":"https://its.hanifahseptiani45.workers.dev/v1/map/archive/indonesia.pmtiles","updatedAt":"2026-07-26T09:41:43.945Z"},"geometry":{"type":"Polygon","coordinates":[[[94.2132568359375,-0.34606723172845477],[94.5758056640625,-0.34606723172845477],[94.5758056640625,-0.7086000996551007],[94.2132568359375,-0.7086000996551007],[94.2132568359375,-0.34606723172845477]]]}}]}