{"type":"FeatureCollection","features":[{"type":"Feature","id":"pmtiles:10/782/539:water:2520:0","properties":{"class":"ocean","water":"ocean","kind":"waterway","verification":"verified","source":"OpenMapTiles/OpenStreetMap national PMTiles","sourceId":"10/782/539:water:2520:0","sourceLayer":"water","archive":"https://its.hanifahseptiani45.workers.dev/v1/map/archive/indonesia.pmtiles","updatedAt":"2026-07-26T09:46:48.770Z"},"geometry":{"type":"Polygon","coordinates":[[[94.9163818359375,-9.443643151732559],[95.2789306640625,-9.443643151732559],[95.2789306640625,-9.801090616449585],[94.9163818359375,-9.801090616449585],[94.9163818359375,-9.443643151732559]]]}}]}