{"type":"FeatureCollection","features":[{"type":"Feature","id":"pmtiles:10/792/509:water:730:0","properties":{"class":"ocean","water":"ocean","kind":"waterway","verification":"verified","source":"OpenMapTiles/OpenStreetMap national PMTiles","sourceId":"10/792/509:water:730:0","sourceLayer":"water","archive":"https://its.hanifahseptiani45.workers.dev/v1/map/archive/indonesia.pmtiles","updatedAt":"2026-07-26T09:40:51.737Z"},"geometry":{"type":"Polygon","coordinates":[[[98.4320068359375,1.0601201709472292],[98.7945556640625,1.0601201709472292],[98.7945556640625,0.6976145987557061],[98.4320068359375,0.6976145987557061],[98.4320068359375,1.0601201709472292]]]}}]}