{"type":"FeatureCollection","features":[{"type":"Feature","id":"pmtiles:10/797/543:water:2600:0","properties":{"class":"ocean","water":"ocean","kind":"waterway","verification":"verified","source":"OpenMapTiles/OpenStreetMap national PMTiles","sourceId":"10/797/543:water:2600:0","sourceLayer":"water","archive":"https://its.hanifahseptiani45.workers.dev/v1/map/archive/indonesia.pmtiles","updatedAt":"2026-07-26T09:47:26.409Z"},"geometry":{"type":"Polygon","coordinates":[[[100.1898193359375,-10.827910669267112],[100.5523681640625,-10.827910669267112],[100.5523681640625,-11.183790773046624],[100.1898193359375,-11.183790773046624],[100.1898193359375,-10.827910669267112]]]}}]}