{"type":"FeatureCollection","features":[{"type":"Feature","id":"pmtiles:12/3164/1976:water:1120:0","properties":{"class":"ocean","water":"ocean","kind":"waterway","verification":"verified","source":"OpenMapTiles/OpenStreetMap national PMTiles","sourceId":"12/3164/1976:water:1120:0","sourceLayer":"water","archive":"https://its.hanifahseptiani45.workers.dev/v1/map/archive/indonesia.pmtiles","updatedAt":"2026-07-26T10:35:26.539Z"},"geometry":{"type":"Polygon","coordinates":[[[98.08456420898438,6.316663493894268],[98.17520141601562,6.316663493894268],[98.17520141601562,6.226568742378319],[98.08456420898438,6.226568742378319],[98.08456420898438,6.316663493894268]]]}},{"type":"Feature","id":"pmtiles:12/3165/1976:water:1120:0","properties":{"class":"ocean","water":"ocean","kind":"waterway","verification":"verified","source":"OpenMapTiles/OpenStreetMap national PMTiles","sourceId":"12/3165/1976:water:1120:0","sourceLayer":"water","archive":"https://its.hanifahseptiani45.workers.dev/v1/map/archive/indonesia.pmtiles","updatedAt":"2026-07-26T10:35:26.608Z"},"geometry":{"type":"Polygon","coordinates":[[[98.17245483398438,6.316663493894268],[98.26309204101562,6.316663493894268],[98.26309204101562,6.226568742378319],[98.17245483398438,6.226568742378319],[98.17245483398438,6.316663493894268]]]}},{"type":"Feature","id":"pmtiles:12/3166/1976:water:1120:0","properties":{"class":"ocean","water":"ocean","kind":"waterway","verification":"verified","source":"OpenMapTiles/OpenStreetMap national PMTiles","sourceId":"12/3166/1976:water:1120:0","sourceLayer":"water","archive":"https://its.hanifahseptiani45.workers.dev/v1/map/archive/indonesia.pmtiles","updatedAt":"2026-07-26T10:35:26.657Z"},"geometry":{"type":"Polygon","coordinates":[[[98.26034545898438,6.316663493894268],[98.35098266601562,6.316663493894268],[98.35098266601562,6.226568742378319],[98.26034545898438,6.226568742378319],[98.26034545898438,6.316663493894268]]]}},{"type":"Feature","id":"pmtiles:12/3167/1976:water:160:0","properties":{"class":"ocean","water":"ocean","kind":"waterway","verification":"verified","source":"OpenMapTiles/OpenStreetMap national PMTiles","sourceId":"12/3167/1976:water:160:0","sourceLayer":"water","archive":"https://its.hanifahseptiani45.workers.dev/v1/map/archive/indonesia.pmtiles","updatedAt":"2026-07-26T10:35:26.717Z"},"geometry":{"type":"Polygon","coordinates":[[[98.34823608398438,6.316663493894268],[98.43887329101562,6.316663493894268],[98.43887329101562,6.226568742378319],[98.34823608398438,6.226568742378319],[98.34823608398438,6.316663493894268]]]}},{"type":"Feature","id":"pmtiles:12/3164/1977:water:1120:0","properties":{"class":"ocean","water":"ocean","kind":"waterway","verification":"verified","source":"OpenMapTiles/OpenStreetMap national PMTiles","sourceId":"12/3164/1977:water:1120:0","sourceLayer":"water","archive":"https://its.hanifahseptiani45.workers.dev/v1/map/archive/indonesia.pmtiles","updatedAt":"2026-07-26T10:35:57.606Z"},"geometry":{"type":"Polygon","coordinates":[[[98.08456420898438,6.22929911460929],[98.17520141601562,6.22929911460929],[98.17520141601562,6.139189368969383],[98.08456420898438,6.139189368969383],[98.08456420898438,6.22929911460929]]]}},{"type":"Feature","id":"pmtiles:12/3165/1977:water:1120:0","properties":{"class":"ocean","water":"ocean","kind":"waterway","verification":"verified","source":"OpenMapTiles/OpenStreetMap national PMTiles","sourceId":"12/3165/1977:water:1120:0","sourceLayer":"water","archive":"https://its.hanifahseptiani45.workers.dev/v1/map/archive/indonesia.pmtiles","updatedAt":"2026-07-26T10:35:57.666Z"},"geometry":{"type":"Polygon","coordinates":[[[98.17245483398438,6.22929911460929],[98.26309204101562,6.22929911460929],[98.26309204101562,6.139189368969383],[98.17245483398438,6.139189368969383],[98.17245483398438,6.22929911460929]]]}},{"type":"Feature","id":"pmtiles:12/3166/1977:water:1120:0","properties":{"class":"ocean","water":"ocean","kind":"waterway","verification":"verified","source":"OpenMapTiles/OpenStreetMap national PMTiles","sourceId":"12/3166/1977:water:1120:0","sourceLayer":"water","archive":"https://its.hanifahseptiani45.workers.dev/v1/map/archive/indonesia.pmtiles","updatedAt":"2026-07-26T10:35:57.743Z"},"geometry":{"type":"Polygon","coordinates":[[[98.26034545898438,6.22929911460929],[98.35098266601562,6.22929911460929],[98.35098266601562,6.139189368969383],[98.26034545898438,6.139189368969383],[98.26034545898438,6.22929911460929]]]}},{"type":"Feature","id":"pmtiles:12/3167/1977:water:160:0","properties":{"class":"ocean","water":"ocean","kind":"waterway","verification":"verified","source":"OpenMapTiles/OpenStreetMap national PMTiles","sourceId":"12/3167/1977:water:160:0","sourceLayer":"water","archive":"https://its.hanifahseptiani45.workers.dev/v1/map/archive/indonesia.pmtiles","updatedAt":"2026-07-26T10:35:57.836Z"},"geometry":{"type":"Polygon","coordinates":[[[98.34823608398438,6.22929911460929],[98.43887329101562,6.22929911460929],[98.43887329101562,6.139189368969383],[98.34823608398438,6.139189368969383],[98.34823608398438,6.22929911460929]]]}},{"type":"Feature","id":"pmtiles:12/3164/1978:water:1120:0","properties":{"class":"ocean","water":"ocean","kind":"waterway","verification":"verified","source":"OpenMapTiles/OpenStreetMap national PMTiles","sourceId":"12/3164/1978:water:1120:0","sourceLayer":"water","archive":"https://its.hanifahseptiani45.workers.dev/v1/map/archive/indonesia.pmtiles","updatedAt":"2026-07-26T10:36:28.588Z"},"geometry":{"type":"Polygon","coordinates":[[[98.08456420898438,6.1419201924305185],[98.17520141601562,6.1419201924305185],[98.17520141601562,6.05179565978203],[98.08456420898438,6.05179565978203],[98.08456420898438,6.1419201924305185]]]}},{"type":"Feature","id":"pmtiles:12/3165/1978:water:1120:0","properties":{"class":"ocean","water":"ocean","kind":"waterway","verification":"verified","source":"OpenMapTiles/OpenStreetMap national PMTiles","sourceId":"12/3165/1978:water:1120:0","sourceLayer":"water","archive":"https://its.hanifahseptiani45.workers.dev/v1/map/archive/indonesia.pmtiles","updatedAt":"2026-07-26T10:36:28.652Z"},"geometry":{"type":"Polygon","coordinates":[[[98.17245483398438,6.1419201924305185],[98.26309204101562,6.1419201924305185],[98.26309204101562,6.05179565978203],[98.17245483398438,6.05179565978203],[98.17245483398438,6.1419201924305185]]]}},{"type":"Feature","id":"pmtiles:12/3166/1978:water:1120:0","properties":{"class":"ocean","water":"ocean","kind":"waterway","verification":"verified","source":"OpenMapTiles/OpenStreetMap national PMTiles","sourceId":"12/3166/1978:water:1120:0","sourceLayer":"water","archive":"https://its.hanifahseptiani45.workers.dev/v1/map/archive/indonesia.pmtiles","updatedAt":"2026-07-26T10:36:28.715Z"},"geometry":{"type":"Polygon","coordinates":[[[98.26034545898438,6.1419201924305185],[98.35098266601562,6.1419201924305185],[98.35098266601562,6.05179565978203],[98.26034545898438,6.05179565978203],[98.26034545898438,6.1419201924305185]]]}},{"type":"Feature","id":"pmtiles:12/3167/1978:water:160:0","properties":{"class":"ocean","water":"ocean","kind":"waterway","verification":"verified","source":"OpenMapTiles/OpenStreetMap national PMTiles","sourceId":"12/3167/1978:water:160:0","sourceLayer":"water","archive":"https://its.hanifahseptiani45.workers.dev/v1/map/archive/indonesia.pmtiles","updatedAt":"2026-07-26T10:36:28.777Z"},"geometry":{"type":"Polygon","coordinates":[[[98.34823608398438,6.1419201924305185],[98.43887329101562,6.1419201924305185],[98.43887329101562,6.05179565978203],[98.34823608398438,6.05179565978203],[98.34823608398438,6.1419201924305185]]]}},{"type":"Feature","id":"pmtiles:12/3164/1979:water:1120:0","properties":{"class":"ocean","water":"ocean","kind":"waterway","verification":"verified","source":"OpenMapTiles/OpenStreetMap national PMTiles","sourceId":"12/3164/1979:water:1120:0","sourceLayer":"water","archive":"https://its.hanifahseptiani45.workers.dev/v1/map/archive/indonesia.pmtiles","updatedAt":"2026-07-26T10:37:02.331Z"},"geometry":{"type":"Polygon","coordinates":[[[98.08456420898438,6.054526928194491],[98.17520141601562,6.054526928194491],[98.17520141601562,5.964387815824367],[98.08456420898438,5.964387815824367],[98.08456420898438,6.054526928194491]]]}},{"type":"Feature","id":"pmtiles:12/3165/1979:water:1120:0","properties":{"class":"ocean","water":"ocean","kind":"waterway","verification":"verified","source":"OpenMapTiles/OpenStreetMap national PMTiles","sourceId":"12/3165/1979:water:1120:0","sourceLayer":"water","archive":"https://its.hanifahseptiani45.workers.dev/v1/map/archive/indonesia.pmtiles","updatedAt":"2026-07-26T10:37:02.393Z"},"geometry":{"type":"Polygon","coordinates":[[[98.17245483398438,6.054526928194491],[98.26309204101562,6.054526928194491],[98.26309204101562,5.964387815824367],[98.17245483398438,5.964387815824367],[98.17245483398438,6.054526928194491]]]}},{"type":"Feature","id":"pmtiles:12/3166/1979:water:1120:0","properties":{"class":"ocean","water":"ocean","kind":"waterway","verification":"verified","source":"OpenMapTiles/OpenStreetMap national PMTiles","sourceId":"12/3166/1979:water:1120:0","sourceLayer":"water","archive":"https://its.hanifahseptiani45.workers.dev/v1/map/archive/indonesia.pmtiles","updatedAt":"2026-07-26T10:37:02.455Z"},"geometry":{"type":"Polygon","coordinates":[[[98.26034545898438,6.054526928194491],[98.35098266601562,6.054526928194491],[98.35098266601562,5.964387815824367],[98.26034545898438,5.964387815824367],[98.26034545898438,6.054526928194491]]]}},{"type":"Feature","id":"pmtiles:12/3167/1979:water:160:0","properties":{"class":"ocean","water":"ocean","kind":"waterway","verification":"verified","source":"OpenMapTiles/OpenStreetMap national PMTiles","sourceId":"12/3167/1979:water:160:0","sourceLayer":"water","archive":"https://its.hanifahseptiani45.workers.dev/v1/map/archive/indonesia.pmtiles","updatedAt":"2026-07-26T10:37:02.518Z"},"geometry":{"type":"Polygon","coordinates":[[[98.34823608398438,6.054526928194491],[98.43887329101562,6.054526928194491],[98.43887329101562,5.964387815824367],[98.34823608398438,5.964387815824367],[98.34823608398438,6.054526928194491]]]}},{"type":"Feature","id":"pmtiles:10/791/494:water:160:0","properties":{"class":"ocean","water":"ocean","kind":"waterway","verification":"verified","source":"OpenMapTiles/OpenStreetMap national PMTiles","sourceId":"10/791/494:water:160:0","sourceLayer":"water","archive":"https://its.hanifahseptiani45.workers.dev/v1/map/archive/indonesia.pmtiles","updatedAt":"2026-07-26T09:37:59.350Z"},"geometry":{"type":"Polygon","coordinates":[[[98.0804443359375,6.320758338986863],[98.4429931640625,6.320758338986863],[98.4429931640625,5.960290229693385],[98.0804443359375,5.960290229693385],[98.0804443359375,6.320758338986863]]]}}]}