{"type":"FeatureCollection","features":[{"type":"Feature","id":"pmtiles:10/785/530:water:2580:0","properties":{"class":"ocean","water":"ocean","kind":"waterway","verification":"verified","source":"OpenMapTiles/OpenStreetMap national PMTiles","sourceId":"10/785/530:water:2580:0","sourceLayer":"water","archive":"https://its.hanifahseptiani45.workers.dev/v1/map/archive/indonesia.pmtiles","updatedAt":"2026-07-26T09:44:55.941Z"},"geometry":{"type":"Polygon","coordinates":[[[95.9710693359375,-6.309838680093364],[96.3336181640625,-6.309838680093364],[96.3336181640625,-6.670063575977267],[95.9710693359375,-6.670063575977267],[95.9710693359375,-6.309838680093364]]]}}]}