{"type":"FeatureCollection","features":[{"type":"Feature","id":"pmtiles:12/3248/1976:water:2420:0","properties":{"class":"ocean","water":"ocean","kind":"waterway","verification":"verified","source":"OpenMapTiles/OpenStreetMap national PMTiles","sourceId":"12/3248/1976:water:2420:0","sourceLayer":"water","archive":"https://its.hanifahseptiani45.workers.dev/v1/map/archive/indonesia.pmtiles","updatedAt":"2026-07-26T10:35:30.715Z"},"geometry":{"type":"Polygon","coordinates":[[[105.46737670898438,6.316663493894268],[105.55801391601562,6.316663493894268],[105.55801391601562,6.226568742378319],[105.46737670898438,6.226568742378319],[105.46737670898438,6.316663493894268]]]}},{"type":"Feature","id":"pmtiles:12/3249/1976:water:2420:0","properties":{"class":"ocean","water":"ocean","kind":"waterway","verification":"verified","source":"OpenMapTiles/OpenStreetMap national PMTiles","sourceId":"12/3249/1976:water:2420:0","sourceLayer":"water","archive":"https://its.hanifahseptiani45.workers.dev/v1/map/archive/indonesia.pmtiles","updatedAt":"2026-07-26T10:35:30.785Z"},"geometry":{"type":"Polygon","coordinates":[[[105.55526733398438,6.316663493894268],[105.64590454101562,6.316663493894268],[105.64590454101562,6.226568742378319],[105.55526733398438,6.226568742378319],[105.55526733398438,6.316663493894268]]]}},{"type":"Feature","id":"pmtiles:12/3250/1976:water:2420:0","properties":{"class":"ocean","water":"ocean","kind":"waterway","verification":"verified","source":"OpenMapTiles/OpenStreetMap national PMTiles","sourceId":"12/3250/1976:water:2420:0","sourceLayer":"water","archive":"https://its.hanifahseptiani45.workers.dev/v1/map/archive/indonesia.pmtiles","updatedAt":"2026-07-26T10:35:30.857Z"},"geometry":{"type":"Polygon","coordinates":[[[105.64315795898438,6.316663493894268],[105.73379516601562,6.316663493894268],[105.73379516601562,6.226568742378319],[105.64315795898438,6.226568742378319],[105.64315795898438,6.316663493894268]]]}},{"type":"Feature","id":"pmtiles:12/3251/1976:water:2420:0","properties":{"class":"ocean","water":"ocean","kind":"waterway","verification":"verified","source":"OpenMapTiles/OpenStreetMap national PMTiles","sourceId":"12/3251/1976:water:2420:0","sourceLayer":"water","archive":"https://its.hanifahseptiani45.workers.dev/v1/map/archive/indonesia.pmtiles","updatedAt":"2026-07-26T10:35:30.910Z"},"geometry":{"type":"Polygon","coordinates":[[[105.73104858398438,6.316663493894268],[105.82168579101562,6.316663493894268],[105.82168579101562,6.226568742378319],[105.73104858398438,6.226568742378319],[105.73104858398438,6.316663493894268]]]}},{"type":"Feature","id":"pmtiles:12/3248/1977:water:2420:0","properties":{"class":"ocean","water":"ocean","kind":"waterway","verification":"verified","source":"OpenMapTiles/OpenStreetMap national PMTiles","sourceId":"12/3248/1977:water:2420:0","sourceLayer":"water","archive":"https://its.hanifahseptiani45.workers.dev/v1/map/archive/indonesia.pmtiles","updatedAt":"2026-07-26T10:36:02.242Z"},"geometry":{"type":"Polygon","coordinates":[[[105.46737670898438,6.22929911460929],[105.55801391601562,6.22929911460929],[105.55801391601562,6.139189368969383],[105.46737670898438,6.139189368969383],[105.46737670898438,6.22929911460929]]]}},{"type":"Feature","id":"pmtiles:12/3249/1977:water:2420:0","properties":{"class":"ocean","water":"ocean","kind":"waterway","verification":"verified","source":"OpenMapTiles/OpenStreetMap national PMTiles","sourceId":"12/3249/1977:water:2420:0","sourceLayer":"water","archive":"https://its.hanifahseptiani45.workers.dev/v1/map/archive/indonesia.pmtiles","updatedAt":"2026-07-26T10:36:02.300Z"},"geometry":{"type":"Polygon","coordinates":[[[105.55526733398438,6.22929911460929],[105.64590454101562,6.22929911460929],[105.64590454101562,6.139189368969383],[105.55526733398438,6.139189368969383],[105.55526733398438,6.22929911460929]]]}},{"type":"Feature","id":"pmtiles:12/3250/1977:water:2420:0","properties":{"class":"ocean","water":"ocean","kind":"waterway","verification":"verified","source":"OpenMapTiles/OpenStreetMap national PMTiles","sourceId":"12/3250/1977:water:2420:0","sourceLayer":"water","archive":"https://its.hanifahseptiani45.workers.dev/v1/map/archive/indonesia.pmtiles","updatedAt":"2026-07-26T10:36:02.367Z"},"geometry":{"type":"Polygon","coordinates":[[[105.64315795898438,6.22929911460929],[105.73379516601562,6.22929911460929],[105.73379516601562,6.139189368969383],[105.64315795898438,6.139189368969383],[105.64315795898438,6.22929911460929]]]}},{"type":"Feature","id":"pmtiles:12/3251/1977:water:2420:0","properties":{"class":"ocean","water":"ocean","kind":"waterway","verification":"verified","source":"OpenMapTiles/OpenStreetMap national PMTiles","sourceId":"12/3251/1977:water:2420:0","sourceLayer":"water","archive":"https://its.hanifahseptiani45.workers.dev/v1/map/archive/indonesia.pmtiles","updatedAt":"2026-07-26T10:36:02.427Z"},"geometry":{"type":"Polygon","coordinates":[[[105.73104858398438,6.22929911460929],[105.82168579101562,6.22929911460929],[105.82168579101562,6.139189368969383],[105.73104858398438,6.139189368969383],[105.73104858398438,6.22929911460929]]]}},{"type":"Feature","id":"pmtiles:12/3248/1978:water:2420:0","properties":{"class":"ocean","water":"ocean","kind":"waterway","verification":"verified","source":"OpenMapTiles/OpenStreetMap national PMTiles","sourceId":"12/3248/1978:water:2420:0","sourceLayer":"water","archive":"https://its.hanifahseptiani45.workers.dev/v1/map/archive/indonesia.pmtiles","updatedAt":"2026-07-26T10:36:32.580Z"},"geometry":{"type":"Polygon","coordinates":[[[105.46737670898438,6.1419201924305185],[105.55801391601562,6.1419201924305185],[105.55801391601562,6.05179565978203],[105.46737670898438,6.05179565978203],[105.46737670898438,6.1419201924305185]]]}},{"type":"Feature","id":"pmtiles:12/3249/1978:water:2420:0","properties":{"class":"ocean","water":"ocean","kind":"waterway","verification":"verified","source":"OpenMapTiles/OpenStreetMap national PMTiles","sourceId":"12/3249/1978:water:2420:0","sourceLayer":"water","archive":"https://its.hanifahseptiani45.workers.dev/v1/map/archive/indonesia.pmtiles","updatedAt":"2026-07-26T10:36:32.640Z"},"geometry":{"type":"Polygon","coordinates":[[[105.55526733398438,6.1419201924305185],[105.64590454101562,6.1419201924305185],[105.64590454101562,6.05179565978203],[105.55526733398438,6.05179565978203],[105.55526733398438,6.1419201924305185]]]}},{"type":"Feature","id":"pmtiles:12/3250/1978:water:2420:0","properties":{"class":"ocean","water":"ocean","kind":"waterway","verification":"verified","source":"OpenMapTiles/OpenStreetMap national PMTiles","sourceId":"12/3250/1978:water:2420:0","sourceLayer":"water","archive":"https://its.hanifahseptiani45.workers.dev/v1/map/archive/indonesia.pmtiles","updatedAt":"2026-07-26T10:36:32.699Z"},"geometry":{"type":"Polygon","coordinates":[[[105.64315795898438,6.1419201924305185],[105.73379516601562,6.1419201924305185],[105.73379516601562,6.05179565978203],[105.64315795898438,6.05179565978203],[105.64315795898438,6.1419201924305185]]]}},{"type":"Feature","id":"pmtiles:12/3251/1978:water:2420:0","properties":{"class":"ocean","water":"ocean","kind":"waterway","verification":"verified","source":"OpenMapTiles/OpenStreetMap national PMTiles","sourceId":"12/3251/1978:water:2420:0","sourceLayer":"water","archive":"https://its.hanifahseptiani45.workers.dev/v1/map/archive/indonesia.pmtiles","updatedAt":"2026-07-26T10:36:32.766Z"},"geometry":{"type":"Polygon","coordinates":[[[105.73104858398438,6.1419201924305185],[105.82168579101562,6.1419201924305185],[105.82168579101562,6.05179565978203],[105.73104858398438,6.05179565978203],[105.73104858398438,6.1419201924305185]]]}},{"type":"Feature","id":"pmtiles:12/3248/1979:water:2420:0","properties":{"class":"ocean","water":"ocean","kind":"waterway","verification":"verified","source":"OpenMapTiles/OpenStreetMap national PMTiles","sourceId":"12/3248/1979:water:2420:0","sourceLayer":"water","archive":"https://its.hanifahseptiani45.workers.dev/v1/map/archive/indonesia.pmtiles","updatedAt":"2026-07-26T10:37:07.064Z"},"geometry":{"type":"Polygon","coordinates":[[[105.46737670898438,6.054526928194491],[105.55801391601562,6.054526928194491],[105.55801391601562,5.964387815824367],[105.46737670898438,5.964387815824367],[105.46737670898438,6.054526928194491]]]}},{"type":"Feature","id":"pmtiles:12/3249/1979:water:2420:0","properties":{"class":"ocean","water":"ocean","kind":"waterway","verification":"verified","source":"OpenMapTiles/OpenStreetMap national PMTiles","sourceId":"12/3249/1979:water:2420:0","sourceLayer":"water","archive":"https://its.hanifahseptiani45.workers.dev/v1/map/archive/indonesia.pmtiles","updatedAt":"2026-07-26T10:37:07.137Z"},"geometry":{"type":"Polygon","coordinates":[[[105.55526733398438,6.054526928194491],[105.64590454101562,6.054526928194491],[105.64590454101562,5.964387815824367],[105.55526733398438,5.964387815824367],[105.55526733398438,6.054526928194491]]]}},{"type":"Feature","id":"pmtiles:12/3250/1979:water:2420:0","properties":{"class":"ocean","water":"ocean","kind":"waterway","verification":"verified","source":"OpenMapTiles/OpenStreetMap national PMTiles","sourceId":"12/3250/1979:water:2420:0","sourceLayer":"water","archive":"https://its.hanifahseptiani45.workers.dev/v1/map/archive/indonesia.pmtiles","updatedAt":"2026-07-26T10:37:07.207Z"},"geometry":{"type":"Polygon","coordinates":[[[105.64315795898438,6.054526928194491],[105.73379516601562,6.054526928194491],[105.73379516601562,5.964387815824367],[105.64315795898438,5.964387815824367],[105.64315795898438,6.054526928194491]]]}},{"type":"Feature","id":"pmtiles:12/3251/1979:water:2420:0","properties":{"class":"ocean","water":"ocean","kind":"waterway","verification":"verified","source":"OpenMapTiles/OpenStreetMap national PMTiles","sourceId":"12/3251/1979:water:2420:0","sourceLayer":"water","archive":"https://its.hanifahseptiani45.workers.dev/v1/map/archive/indonesia.pmtiles","updatedAt":"2026-07-26T10:37:07.284Z"},"geometry":{"type":"Polygon","coordinates":[[[105.73104858398438,6.054526928194491],[105.82168579101562,6.054526928194491],[105.82168579101562,5.964387815824367],[105.73104858398438,5.964387815824367],[105.73104858398438,6.054526928194491]]]}},{"type":"Feature","id":"pmtiles:10/812/494:water:2420:0","properties":{"class":"ocean","water":"ocean","kind":"waterway","verification":"verified","source":"OpenMapTiles/OpenStreetMap national PMTiles","sourceId":"10/812/494:water:2420:0","sourceLayer":"water","archive":"https://its.hanifahseptiani45.workers.dev/v1/map/archive/indonesia.pmtiles","updatedAt":"2026-07-26T09:38:01.070Z"},"geometry":{"type":"Polygon","coordinates":[[[105.4632568359375,6.320758338986863],[105.8258056640625,6.320758338986863],[105.8258056640625,5.960290229693385],[105.4632568359375,5.960290229693385],[105.4632568359375,6.320758338986863]]]}}]}