{"type":"FeatureCollection","features":[{"type":"Feature","id":"pmtiles:10/896/520:park:77319183:0","properties":{"name":"Taman Nasional Teluk Cenderawasih","name_int":"Teluk Cenderawasih National Park","class":"national_park","name:latin":"Taman Nasional Teluk Cenderawasih","name_de":"Nationalpark Cenderawasih-Bucht","name_en":"Teluk Cenderawasih National Park","kind":"green","verification":"verified","source":"OpenMapTiles/OpenStreetMap national PMTiles","sourceId":"10/896/520:park:77319183:0","sourceLayer":"park","archive":"https://its.hanifahseptiani45.workers.dev/v1/map/archive/indonesia.pmtiles","updatedAt":"2026-07-26T09:43:27.772Z"},"geometry":{"type":"Polygon","coordinates":[[[134.9945068359375,-2.8058846278244545],[135.3570556640625,-2.8058846278244545],[135.3570556640625,-3.167940314402756],[134.9945068359375,-3.167940314402756],[134.9945068359375,-2.8058846278244545]]]}},{"type":"Feature","id":"pmtiles:10/896/520:transportation:7066082470:0","properties":{"class":"ferry","highway":"ferry","kind":"road","verification":"verified","source":"OpenMapTiles/OpenStreetMap national PMTiles","sourceId":"10/896/520:transportation:7066082470:0","sourceLayer":"transportation","archive":"https://its.hanifahseptiani45.workers.dev/v1/map/archive/indonesia.pmtiles","updatedAt":"2026-07-26T09:43:27.772Z"},"geometry":{"type":"LineString","coordinates":[[135.07990837097168,-2.8058846278244545],[135.3570556640625,-3.0424687058103217]]}},{"type":"Feature","id":"pmtiles:10/896/520:transportation:7066082470:1","properties":{"class":"ferry","highway":"ferry","kind":"road","verification":"verified","source":"OpenMapTiles/OpenStreetMap national PMTiles","sourceId":"10/896/520:transportation:7066082470:1","sourceLayer":"transportation","archive":"https://its.hanifahseptiani45.workers.dev/v1/map/archive/indonesia.pmtiles","updatedAt":"2026-07-26T09:43:27.772Z"},"geometry":{"type":"LineString","coordinates":[[135.3570556640625,-2.879436735230726],[135.3108787536621,-2.8058846278244545]]}},{"type":"Feature","id":"pmtiles:10/896/520:water:170:0","properties":{"class":"ocean","water":"ocean","kind":"waterway","verification":"verified","source":"OpenMapTiles/OpenStreetMap national PMTiles","sourceId":"10/896/520:water:170:0","sourceLayer":"water","archive":"https://its.hanifahseptiani45.workers.dev/v1/map/archive/indonesia.pmtiles","updatedAt":"2026-07-26T09:43:27.772Z"},"geometry":{"type":"Polygon","coordinates":[[[134.9945068359375,-2.8058846278244545],[135.3570556640625,-2.8058846278244545],[135.3570556640625,-3.167940314402756],[134.9945068359375,-3.167940314402756],[134.9945068359375,-2.8058846278244545]],[[135.05613327026367,-3.0068128801700738],[135.05596160888672,-3.0068985926924654],[135.05578994750977,-3.0074128676853604],[135.0560474395752,-3.0096413898517227],[135.05630493164062,-3.0100699512844074],[135.05690574645996,-3.0095556775449523],[135.05681991577148,-3.0084414169435973],[135.05613327026367,-3.0068128801700738]]]}},{"type":"Feature","id":"pmtiles:8/224/130:park:77319183:0","properties":{"name":"Taman Nasional Teluk Cenderawasih","name_int":"Teluk Cenderawasih National Park","class":"national_park","name:latin":"Taman Nasional Teluk Cenderawasih","name_de":"Nationalpark Cenderawasih-Bucht","name_en":"Teluk Cenderawasih National Park","kind":"green","verification":"verified","source":"OpenMapTiles/OpenStreetMap national PMTiles","sourceId":"8/224/130:park:77319183:0","sourceLayer":"park","archive":"https://its.hanifahseptiani45.workers.dev/v1/map/archive/indonesia.pmtiles","updatedAt":"2026-07-26T09:35:39.042Z"},"geometry":{"type":"Polygon","coordinates":[[[135.3676986694336,-2.7894247770059906],[135.3628921508789,-3.3852509781574867],[135.35465240478516,-3.387650040923319],[135.34950256347656,-3.387650040923319],[135.34812927246094,-3.389020931262891],[135.34435272216797,-3.3951899137424135],[135.33920288085938,-3.3993025468414544],[135.33611297607422,-3.395875353809018],[135.32787322998047,-3.3951899137424135],[135.32581329345703,-3.394161752730355],[135.32512664794922,-3.3921054274238287],[135.32581329345703,-3.390734541455771],[135.3240966796875,-3.389363653544322],[135.30967712402344,-3.3866218718943912],[135.29491424560547,-3.3859364252685253],[135.29319763183594,-3.384908254420054],[135.2753448486328,-3.3831946339143713],[135.2530288696289,-3.37839648038468],[135.23345947265625,-3.3753119405877356],[135.22212982177734,-3.376340121608706],[135.2200698852539,-3.377711027943306],[135.21835327148438,-3.376682848373804],[135.21011352539062,-3.3807955601166526],[135.19981384277344,-3.3811382853083245],[135.17337799072266,-3.3749692133389146],[135.164794921875,-3.3705137481067453],[135.16342163085938,-3.3705137481067453],[135.16204833984375,-3.3715419342031794],[135.15209197998047,-3.3708564769263205],[135.1490020751953,-3.3715419342031794],[135.1431655883789,-3.3753119405877356],[135.1321792602539,-3.38045283480389],[135.12977600097656,-3.38045283480389],[135.1256561279297,-3.3790819323419754],[135.12290954589844,-3.3807955601166526],[135.11707305908203,-3.3811382853083245],[135.11638641357422,-3.3818237353282825],[135.11329650878906,-3.3818237353282825],[135.11123657226562,-3.3807955601166526],[135.10746002197266,-3.3759973947226456],[135.1043701171875,-3.376682848373804],[135.10265350341797,-3.3759973947226456],[135.10025024414062,-3.3732555752815188],[135.09784698486328,-3.372227390996926],[135.09716033935547,-3.367771913204564],[135.0985336303711,-3.363659146376108],[135.09750366210938,-3.359546362196184],[135.0933837890625,-3.359546362196184],[135.09544372558594,-3.356804496446955],[135.09132385253906,-3.352006212870805],[135.09029388427734,-3.3478933796430823],[135.087890625,-3.3451514812285694],[135.07003784179688,-3.334183810937901],[135.05905151367188,-3.3352120352297305],[135.05321502685547,-3.32972815992197],[135.0490951538086,-3.32904267336032],[135.04497528076172,-3.33247010139614],[135.04085540771484,-3.3321273591296006],[135.03570556640625,-3.3352120352297305],[135.0322723388672,-3.3358975174935495],[135.0326156616211,-3.337268480587028],[135.02403259277344,-3.3396676613972573],[135.0171661376953,-3.340010401034533],[135.00961303710938,-3.3386394417676115],[135.00137329101562,-3.336240258446196],[134.99347686767578,-3.3310991316137404],[134.98523712158203,-3.327671698805986],[134.98146057128906,-3.3215022897185946],[134.97802734375,-3.3194458114517857],[134.97802734375,-2.7894247770059906],[135.3676986694336,-2.7894247770059906]]]}}]}