{"type":"FeatureCollection","features":[{"type":"Feature","id":"pmtiles:10/877/532:landcover:12195308972:0","properties":{"subclass":"wood","class":"wood","kind":"green","verification":"verified","source":"OpenMapTiles/OpenStreetMap national PMTiles","sourceId":"10/877/532:landcover:12195308972:0","sourceLayer":"landcover","archive":"https://its.hanifahseptiani45.workers.dev/v1/map/archive/indonesia.pmtiles","updatedAt":"2026-07-26T09:45:22.413Z"},"geometry":{"type":"Polygon","coordinates":[[[128.56072425842285,-7.28491301682277],[128.56209754943848,-7.282529150636165],[128.56355667114258,-7.281422351312145],[128.5657024383545,-7.281762905241294],[128.56853485107422,-7.283550809125558],[128.571195602417,-7.288063106264289],[128.5704231262207,-7.288063106264289],[128.5704231262207,-7.288999615070608],[128.5723114013672,-7.290446943010963],[128.57248306274414,-7.291979402790886],[128.57162475585938,-7.293001039730456],[128.57196807861328,-7.293511857325996],[128.5726547241211,-7.293341584858908],[128.57274055480957,-7.294022674338663],[128.5722255706787,-7.294363218689938],[128.5723114013672,-7.295214578434596],[128.57145309448242,-7.294703762782106],[128.5696506500244,-7.296236207990432],[128.56947898864746,-7.299130812398275],[128.56904983520508,-7.298960542069182],[128.56793403625488,-7.300407837800421],[128.56690406799316,-7.300322702887044],[128.56450080871582,-7.30534563504159],[128.56510162353516,-7.309006380542243],[128.56553077697754,-7.310198244697403],[128.56656074523926,-7.310623909696346],[128.5653591156006,-7.313518420928631],[128.56355667114258,-7.315221065828524],[128.56106758117676,-7.315902121969884],[128.56003761291504,-7.315476462003332],[128.55849266052246,-7.312071167657933],[128.55488777160645,-7.30236593633478],[128.5542869567871,-7.299301082662552],[128.55566024780273,-7.298364595406994],[128.56072425842285,-7.28491301682277]]]}},{"type":"Feature","id":"pmtiles:10/877/532:landuse:1957225660:0","properties":{"class":"residential","kind":"green","verification":"verified","source":"OpenMapTiles/OpenStreetMap national PMTiles","sourceId":"10/877/532:landuse:1957225660:0","sourceLayer":"landuse","archive":"https://its.hanifahseptiani45.workers.dev/v1/map/archive/indonesia.pmtiles","updatedAt":"2026-07-26T09:45:22.413Z"},"geometry":{"type":"Polygon","coordinates":[[[128.66045951843262,-7.151652592195106],[128.65848541259766,-7.151141614299803],[128.65702629089355,-7.149438350519844],[128.6571979522705,-7.148757043229438],[128.65556716918945,-7.147905407687574],[128.65582466125488,-7.147138934342593],[128.65857124328613,-7.14918286040502],[128.65951538085938,-7.149012533582422],[128.66045951843262,-7.151652592195106]]]}},{"type":"Feature","id":"pmtiles:10/877/532:landuse:1957225660:1","properties":{"class":"residential","kind":"green","verification":"verified","source":"OpenMapTiles/OpenStreetMap national PMTiles","sourceId":"10/877/532:landuse:1957225660:1","sourceLayer":"landuse","archive":"https://its.hanifahseptiani45.workers.dev/v1/map/archive/indonesia.pmtiles","updatedAt":"2026-07-26T09:45:22.413Z"},"geometry":{"type":"Polygon","coordinates":[[[128.59007835388184,-7.072188686120171],[128.5901641845703,-7.073040462063574],[128.5883617401123,-7.074658832027282],[128.58758926391602,-7.072614574288252],[128.58604431152344,-7.0732108170637105],[128.58999252319336,-7.070655485463277],[128.59007835388184,-7.072188686120171]]]}},{"type":"Feature","id":"pmtiles:10/877/532:landuse:1957225660:2","properties":{"class":"residential","kind":"green","verification":"verified","source":"OpenMapTiles/OpenStreetMap national PMTiles","sourceId":"10/877/532:landuse:1957225660:2","sourceLayer":"landuse","archive":"https://its.hanifahseptiani45.workers.dev/v1/map/archive/indonesia.pmtiles","updatedAt":"2026-07-26T09:45:22.413Z"},"geometry":{"type":"Polygon","coordinates":[[[128.63067626953125,-7.070655485463277],[128.63067626953125,-7.071251730767941],[128.62930297851562,-7.071422086427901],[128.62750053405762,-7.070144417446713],[128.62784385681152,-7.069803705121572],[128.6290454864502,-7.0705703074997786],[128.63067626953125,-7.070655485463277]]]}},{"type":"Feature","id":"pmtiles:10/877/532:landuse:1957225660:3","properties":{"class":"residential","kind":"green","verification":"verified","source":"OpenMapTiles/OpenStreetMap national PMTiles","sourceId":"10/877/532:landuse:1957225660:3","sourceLayer":"landuse","archive":"https://its.hanifahseptiani45.workers.dev/v1/map/archive/indonesia.pmtiles","updatedAt":"2026-07-26T09:45:22.413Z"},"geometry":{"type":"Polygon","coordinates":[[[128.6594295501709,-7.0994447360864825],[128.65633964538574,-7.099529908714814],[128.65479469299316,-7.098081971888405],[128.6547088623047,-7.097059896091068],[128.6587429046631,-7.098507836133905],[128.6594295501709,-7.0994447360864825]]]}},{"type":"Feature","id":"pmtiles:10/877/532:landuse:1957225660:4","properties":{"class":"residential","kind":"green","verification":"verified","source":"OpenMapTiles/OpenStreetMap national PMTiles","sourceId":"10/877/532:landuse:1957225660:4","sourceLayer":"landuse","archive":"https://its.hanifahseptiani45.workers.dev/v1/map/archive/indonesia.pmtiles","updatedAt":"2026-07-26T09:45:22.413Z"},"geometry":{"type":"Polygon","coordinates":[[[128.67247581481934,-7.142369737979308],[128.6729907989502,-7.142114243912857],[128.67324829101562,-7.142454902636402],[128.67196083068848,-7.143391712817419],[128.66990089416504,-7.143817534992394],[128.66621017456055,-7.143391712817419],[128.66621017456055,-7.142625231903011],[128.66689682006836,-7.142369737979308],[128.66904258728027,-7.142625231903011],[128.66938591003418,-7.141603255351697],[128.67058753967285,-7.141518090535996],[128.67058753967285,-7.142199408617543],[128.66990089416504,-7.142540067277636],[128.67050170898438,-7.1427103965124985],[128.67247581481934,-7.142369737979308]]]}},{"type":"Feature","id":"pmtiles:10/877/532:transportation:13609555880:0","properties":{"class":"ferry","highway":"ferry","kind":"road","verification":"verified","source":"OpenMapTiles/OpenStreetMap national PMTiles","sourceId":"10/877/532:transportation:13609555880:0","sourceLayer":"transportation","archive":"https://its.hanifahseptiani45.workers.dev/v1/map/archive/indonesia.pmtiles","updatedAt":"2026-07-26T09:45:22.413Z"},"geometry":{"type":"LineString","coordinates":[[128.6773681640625,-7.149949330320766],[128.6678409576416,-7.148416389203206],[128.66389274597168,-7.146798279109916],[128.66329193115234,-7.146031803907846],[128.6631202697754,-7.144839506593982],[128.66363525390625,-7.144413685370992],[128.66320610046387,-7.144924670790985],[128.6634635925293,-7.145946639917156],[128.6641502380371,-7.146542787518726],[128.66809844970703,-7.147735080388699],[128.6773681640625,-7.147394425600453]]}},{"type":"Feature","id":"pmtiles:10/877/532:transportation:13609555880:1","properties":{"class":"ferry","highway":"ferry","kind":"road","verification":"verified","source":"OpenMapTiles/OpenStreetMap national PMTiles","sourceId":"10/877/532:transportation:13609555880:1","sourceLayer":"transportation","archive":"https://its.hanifahseptiani45.workers.dev/v1/map/archive/indonesia.pmtiles","updatedAt":"2026-07-26T09:45:22.413Z"},"geometry":{"type":"LineString","coordinates":[[128.58080863952637,-7.367914706747754],[128.6773681640625,-7.208537879875223]]}},{"type":"Feature","id":"pmtiles:10/877/532:water:700:0","properties":{"class":"ocean","water":"ocean","kind":"waterway","verification":"verified","source":"OpenMapTiles/OpenStreetMap national PMTiles","sourceId":"10/877/532:water:700:0","sourceLayer":"water","archive":"https://its.hanifahseptiani45.workers.dev/v1/map/archive/indonesia.pmtiles","updatedAt":"2026-07-26T09:45:22.413Z"},"geometry":{"type":"Polygon","coordinates":[[[128.3148193359375,-7.367914706747754],[128.3148193359375,-7.008215836663396],[128.6773681640625,-7.008215836663396],[128.6773681640625,-7.095441604769604],[128.67719650268555,-7.095611951492444],[128.6759090423584,-7.096122991282698],[128.67599487304688,-7.0965488573411335],[128.67470741271973,-7.095611951492444],[128.67273330688477,-7.095186084567132],[128.6707592010498,-7.095271257983711],[128.670072555542,-7.0948453907432025],[128.670072555542,-7.094419523108712],[128.66904258728027,-7.094675043736686],[128.66681098937988,-7.094078828717471],[128.66646766662598,-7.094249175944611],[128.66621017456055,-7.094675043736686],[128.66586685180664,-7.094589870209788],[128.66586685180664,-7.094078828717471],[128.66543769836426,-7.0939936550802685],[128.66440773010254,-7.094589870209788],[128.66440773010254,-7.095100911134793],[128.66397857666016,-7.095697124830224],[128.66432189941406,-7.097145069160888],[128.66294860839844,-7.097230242214948],[128.6616611480713,-7.097996798992014],[128.66114616394043,-7.098593008935708],[128.65917205810547,-7.098422663316342],[128.6587429046631,-7.098167144769036],[128.65805625915527,-7.098337490483004],[128.6576271057129,-7.097826453151896],[128.6565113067627,-7.097741280208197],[128.65599632263184,-7.0973154152532345],[128.65565299987793,-7.096974723005488],[128.6546230316162,-7.096889549904148],[128.65221977233887,-7.0948453907432025],[128.6510181427002,-7.093312265415378],[128.64964485168457,-7.0899053019671925],[128.64904403686523,-7.089053557167574],[128.6487865447998,-7.088031461329493],[128.64895820617676,-7.086327963227987],[128.6487865447998,-7.085050335519824],[128.64792823791504,-7.084283757195223],[128.64595413208008,-7.08087672699952],[128.64492416381836,-7.0800249655179215],[128.6440658569336,-7.080450846455321],[128.6426067352295,-7.0787473203467925],[128.64089012145996,-7.077640025003305],[128.63951683044434,-7.077640025003305],[128.638916015625,-7.077384494931337],[128.63685607910156,-7.078151084722805],[128.63582611083984,-7.077128964717858],[128.63608360290527,-7.075936488517627],[128.6345386505127,-7.07610684244915],[128.6337661743164,-7.075936488517627],[128.63316535949707,-7.076362373228534],[128.63222122192383,-7.075766134523235],[128.63170623779297,-7.0752550721628324],[128.6327362060547,-7.073466349446093],[128.63247871398926,-7.073125639571501],[128.6319637298584,-7.073040462063574],[128.63093376159668,-7.072359041434538],[128.63076210021973,-7.071933153030784],[128.63101959228516,-7.070911019259512],[128.63067626953125,-7.070485129520577],[128.63024711608887,-7.070399951525673],[128.62913131713867,-7.070485129520577],[128.62784385681152,-7.0695481707127925],[128.6257839202881,-7.069292636162714],[128.62561225891113,-7.0695481707127925],[128.62235069274902,-7.069462992545141],[128.62106323242188,-7.069718527001015],[128.62046241760254,-7.068696388329528],[128.62071990966797,-7.06682246155934],[128.6202907562256,-7.066055852963345],[128.62046241760254,-7.065885495324892],[128.62046241760254,-7.0654596009540995],[128.6195182800293,-7.066055852963345],[128.61891746520996,-7.06571513762367],[128.61900329589844,-7.065289243095918],[128.61865997314453,-7.06494852719122],[128.61823081970215,-7.065204064143288],[128.6176300048828,-7.065204064143288],[128.61745834350586,-7.064863348175805],[128.61720085144043,-7.06494852719122],[128.61591339111328,-7.064437452863331],[128.61342430114746,-7.064352273753769],[128.61205101013184,-7.063500481794961],[128.61187934875488,-7.063159764572077],[128.6122226715088,-7.062563508827964],[128.61162185668945,-7.062052431864004],[128.61119270324707,-7.0619672523151],[128.6099910736084,-7.0622227909147455],[128.60981941223145,-7.062819047098159],[128.6093044281006,-7.0632449439013385],[128.60878944396973,-7.063074585227142],[128.60827445983887,-7.0635856610614525],[128.6074161529541,-7.0636708403122555],[128.6070728302002,-7.064096736330896],[128.60733032226562,-7.064863348175805],[128.60681533813477,-7.06554477985965],[128.60535621643066,-7.066311389303294],[128.60424041748047,-7.066055852963345],[128.6037254333496,-7.06554477985965],[128.60295295715332,-7.065885495324892],[128.60072135925293,-7.066396568051871],[128.60037803649902,-7.066992818852441],[128.59960556030273,-7.067333533250249],[128.59891891479492,-7.067333533250249],[128.59857559204102,-7.066992818852441],[128.5978889465332,-7.067333533250249],[128.59694480895996,-7.067333533250249],[128.59668731689453,-7.066226210539],[128.59625816345215,-7.066226210539],[128.59557151794434,-7.066652104203442],[128.59436988830566,-7.06597067415197],[128.59411239624023,-7.066141031759017],[128.59436988830566,-7.066566925501945],[128.593168258667,-7.068185318145822],[128.59248161315918,-7.068526031664419],[128.59213829040527,-7.069803705121572],[128.5916233062744,-7.070059239388982],[128.59050750732422,-7.071251730767941],[128.5901641845703,-7.071081375045139],[128.5902500152588,-7.070655485463277],[128.59110832214355,-7.070314773515065],[128.59110832214355,-7.070144417446713],[128.59007835388184,-7.07022959548874],[128.5861301422119,-7.072699751874737],[128.5854434967041,-7.073636704289115],[128.5851001739502,-7.074914363608244],[128.58381271362305,-7.076703080714324],[128.58149528503418,-7.079088026071716],[128.58012199401855,-7.0800249655179215],[128.57969284057617,-7.080621198720181],[128.57866287231445,-7.0813877831334935],[128.5784912109375,-7.081898838701207],[128.57574462890625,-7.083432002006262],[128.57488632202148,-7.084794809553273],[128.57385635375977,-7.085646562224326],[128.5736846923828,-7.086924188279781],[128.5741138458252,-7.087350062844521],[128.57419967651367,-7.087690762212944],[128.57351303100586,-7.088116636069259],[128.57316970825195,-7.089053557167574],[128.57205390930176,-7.089479429764225],[128.57179641723633,-7.089309080772807],[128.5704231262207,-7.089479429764225],[128.56947898864746,-7.090757045191978],[128.56879234313965,-7.091012567852275],[128.5681915283203,-7.090842219427813],[128.56810569763184,-7.090075650738143],[128.5675048828125,-7.089990476360541],[128.56698989868164,-7.091012567852275],[128.56741905212402,-7.091182916213739],[128.5675048828125,-7.091608786841718],[128.56613159179688,-7.092460526916241],[128.56595993041992,-7.09305674403106],[128.5653591156006,-7.093482612926138],[128.56321334838867,-7.094675043736686],[128.56252670288086,-7.094675043736686],[128.5623550415039,-7.094930564222821],[128.56201171875,-7.09646368416098],[128.56081008911133,-7.097059896091068],[128.55960845947266,-7.098252317633907],[128.5579776763916,-7.098252317633907],[128.5572910308838,-7.097826453151896],[128.5565185546875,-7.098252317633907],[128.55600357055664,-7.098081971888405],[128.55591773986816,-7.097741280208197],[128.5554027557373,-7.097911626079821],[128.55445861816406,-7.098763354492007],[128.55445861816406,-7.099189218106801],[128.5536003112793,-7.099274390782455],[128.552827835083,-7.09978542650525],[128.55274200439453,-7.100211289173899],[128.55196952819824,-7.100211289173899],[128.55188369750977,-7.100637151448282],[128.55162620544434,-7.100977840983887],[128.55085372924805,-7.100722323855848],[128.55051040649414,-7.101148185657053],[128.54982376098633,-7.101063013328371],[128.54965209960938,-7.101488874814123],[128.549222946167,-7.101574047063963],[128.5487937927246,-7.101318530267136],[128.54819297790527,-7.101659219298014],[128.54784965515137,-7.102085080231703],[128.54793548583984,-7.1034478325691595],[128.5477638244629,-7.103788520022448],[128.54561805725098,-7.105406781977692],[128.54536056518555,-7.105491953501726],[128.5447597503662,-7.104895752502003],[128.54458808898926,-7.105236438882258],[128.54364395141602,-7.105066095723686],[128.5433006286621,-7.105406781977692],[128.54355812072754,-7.1063436678741],[128.54252815246582,-7.1061733251259085],[128.541841506958,-7.106514010559181],[128.54098320007324,-7.108047091883421],[128.54132652282715,-7.108643288794795],[128.54106903076172,-7.108813630627367],[128.54055404663086,-7.108302604940178],[128.53995323181152,-7.108728459718975],[128.53978157043457,-7.110176363014176],[128.53832244873047,-7.112135283737047],[128.5371208190918,-7.113327666172779],[128.53720664978027,-7.1138386862687355],[128.53772163391113,-7.114094196103409],[128.53763580322266,-7.114860724754138],[128.5371208190918,-7.115371743143513],[128.53652000427246,-7.115031064280473],[128.53643417358398,-7.1144348756617575],[128.53609085083008,-7.114349705795874],[128.53514671325684,-7.115371743143513],[128.53497505187988,-7.115967930545381],[128.53403091430664,-7.116478947701992],[128.5334300994873,-7.116478947701992],[128.53282928466797,-7.116904794897849],[128.53248596191406,-7.117245472370001],[128.5323143005371,-7.118352672407653],[128.53179931640625,-7.1196302075924365],[128.53102684020996,-7.120567064466712],[128.53059768676758,-7.122100098860372],[128.52922439575195,-7.123888632508553],[128.5293960571289,-7.125251320128612],[128.5298252105713,-7.1266140036973695],[128.52965354919434,-7.126954673956462],[128.52922439575195,-7.12712500899103],[128.52991104125977,-7.127721181113387],[128.52965354919434,-7.128743188661275],[128.52888107299805,-7.128572854228281],[128.52853775024414,-7.128743188661275],[128.5283660888672,-7.129765193929202],[128.52630615234375,-7.135471348091755],[128.5253620147705,-7.136237840993459],[128.5246753692627,-7.1359823435022065],[128.5239028930664,-7.137941153956319],[128.5243320465088,-7.138452146608699],[128.5246753692627,-7.1432213838363765],[128.52510452270508,-7.14424335677073],[128.52664947509766,-7.146627951398344],[128.52707862854004,-7.147053770558244],[128.52742195129395,-7.146883442941899],[128.52785110473633,-7.147905407687574],[128.52956771850586,-7.148501552733578],[128.53008270263672,-7.149012533582422],[128.5311985015869,-7.150545472699363],[128.53394508361816,-7.15318552245013],[128.53437423706055,-7.15412231062777],[128.53549003601074,-7.154973934575551],[128.53583335876465,-7.1557403947699925],[128.5378074645996,-7.158465576146526],[128.53900909423828,-7.1573584731753215],[128.5392665863037,-7.157443635037708],[128.53943824768066,-7.157613958714805],[128.53918075561523,-7.157613958714805],[128.53900909423828,-7.1582952527873545],[128.53960990905762,-7.158635899442089],[128.54347229003906,-7.162808800315688],[128.54424476623535,-7.162723639455066],[128.54501724243164,-7.163575247345449],[128.54527473449707,-7.163404925894639],[128.54536056518555,-7.162553317686104],[128.54639053344727,-7.162553317686104],[128.54870796203613,-7.162808800315688],[128.54913711547852,-7.163064282802111],[128.54913711547852,-7.163745568732637],[128.54999542236328,-7.163915890056174],[128.5517978668213,-7.163915890056174],[128.55222702026367,-7.163490086628002],[128.552827835083,-7.163745568732637],[128.55463027954102,-7.162723639455066],[128.5561752319336,-7.161275902390869],[128.5557460784912,-7.160424290206052],[128.5558319091797,-7.159998483517313],[128.55660438537598,-7.160168806240506],[128.55806350708008,-7.1598281607305125],[128.55900764465332,-7.1600836448868534],[128.56072425842285,-7.162127512985322],[128.5608959197998,-7.16314944359911],[128.5612392425537,-7.163490086628002],[128.56158256530762,-7.164256532512354],[128.5612392425537,-7.164852656198107],[128.56149673461914,-7.165363618736791],[128.56218338012695,-7.166044901230578],[128.56338500976562,-7.166044901230578],[128.56329917907715,-7.166555862432546],[128.56407165527344,-7.166726182705858],[128.5652732849121,-7.167492623148036],[128.56595993041992,-7.16851454173198],[128.56587409973145,-7.169621617611014],[128.56647491455078,-7.170132574801514],[128.5663890838623,-7.170899009512439],[128.56664657592773,-7.171324806016727],[128.56733322143555,-7.1714099652698025],[128.56853485107422,-7.17209123872108],[128.56982231140137,-7.173027988052212],[128.57025146484375,-7.173709259082415],[128.57093811035156,-7.173624100259389],[128.571195602417,-7.173453782565559],[128.57162475585938,-7.173027988052212],[128.57171058654785,-7.1723467160025365],[128.57205390930176,-7.17209123872108],[128.57282638549805,-7.17209123872108],[128.57351303100586,-7.1723467160025365],[128.5744571685791,-7.173283464808009],[128.57548713684082,-7.173453782565559],[128.57909202575684,-7.175327273692744],[128.5799503326416,-7.176860124333288],[128.5836410522461,-7.179329706170023],[128.58484268188477,-7.181032858245658],[128.59042167663574,-7.187419621707292],[128.59110832214355,-7.187760246570846],[128.59188079833984,-7.187589934170987],[128.59299659729004,-7.187760246570846],[128.59325408935547,-7.189122743471117],[128.59454154968262,-7.189803990388739],[128.59488487243652,-7.190655547598837],[128.59488487243652,-7.191507103212203],[128.59600067138672,-7.192358657228596],[128.596773147583,-7.19261412312207],[128.5972023010254,-7.192443812542393],[128.59771728515625,-7.192869588871815],[128.59960556030273,-7.195253928936751],[128.6001205444336,-7.196957021314134],[128.60501289367676,-7.19934133990273],[128.60655784606934,-7.200788955788397],[128.6074161529541,-7.202577180796624],[128.61170768737793,-7.205046622783797],[128.61230850219727,-7.205131775715813],[128.61634254455566,-7.207516051315949],[128.61900329589844,-7.209985466388545],[128.61960411071777,-7.209985466388545],[128.62003326416016,-7.2096448582133945],[128.62192153930664,-7.210496378170987],[128.62235069274902,-7.21083698570574],[128.62338066101074,-7.212540019536505],[128.6242389678955,-7.213136079863929],[128.62621307373047,-7.213817290705691],[128.62844467163086,-7.2141578957421615],[128.6316204071045,-7.215605464287648],[128.63187789916992,-7.2154351623461395],[128.63239288330078,-7.215775766165066],[128.63402366638184,-7.2159460679784075],[128.63651275634766,-7.216712425345293],[128.63754272460938,-7.216712425345293],[128.6396884918213,-7.217223329535457],[128.64080429077148,-7.218074835237047],[128.64200592041016,-7.21798968473901],[128.64200592041016,-7.217308480177749],[128.64252090454102,-7.217223329535457],[128.64561080932617,-7.216967877512488],[128.6469841003418,-7.217478781414201],[128.64784240722656,-7.217308480177749],[128.64852905273438,-7.216712425345293],[128.64930152893066,-7.217053028202841],[128.65050315856934,-7.216286671412803],[128.65144729614258,-7.216371822231352],[128.65144729614258,-7.216031218861048],[128.651704788208,-7.2154351623461395],[128.65239143371582,-7.214753953939237],[128.65273475646973,-7.2141578957421615],[128.65436553955078,-7.212284564870231],[128.65548133850098,-7.21066668197038],[128.65556716918945,-7.207686356235882],[128.65522384643555,-7.207175441284036],[128.65513801574707,-7.205472387283891],[128.65556716918945,-7.203428714035951],[128.6561679840088,-7.202151413577198],[128.6561679840088,-7.201555338798329],[128.6565113067627,-7.200618648276958],[128.6571979522705,-7.199596801865354],[128.6583137512207,-7.1988304155458565],[128.65848541259766,-7.1976382564752726],[128.65882873535156,-7.197382793409716],[128.65934371948242,-7.196105475924398],[128.6597728729248,-7.195764857321095],[128.66028785705566,-7.194487535281766],[128.66217613220215,-7.192528967840232],[128.6641502380371,-7.191932880420026],[128.6652660369873,-7.1918477250103905],[128.66621017456055,-7.191336792217271],[128.66586685180664,-7.189037587534585],[128.66612434387207,-7.188867275613603],[128.66655349731445,-7.187334465451514],[128.66741180419922,-7.186057119699527],[128.66827011108398,-7.185375867163671],[128.66878509521484,-7.185120397199455],[128.66998672485352,-7.185120397199455],[128.6711883544922,-7.18426882961495],[128.6711883544922,-7.183672731356538],[128.67170333862305,-7.183246946407678],[128.6725616455078,-7.181032858245658],[128.67582321166992,-7.1778820218916195],[128.67693901062012,-7.177285915261521],[128.67693901062012,-7.1763491746934704],[128.6773681640625,-7.176008541281533],[128.6773681640625,-7.367914706747754],[128.5675048828125,-7.367914706747754],[128.5675048828125,-7.366382508174752],[128.56767654418945,-7.3657866517435195],[128.5681915283203,-7.3654461619945835],[128.56801986694336,-7.364509813836406],[128.5686206817627,-7.363743709326812],[128.5686206817627,-7.362977603493405],[128.5681915283203,-7.360423907822806],[128.56707572937012,-7.359742919827312],[128.5667324066162,-7.358721435873932],[128.5667324066162,-7.358125569148314],[128.56621742248535,-7.358210693015252],[128.56587409973145,-7.357444577624889],[128.5653591156006,-7.357274329580733],[128.56467247009277,-7.357529701622482],[128.56389999389648,-7.357614825603733],[128.56355667114258,-7.357529701622482],[128.56338500976562,-7.357189205534155],[128.56338500976562,-7.357699949568655],[128.56295585632324,-7.358040445265047],[128.56038093566895,-7.358466064518083],[128.56012344360352,-7.358721435873932],[128.56063842773438,-7.35948754905948],[128.56063842773438,-7.359913166924201],[128.5612392425537,-7.360253660921941],[128.5616683959961,-7.361190018067987],[128.5616683959961,-7.36238174248561],[128.5612392425537,-7.3633180951383395],[128.56003761291504,-7.363828832115473],[128.55814933776855,-7.363828832115473],[128.5572052001953,-7.362892480541319],[128.55626106262207,-7.361190018067987],[128.55548858642578,-7.360594154658315],[128.5550594329834,-7.359828043383914],[128.5558319091797,-7.359572672665095],[128.5561752319336,-7.360253660921941],[128.55789184570312,-7.358721435873932],[128.55814933776855,-7.358210693015252],[128.55789184570312,-7.357529701622482],[128.5583209991455,-7.356763585056342],[128.5587501525879,-7.356593336750919],[128.55917930603027,-7.356678460911795],[128.55900764465332,-7.355571845546862],[128.55926513671875,-7.355146223518005],[128.5586643218994,-7.354635476544615],[128.55780601501465,-7.354975974592165],[128.55711936950684,-7.355061099063249],[128.55591773986816,-7.354380102837567],[128.55514526367188,-7.354209853617903],[128.55402946472168,-7.354805725601054],[128.55445861816406,-7.355231347956419],[128.55454444885254,-7.355997467167612],[128.55411529541016,-7.357018957392015],[128.55334281921387,-7.358125569148314],[128.55231285095215,-7.360934648133295],[128.55154037475586,-7.362041250121635],[128.5513687133789,-7.363488340862773],[128.55076789855957,-7.363913954887806],[128.5499095916748,-7.364169323106694],[128.54965209960938,-7.364594936477957],[128.54930877685547,-7.367914706747754],[128.3148193359375,-7.367914706747754]],[[128.56621742248535,-7.311475238477087],[128.56613159179688,-7.310964441403399],[128.56656074523926,-7.310623909696346],[128.56553077697754,-7.310198244697403],[128.56501579284668,-7.308921247266596],[128.5645866394043,-7.30517536707913],[128.5668182373047,-7.300407837800421],[128.56707572937012,-7.300322702887044],[128.5678482055664,-7.300492972697583],[128.5681915283203,-7.299726758039682],[128.56904983520508,-7.2990456772418355],[128.56870651245117,-7.298705136454032],[128.5686206817627,-7.298194324786266],[128.56887817382812,-7.297938918733664],[128.56922149658203,-7.298024054100736],[128.56939315795898,-7.298449730693065],[128.56922149658203,-7.2990456772418355],[128.56947898864746,-7.299130812398275],[128.5696506500244,-7.298194324786266],[128.56956481933594,-7.296576750657437],[128.5697364807129,-7.296065936559756],[128.57068061828613,-7.2957253935040285],[128.57136726379395,-7.294703762782106],[128.57162475585938,-7.294959170681224],[128.57213973999023,-7.294959170681224],[128.5723114013672,-7.295214578434596],[128.57248306274414,-7.294618626783361],[128.5722255706787,-7.294363218689938],[128.57274055480957,-7.294107810450768],[128.57274055480957,-7.293426721100545],[128.57196807861328,-7.293511857325996],[128.57171058654785,-7.293341584858908],[128.57179641723633,-7.292319948696431],[128.57256889343262,-7.291979402790886],[128.5723114013672,-7.290446943010963],[128.5704231262207,-7.288999615070608],[128.5704231262207,-7.288063106264289],[128.571195602417,-7.288063106264289],[128.5708522796631,-7.287382007720964],[128.57016563415527,-7.286871183134011],[128.5700798034668,-7.286275220379849],[128.57025146484375,-7.285764394531171],[128.56956481933594,-7.284657603194887],[128.56853485107422,-7.283550809125558],[128.56724739074707,-7.282529150636165],[128.5657024383545,-7.281762905241294],[128.56355667114258,-7.281422351312145],[128.56287002563477,-7.281762905241294],[128.56209754943848,-7.282529150636165],[128.56072425842285,-7.28491301682277],[128.56072425842285,-7.285508981388475],[128.56029510498047,-7.286190082778845],[128.5597801208496,-7.287637419796042],[128.55737686157227,-7.2929159034078594],[128.55557441711426,-7.298534865962921],[128.5550594329834,-7.298875406880342],[128.55463027954102,-7.298449730693065],[128.5542869567871,-7.298705136454032],[128.5543727874756,-7.300237567957467],[128.55514526367188,-7.3029618776650125],[128.5572052001953,-7.307899646693556],[128.55849266052246,-7.312071167657933],[128.56003761291504,-7.315476462003332],[128.56063842773438,-7.315902121969884],[128.56106758117676,-7.315902121969884],[128.56209754943848,-7.315391329961301],[128.56287002563477,-7.31556159402912],[128.5641574859619,-7.314795405212436],[128.56484413146973,-7.313773818077635],[128.5653591156006,-7.313518420928631],[128.5657024383545,-7.311900902258827],[128.56621742248535,-7.311475238477087]],[[128.40065002441406,-7.219607541460917],[128.40133666992188,-7.220544192707607],[128.4015941619873,-7.221565991855115],[128.40279579162598,-7.2223323397005],[128.40279579162598,-7.221991740818467],[128.4030532836914,-7.222076890563017],[128.40356826782227,-7.221225392395823],[128.40459823608398,-7.220714492725847],[128.4048557281494,-7.218841188998141],[128.40459823608398,-7.217478781414201],[128.4034824371338,-7.216712425345293],[128.40228080749512,-7.216627274590834],[128.4020233154297,-7.216882726806105],[128.40245246887207,-7.217138178877164],[128.40245246887207,-7.21798968473901],[128.40219497680664,-7.218245136185047],[128.40116500854492,-7.218074835237047],[128.4004783630371,-7.218585737888702],[128.40065002441406,-7.219607541460917]],[[128.39258193969727,-7.218415437068927],[128.39344024658203,-7.218670888274545],[128.39670181274414,-7.220288742559987],[128.39773178100586,-7.21909663996334],[128.39850425720215,-7.218841188998141],[128.3979034423828,-7.217393630803983],[128.39704513549805,-7.216967877512488],[128.3950710296631,-7.216882726806105],[128.39344024658203,-7.217223329535457],[128.39155197143555,-7.216712425345293],[128.39069366455078,-7.216797576083707],[128.39069366455078,-7.217563932008417],[128.39146614074707,-7.218415437068927],[128.39258193969727,-7.218415437068927]]]}},{"type":"Feature","id":"pmtiles:10/877/532:water:700:1","properties":{"class":"ocean","water":"ocean","kind":"waterway","verification":"verified","source":"OpenMapTiles/OpenStreetMap national PMTiles","sourceId":"10/877/532:water:700:1","sourceLayer":"water","archive":"https://its.hanifahseptiani45.workers.dev/v1/map/archive/indonesia.pmtiles","updatedAt":"2026-07-26T09:45:22.414Z"},"geometry":{"type":"Polygon","coordinates":[[[128.6773681640625,-7.139814790891322],[128.6773681640625,-7.166130061470696],[128.6765956878662,-7.165874580702621],[128.67462158203125,-7.166215221694884],[128.67350578308105,-7.165704260110999],[128.67247581481934,-7.164256532512354],[128.67101669311523,-7.163064282802111],[128.6704158782959,-7.162297834913346],[128.67067337036133,-7.161872029973978],[128.67050170898438,-7.1613610635218805],[128.67015838623047,-7.161020418902396],[128.66938591003418,-7.160935257707777],[128.66792678833008,-7.160168806240506],[128.66663932800293,-7.15812492936459],[128.66681098937988,-7.1573584731753215],[128.6656951904297,-7.156762339693515],[128.66286277770996,-7.153781660603769],[128.66260528564453,-7.152930034431705],[128.66209030151367,-7.152163569518606],[128.66063117980957,-7.151822918033133],[128.66037368774414,-7.150375146384874],[128.65968704223633,-7.149012533582422],[128.65985870361328,-7.148757043229438],[128.65960121154785,-7.148671879746686],[128.6594295501709,-7.149012533582422],[128.65891456604004,-7.1489273701473195],[128.65857124328613,-7.14909769700165],[128.6575412750244,-7.147820244046073],[128.6557388305664,-7.146627951398344],[128.6553955078125,-7.145180163286753],[128.65591049194336,-7.143562041735009],[128.65565299987793,-7.141943914455922],[128.65591049194336,-7.141177431114556],[128.6550521850586,-7.139644460577983],[128.65522384643555,-7.138196650353848],[128.65556716918945,-7.137941153956319],[128.65779876708984,-7.138026319438012],[128.65917205810547,-7.139644460577983],[128.65994453430176,-7.139133469257388],[128.66080284118652,-7.139133469257388],[128.66114616394043,-7.13879280805989],[128.6620044708252,-7.13879280805989],[128.66320610046387,-7.139814790891322],[128.66389274597168,-7.140836771439368],[128.66483688354492,-7.140836771439368],[128.6649227142334,-7.141177431114556],[128.6656093597412,-7.141688420151553],[128.66578102111816,-7.142540067277636],[128.6656951904297,-7.142795561106141],[128.66475105285645,-7.142795561106141],[128.6642360687256,-7.14228457330637],[128.66372108459473,-7.142625231903011],[128.66389274597168,-7.142965890245819],[128.6685276031494,-7.1439878637513345],[128.67230415344238,-7.14330654833482],[128.6729907989502,-7.142880725683909],[128.6755657196045,-7.139814790891322],[128.67599487304688,-7.139644460577983],[128.6773681640625,-7.139814790891322]]]}},{"type":"Feature","id":"pmtiles:10/878/532:landuse:1957225690:2","properties":{"class":"residential","kind":"green","verification":"verified","source":"OpenMapTiles/OpenStreetMap national PMTiles","sourceId":"10/878/532:landuse:1957225690:2","sourceLayer":"landuse","archive":"https://its.hanifahseptiani45.workers.dev/v1/map/archive/indonesia.pmtiles","updatedAt":"2026-07-26T09:45:22.497Z"},"geometry":{"type":"Polygon","coordinates":[[[128.67247581481934,-7.142369737979308],[128.6729907989502,-7.142114243912857],[128.67324829101562,-7.142454902636402],[128.67196083068848,-7.143391712817419],[128.66990089416504,-7.143817534992394],[128.6663818359375,-7.143391712817419],[128.6663818359375,-7.142540067277636],[128.66689682006836,-7.142369737979308],[128.66904258728027,-7.142625231903011],[128.66938591003418,-7.141603255351697],[128.67058753967285,-7.141518090535996],[128.67058753967285,-7.142199408617543],[128.66990089416504,-7.142540067277636],[128.67050170898438,-7.1427103965124985],[128.67247581481934,-7.142369737979308]]]}},{"type":"Feature","id":"pmtiles:8/219/133:landcover:12195308972:0","properties":{"subclass":"wood","class":"wood","kind":"green","verification":"verified","source":"OpenMapTiles/OpenStreetMap national PMTiles","sourceId":"8/219/133:landcover:12195308972:0","sourceLayer":"landcover","archive":"https://its.hanifahseptiani45.workers.dev/v1/map/archive/indonesia.pmtiles","updatedAt":"2026-07-26T09:35:46.464Z"},"geometry":{"type":"Polygon","coordinates":[[[128.56063842773438,-7.284827878962972],[128.56372833251953,-7.281422351312145],[128.56853485107422,-7.2834656710070504],[128.5726547241211,-7.294022674338663],[128.56441497802734,-7.305260501068474],[128.56647491455078,-7.31070904264746],[128.56544494628906,-7.313433288513153],[128.56098175048828,-7.315816990009054],[128.55445861816406,-7.299471352862014],[128.56063842773438,-7.284827878962972]]]}}]}