{"type":"FeatureCollection","features":[{"type":"Feature","id":"pmtiles:10/843/526:water:1940:0","properties":{"class":"ocean","water":"ocean","kind":"waterway","verification":"verified","source":"OpenMapTiles/OpenStreetMap national PMTiles","sourceId":"10/843/526:water:1940:0","sourceLayer":"water","archive":"https://its.hanifahseptiani45.workers.dev/v1/map/archive/indonesia.pmtiles","updatedAt":"2026-07-26T09:44:21.304Z"},"geometry":{"type":"Polygon","coordinates":[[[116.3616943359375,-4.910359820532264],[116.7242431640625,-4.910359820532264],[116.7242431640625,-5.271477837928359],[116.3616943359375,-5.271477837928359],[116.3616943359375,-4.910359820532264]]]}}]}