{"type":"FeatureCollection","features":[{"type":"Feature","id":"pmtiles:10/838/506:landcover:187658533:0","properties":{"subclass":"wood","class":"wood","kind":"green","verification":"verified","source":"OpenMapTiles/OpenStreetMap national PMTiles","sourceId":"10/838/506:landcover:187658533:0","sourceLayer":"landcover","archive":"https://its.hanifahseptiani45.workers.dev/v1/map/archive/indonesia.pmtiles","updatedAt":"2026-07-26T09:40:14.223Z"},"geometry":{"type":"Polygon","coordinates":[[[114.94231224060059,1.913325324395288],[114.94050979614258,1.9108376203485449],[114.93879318237305,1.9095508754617754],[114.93484497070312,1.9082641296115668],[114.93209838867188,1.9089503941848704],[114.93029594421387,1.9074062985098124],[114.92952346801758,1.9057764182382755],[114.92566108703613,1.9044038862866444],[114.92471694946289,1.9029455698901785],[114.92188453674316,1.9028597865343215],[114.91793632507324,1.901658819104398],[114.91596221923828,1.9019161693383353],[114.91355895996094,1.9008009847141665],[114.91278648376465,1.8996000158517319],[114.91355895996094,1.8974554265211623],[114.9158763885498,1.8945387807644352],[114.91235733032227,1.8907642907312692],[114.91124153137207,1.8901638029232828],[114.9085807800293,1.8918794818234375],[114.90729331970215,1.891707914009757],[114.9048900604248,1.893680942842181],[114.90248680114746,1.8931662398849767],[114.9019718170166,1.8925657529084248],[114.90171432495117,1.8879334178186156],[114.9005126953125,1.8837299919601946],[114.89931106567383,1.8833868547073536],[114.89871025085449,1.8881907700922085],[114.89622116088867,1.888962826684292],[114.89450454711914,1.8887912585823727],[114.89373207092285,1.8885339063977113],[114.89278793334961,1.886818224192865],[114.89278793334961,1.8827005799989536],[114.88995552062988,1.882957933046285],[114.89141464233398,1.882185873790334],[114.88995552062988,1.8817569518337365],[114.88892555236816,1.8831295017233884],[114.8869514465332,1.883215286055588],[114.88574981689453,1.877725080288485],[114.88162994384766,1.8751515403948957],[114.87836837768555,1.874207908152087],[114.87373352050781,1.8750657556665828],[114.8727035522461,1.8759236027605937],[114.87175941467285,1.8760093874468566],[114.87124443054199,1.8751515403948957],[114.87261772155762,1.8727495664129918],[114.87236022949219,1.8714627932823191],[114.87124443054199,1.8703475891385892],[114.8704719543457,1.8707765138931762],[114.86849784851074,1.8688892441888356],[114.8675537109375,1.8654578395310608],[114.86420631408691,1.8646857725602075],[114.86360549926758,1.8637421346914067],[114.86420631408691,1.8563645848502972],[114.86309051513672,1.853876799467713],[114.86291885375977,1.8508742952122361],[114.86575126647949,1.8489870042201204],[114.86532211303711,1.847785999816466],[114.86583709716797,1.846670780714419],[114.86429214477539,1.8452982023973306],[114.85785484313965,1.845040843844913],[114.85733985900879,1.844011409262933],[114.85939979553223,1.8415236065653602],[114.85879898071289,1.8380063623437621],[114.8591423034668,1.83706271027566],[114.86223220825195,1.8350038313062242],[114.86051559448242,1.8307144925100403],[114.86077308654785,1.8296850496708146],[114.862060546875,1.828912967153613],[114.86000061035156,1.827025652935518],[114.85931396484375,1.8277119492443745],[114.85982894897461,1.8287413932157932],[114.85879898071289,1.829170328029619],[114.85716819763184,1.8272830140820702],[114.85819816589355,1.8259104208743793],[114.85605239868164,1.826510930531768],[114.85476493835449,1.8243662522627773],[114.85347747802734,1.8235083802390335],[114.8536491394043,1.8227362950680117],[114.85527992248535,1.8216210603476242],[114.85716819763184,1.8213636983910106],[114.85931396484375,1.8199053132759957],[114.85794067382812,1.8199911006683465],[114.85605239868164,1.8192190139901498],[114.8569107055664,1.817417477122774],[114.85553741455078,1.8167311768908974],[114.85485076904297,1.814157548699896],[114.85519409179688,1.8176748396424784],[114.85433578491211,1.8185327144431938],[114.85193252563477,1.8179322021255189],[114.8514175415039,1.8139001856793158],[114.84858512878418,1.8138143979976604],[114.84746932983398,1.813042308679698],[114.84583854675293,1.8139001856793158],[114.84489440917969,1.8138143979976604],[114.84334945678711,1.8120986435105095],[114.84017372131348,1.813385459528348],[114.83708381652832,1.813385459528348],[114.83622550964355,1.8123560067872404],[114.83674049377441,1.8114123412604073],[114.83905792236328,1.8123560067872404],[114.84094619750977,1.8120128557434612],[114.84231948852539,1.8108118265783162],[114.8404312133789,1.8085813417317524],[114.84094619750977,1.805664549718955],[114.83922958374023,1.804463516352655],[114.84025955200195,1.8029193294306225],[114.8389720916748,1.8008604114969842],[114.84034538269043,1.8001741050020144],[114.83759880065918,1.7998309516576398],[114.83648300170898,1.7977720302356062],[114.8357105255127,1.7975146648945213],[114.8357105255127,1.7964852031673928],[114.83502388000488,1.7978578186745864],[114.83322143554688,1.7979436071095023],[114.83270645141602,1.7959704720862675],[114.83107566833496,1.7946836437491527],[114.83081817626953,1.79365418042741],[114.82987403869629,1.7953699523083486],[114.82858657836914,1.7957988950269765],[114.82601165771484,1.7939115463121595],[114.82412338256836,1.7941689121606998],[114.82060432434082,1.791681040775316],[114.82017517089844,1.7903942094221321],[114.81863021850586,1.7903084206331243],[114.81820106506348,1.7897078989976478],[114.8177719116211,1.7882494884928661],[114.81931686401367,1.7865337099446634],[114.82000350952148,1.7865337099446634],[114.81983184814453,1.7860189760676235],[114.81708526611328,1.7853326640072567],[114.8151969909668,1.7842174063626999],[114.81245040893555,1.7851610859521259],[114.81021881103516,1.7833595154067012],[114.8097038269043,1.7836168827355152],[114.80918884277344,1.7856758200694713],[114.80687141418457,1.7859331870740789],[114.80549812316895,1.7850752969185635],[114.80412483215332,1.7851610859521259],[114.80335235595703,1.7831021480419196],[114.80000495910645,1.780785840139842],[114.79914665222168,1.7791558439447783],[114.796142578125,1.780271104654986],[114.79425430297852,1.7797563690263871],[114.79133605957031,1.7778690038258986],[114.7903060913086,1.7798421583078152],[114.78781700134277,1.7804426831659157],[114.78730201721191,1.7794990011582286],[114.78129386901855,1.7760674261524514],[114.78146553039551,1.7732363719745337],[114.77992057800293,1.7734937407152245],[114.7793197631836,1.7722926862858372],[114.77768898010254,1.7710916310774252],[114.77725982666016,1.7684321489176966],[114.77313995361328,1.766544772169226],[114.77296829223633,1.765944242801595],[114.77408409118652,1.765257923286697],[114.77391242980957,1.7647431834842138],[114.77202415466309,1.7645716035184051],[114.77356910705566,1.7615689515555317],[114.7715950012207,1.7601105188554556],[114.77142333984375,1.7583947142184542],[114.76987838745117,1.7568504886964007],[114.76747512817383,1.7560783754566103],[114.76696014404297,1.753161500339587],[114.7675609588623,1.7528183382621734],[114.76910591125488,1.753762033823719],[114.76953506469727,1.7533330813547252],[114.76953506469727,1.7520462233579792],[114.71065521240234,1.7520462233579792],[114.71125602722168,1.7529041287874207],[114.71142768859863,1.7547915193481174],[114.70747947692871,1.7598531482605324],[114.70507621765137,1.7612257910228948],[114.70456123352051,1.762169482335537],[114.70559120178223,1.763456333354796],[114.708251953125,1.7640568635259655],[114.70902442932129,1.7658584528761025],[114.71323013305664,1.7701479442960704],[114.71314430236816,1.7786411080049191],[114.71400260925293,1.7853326640072567],[114.71357345581055,1.7868768657825598],[114.71202850341797,1.7884210662594882],[114.71159934997559,1.790136843043058],[114.70996856689453,1.7912520970913306],[114.70850944519043,1.7947694323331405],[114.70833778381348,1.7978578186745864],[114.70696449279785,1.8031766940086413],[114.70602035522461,1.803434058550252],[114.70396041870117,1.8016325059948457],[114.7012996673584,1.8009461997906726],[114.70026969909668,1.8033482703737462],[114.69812393188477,1.803777211215774],[114.69683647155762,1.8046350925964276],[114.69537734985352,1.8076376742403113],[114.69245910644531,1.8073803102938655],[114.69185829162598,1.8081524020237367],[114.6921157836914,1.8088387055078954],[114.6946907043457,1.810640250918297],[114.69932556152344,1.8105544630821981],[114.70215797424316,1.813385459528348],[114.70207214355469,1.8163880266771741],[114.70318794250488,1.8176748396424784],[114.70301628112793,1.819562163665708],[114.70361709594727,1.8206773996603403],[114.7053337097168,1.8210205490583604],[114.70988273620605,1.8194763762529362],[114.71237182617188,1.8229078695790832],[114.71365928649902,1.8259104208743793],[114.71683502197266,1.8263393563644286],[114.71846580505371,1.828912967153613],[114.72121238708496,1.8297708365966656],[114.72318649291992,1.8314865742515138],[114.72541809082031,1.831829721585379],[114.72610473632812,1.8326018028462698],[114.72541809082031,1.8358616978316888],[114.72558975219727,1.8386068679456287],[114.72464561462402,1.8427246151980796],[114.72533226013184,1.8443545541897777],[114.72516059875488,1.84564134707594],[114.72164154052734,1.8490727902178463],[114.72043991088867,1.8494159341673537],[114.71915245056152,1.8507027233868456],[114.71657752990723,1.8548204426108583],[114.71649169921875,1.8566219417591014],[114.7232723236084,1.8579945113063872],[114.72670555114746,1.8577371545975012],[114.72825050354004,1.858166082424816],[114.73228454589844,1.8603965054470564],[114.73340034484863,1.8651146986969422],[114.74189758300781,1.8677740384099764],[114.74370002746582,1.869575524316133],[114.74764823913574,1.867430898027905],[114.75065231323242,1.866916187329167],[114.75520133972168,1.863656349405531],[114.75717544555664,1.8615975012911008],[114.76095199584961,1.8591955087853194],[114.76678848266602,1.8573940122606416],[114.76704597473145,1.8525900125527812],[114.76644515991211,1.851303224703102],[114.76936340332031,1.8507885093016228],[114.77142333984375,1.8514747964703702],[114.77880477905273,1.8496732920859245],[114.78052139282227,1.851303224703102],[114.78275299072266,1.8489870042201204],[114.78610038757324,1.848558074169219],[114.78833198547363,1.8495875061172171],[114.79193687438965,1.8502737937507305],[114.79691505432129,1.853362084813952],[114.79674339294434,1.856107227904019],[114.79511260986328,1.8595386507720804],[114.79519844055176,1.8618548574369527],[114.7964859008789,1.8633132082202195],[114.80069160461426,1.8652004839117353],[114.80077743530273,1.868460318973078],[114.80283737182617,1.87223485727408],[114.80875968933105,1.8778108648863707],[114.81348037719727,1.8790976333491614],[114.81545448303223,1.8813280297716517],[114.8166561126709,1.8845020505319496],[114.81468200683594,1.8900780189337496],[114.81639862060547,1.8930804560439327],[114.81854438781738,1.8933378075543743],[114.81991767883301,1.8925657529084248],[114.8287582397461,1.8961686716461372],[114.83871459960938,1.893680942842181],[114.84146118164062,1.894881915814409],[114.84858512878418,1.8950534833138875],[114.85450744628906,1.8965975900441379],[114.85639572143555,1.9003720673591715],[114.85957145690918,1.900028933398488],[114.86145973205566,1.901573035684578],[114.86489295959473,1.903288703270917],[114.86540794372559,1.9049185858966524],[114.8646354675293,1.9078352141141721],[114.86592292785645,1.909808224516226],[114.8701286315918,1.9121243642712074],[114.873046875,1.9123817129399896],[114.87836837768555,1.9146120664521646],[114.87879753112793,1.9158130248337244],[114.87879753112793,1.917271330307841],[114.87751007080078,1.9189011996614482],[114.87716674804688,1.921045762233561],[114.87476348876953,1.9229329750699833],[114.87218856811523,1.9239623630103466],[114.87107276916504,1.9280799085558868],[114.86763954162598,1.929967113603098],[114.86334800720215,1.9310822792374722],[114.86257553100586,1.9364865330913545],[114.85974311828613,1.938459510365007],[114.85605239868164,1.937172786316765],[114.85527992248535,1.9374301312046214],[114.85270500183105,1.9395746704157517],[114.85184669494629,1.9415476440892547],[114.84910011291504,1.9442926471076305],[114.84884262084961,1.9450646784024315],[114.8507308959961,1.9501257636904512],[114.84772682189941,1.952098725020278],[114.84807014465332,1.9559588600531157],[114.84772682189941,1.9598189862044393],[114.84884262084961,1.966166729851338],[114.8481559753418,1.9695979325863675],[114.8484992980957,1.9719997702971455],[114.85098838806152,1.9739727058234848],[114.85304832458496,1.9743158248064958],[114.85605239868164,1.9764603168450918],[114.85570907592773,1.9789479241395327],[114.85648155212402,1.9808350720116863],[114.86506462097168,1.984952478086214],[114.86592292785645,1.9876974097734603],[114.8678970336914,1.9893272108037507],[114.8672103881836,1.9923294716432878],[114.86909866333008,1.9943023829300444],[114.8704719543457,2.0001353241941615],[114.87141609191895,2.002108226107822],[114.87124443054199,2.006311357045419],[114.86987113952637,2.0113722554722244],[114.8701286315918,2.013516699224965],[114.87347602844238,2.0151464745900256],[114.8774242401123,2.015575362572932],[114.88051414489746,2.0176340233177257],[114.88231658935547,2.0250108695692433],[114.88248825073242,2.0326450123059345],[114.87871170043945,2.0385635925124603],[114.87424850463867,2.041737314968117],[114.86420631408691,2.0406222240081604],[114.862060546875,2.0408795527598755],[114.85836982727051,2.044653703050642],[114.85639572143555,2.045683015226615],[114.85133171081543,2.0418230911637636],[114.84652519226074,2.0409653290012955],[114.83931541442871,2.0367622877938913],[114.83519554138184,2.0353040872608403],[114.83390808105469,2.032816565661065],[114.8305606842041,2.032044575419434],[114.82566833496094,2.028098841757071],[114.82189178466797,2.028613503215638],[114.81991767883301,2.0274984031818377],[114.81682777404785,2.0277557340270818],[114.81253623962402,2.02595441725137],[114.80961799621582,2.0228664409761024],[114.80798721313477,2.0229522181742823],[114.80661392211914,2.023895767054782],[114.8045539855957,2.0336743321632014],[114.80086326599121,2.0357329699075137],[114.79974746704102,2.0402791189418252],[114.79794502258301,2.0421661959005633],[114.79339599609375,2.0493713784309193],[114.79296684265137,2.0561476514655936],[114.7921085357666,2.059407114328181],[114.79262351989746,2.0603506418076307],[114.79640007019043,2.0600075409706733],[114.8016357421875,2.0619803697735364],[114.80704307556152,2.063181220891053],[114.80790138244629,2.064038971134181],[114.80609893798828,2.0706436324909134],[114.8012924194336,2.077591363428837],[114.80009078979492,2.0807650081390108],[114.79691505432129,2.081536974805857],[114.79408264160156,2.083852872537662],[114.79348182678223,2.0852252547717285],[114.79519844055176,2.087541147077289],[114.79622840881348,2.0912294129627185],[114.79734420776367,2.0914867335150973],[114.79983329772949,2.0908005452816525],[114.80240821838379,2.095089216814671],[114.80378150939941,2.095861176444174],[114.80627059936523,2.0962900427405344],[114.80987548828125,2.099206330438463],[114.81047630310059,2.1004071532036903],[114.80841636657715,2.10606816236988],[114.80300903320312,2.114388093041839],[114.92291450500488,2.114388093041839],[114.92300033569336,2.114216548529285],[114.92454528808594,2.1125868747145518],[114.92772102355957,2.113787687164944],[114.9308967590332,2.1127584194071716],[114.94016647338867,2.1121580129001245],[114.9404239654541,2.111471833750784],[114.93913650512695,2.109241749423475],[114.93913650512695,2.1074405251328585],[114.94033813476562,2.107612070393202],[114.94093894958496,2.1085555689871427],[114.94256973266602,2.1091559768854893],[114.94505882263184,2.107612070393202],[114.94943618774414,2.106411253173988],[114.95218276977539,2.1075262977653892],[114.9528694152832,2.106325480480038],[114.9551010131836,2.1056392987585184],[114.95553016662598,2.1030661146126306],[114.9583625793457,2.10298034173465],[114.96153831481934,2.1010075642402057],[114.96368408203125,2.101951066831205],[114.9664306640625,2.1007502452528115],[114.9664306640625,1.9546721493614712],[114.96591567993164,1.9545863686136329],[114.96488571166992,1.9532996568700867],[114.96325492858887,1.9541574648086453],[114.96162414550781,1.9539859032559832],[114.96076583862305,1.9532138760521178],[114.95673179626465,1.9537285608941204],[114.95664596557617,1.951669820580264],[114.95887756347656,1.9489248295743664],[114.95853424072266,1.94746655128192],[114.95347023010254,1.9465229587730306],[114.95149612426758,1.943692178078635],[114.94866371154785,1.9436063967713437],[114.94428634643555,1.941290299827628],[114.9444580078125,1.934427771748048],[114.9433422088623,1.9325405716550677],[114.94248390197754,1.9281656906488962],[114.94308471679688,1.9244770567475769],[114.94282722473145,1.9233618867872906],[114.94119644165039,1.9223324984846926],[114.94196891784668,1.9199305900318677],[114.9433422088623,1.9184722868241977],[114.94231224060059,1.913325324395288]]]}},{"type":"Feature","id":"pmtiles:10/838/506:landcover:187658543:0","properties":{"subclass":"wood","class":"wood","kind":"green","verification":"verified","source":"OpenMapTiles/OpenStreetMap national PMTiles","sourceId":"10/838/506:landcover:187658543:0","sourceLayer":"landcover","archive":"https://its.hanifahseptiani45.workers.dev/v1/map/archive/indonesia.pmtiles","updatedAt":"2026-07-26T09:40:14.223Z"},"geometry":{"type":"Polygon","coordinates":[[[114.9664306640625,2.114388093041839],[114.9664306640625,2.1010075642402057],[114.96368408203125,2.102122612695581],[114.96162414550781,2.1011791102082498],[114.95844841003418,2.103151887485893],[114.95570182800293,2.103237660354438],[114.95527267456055,2.1057250714902267],[114.95295524597168,2.106497025863206],[114.95226860046387,2.1076978430162825],[114.94943618774414,2.1066685712274733],[114.94514465332031,2.107783615634631],[114.94256973266602,2.109327521956743],[114.9393081665039,2.107612070393202],[114.9393081665039,2.1091559768854893],[114.94068145751953,2.111471833750784],[114.94033813476562,2.112329557640109],[114.9308967590332,2.1129299640808483],[114.92780685424805,2.113959231724891],[114.92463111877441,2.1127584194071716],[114.92317199707031,2.114302320787928],[114.92317199707031,2.114388093041839],[114.9664306640625,2.114388093041839]]]}},{"type":"Feature","id":"pmtiles:10/838/506:landcover:187746063:0","properties":{"subclass":"wood","class":"wood","kind":"green","verification":"verified","source":"OpenMapTiles/OpenStreetMap national PMTiles","sourceId":"10/838/506:landcover:187746063:0","sourceLayer":"landcover","archive":"https://its.hanifahseptiani45.workers.dev/v1/map/archive/indonesia.pmtiles","updatedAt":"2026-07-26T09:40:14.223Z"},"geometry":{"type":"Polygon","coordinates":[[[114.95999336242676,1.7520462233579792],[114.96016502380371,1.75393361478379],[114.9620532989502,1.7568504886964007],[114.96050834655762,1.7584805044877783],[114.9583625793457,1.7592526167342157],[114.95750427246094,1.7617405317981394],[114.95630264282227,1.7619121120249446],[114.95527267456055,1.7628558029898471],[114.95664596557617,1.7649147634342057],[114.95638847351074,1.765257923286697],[114.9554443359375,1.765944242801595],[114.95321273803711,1.765772662946631],[114.95595932006836,1.7714347897878753],[114.95535850524902,1.7728074239938536],[114.95218276977539,1.7740084780892005],[114.95269775390625,1.7751237419081178],[114.95209693908691,1.776239005054208],[114.95080947875977,1.775638478828398],[114.94926452636719,1.773579530287492],[114.94900703430176,1.7760674261524514],[114.94789123535156,1.7771826887289706],[114.94686126708984,1.777440056920213],[114.9444580078125,1.775295320897456],[114.94488716125488,1.7732363719745337],[114.94136810302734,1.7728074239938536],[114.9404239654541,1.7706626826000047],[114.93699073791504,1.7686895183256155],[114.93587493896484,1.7706626826000047],[114.93518829345703,1.7744374257914615],[114.93269920349121,1.7749521629028067],[114.92978096008301,1.7734937407152245],[114.9294376373291,1.774094267637608],[114.93029594421387,1.7755526893516276],[114.92935180664062,1.7763247944991036],[114.92849349975586,1.7754668998708922],[114.92780685424805,1.7755526893516276],[114.92780685424805,1.7769253205018458],[114.92617607116699,1.7787268973382027],[114.92420196533203,1.7787268973382027],[114.9224853515625,1.7759816366956187],[114.92111206054688,1.7755526893516276],[114.92042541503906,1.7760674261524514],[114.92059707641602,1.7782121612786739],[114.91896629333496,1.7792416332541166],[114.91639137268066,1.7792416332541166],[114.91415977478027,1.7775258463093309],[114.9118423461914,1.7775258463093309],[114.91098403930664,1.778812686667493],[114.90943908691406,1.7786411080049191],[114.90900993347168,1.7796705797409942],[114.90978240966797,1.7813005754809268],[114.90943908691406,1.7827589914995343],[114.91021156311035,1.7839600391179147],[114.9100399017334,1.7845605626330752],[114.91252899169922,1.7859331870740789],[114.91510391235352,1.7865337099446634],[114.91501808166504,1.788335277378195],[114.9166488647461,1.787134232618925],[114.91819381713867,1.7891073771655215],[114.91802215576172,1.790222631840109],[114.91930961608887,1.791337885836171],[114.92042541503906,1.7903942094221321],[114.92128372192383,1.790994730832736],[114.92111206054688,1.791681040775316],[114.91536140441895,1.7939115463121595],[114.91381645202637,1.7903942094221321],[114.91501808166504,1.7870484436774632],[114.91347312927246,1.7863621320016705],[114.91132736206055,1.7861905540426477],[114.91106986999512,1.7879063329115183],[114.91201400756836,1.7879063329115183],[114.91072654724121,1.7889357994630757],[114.91064071655273,1.787220021556351],[114.90969657897949,1.7863621320016705],[114.9089241027832,1.7873058104897837],[114.90755081176758,1.787134232618925],[114.90660667419434,1.7890215883163023],[114.90617752075195,1.7880779107102285],[114.90471839904785,1.788678432879351],[114.9048900604248,1.7897078989976478],[114.9034309387207,1.790222631840109],[114.9045467376709,1.7915952520465481],[114.90274429321289,1.7920241956501712],[114.90274429321289,1.7947694323331405],[114.90386009216309,1.794597855161129],[114.90351676940918,1.79588468355864],[114.90394592285156,1.7964852031673928],[114.90583419799805,1.7953699523083486],[114.906005859375,1.7968283571409103],[114.90497589111328,1.7979436071095023],[114.90609169006348,1.7980293955404107],[114.9063491821289,1.8009461997906726],[114.90823745727539,1.8001741050020144],[114.90866661071777,1.8014609294680355],[114.9085807800293,1.8000025283378989],[114.90943908691406,1.7997451633114423],[114.91167068481445,1.8024046001654455],[114.9111557006836,1.803605634891099],[114.91029739379883,1.802490388386417],[114.90943908691406,1.8042061519566772],[114.90883827209473,1.8042919400927104],[114.90677833557129,1.8031766940086413],[114.90703582763672,1.8025761766033384],[114.9063491821289,1.8019756589999645],[114.90626335144043,1.8035198467226934],[114.90531921386719,1.8042061519566772],[114.90720748901367,1.804463516352655],[114.90626335144043,1.8047208807122388],[114.90592002868652,1.8066940062583683],[114.90463256835938,1.8083239779191018],[114.90291595458984,1.8084955537982523],[114.90291595458984,1.810983402222078],[114.90145683288574,1.810640250918297],[114.90128517150879,1.8118412801972],[114.90240097045898,1.8117554924179586],[114.90300178527832,1.8127849455005105],[114.90111351013184,1.812870733230966],[114.9005126953125,1.8139001856793158],[114.89999771118164,1.8119270679723627],[114.89896774291992,1.8119270679723627],[114.89853858947754,1.8124417945380458],[114.89913940429688,1.815358575645007],[114.89896774291992,1.818790076803893],[114.89622116088867,1.8205058249368307],[114.89321708679199,1.8204200375689652],[114.89115715026855,1.8235941674598166],[114.8898696899414,1.822993656828487],[114.88901138305664,1.8190474391278855],[114.88780975341797,1.8196479510744012],[114.8843765258789,1.8199053132759957],[114.88265991210938,1.823937316302036],[114.87871170043945,1.8293419019264263],[114.87656593322754,1.8294276888686767],[114.87133026123047,1.8253956981511976],[114.86892700195312,1.8252241238773905],[114.86686706542969,1.825738846649699],[114.86437797546387,1.8302855580655262],[114.86274719238281,1.8302855580655262],[114.86214637756348,1.8295992627408708],[114.86120223999023,1.8301139842589862],[114.86128807067871,1.8315723610911476],[114.86300468444824,1.8342317510814325],[114.86309051513672,1.8351754046442323],[114.8617172241211,1.8362906309400557],[114.8617172241211,1.8371484968479024],[114.86051559448242,1.8378347892775508],[114.86068725585938,1.8402368107035016],[114.85922813415527,1.8433251192107605],[114.85819816589355,1.8442687679642518],[114.86454963684082,1.8446119128414864],[114.86660957336426,1.846670780714419],[114.86678123474121,1.8483007160889429],[114.86600875854492,1.8497590780504964],[114.86369132995605,1.8510458670210284],[114.86377716064453,1.8537052279330766],[114.86489295959473,1.8562787992056826],[114.86429214477539,1.8635705641154914],[114.8646354675293,1.864085275793144],[114.86798286437988,1.8648573430274524],[114.8690128326416,1.868374533917347],[114.87038612365723,1.869575524316133],[114.8715877532959,1.869661309313173],[114.87296104431152,1.8712054385428587],[114.87330436706543,1.872921136092387],[114.87218856811523,1.874293692922464],[114.87218856811523,1.875323109838945],[114.8733901977539,1.8744652624505704],[114.87914085388184,1.8735216298378816],[114.8851490020752,1.8763525261498444],[114.88677978515625,1.8779824340695086],[114.88746643066406,1.8826147956414019],[114.8884105682373,1.8826147956414019],[114.88969802856445,1.8810706764837732],[114.89150047302246,1.8812422453465842],[114.89321708679199,1.882185873790334],[114.89373207092285,1.8830437173869399],[114.89347457885742,1.8867324400381733],[114.8946762084961,1.8881049860052457],[114.89810943603516,1.8876760655069376],[114.89725112915039,1.8863035192013058],[114.89871025085449,1.8828721487013809],[114.89948272705078,1.8825290112796296],[114.90111351013184,1.883215286055588],[114.90240097045898,1.8877618496150745],[114.90291595458984,1.8925657529084248],[114.90480422973633,1.8929946721986255],[114.9071216583252,1.8909358586382439],[114.90840911865234,1.8911932104669091],[114.91124153137207,1.8893917468649875],[114.91278648376465,1.8901638029232828],[114.9166488647461,1.8943672132139682],[114.91639137268066,1.89539661826187],[114.91415977478027,1.8978843446001292],[114.91355895996094,1.8995142323296221],[114.9140739440918,1.9002862838753884],[114.91604804992676,1.9012299019625658],[114.91793632507324,1.90088676817237],[114.92205619812012,1.9021735195338891],[114.92497444152832,1.9022593029238806],[114.92600440979004,1.9028597865343215],[114.92626190185547,1.903974969827516],[114.93012428283691,1.9052617188845744],[114.9308967590332,1.9070631659493245],[114.9323558807373,1.9082641296115668],[114.9349308013916,1.9074920816392336],[114.94033813476562,1.909808224516226],[114.9429988861084,1.9130679758680458],[114.9441146850586,1.917442895576059],[114.94402885437012,1.9189011996614482],[114.94256973266602,1.9202737200175903],[114.94196891784668,1.92198936891252],[114.94351387023926,1.9229329750699833],[114.94377136230469,1.9244770567475769],[114.94317054748535,1.9280799085558868],[114.94402885437012,1.932283226025291],[114.94514465332031,1.9343419899711733],[114.94488716125488,1.9408613926378422],[114.9488353729248,1.942920146156112],[114.95175361633301,1.9430059274982625],[114.95389938354492,1.9460082717274076],[114.95887756347656,1.946866083382858],[114.9594783782959,1.94746655128192],[114.95956420898438,1.9490963916434083],[114.95784759521484,1.9508977923125315],[114.95741844177246,1.9528707527365299],[114.96102333068848,1.9525276293508682],[114.96316909790039,1.9534712184928509],[114.96479988098145,1.9526134102038526],[114.96565818786621,1.9526991910524458],[114.9664306640625,1.9536427800980931],[114.9664306640625,1.7520462233579792],[114.95999336242676,1.7520462233579792]]]}},{"type":"Feature","id":"pmtiles:10/838/506:landcover:187767063:0","properties":{"subclass":"wood","class":"wood","kind":"green","verification":"verified","source":"OpenMapTiles/OpenStreetMap national PMTiles","sourceId":"10/838/506:landcover:187767063:0","sourceLayer":"landcover","archive":"https://its.hanifahseptiani45.workers.dev/v1/map/archive/indonesia.pmtiles","updatedAt":"2026-07-26T09:40:14.223Z"},"geometry":{"type":"Polygon","coordinates":[[[114.76962089538574,1.7520462233579792],[114.76962089538574,1.7533330813547252],[114.76919174194336,1.75393361478379],[114.7675609588623,1.7529041287874207],[114.76704597473145,1.7532472908491314],[114.7675609588623,1.755992585076939],[114.76996421813965,1.7567646983521996],[114.77150917053223,1.7583089239451795],[114.77168083190918,1.7600247286610937],[114.77374076843262,1.761483161428302],[114.77365493774414,1.7623410625228217],[114.77219581604004,1.7645716035184051],[114.77391242980957,1.7646573935032848],[114.774169921875,1.765257923286697],[114.7730541229248,1.765944242801595],[114.77322578430176,1.766458982271459],[114.77734565734863,1.7683463591071131],[114.77803230285645,1.7710916310774252],[114.7800064086914,1.7732363719745337],[114.78146553039551,1.7729790031980457],[114.78146553039551,1.7759816366956187],[114.78704452514648,1.7790700546314326],[114.78850364685059,1.7789842653141221],[114.78884696960449,1.7782979506319094],[114.79022026062012,1.7782121612786739],[114.79150772094727,1.777354267527116],[114.79562759399414,1.7799279475852359],[114.79948997497559,1.7787268973382027],[114.80060577392578,1.7792416332541166],[114.8012924194336,1.781043207828347],[114.80524063110352,1.7839600391179147],[114.80901718139648,1.7843031954362942],[114.80927467346191,1.7828447806411276],[114.81030464172363,1.7826732023539478],[114.81184959411621,1.7837884609347157],[114.81468200683594,1.7833595154067012],[114.8184585571289,1.784045828203503],[114.82034683227539,1.7855900310599253],[114.82026100158691,1.7882494884928661],[114.82412338256836,1.789536321351406],[114.82541084289551,1.7930536598888835],[114.82729911804199,1.7928820825559626],[114.82867240905762,1.7938257576879266],[114.82961654663086,1.7931394485493115],[114.83219146728516,1.7931394485493115],[114.83322143554688,1.794426277973031],[114.83579635620117,1.7932252372057178],[114.83734130859375,1.79588468355864],[114.84068870544434,1.799573586606968],[114.84060287475586,1.800688834897457],[114.83948707580566,1.8012893529250675],[114.84171867370605,1.8020614472411296],[114.8412036895752,1.803605634891099],[114.84163284301758,1.8042919400927104],[114.84455108642578,1.8036914230554686],[114.84343528747559,1.8042919400927104],[114.84326362609863,1.8049782450353717],[114.84498023986816,1.8057503377861792],[114.8459243774414,1.8108976144022222],[114.8481559753418,1.8120128557434612],[114.84867095947266,1.8114981290559058],[114.8496150970459,1.8124417945380458],[114.85055923461914,1.8125275822847442],[114.8507308959961,1.8137286103119408],[114.85193252563477,1.8139859733569068],[114.85210418701172,1.8172459020892546],[114.85485076904297,1.8168169644341532],[114.85416412353516,1.8139001856793158],[114.85442161560059,1.8127849455005105],[114.8551082611084,1.8126991577659908],[114.85639572143555,1.8140717610304335],[114.85733985900879,1.814157548699896],[114.85716819763184,1.8151870004159747],[114.85811233520508,1.816988539508415],[114.85776901245117,1.819562163665708],[114.8594856262207,1.8194763762529362],[114.85974311828613,1.8202484628209703],[114.85596656799316,1.8259962079805803],[114.8569107055664,1.8262535692745985],[114.85794067382812,1.8254814852819692],[114.85888481140137,1.8230794440737839],[114.85957145690918,1.822993656828487],[114.8606014251709,1.8249667624359773],[114.86163139343262,1.8251383367343408],[114.86369132995605,1.8278835232806045],[114.86454963684082,1.8275403751917594],[114.86489295959473,1.82865560624073],[114.86660957336426,1.8254814852819692],[114.87021446228027,1.8248809752806494],[114.87150192260742,1.8250525495872125],[114.87665176391602,1.8290845410750478],[114.8785400390625,1.8289987541163981],[114.87957000732422,1.8279693102925734],[114.88231658935547,1.823679954676507],[114.88420486450195,1.819562163665708],[114.88780975341797,1.8193048014151572],[114.88901138305664,1.8187042893544145],[114.88978385925293,1.819562163665708],[114.89004135131836,1.8223931459968412],[114.8909854888916,1.8231652313150164],[114.89295959472656,1.820162675440855],[114.8961353302002,1.820162675440855],[114.89776611328125,1.8187042893544145],[114.89845275878906,1.818790076803893],[114.89888191223145,1.8181037770938104],[114.89828109741211,1.812270219032385],[114.89879608154297,1.8115839168473116],[114.9005126953125,1.8117554924179586],[114.90111351013184,1.810983402222078],[114.90128517150879,1.8093534329506156],[114.90248680114746,1.8080666140699577],[114.90231513977051,1.8069513703020874],[114.90300178527832,1.803777211215774],[114.90523338317871,1.803777211215774],[114.906005859375,1.8027477530250735],[114.90317344665527,1.8019756589999645],[114.90274429321289,1.8006030465916467],[114.9034309387207,1.79820097239012],[114.90025520324707,1.7978578186745864],[114.89913940429688,1.7984583376344432],[114.8979377746582,1.7969999341034963],[114.89733695983887,1.797343087980309],[114.8961353302002,1.796656780162209],[114.89570617675781,1.7976004533455807],[114.89510536193848,1.796570991666826],[114.89441871643066,1.7967425686535847],[114.89253044128418,1.7992304331495887],[114.89141464233398,1.7983725492237],[114.8921012878418,1.797428876439426],[114.89295959472656,1.7972572995171419],[114.89192962646484,1.7946836437491527],[114.89287376403809,1.7939115463121595],[114.89270210266113,1.7932252372057178],[114.89424705505371,1.792195773063483],[114.89433288574219,1.7930536598888835],[114.89544868469238,1.793739969059672],[114.89699363708496,1.792109984358845],[114.89656448364258,1.7912520970913306],[114.89750862121582,1.791337885836171],[114.89639282226562,1.7899652654369334],[114.89785194396973,1.790136843043058],[114.89682197570801,1.788678432879351],[114.89510536193848,1.7882494884928661],[114.89295959472656,1.7891073771655215],[114.89201545715332,1.7885926440100803],[114.89175796508789,1.7864479209751636],[114.89330291748047,1.7861905540426477],[114.89373207092285,1.7854184530288109],[114.89167213439941,1.7849037188394021],[114.89132881164551,1.7857616090750241],[114.88926887512207,1.7844747735714748],[114.88909721374512,1.7831879371675114],[114.89124298095703,1.7831021480419196],[114.88815307617188,1.7821584673964708],[114.88815307617188,1.7814721538959901],[114.8895263671875,1.7798421583078152],[114.8895263671875,1.7782979506319094],[114.88892555236816,1.777697425075587],[114.8906421661377,1.7780405825602514],[114.89141464233398,1.7776116356944414],[114.89459037780762,1.7788984759928042],[114.89510536193848,1.777354267527116],[114.8979377746582,1.7769253205018458],[114.89828109741211,1.7785553186676566],[114.89836692810059,1.7765821628099019],[114.89810943603516,1.7761532156053335],[114.89656448364258,1.777096899323908],[114.89587783813477,1.7768395310848462],[114.89416122436523,1.773922688536814],[114.89295959472656,1.7744374257914615],[114.89175796508789,1.7737511094201182],[114.89047050476074,1.7753811103861636],[114.89004135131836,1.7738368989804485],[114.88909721374512,1.7728074239938536],[114.88892555236816,1.774780583881622],[114.8866081237793,1.7745232153199595],[114.88635063171387,1.7733221615587382],[114.88523483276367,1.7733221615587382],[114.8836898803711,1.7744374257914615],[114.88326072692871,1.7754668998708922],[114.884033203125,1.7753811103861636],[114.88489151000977,1.7742658467224999],[114.88600730895996,1.7742658467224999],[114.88394737243652,1.776239005054208],[114.88265991210938,1.7754668998708922],[114.88085746765137,1.7754668998708922],[114.88094329833984,1.774866373394218],[114.88197326660156,1.775295320897456],[114.88188743591309,1.7744374257914615],[114.88265991210938,1.7734079511389638],[114.88343238830566,1.7741800571820363],[114.88454818725586,1.772893213597925],[114.88274574279785,1.7684321489176966],[114.88154411315918,1.7672310912088278],[114.88411903381348,1.766115822640728],[114.88317489624023,1.7649147634342057],[114.8829174041748,1.7628558029898471],[114.88214492797852,1.7626842228499697],[114.88300323486328,1.7612257910228948],[114.87931251525879,1.7600247286610937],[114.87716674804688,1.757794182222753],[114.8770809173584,1.7571078597054282],[114.87845420837402,1.7565073272958927],[114.87751007080078,1.7554778427162034],[114.87768173217773,1.7548773097828843],[114.87836837768555,1.7548773097828843],[114.87828254699707,1.7534188718563968],[114.87871170043945,1.7543625671151233],[114.8781967163086,1.755906794693317],[114.87871170043945,1.7565931176519456],[114.8774242401123,1.7576226016170722],[114.87957000732422,1.7584805044877783],[114.8796558380127,1.7592526167342157],[114.88077163696289,1.7600247286610937],[114.884033203125,1.7608826304270764],[114.88420486450195,1.7618263219135173],[114.88326072692871,1.7618263219135173],[114.88283157348633,1.7624268526105311],[114.88523483276367,1.7623410625228217],[114.88566398620605,1.7627700129218908],[114.88566398620605,1.7640568635259655],[114.8866081237793,1.7653437132399006],[114.88635063171387,1.765686873013209],[114.8851490020752,1.7651721333295143],[114.8851490020752,1.766115822640728],[114.88600730895996,1.7663731923697128],[114.88523483276367,1.767402670929087],[114.88583564758301,1.768003199825145],[114.88686561584473,1.7674884607832695],[114.88763809204102,1.768003199825145],[114.88677978515625,1.7683463591071131],[114.88626480102539,1.769375836572209],[114.88463401794434,1.769718995600286],[114.88557815551758,1.7715205794555402],[114.88669395446777,1.7714347897878753],[114.8866081237793,1.774094267637608],[114.88883972167969,1.7745232153199595],[114.88858222961426,1.7730647927941874],[114.8891830444336,1.7722926862858372],[114.8880672454834,1.7714347897878753],[114.88823890686035,1.7705768928926204],[114.8891830444336,1.7714347897878753],[114.89141464233398,1.768946887697851],[114.8921012878418,1.769461626335186],[114.89150047302246,1.7702337340233214],[114.89235877990723,1.7700621545648545],[114.89338874816895,1.7714347897878753],[114.89321708679199,1.7696332058492317],[114.89184379577637,1.7677458303220561],[114.89313125610352,1.7673168810709399],[114.89381790161133,1.768088989651588],[114.89381790161133,1.7706626826000047],[114.89519119262695,1.7710916310774252],[114.89544868469238,1.7732363719745337],[114.89570617675781,1.772206896653941],[114.89596366882324,1.7724642655377494],[114.89587783813477,1.7737511094201182],[114.89673614501953,1.773579530287492],[114.89690780639648,1.7706626826000047],[114.89853858947754,1.7723784759137828],[114.89888191223145,1.7736653198557946],[114.8993968963623,1.772893213597925],[114.89974021911621,1.7744374257914615],[114.9005126953125,1.7744374257914615],[114.90008354187012,1.7755526893516276],[114.90214347839355,1.7749521629028067],[114.90145683288574,1.775638478828398],[114.90248680114746,1.7758958472347928],[114.90360260009766,1.7741800571820363],[114.90300178527832,1.7740084780892005],[114.90205764770508,1.772550055157737],[114.90257263183594,1.7707484723034383],[114.90128517150879,1.768946887697851],[114.90188598632812,1.768517938724301],[114.90171432495117,1.767059511472695],[114.90094184875488,1.7678316201603934],[114.89931106567383,1.766115822640728],[114.89991188049316,1.765772662946631],[114.90274429321289,1.766287402464016],[114.9030876159668,1.7653437132399006],[114.9045467376709,1.766287402464016],[114.90403175354004,1.7675742506335013],[114.90325927734375,1.7669737215986885],[114.90274429321289,1.7673168810709399],[114.90334510803223,1.7683463591071131],[114.90317344665527,1.7699763648296738],[114.90514755249023,1.769290046805267],[114.90325927734375,1.7717779484347318],[114.90420341491699,1.7730647927941874],[114.90377426147461,1.7750379524074589],[114.90437507629395,1.7752095314047835],[114.90437507629395,1.7758100577699736],[114.90368843078613,1.7768395310848462],[114.90231513977051,1.777440056920213],[114.90222930908203,1.780785840139842],[114.90325927734375,1.7823300457316122],[114.90351676940918,1.781386364690448],[114.90506172180176,1.7807000509023396],[114.90943908691406,1.7846463516906539],[114.90978240966797,1.784045828203503],[114.90900993347168,1.7826732023539478],[114.90943908691406,1.781557943097539],[114.90866661071777,1.7796705797409942],[114.90961074829102,1.7781263719214593],[114.91064071655273,1.7783837399811375],[114.9118423461914,1.7769253205018458],[114.91484642028809,1.7772684781300399],[114.91682052612305,1.7790700546314326],[114.91905212402344,1.778812686667493],[114.91999626159668,1.7782979506319094],[114.92033958435059,1.7755526893516276],[114.92128372192383,1.7751237419081178],[114.9228286743164,1.7757242683011754],[114.9239444732666,1.7781263719214593],[114.92583274841309,1.7784695293263866],[114.92660522460938,1.7777832144527252],[114.92754936218262,1.7752095314047835],[114.92969512939453,1.775638478828398],[114.9294376373291,1.772893213597925],[114.93450164794922,1.7745232153199595],[114.93553161621094,1.7729790031980457],[114.93578910827637,1.7696332058492317],[114.93690490722656,1.7683463591071131],[114.93870735168457,1.7691184672595028],[114.93956565856934,1.768517938724301],[114.94342803955078,1.7711774207610063],[114.94342803955078,1.7718637380865232],[114.9415397644043,1.7723784759137828],[114.94523048400879,1.772550055157737],[114.9459171295166,1.7736653198557946],[114.94488716125488,1.7752095314047835],[114.94643211364746,1.7765821628099019],[114.94797706604004,1.7767537416638532],[114.94909286499023,1.7734079511389638],[114.949951171875,1.7734937407152245],[114.95072364807129,1.774866373394218],[114.95201110839844,1.7758100577699736],[114.95192527770996,1.773579530287492],[114.9539852142334,1.77315058238635],[114.95467185974121,1.7726358447737454],[114.95458602905273,1.7717779484347318],[114.95553016662598,1.7716063691192403],[114.95278358459473,1.7660300327231369],[114.95321273803711,1.7650005534032687],[114.95604515075684,1.765257923286697],[114.95415687561035,1.7617405317981394],[114.95707511901855,1.7599389384627813],[114.9557876586914,1.7590810362626286],[114.95587348937988,1.757794182222753],[114.95733261108398,1.7575368113083272],[114.95767593383789,1.7558210043057727],[114.95870590209961,1.7547915193481174],[114.9598217010498,1.7555636331195075],[114.95956420898438,1.7564215369359175],[114.96016502380371,1.7574510209956173],[114.96119499206543,1.7573652306789995],[114.95973587036133,1.753847824305737],[114.95956420898438,1.7520462233579792],[114.76962089538574,1.7520462233579792]]]}},{"type":"Feature","id":"pmtiles:10/838/506:landuse:6068299480:0","properties":{"class":"residential","kind":"green","verification":"verified","source":"OpenMapTiles/OpenStreetMap national PMTiles","sourceId":"10/838/506:landuse:6068299480:0","sourceLayer":"landuse","archive":"https://its.hanifahseptiani45.workers.dev/v1/map/archive/indonesia.pmtiles","updatedAt":"2026-07-26T09:40:14.223Z"},"geometry":{"type":"Polygon","coordinates":[[[114.70627784729004,1.8933378075543743],[114.70593452453613,1.8925657529084248],[114.70662117004395,1.8899922349399816],[114.70447540283203,1.889820666939741],[114.70464706420898,1.8934235913826853],[114.70627784729004,1.8933378075543743]]]}},{"type":"Feature","id":"pmtiles:10/838/506:landuse:6068299480:1","properties":{"class":"residential","kind":"green","verification":"verified","source":"OpenMapTiles/OpenStreetMap national PMTiles","sourceId":"10/838/506:landuse:6068299480:1","sourceLayer":"landuse","archive":"https://its.hanifahseptiani45.workers.dev/v1/map/archive/indonesia.pmtiles","updatedAt":"2026-07-26T09:40:14.223Z"},"geometry":{"type":"Polygon","coordinates":[[[114.84292030334473,1.8072945223036214],[114.84068870544434,1.8036914230554686],[114.8397445678711,1.8043777282247078],[114.84292030334473,1.8072945223036214]]]}},{"type":"Feature","id":"pmtiles:10/838/506:park:77383613:0","properties":{"name":"Taman Nasional Kayan Mentarang","name_int":"Kayan Mentarang National Park","class":"national_park","name:latin":"Taman Nasional Kayan Mentarang","name_de":"Nationalpark Kayan Mentarang","name_en":"Kayan Mentarang National Park","kind":"green","verification":"verified","source":"OpenMapTiles/OpenStreetMap national PMTiles","sourceId":"10/838/506:park:77383613:0","sourceLayer":"park","archive":"https://its.hanifahseptiani45.workers.dev/v1/map/archive/indonesia.pmtiles","updatedAt":"2026-07-26T09:40:14.223Z"},"geometry":{"type":"Polygon","coordinates":[[[114.9664306640625,2.073388418729195],[114.90849494934082,2.0356471933873053],[114.88248825073242,2.0326450123059345],[114.87871170043945,2.0385635925124603],[114.87424850463867,2.041737314968117],[114.86652374267578,2.0412226576981],[114.86506462097168,2.040708000263322],[114.86420631408691,2.0406222240081604],[114.862060546875,2.0408795527598755],[114.8609447479248,2.0415657625630814],[114.85905647277832,2.0440532706431185],[114.85836982727051,2.044653703050642],[114.85716819763184,2.0455972392371677],[114.85639572143555,2.045683015226615],[114.85502243041992,2.0448252551258292],[114.85442161560059,2.0440532706431185],[114.85133171081543,2.0418230911637636],[114.84652519226074,2.0409653290012955],[114.83931541442871,2.0367622877938913],[114.83519554138184,2.0353040872608403],[114.8345947265625,2.0346178747888644],[114.83390808105469,2.032816565661065],[114.83330726623535,2.032559235621534],[114.8316764831543,2.032559235621534],[114.8305606842041,2.032044575419434],[114.82566833496094,2.028098841757071],[114.8250675201416,2.0280130648313985],[114.82386589050293,2.028441949414315],[114.82189178466797,2.028613503215638],[114.82086181640625,2.028270395594788],[114.81991767883301,2.0274984031818377],[114.81828689575195,2.0277557340270818],[114.81682777404785,2.0277557340270818],[114.81253623962402,2.02595441725137],[114.80987548828125,2.0229522181742823],[114.80875968933105,2.022780663773389],[114.80755805969238,2.023123772557014],[114.80661392211914,2.023895767054782],[114.80618476867676,2.024839315386174],[114.8060131072998,2.0266406334022378],[114.80515480041504,2.0299001561455867],[114.8045539855957,2.0336743321632014],[114.80369567871094,2.0344463216252535],[114.80086326599121,2.0357329699075137],[114.80026245117188,2.037276946490479],[114.80009078979492,2.0393355796320236],[114.79974746704102,2.0402791189418252],[114.79794502258301,2.0421661959005633],[114.79605674743652,2.0455972392371677],[114.79339599609375,2.0493713784309193],[114.79313850402832,2.0502291360985083],[114.79296684265137,2.0561476514655936],[114.7921085357666,2.059407114328181],[114.79219436645508,2.059921765749877],[114.79262351989746,2.0603506418076307],[114.7932243347168,2.06043641700532],[114.79545593261719,2.0600075409706733],[114.79640007019043,2.0600075409706733],[114.8016357421875,2.0619803697735364],[114.80481147766113,2.062495020363471],[114.80704307556152,2.063181220891053],[114.80790138244629,2.064038971134181],[114.80661392211914,2.0692712375885804],[114.80609893798828,2.0706436324909134],[114.80515480041504,2.0724448989963946],[114.8012924194336,2.077591363428837],[114.80009078979492,2.0807650081390108],[114.79931831359863,2.081108104482041],[114.79794502258301,2.081022330403272],[114.79691505432129,2.081536974805857],[114.79408264160156,2.083852872537662],[114.79348182678223,2.0852252547717285],[114.79399681091309,2.0864260882447496],[114.79519844055176,2.087541147077289],[114.79562759399414,2.088827752439613],[114.79571342468262,2.0902859039096455],[114.79622840881348,2.0912294129627185],[114.79734420776367,2.0914867335150973],[114.79897499084473,2.0908005452816525],[114.79983329772949,2.0908005452816525],[114.80060577392578,2.0914867335150973],[114.8019790649414,2.094660350189443],[114.80240821838379,2.095089216814671],[114.80378150939941,2.095861176444174],[114.80627059936523,2.0962900427405344],[114.80781555175781,2.0977481872691186],[114.80987548828125,2.099206330438463],[114.81047630310059,2.1004071532036903],[114.81013298034668,2.1016079750458942],[114.80936050415039,2.1027230230724285],[114.80841636657715,2.10606816236988],[114.80300903320312,2.114388093041839],[114.9664306640625,2.114388093041839],[114.9664306640625,2.073388418729195]]]}},{"type":"Feature","id":"pmtiles:10/838/506:water:84404173:0","properties":{"intermittent":0,"class":"river","id":8440417,"water":"river","kind":"waterway","verification":"verified","source":"OpenMapTiles/OpenStreetMap national PMTiles","sourceId":"10/838/506:water:84404173:0","sourceLayer":"water","archive":"https://its.hanifahseptiani45.workers.dev/v1/map/archive/indonesia.pmtiles","updatedAt":"2026-07-26T09:40:14.223Z"},"geometry":{"type":"Polygon","coordinates":[[[114.95450019836426,1.769890575090514],[114.95535850524902,1.7710916310774252],[114.95553016662598,1.7716063691192403],[114.95458602905273,1.7717779484347318],[114.95467185974121,1.7726358447737454],[114.9539852142334,1.77315058238635],[114.95192527770996,1.773579530287492],[114.95166778564453,1.774351636258956],[114.95235443115234,1.7753811103861636],[114.95201110839844,1.7758100577699736],[114.95072364807129,1.774866373394218],[114.949951171875,1.7734937407152245],[114.94909286499023,1.7734079511389638],[114.94857788085938,1.7746947943650326],[114.94823455810547,1.7763247944991036],[114.94763374328613,1.7769253205018458],[114.94617462158203,1.7764963733769576],[114.94488716125488,1.7752095314047835],[114.9448013305664,1.774780583881622],[114.9459171295166,1.7736653198557946],[114.94523048400879,1.772550055157737],[114.94128227233887,1.7722926862858372],[114.94136810302734,1.771349000116217],[114.94102478027344,1.7707484723034383],[114.93836402893066,1.7688610979110706],[114.93690490722656,1.7683463591071131],[114.93647575378418,1.768517938724301],[114.93578910827637,1.7696332058492317],[114.93553161621094,1.770834262002893],[114.93553161621094,1.7729790031980457],[114.93450164794922,1.7745232153199595],[114.93407249450684,1.7746947943650326],[114.9323558807373,1.7740084780892005],[114.93184089660645,1.774094267637608],[114.9305534362793,1.7733221615587382],[114.9294376373291,1.772893213597925],[114.92918014526367,1.7737511094201182],[114.92969512939453,1.775638478828398],[114.92935180664062,1.7758958472347928],[114.92857933044434,1.7752095314047835],[114.92754936218262,1.7752095314047835],[114.92746353149414,1.7758958472347928],[114.92660522460938,1.7777832144527252],[114.92583274841309,1.7784695293263866],[114.9239444732666,1.7781263719214593],[114.92342948913574,1.777354267527116],[114.9228286743164,1.7757242683011754],[114.92128372192383,1.7751237419081178],[114.92076873779297,1.7752095314047835],[114.92033958435059,1.7755526893516276],[114.91999626159668,1.7767537416638532],[114.91999626159668,1.7782979506319094],[114.91905212402344,1.778812686667493],[114.91724967956543,1.7788984759928042],[114.91682052612305,1.7790700546314326],[114.91604804992676,1.7787268973382027],[114.91561889648438,1.7779547931950788],[114.91476058959961,1.7772684781300399],[114.9140739440918,1.777440056920213],[114.91175651550293,1.7770111099148664],[114.91167068481445,1.777354267527116],[114.9111557006836,1.7776116356944414],[114.91064071655273,1.7783837399811375],[114.91021156311035,1.7783837399811375],[114.90986824035645,1.7781263719214593],[114.90909576416016,1.7784695293263866],[114.90866661071777,1.7794990011582286],[114.90943908691406,1.781557943097539],[114.90900993347168,1.7829305697787277],[114.90969657897949,1.7838742500283047],[114.90969657897949,1.7844747735714748],[114.90943908691406,1.7846463516906539],[114.90900993347168,1.7839600391179147],[114.90832328796387,1.783702671837105],[114.906005859375,1.7813005754809268],[114.90506172180176,1.7807000509023396],[114.90403175354004,1.7809574186028385],[114.90334510803223,1.7818153106781978],[114.9034309387207,1.7820726782228888],[114.90317344665527,1.7831021480419196],[114.90368843078613,1.7836168827355152],[114.90334510803223,1.784045828203503],[114.90300178527832,1.7837884609347157],[114.9030876159668,1.7842174063626999],[114.90265846252441,1.7844747735714748],[114.90248680114746,1.7849895078809794],[114.9030876159668,1.785504242046386],[114.90300178527832,1.7858473980765552],[114.90351676940918,1.787220021556351],[114.9034309387207,1.7879063329115183],[114.90283012390137,1.7880779107102285],[114.90222930908203,1.787220021556351],[114.90102767944336,1.7867910768290898],[114.90068435668945,1.7870484436774632],[114.90042686462402,1.7869626547320223],[114.90042686462402,1.787220021556351],[114.89999771118164,1.7874773883445982],[114.89974021911621,1.7880779107102285],[114.89913940429688,1.788335277378195],[114.89956855773926,1.791337885836171],[114.90008354187012,1.791681040775316],[114.9001693725586,1.792195773063483],[114.89974021911621,1.794597855161129],[114.89982604980469,1.7969141456242284],[114.90034103393555,1.7969999341034963],[114.9001693725586,1.794597855161129],[114.90068435668945,1.792109984358845],[114.89991188049316,1.7904799982071324],[114.89991188049316,1.7897936878147647],[114.90042686462402,1.787992121812863],[114.90128517150879,1.7875631772660086],[114.90059852600098,1.7873915994191947],[114.90119934082031,1.787220021556351],[114.90180015563965,1.7873058104897837],[114.90205764770508,1.7881636996035581],[114.90300178527832,1.788506855136788],[114.90325927734375,1.7888500106058558],[114.90386009216309,1.7885926440100803],[114.90403175354004,1.7880779107102285],[114.90420341491699,1.7873058104897837],[114.90403175354004,1.7863621320016705],[114.90334510803223,1.785504242046386],[114.90325927734375,1.7847321407442394],[114.90325927734375,1.7843889845058953],[114.90377426147461,1.7841316172851123],[114.90403175354004,1.7836168827355152],[114.90368843078613,1.7823300457316122],[114.90377426147461,1.7820726782228888],[114.90446090698242,1.7811289970498763],[114.90540504455566,1.7813005754809268],[114.9056625366211,1.7817295214886428],[114.90643501281738,1.782244256566031],[114.90961074829102,1.7849895078809794],[114.9100399017334,1.7845605626330752],[114.91021156311035,1.7839600391179147],[114.90943908691406,1.7830163589123202],[114.90952491760254,1.7820726782228888],[114.90986824035645,1.7814721538959901],[114.90961074829102,1.7805284724153836],[114.90900993347168,1.7794990011582286],[114.90926742553711,1.778812686667493],[114.90978240966797,1.7784695293263866],[114.91098403930664,1.778812686667493],[114.91167068481445,1.7776116356944414],[114.91450309753418,1.7775258463093309],[114.91493225097656,1.7778690038258986],[114.91561889648438,1.778812686667493],[114.91639137268066,1.7792416332541166],[114.91827964782715,1.7792416332541166],[114.91836547851562,1.77932742255949],[114.91948127746582,1.7790700546314326],[114.92051124572754,1.7783837399811375],[114.92068290710449,1.7780405825602514],[114.92042541503906,1.777354267527116],[114.92042541503906,1.7760674261524514],[114.92076873779297,1.7757242683011754],[114.9213695526123,1.7755526893516276],[114.92205619812012,1.775638478828398],[114.9224853515625,1.7759816366956187],[114.9236011505127,1.7782121612786739],[114.92420196533203,1.7787268973382027],[114.92617607116699,1.7787268973382027],[114.92703437805176,1.7778690038258986],[114.92737770080566,1.7771826887289706],[114.92780685424805,1.7769253205018458],[114.92780685424805,1.7755526893516276],[114.92849349975586,1.7754668998708922],[114.92935180664062,1.7763247944991036],[114.92986679077148,1.7761532156053335],[114.92986679077148,1.7758958472347928],[114.93029594421387,1.7755526893516276],[114.93038177490234,1.775295320897456],[114.9294376373291,1.774094267637608],[114.9294376373291,1.7738368989804485],[114.92978096008301,1.7734937407152245],[114.93098258972168,1.7740084780892005],[114.93158340454102,1.7746090048444927],[114.93269920349121,1.7749521629028067],[114.93398666381836,1.7750379524074589],[114.93518829345703,1.7744374257914615],[114.93596076965332,1.7716063691192403],[114.93587493896484,1.7706626826000047],[114.93613243103027,1.7700621545648545],[114.9363899230957,1.769890575090514],[114.93647575378418,1.7692042570343602],[114.93699073791504,1.7686895183256155],[114.93819236755371,1.7691184672595028],[114.93922233581543,1.7702337340233214],[114.9404239654541,1.7706626826000047],[114.94136810302734,1.7728074239938536],[114.94377136230469,1.772893213597925],[114.94488716125488,1.7732363719745337],[114.94497299194336,1.7737511094201182],[114.94454383850098,1.7745232153199595],[114.9444580078125,1.775295320897456],[114.94514465332031,1.7761532156053335],[114.94686126708984,1.777440056920213],[114.94789123535156,1.7771826887289706],[114.94857788085938,1.7767537416638532],[114.94900703430176,1.7760674261524514],[114.94926452636719,1.773579530287492],[114.9502944946289,1.7746090048444927],[114.95080947875977,1.775638478828398],[114.95209693908691,1.776239005054208],[114.95226860046387,1.7761532156053335],[114.95269775390625,1.7751237419081178],[114.95218276977539,1.7744374257914615],[114.95218276977539,1.7740084780892005],[114.95364189147949,1.7734937407152245],[114.95407104492188,1.773579530287492],[114.95484352111816,1.7729790031980457],[114.95535850524902,1.7728074239938536],[114.95561599731445,1.7717779484347318],[114.95595932006836,1.7714347897878753],[114.95492935180664,1.769890575090514],[114.95458602905273,1.7682605692925648],[114.95321273803711,1.765772662946631],[114.95347023010254,1.765601083075822],[114.9554443359375,1.765944242801595],[114.95621681213379,1.7655152931344702],[114.95664596557617,1.7649147634342057],[114.95535850524902,1.7632847532702982],[114.95527267456055,1.7628558029898471],[114.95630264282227,1.7619121120249446],[114.95750427246094,1.7617405317981394],[114.9583625793457,1.7592526167342157],[114.96050834655762,1.7584805044877783],[114.9620532989502,1.7570220693730363],[114.96188163757324,1.7564215369359175],[114.9605941772461,1.7551346810636375],[114.9598217010498,1.7523035950280814],[114.95956420898438,1.7523893855769188],[114.95973587036133,1.753847824305737],[114.96007919311523,1.7548773097828843],[114.96068000793457,1.7555636331195075],[114.96119499206543,1.7569362790366938],[114.96110916137695,1.7575368113083272],[114.96016502380371,1.7576226016170722],[114.9598217010498,1.7581373433868066],[114.95819091796875,1.7588236655256395],[114.9569034576416,1.7613973712971216],[114.95518684387207,1.761054210732894],[114.95424270629883,1.761483161428302],[114.95424270629883,1.7625984327741122],[114.95475769042969,1.7628558029898471],[114.9551010131836,1.763627913423477],[114.95561599731445,1.7641426535345914],[114.95604515075684,1.765257923286697],[114.9557876586914,1.7655152931344702],[114.95321273803711,1.7650005534032687],[114.95278358459473,1.7660300327231369],[114.95329856872559,1.7667163519528941],[114.95338439941406,1.767402670929087],[114.95450019836426,1.7690326774806522],[114.95450019836426,1.769890575090514]]]}},{"type":"Feature","id":"pmtiles:10/838/506:waterway:3991377792:0","properties":{"name_int":"Kayan River","name_de":"Sungai Kayan","name":"Sungai Kayan","name:en":"Kayan River","class":"river","name:latin":"Sungai Kayan","name_en":"Kayan River","waterway":"river","kind":"waterway","verification":"verified","source":"OpenMapTiles/OpenStreetMap national PMTiles","sourceId":"10/838/506:waterway:3991377792:0","sourceLayer":"waterway","archive":"https://its.hanifahseptiani45.workers.dev/v1/map/archive/indonesia.pmtiles","updatedAt":"2026-07-26T09:40:14.223Z"},"geometry":{"type":"LineString","coordinates":[[114.95913505554199,1.7451829657932336],[114.95999336242676,1.753847824305737],[114.96042251586914,1.7550488906406656],[114.96145248413086,1.7567646983521996],[114.96136665344238,1.7574510209956173],[114.96085166931152,1.757965762812674],[114.95844841003418,1.7589952460209162],[114.9580192565918,1.759509987412045],[114.95724678039551,1.761483161428302],[114.95630264282227,1.7617405317981394],[114.95501518249512,1.7629415930538386],[114.95630264282227,1.7651721333295143],[114.9557876586914,1.765686873013209],[114.95329856872559,1.7653437132399006],[114.95321273803711,1.766287402464016],[114.95458602905273,1.7688610979110706],[114.95484352111816,1.7701479442960704],[114.95570182800293,1.7714347897878753],[114.95484352111816,1.7728074239938536],[114.95209693908691,1.7738368989804485],[114.95201110839844,1.774351636258956],[114.95244026184082,1.7754668998708922],[114.95209693908691,1.7759816366956187],[114.95080947875977,1.7752095314047835],[114.94977951049805,1.7736653198557946],[114.94917869567871,1.773579530287492],[114.94857788085938,1.7763247944991036],[114.94823455810547,1.7768395310848462],[114.94746208190918,1.7771826887289706],[114.94677543640137,1.7770111099148664],[114.94565963745117,1.7764105839400344],[114.94471549987793,1.775295320897456],[114.94462966918945,1.774866373394218],[114.94531631469727,1.773579530287492],[114.94505882263184,1.7729790031980457],[114.94119644165039,1.7723784759137828],[114.94050979614258,1.7705768928926204],[114.93965148925781,1.7701479442960704],[114.93844985961914,1.7691184672595028],[114.93733406066895,1.7686037285269407],[114.93673324584961,1.7686895183256155],[114.9360466003418,1.769461626335186],[114.93561744689941,1.7729790031980457],[114.93467330932617,1.7746947943650326],[114.93364334106445,1.774866373394218],[114.93149757385254,1.7741800571820363],[114.93021011352539,1.7734937407152245],[114.92935180664062,1.7734079511389638],[114.92926597595215,1.7738368989804485],[114.92995262145996,1.7754668998708922],[114.92960929870605,1.7759816366956187],[114.92918014526367,1.7760674261524514],[114.9283218383789,1.775295320897456],[114.92780685424805,1.7753811103861636],[114.92729187011719,1.7763247944991036],[114.92720603942871,1.7771826887289706],[114.92600440979004,1.7785553186676566],[114.92548942565918,1.7787268973382027],[114.92368698120117,1.7781263719214593],[114.9228286743164,1.7760674261524514],[114.92197036743164,1.7754668998708922],[114.92119789123535,1.7753811103861636],[114.92042541503906,1.7757242683011754],[114.92025375366211,1.7781263719214593],[114.91973876953125,1.7787268973382027],[114.91888046264648,1.7789842653141221],[114.91682052612305,1.7791558439447783],[114.91613388061523,1.7789842653141221],[114.91476058959961,1.7775258463093309],[114.9118423461914,1.777354267527116],[114.91081237792969,1.7785553186676566],[114.90961074829102,1.7783837399811375],[114.90909576416016,1.778812686667493],[114.9089241027832,1.779584790451608],[114.90952491760254,1.7814721538959901],[114.90926742553711,1.7829305697787277],[114.90986824035645,1.7837884609347157],[114.90986824035645,1.7843889845058953],[114.90952491760254,1.7847321407442394],[114.90540504455566,1.7811289970498763],[114.9045467376709,1.781043207828347],[114.90351676940918,1.7818153106781978],[114.90386009216309,1.7834453045203134],[114.9030876159668,1.7847321407442394],[114.90386009216309,1.787992121812863],[114.9030876159668,1.788335277378195],[114.90154266357422,1.7870484436774632],[114.90068435668945,1.787134232618925],[114.90008354187012,1.787992121812863],[114.89974021911621,1.7905657869880969],[114.90025520324707,1.791681040775316],[114.90034103393555,1.792538927841889],[114.89999771118164,1.79588468355864],[114.90025520324707,1.7977720302356062],[114.90102767944336,1.7980293955404107],[114.90360260009766,1.7980293955404107],[114.90351676940918,1.7994877982486912],[114.90283012390137,1.800688834897457],[114.90325927734375,1.8018898707547493],[114.90428924560547,1.8022330237113664],[114.9056625366211,1.8022330237113664],[114.90617752075195,1.8027477530250735],[114.90592002868652,1.803434058550252],[114.90531921386719,1.803948787524277],[114.90317344665527,1.803948787524277],[114.9030876159668,1.8054929735723562],[114.90240097045898,1.8069513703020874],[114.90265846252441,1.8081524020237367],[114.90137100219727,1.8094392208435437],[114.90119934082031,1.8110691900378697],[114.90059852600098,1.8119270679723627],[114.89888191223145,1.8117554924179586],[114.89836692810059,1.8123560067872404],[114.89819526672363,1.8127849455005105],[114.89836692810059,1.814157548699896],[114.89888191223145,1.815358575645007],[114.89871025085449,1.8163022391135684],[114.89896774291992,1.8181037770938104],[114.89879608154297,1.8186185019008292],[114.89845275878906,1.818875864249307],[114.89785194396973,1.818875864249307],[114.8961353302002,1.8202484628209703],[114.89501953125,1.8204200375689652],[114.89373207092285,1.820076888056633],[114.89313125610352,1.8202484628209703],[114.89141464233398,1.822478933270773],[114.89107131958008,1.8233368057852033],[114.89038467407227,1.8232510185521704],[114.89004135131836,1.8229078695790832],[114.88969802856445,1.819562163665708],[114.8895263671875,1.819133226561064],[114.88901138305664,1.818790076803893],[114.88780975341797,1.8194763762529362],[114.88626480102539,1.8193048014151572],[114.88420486450195,1.819733738479016],[114.8829174041748,1.8223073587188168],[114.88248825073242,1.8237657418891047],[114.88085746765137,1.825738846649699],[114.8796558380127,1.8280550973004495],[114.87862586975098,1.829170328029619],[114.87665176391602,1.829256114980069],[114.87459182739258,1.8279693102925734],[114.87141609191895,1.8252241238773905],[114.86892700195312,1.8249667624359773],[114.8678970336914,1.8250525495872125],[114.86669540405273,1.8255672724086338],[114.86557960510254,1.8279693102925734],[114.86420631408691,1.8301139842589862],[114.86360549926758,1.8302855580655262],[114.86283302307129,1.8301139842589862],[114.86214637756348,1.8293419019264263],[114.86103057861328,1.8299424104360327],[114.86077308654785,1.8304571318556384],[114.86111640930176,1.8316581479266603],[114.86214637756348,1.8332023102634736],[114.86257553100586,1.8343175377895449],[114.86257553100586,1.8351754046442323],[114.85939979553223,1.8372342834160378],[114.8591423034668,1.8380063623437621],[114.85965728759766,1.8415236065653602],[114.85888481140137,1.8426388288940245],[114.85879898071289,1.8431535466563673],[114.8576831817627,1.8440971955008365],[114.8580265045166,1.8447834852552774],[114.8609447479248,1.8445261266283666],[114.86446380615234,1.8449550576524985],[114.86549377441406,1.8455555609125014],[114.86618041992188,1.8465849946006472],[114.86566543579102,1.8478717858722433],[114.86618041992188,1.8489870042201204],[114.86549377441406,1.8497590780504964],[114.86386299133301,1.8502737937507305],[114.86326217651367,1.8509600811187141],[114.86334800720215,1.8537910137024767],[114.86437797546387,1.8556782995769936],[114.86446380615234,1.8563645848502972],[114.86403465270996,1.8603107199983384],[114.86394882202148,1.863656349405531],[114.86437797546387,1.8644284168279768],[114.86772537231445,1.8652004839117353],[114.86806869506836,1.8655436247291277],[114.86798286437988,1.8670877575788154],[114.8686695098877,1.868631889071949],[114.8704719543457,1.870176019207392],[114.87064361572266,1.869832879294691],[114.87141609191895,1.8700044492594117],[114.87261772155762,1.871377008373372],[114.87296104431152,1.8724064270038525],[114.87287521362305,1.8728353512547784],[114.87175941467285,1.8743794776886205],[114.8715877532959,1.8750657556665828],[114.8719310760498,1.8757520333754343],[114.87261772155762,1.875666248676552],[114.87356185913086,1.874808401456363],[114.87836837768555,1.8738647690286],[114.87982749938965,1.8740363385987564],[114.88180160522461,1.8748941861973094],[114.88300323486328,1.87583781807011],[114.88497734069824,1.8766956647855295],[114.88592147827148,1.8774677264695754],[114.88635063171387,1.878154003235764],[114.88677978515625,1.8818427362335086],[114.88720893859863,1.882957933046285],[114.88789558410645,1.8831295017233884],[114.88875389099121,1.8828721487013809],[114.88909721374512,1.8820143050203626],[114.8898696899414,1.881499598609139],[114.89132881164551,1.8815853830215588],[114.89184379577637,1.8820143050203626],[114.89295959472656,1.8824432269136508],[114.89338874816895,1.8831295017233884],[114.89338874816895,1.884330481990034],[114.89304542541504,1.8854456772103418],[114.89313125610352,1.8867324400381733],[114.8939037322998,1.8882765541749365],[114.89622116088867,1.8886196904634858],[114.89845275878906,1.8879334178186156],[114.89862442016602,1.8875902813945657],[114.89802360534668,1.8871613607692836],[114.89768028259277,1.8863035192013058],[114.89776611328125,1.8857030298520243],[114.89862442016602,1.8845878347965765],[114.8990535736084,1.8831295017233884],[114.89948272705078,1.882957933046285],[114.90077018737793,1.8835584233422225],[114.90137100219727,1.885016756056288],[114.90145683288574,1.8869040083433077],[114.90205764770508,1.8878476337189625],[114.90222930908203,1.8924799690376517],[114.90265846252441,1.8929088883490692],[114.90480422973633,1.8934235913826853],[114.90609169006348,1.8926515367749488],[114.90720748901367,1.8913647783314929],[114.90849494934082,1.8915363461791088],[114.91124153137207,1.889820666939741],[114.91252899169922,1.8905069388389961],[114.91621971130371,1.8944529969913333],[114.91604804992676,1.895225050796384],[114.91381645202637,1.8976269937655132],[114.91312980651855,1.8995142323296221],[114.91373062133789,1.900543634313948],[114.91467475891113,1.9012299019625658],[114.91604804992676,1.901573035684578],[114.91793632507324,1.9013156853994815],[114.92033958435059,1.9019161693383353],[114.92197036743164,1.902602436441157],[114.92480278015137,1.902602436441157],[114.92566108703613,1.9031171365890742],[114.92591857910156,1.9042323197157884],[114.92660522460938,1.9045754528403904],[114.92900848388672,1.9050043691500491],[114.92978096008301,1.9055190685806593],[114.9305534362793,1.9072347322381376],[114.93132591247559,1.9080925634254413],[114.93218421936035,1.9086072619324455],[114.93321418762207,1.9086072619324455],[114.93407249450684,1.9080067803259624],[114.9349308013916,1.9079209972221918],[114.93887901306152,1.9092935263687991],[114.9400806427002,1.910065573532151],[114.94205474853516,1.9122101471650836],[114.94256973266602,1.9132395415571608],[114.94368553161621,1.917442895576059],[114.94368553161621,1.9186438519719928],[114.94222640991211,1.920102155033348],[114.9415397644043,1.922160933707218],[114.94317054748535,1.9231903221132995],[114.9433422088623,1.9244770567475769],[114.94274139404297,1.9281656906488962],[114.94368553161621,1.9324547897828097],[114.94471549987793,1.934427771748048],[114.9448013305664,1.9376874760533838],[114.94437217712402,1.9404324853392438],[114.94454383850098,1.9410329555268078],[114.94874954223633,1.94326327149858],[114.95158195495605,1.943349052823308],[114.9525260925293,1.9443784283800483],[114.95364189147949,1.9462656152698656],[114.95475769042969,1.9466945210866697],[114.95870590209961,1.9472092079227963],[114.95913505554199,1.9476381134994796],[114.95913505554199,1.949010610611083],[114.95750427246094,1.9506404494778735],[114.95698928833008,1.9517556014770179],[114.95707511901855,1.953385437683636],[114.9583625793457,1.9530423144030777],[114.96085166931152,1.9528707527365299],[114.96179580688477,1.9536427800980931],[114.96325492858887,1.9539001224730725],[114.96479988098145,1.9529565335720065],[114.96540069580078,1.9530423144030777],[114.9660873413086,1.9543290263437996],[114.96685981750488,1.9544148071047829]]}},{"type":"Feature","id":"pmtiles:10/838/506:waterway:6068299492:0","properties":{"name":"Sungai Pengean","name_int":"Sungai Pengean","class":"river","name:latin":"Sungai Pengean","name_de":"Sungai Pengean","name_en":"Sungai Pengean","waterway":"river","kind":"waterway","verification":"verified","source":"OpenMapTiles/OpenStreetMap national PMTiles","sourceId":"10/838/506:waterway:6068299492:0","sourceLayer":"waterway","archive":"https://its.hanifahseptiani45.workers.dev/v1/map/archive/indonesia.pmtiles","updatedAt":"2026-07-26T09:40:14.224Z"},"geometry":{"type":"LineString","coordinates":[[114.76962089538574,1.7513598987315362],[114.76962089538574,1.7533330813547252],[114.76919174194336,1.753847824305737],[114.76850509643555,1.753676243337793],[114.7675609588623,1.7529041287874207],[114.76704597473145,1.753161500339587],[114.76696014404297,1.7541051957281297],[114.7675609588623,1.755992585076939],[114.76799011230469,1.7564215369359175],[114.76996421813965,1.7568504886964007],[114.7701358795166,1.7573652306789995],[114.77142333984375,1.7583089239451795],[114.77168083190918,1.7601105188554556],[114.77365493774414,1.761483161428302],[114.77365493774414,1.7623410625228217],[114.77219581604004,1.7645716035184051],[114.7730541229248,1.7649147634342057],[114.77391242980957,1.7647431834842138],[114.774169921875,1.765257923286697],[114.7730541229248,1.765944242801595],[114.77313995361328,1.766458982271459],[114.77502822875977,1.7676600404797682],[114.77734565734863,1.7684321489176966],[114.77777481079102,1.7692042570343602],[114.77760314941406,1.7702337340233214],[114.77777481079102,1.7710916310774252],[114.77940559387207,1.772206896653941],[114.77992057800293,1.7734937407152245],[114.78060722351074,1.7733221615587382],[114.7811222076416,1.772893213597925],[114.78155136108398,1.7732363719745337],[114.78155136108398,1.773922688536814],[114.7811222076416,1.7751237419081178],[114.78137969970703,1.7760674261524514],[114.78455543518066,1.7781263719214593],[114.78704452514648,1.77932742255949],[114.78850364685059,1.7791558439447783],[114.78961944580078,1.7797563690263871],[114.79047775268555,1.7794132118608559],[114.7906494140625,1.7778690038258986],[114.7909927368164,1.7775258463093309],[114.79185104370117,1.777440056920213],[114.7935676574707,1.77932742255949],[114.7957992553711,1.7800995261280974],[114.79640007019043,1.7800995261280974],[114.79880332946777,1.778812686667493],[114.79914665222168,1.7788984759928042],[114.79957580566406,1.7791558439447783],[114.79983329772949,1.780271104654986],[114.80524063110352,1.7842174063626999],[114.80893135070801,1.7846463516906539],[114.80944633483887,1.7843889845058953],[114.80927467346191,1.7831879371675114],[114.80996131896973,1.7828447806411276],[114.81107711791992,1.7831879371675114],[114.8115062713623,1.7839600391179147],[114.81245040893555,1.7849037188394021],[114.81313705444336,1.7848179297938316],[114.81339454650879,1.7839600391179147],[114.81442451477051,1.7835310936299038],[114.8169994354248,1.7843889845058953],[114.81785774230957,1.7843031954362942],[114.81880187988281,1.7846463516906539],[114.81974601745605,1.7858473980765552],[114.82034683227539,1.7861047650571464],[114.82034683227539,1.787134232618925],[114.81940269470215,1.7881636996035581],[114.81914520263672,1.7897936878147647],[114.82008934020996,1.790136843043058],[114.82086181640625,1.7898794766278598],[114.82154846191406,1.7888500106058558],[114.82232093811035,1.7888500106058558],[114.82317924499512,1.7896221101765377],[114.8232650756836,1.790136843043058],[114.82206344604492,1.7912520970913306],[114.82197761535645,1.7917668295000482],[114.82240676879883,1.7924531391533094],[114.82369422912598,1.793568391791112],[114.82455253601074,1.7939973349323708],[114.82558250427246,1.793568391791112],[114.82635498046875,1.7939115463121595],[114.82781410217285,1.7952841637525268],[114.8287582397461,1.7954557408601204],[114.82978820800781,1.7950267980609595],[114.83038902282715,1.79365418042741],[114.83073234558105,1.7934826031508067],[114.83116149902344,1.793739969059672],[114.83133316040039,1.7947694323331405],[114.83236312866211,1.7951983751927116],[114.83373641967773,1.7951983751927116],[114.83579635620117,1.794597855161129],[114.83648300170898,1.7947694323331405],[114.83708381652832,1.795627317951599],[114.83708381652832,1.7969999341034963],[114.83828544616699,1.7979436071095023],[114.83845710754395,1.7988014912370716],[114.83905792236328,1.7999167399998015],[114.840087890625,1.799659374961223],[114.84051704406738,1.8000025283378989],[114.84060287475586,1.8004314699679043],[114.83940124511719,1.8007746231992314],[114.83914375305176,1.8011177763659418],[114.83940124511719,1.8017182942521828],[114.84017372131348,1.8021472354782873],[114.84111785888672,1.8020614472411296],[114.84163284301758,1.802490388386417],[114.83957290649414,1.8040345756724605],[114.83940124511719,1.8045493044765664],[114.8397445678711,1.8050640331349825],[114.84068870544434,1.805235609322068],[114.84163284301758,1.8062650661045012],[114.84180450439453,1.807037158308546],[114.84068870544434,1.8084097658607163],[114.84094619750977,1.8090102813383453],[114.84515190124512,1.8116697046346815],[114.84729766845703,1.8115839168473116],[114.84798431396484,1.8121844312734794],[114.84841346740723,1.8132138841121588],[114.84910011291504,1.8136428226221426],[114.85167503356934,1.8139001856793158],[114.85201835632324,1.8142433363652657],[114.85176086425781,1.8172459020892546],[114.8521900177002,1.817846414635241],[114.85304832458496,1.8171601145663772],[114.8551082611084,1.816988539508415],[114.85459327697754,1.8139859733569068],[114.85467910766602,1.8129565209573713],[114.85519409179688,1.8129565209573713],[114.85579490661621,1.8139001856793158],[114.85776901245117,1.8160448763982942],[114.8580265045166,1.8173316896080536],[114.85742568969727,1.8189616516906284],[114.85759735107422,1.819562163665708],[114.85785484313965,1.8199053132759957],[114.85888481140137,1.819562163665708],[114.85957145690918,1.8196479510744012],[114.85965728759766,1.8199911006683465],[114.85785484313965,1.8234225930141577],[114.85725402832031,1.8241946778907447],[114.85579490661621,1.8252241238773905],[114.85570907592773,1.8260819950826743],[114.85665321350098,1.8264251434501375],[114.85751152038574,1.8261677821806899],[114.85888481140137,1.8246236137901235],[114.85888481140137,1.8235083802390335],[114.8594856262207,1.822993656828487],[114.85991477966309,1.8235083802390335],[114.86077308654785,1.8267682917520887],[114.86120223999023,1.8275403751917594],[114.8624038696289,1.828484032278297],[114.86248970031738,1.8289987541163981],[114.86214637756348,1.8293419019264263]]}},{"type":"Feature","id":"pmtiles:10/839/506:landcover:187767063:0","properties":{"subclass":"wood","class":"wood","kind":"green","verification":"verified","source":"OpenMapTiles/OpenStreetMap national PMTiles","sourceId":"10/839/506:landcover:187767063:0","sourceLayer":"landcover","archive":"https://its.hanifahseptiani45.workers.dev/v1/map/archive/indonesia.pmtiles","updatedAt":"2026-07-26T09:40:14.290Z"},"geometry":{"type":"Polygon","coordinates":[[[114.9554443359375,1.7641426535345914],[114.9554443359375,1.7651721333295143],[114.95604515075684,1.765257923286697],[114.9554443359375,1.7641426535345914]]]}},{"type":"Feature","id":"pmtiles:10/839/506:waterway:3991377792:1","properties":{"name_int":"Kayan River","name_de":"Sungai Kayan","name":"Sungai Kayan","name:en":"Kayan River","class":"river","name:latin":"Sungai Kayan","name_en":"Kayan River","waterway":"river","kind":"waterway","verification":"verified","source":"OpenMapTiles/OpenStreetMap national PMTiles","sourceId":"10/839/506:waterway:3991377792:1","sourceLayer":"waterway","archive":"https://its.hanifahseptiani45.workers.dev/v1/map/archive/indonesia.pmtiles","updatedAt":"2026-07-26T09:40:14.291Z"},"geometry":{"type":"LineString","coordinates":[[114.95484352111816,1.7701479442960704],[114.95570182800293,1.7714347897878753],[114.95484352111816,1.7728074239938536]]}},{"type":"Feature","id":"pmtiles:10/838/507:water:84404173:0","properties":{"intermittent":0,"class":"river","id":8440417,"water":"river","kind":"waterway","verification":"verified","source":"OpenMapTiles/OpenStreetMap national PMTiles","sourceId":"10/838/507:water:84404173:0","sourceLayer":"water","archive":"https://its.hanifahseptiani45.workers.dev/v1/map/archive/indonesia.pmtiles","updatedAt":"2026-07-26T09:40:26.674Z"},"geometry":{"type":"Polygon","coordinates":[[[114.95527267456055,1.7630273831138794],[114.95527267456055,1.7628558029898471],[114.95630264282227,1.7619121120249446],[114.95750427246094,1.7617405317981394],[114.9583625793457,1.7592526167342157],[114.96050834655762,1.7584805044877783],[114.9620532989502,1.7570220693730363],[114.96188163757324,1.7564215369359175],[114.9605941772461,1.7551346810636375],[114.9598217010498,1.7523035950280814],[114.95956420898438,1.7523893855769188],[114.95973587036133,1.753847824305737],[114.96007919311523,1.7548773097828843],[114.96068000793457,1.7555636331195075],[114.96119499206543,1.7569362790366938],[114.96110916137695,1.7575368113083272],[114.96016502380371,1.7576226016170722],[114.9598217010498,1.7581373433868066],[114.95819091796875,1.7588236655256395],[114.9569034576416,1.7613973712971216],[114.95518684387207,1.761054210732894],[114.95424270629883,1.761483161428302],[114.95424270629883,1.7625984327741122],[114.95475769042969,1.7628558029898471],[114.95484352111816,1.7630273831138794],[114.95527267456055,1.7630273831138794]]]}}]}