{"type":"FeatureCollection","features":[{"type":"Feature","id":"pmtiles:10/856/505:water:90:0","properties":{"class":"ocean","water":"ocean","kind":"waterway","verification":"verified","source":"OpenMapTiles/OpenStreetMap national PMTiles","sourceId":"10/856/505:water:90:0","sourceLayer":"water","archive":"https://its.hanifahseptiani45.workers.dev/v1/map/archive/indonesia.pmtiles","updatedAt":"2026-07-26T09:40:04.774Z"},"geometry":{"type":"Polygon","coordinates":[[[120.9320068359375,2.4656692707025485],[121.2945556640625,2.4656692707025485],[121.2945556640625,2.1034092060773872],[120.9320068359375,2.1034092060773872],[120.9320068359375,2.4656692707025485]]]}}]}