{"type":"FeatureCollection","features":[{"type":"Feature","id":"pmtiles:10/812/516:landuse:1907260330:0","properties":{"class":"residential","kind":"green","verification":"verified","source":"OpenMapTiles/OpenStreetMap national PMTiles","sourceId":"10/812/516:landuse:1907260330:0","sourceLayer":"landuse","archive":"https://its.hanifahseptiani45.workers.dev/v1/map/archive/indonesia.pmtiles","updatedAt":"2026-07-26T09:42:15.765Z"},"geometry":{"type":"Polygon","coordinates":[[[105.58642387390137,-1.5342118440739227],[105.5884838104248,-1.533353844706184],[105.58951377868652,-1.5339544442997237],[105.59011459350586,-1.533353844706184],[105.59114456176758,-1.533353844706184],[105.59303283691406,-1.5314662448867722],[105.59337615966797,-1.531809444977668],[105.59294700622559,-1.5328390449204505],[105.59157371520996,-1.5343834439061794],[105.59371948242188,-1.5337828444330626],[105.5939769744873,-1.5342976439917777],[105.59311866760254,-1.5348124434266026],[105.59500694274902,-1.5359278417768394],[105.59483528137207,-1.5365284406473734],[105.59337615966797,-1.5360136416258143],[105.59123039245605,-1.5367858401116337],[105.59088706970215,-1.5361852413134471],[105.59311866760254,-1.5354988424802372],[105.59294700622559,-1.5351556429809676],[105.58839797973633,-1.534126044152643],[105.58659553527832,-1.534898243320356],[105.58642387390137,-1.5342118440739227]]]}},{"type":"Feature","id":"pmtiles:10/812/516:landuse:1907260330:1","properties":{"class":"residential","kind":"green","verification":"verified","source":"OpenMapTiles/OpenStreetMap national PMTiles","sourceId":"10/812/516:landuse:1907260330:1","sourceLayer":"landuse","archive":"https://its.hanifahseptiani45.workers.dev/v1/map/archive/indonesia.pmtiles","updatedAt":"2026-07-26T09:42:15.765Z"},"geometry":{"type":"Polygon","coordinates":[[[105.6064224243164,-1.5672445562396717],[105.60625076293945,-1.567845146216598],[105.60298919677734,-1.5657001812225246],[105.60359001159668,-1.565271187960235],[105.6064224243164,-1.5672445562396717]]]}},{"type":"Feature","id":"pmtiles:10/812/516:landuse:1907260330:2","properties":{"class":"residential","kind":"green","verification":"verified","source":"OpenMapTiles/OpenStreetMap national PMTiles","sourceId":"10/812/516:landuse:1907260330:2","sourceLayer":"landuse","archive":"https://its.hanifahseptiani45.workers.dev/v1/map/archive/indonesia.pmtiles","updatedAt":"2026-07-26T09:42:15.765Z"},"geometry":{"type":"Polygon","coordinates":[[[105.60822486877441,-1.562868824070037],[105.60685157775879,-1.5621824338821568],[105.60504913330078,-1.5598658653430135],[105.60547828674316,-1.5596942675719276],[105.60873985290527,-1.5624398302288967],[105.60822486877441,-1.562868824070037]]]}},{"type":"Feature","id":"pmtiles:10/812/516:landuse:1907260330:3","properties":{"class":"residential","kind":"green","verification":"verified","source":"OpenMapTiles/OpenStreetMap national PMTiles","sourceId":"10/812/516:landuse:1907260330:3","sourceLayer":"landuse","archive":"https://its.hanifahseptiani45.workers.dev/v1/map/archive/indonesia.pmtiles","updatedAt":"2026-07-26T09:42:15.765Z"},"geometry":{"type":"Polygon","coordinates":[[[105.59406280517578,-1.5617534399008406],[105.59432029724121,-1.5603806585722566],[105.59560775756836,-1.5593510719877912],[105.59612274169922,-1.5596084686811338],[105.59646606445312,-1.558836278506675],[105.59569358825684,-1.5586646806516598],[105.59586524963379,-1.5566055053011638],[105.59698104858398,-1.5570345003317811],[105.59749603271484,-1.556262309213821],[105.59844017028809,-1.55609071114921],[105.59809684753418,-1.5542031315173261],[105.59895515441895,-1.5537741359110555],[105.59886932373047,-1.5529161444371766],[105.5976676940918,-1.5499131715368435],[105.59638023376465,-1.5494841750603854],[105.59689521789551,-1.5488835798473843],[105.5980110168457,-1.5494841750603854],[105.59818267822266,-1.548025586390665],[105.59904098510742,-1.5489693791739683],[105.59826850891113,-1.549827372248501],[105.59981346130371,-1.5529161444371766],[105.60195922851562,-1.5535167385054933],[105.60281753540039,-1.55609071114921],[105.60247421264648,-1.556348108240897],[105.60453414916992,-1.558321484899679],[105.60384750366211,-1.558493082782661],[105.6017017364502,-1.556433907264477],[105.59938430786133,-1.5569487013326295],[105.59758186340332,-1.5581498870027275],[105.59698104858398,-1.5590078763477067],[105.59886932373047,-1.5603806585722566],[105.60067176818848,-1.5630404215819595],[105.60032844543457,-1.5633836165637263],[105.59706687927246,-1.5599516642233056],[105.59440612792969,-1.5624398302288967],[105.59406280517578,-1.5617534399008406]]]}},{"type":"Feature","id":"pmtiles:10/812/516:landuse:1907260330:4","properties":{"class":"residential","kind":"green","verification":"verified","source":"OpenMapTiles/OpenStreetMap national PMTiles","sourceId":"10/812/516:landuse:1907260330:4","sourceLayer":"landuse","archive":"https://its.hanifahseptiani45.workers.dev/v1/map/archive/indonesia.pmtiles","updatedAt":"2026-07-26T09:42:15.766Z"},"geometry":{"type":"Polygon","coordinates":[[[105.57191848754883,-1.6768064105007454],[105.5705451965332,-1.6770637922878677],[105.57003021240234,-1.6777501435546611],[105.56942939758301,-1.6773211740411256],[105.56831359863281,-1.6786080822995046],[105.56754112243652,-1.6780933190977692],[105.5661678314209,-1.6787796700032942],[105.56548118591309,-1.6780075252176374],[105.56694030761719,-1.6768064105007454],[105.5687427520752,-1.6767206165641824],[105.56934356689453,-1.6750905310552184],[105.57003021240234,-1.6748331490087338],[105.57080268859863,-1.6762916468249642],[105.57209014892578,-1.6756910890321706],[105.5720043182373,-1.6747473549857261],[105.57354927062988,-1.6745757669284416],[105.57526588439941,-1.6748331490087338],[105.57535171508789,-1.675776883013853],[105.5789566040039,-1.6766348226238676],[105.58075904846191,-1.6765490286797728],[105.58093070983887,-1.677406967951356],[105.57964324951172,-1.6780075252176374],[105.57449340820312,-1.6763774407803282],[105.57191848754883,-1.6768064105007454]]]}},{"type":"Feature","id":"pmtiles:10/812/516:landuse:1907260330:5","properties":{"class":"residential","kind":"green","verification":"verified","source":"OpenMapTiles/OpenStreetMap national PMTiles","sourceId":"10/812/516:landuse:1907260330:5","sourceLayer":"landuse","archive":"https://its.hanifahseptiani45.workers.dev/v1/map/archive/indonesia.pmtiles","updatedAt":"2026-07-26T09:42:15.766Z"},"geometry":{"type":"Polygon","coordinates":[[[105.60856819152832,-1.6756052950467222],[105.60839653015137,-1.675176325063191],[105.61002731323242,-1.673717826416734],[105.61062812805176,-1.6746615609589668],[105.61277389526367,-1.675262119067412],[105.61440467834473,-1.6738036204847901],[105.61646461486816,-1.673117267835167],[105.61878204345703,-1.673717826416734],[105.61783790588379,-1.6722593266854062],[105.6185245513916,-1.671658767657405],[105.61895370483398,-1.672173532549806],[105.6199836730957,-1.6720019442673504],[105.62041282653809,-1.6729456796352196],[105.61972618103027,-1.673374650106922],[105.62187194824219,-1.6747473549857261],[105.62161445617676,-1.675176325063191],[105.61946868896484,-1.6739752086096757],[105.6185245513916,-1.674489972894179],[105.61534881591797,-1.6744041788561503],[105.61294555664062,-1.6759484709659205],[105.61285972595215,-1.6770637922878677],[105.61200141906738,-1.6770637922878677],[105.61217308044434,-1.6760342649363196],[105.60856819152832,-1.6756052950467222]]]}},{"type":"Feature","id":"pmtiles:10/812/516:landuse:1907260330:6","properties":{"class":"residential","kind":"green","verification":"verified","source":"OpenMapTiles/OpenStreetMap national PMTiles","sourceId":"10/812/516:landuse:1907260330:6","sourceLayer":"landuse","archive":"https://its.hanifahseptiani45.workers.dev/v1/map/archive/indonesia.pmtiles","updatedAt":"2026-07-26T09:42:15.766Z"},"geometry":{"type":"Polygon","coordinates":[[[105.57320594787598,-1.5902384489391181],[105.57586669921875,-1.5876645183918043],[105.58135986328125,-1.5844899996367587],[105.58273315429688,-1.584404201765011],[105.5826473236084,-1.5840610102424364],[105.58350563049316,-1.5837178186630325],[105.58393478393555,-1.5844899996367587],[105.58728218078613,-1.5853479781588504],[105.58582305908203,-1.5870639341360828],[105.58204650878906,-1.585090584639559],[105.57921409606934,-1.5870639341360828],[105.57981491088867,-1.5885224955972603],[105.57792663574219,-1.589981056028762],[105.5771541595459,-1.5886940909956166],[105.57612419128418,-1.588608293298222],[105.57475090026855,-1.5903242465687697],[105.57535171508789,-1.5913538178463398],[105.57475090026855,-1.5919544008542346],[105.57320594787598,-1.5902384489391181]]]}},{"type":"Feature","id":"pmtiles:10/812/516:landuse:1907260330:7","properties":{"class":"residential","kind":"green","verification":"verified","source":"OpenMapTiles/OpenStreetMap national PMTiles","sourceId":"10/812/516:landuse:1907260330:7","sourceLayer":"landuse","archive":"https://its.hanifahseptiani45.workers.dev/v1/map/archive/indonesia.pmtiles","updatedAt":"2026-07-26T09:42:15.766Z"},"geometry":{"type":"Polygon","coordinates":[[[105.59260368347168,-1.5868065408302385],[105.59414863586426,-1.5865491474923488],[105.59638023376465,-1.5873213274098958],[105.59715270996094,-1.5884366978927602],[105.59758186340332,-1.5869781363710302],[105.59844017028809,-1.5870639341360828],[105.59818267822266,-1.588350900184679],[105.59869766235352,-1.5885224955972603],[105.5991268157959,-1.5874929229079697],[105.60127258300781,-1.5874071251607091],[105.59895515441895,-1.5900668536691],[105.60015678405762,-1.5904100441948543],[105.60101509094238,-1.5904100441948543],[105.60127258300781,-1.5877503161283641],[105.60247421264648,-1.5879219115908398],[105.60213088989258,-1.5892946747775625],[105.60419082641602,-1.5892946747775625],[105.60384750366211,-1.586205956325344],[105.6049633026123,-1.586205956325344],[105.60513496398926,-1.5877503161283641],[105.6060791015625,-1.5877503161283641],[105.6064224243164,-1.5854337759915182],[105.60702323913574,-1.5853479781588504],[105.60762405395508,-1.588350900184679],[105.60951232910156,-1.5874929229079697],[105.61200141906738,-1.5878361138613855],[105.61200141906738,-1.5885224955972603],[105.61002731323242,-1.588350900184679],[105.60410499572754,-1.5902384489391181],[105.60213088989258,-1.591439615429607],[105.60376167297363,-1.5930697688332742],[105.60307502746582,-1.5940993387394826],[105.60127258300781,-1.5929839713178495],[105.60041427612305,-1.5915254130092933],[105.59964179992676,-1.5913538178463398],[105.59921264648438,-1.592469186150339],[105.59809684753418,-1.592640781220453],[105.59672355651855,-1.5922117935183593],[105.59646606445312,-1.5916112105854268],[105.59775352478027,-1.590495841817372],[105.5947494506836,-1.5894662701117426],[105.59277534484863,-1.5895520677734964],[105.5936336517334,-1.5884366978927602],[105.5921745300293,-1.5872355296555156],[105.59260368347168,-1.5868065408302385]]]}},{"type":"Feature","id":"pmtiles:10/812/516:landuse:1907260330:8","properties":{"class":"residential","kind":"green","verification":"verified","source":"OpenMapTiles/OpenStreetMap national PMTiles","sourceId":"10/812/516:landuse:1907260330:8","sourceLayer":"landuse","archive":"https://its.hanifahseptiani45.workers.dev/v1/map/archive/indonesia.pmtiles","updatedAt":"2026-07-26T09:42:15.766Z"},"geometry":{"type":"Polygon","coordinates":[[[105.71654319763184,-1.6476362565965417],[105.71825981140137,-1.6472072805392202],[105.71808815002441,-1.6464351234032932],[105.72006225585938,-1.6451481941787875],[105.72100639343262,-1.6460061470874194],[105.71817398071289,-1.6490947745002842],[105.71688652038574,-1.6490947745002842],[105.71654319763184,-1.6476362565965417]]]}},{"type":"Feature","id":"pmtiles:10/812/516:landuse:1907260330:9","properties":{"class":"residential","kind":"green","verification":"verified","source":"OpenMapTiles/OpenStreetMap national PMTiles","sourceId":"10/812/516:landuse:1907260330:9","sourceLayer":"landuse","archive":"https://its.hanifahseptiani45.workers.dev/v1/map/archive/indonesia.pmtiles","updatedAt":"2026-07-26T09:42:15.766Z"},"geometry":{"type":"Polygon","coordinates":[[[105.71053504943848,-1.6539850914304424],[105.7089900970459,-1.6504674962567805],[105.71002006530762,-1.6495237501509479],[105.71113586425781,-1.6506390864097256],[105.71165084838867,-1.6500385208096304],[105.71182250976562,-1.6506390864097256],[105.71122169494629,-1.6511538567797004],[105.71371078491211,-1.6538992965003416],[105.71431159973145,-1.6554436046743604],[105.71130752563477,-1.6547572456343573],[105.71053504943848,-1.6539850914304424]]]}},{"type":"Feature","id":"pmtiles:10/812/516:landuse:1907260330:10","properties":{"class":"residential","kind":"green","verification":"verified","source":"OpenMapTiles/OpenStreetMap national PMTiles","sourceId":"10/812/516:landuse:1907260330:10","sourceLayer":"landuse","archive":"https://its.hanifahseptiani45.workers.dev/v1/map/archive/indonesia.pmtiles","updatedAt":"2026-07-26T09:42:15.766Z"},"geometry":{"type":"Polygon","coordinates":[[[105.69577217102051,-1.6585322174123291],[105.70667266845703,-1.656301553140196],[105.70684432983398,-1.6554436046743604],[105.70856094360352,-1.6554436046743604],[105.70890426635742,-1.6563873479663442],[105.70710182189941,-1.6567305272338047],[105.71225166320801,-1.660076521974048],[105.70469856262207,-1.6647094284166712],[105.70289611816406,-1.6647094284166712],[105.70126533508301,-1.6641088670839537],[105.70075035095215,-1.6629077438699085],[105.70160865783691,-1.6627361547796653],[105.70289611816406,-1.6638514835996574],[105.70478439331055,-1.6641088670839537],[105.70744514465332,-1.6621355928462833],[105.70632934570312,-1.6599907273078145],[105.7060718536377,-1.6577600646794366],[105.70504188537598,-1.6571595012345455],[105.69594383239746,-1.6592185751441804],[105.69577217102051,-1.6585322174123291]]]}},{"type":"Feature","id":"pmtiles:10/812/516:landuse:1907260330:11","properties":{"class":"residential","kind":"green","verification":"verified","source":"OpenMapTiles/OpenStreetMap national PMTiles","sourceId":"10/812/516:landuse:1907260330:11","sourceLayer":"landuse","archive":"https://its.hanifahseptiani45.workers.dev/v1/map/archive/indonesia.pmtiles","updatedAt":"2026-07-26T09:42:15.766Z"},"geometry":{"type":"Polygon","coordinates":[[[105.67096710205078,-1.66333671653031],[105.67096710205078,-1.6637656890974313],[105.66882133483887,-1.6636798945914677],[105.66143989562988,-1.6627361547796653],[105.65998077392578,-1.66333671653031],[105.65980911254883,-1.6628219493266556],[105.6584358215332,-1.6623929765543863],[105.65637588500977,-1.6621355928462833],[105.65483093261719,-1.6625645656744865],[105.65448760986328,-1.6620497982694644],[105.65689086914062,-1.661191852296227],[105.65912246704102,-1.6617066199248853],[105.6598949432373,-1.6599049326378577],[105.66058158874512,-1.6602481112953456],[105.66015243530273,-1.6617924145166256],[105.66229820251465,-1.6617924145166256],[105.67096710205078,-1.66333671653031]]]}},{"type":"Feature","id":"pmtiles:10/812/516:landuse:1907260330:12","properties":{"class":"residential","kind":"green","verification":"verified","source":"OpenMapTiles/OpenStreetMap national PMTiles","sourceId":"10/812/516:landuse:1907260330:12","sourceLayer":"landuse","archive":"https://its.hanifahseptiani45.workers.dev/v1/map/archive/indonesia.pmtiles","updatedAt":"2026-07-26T09:42:15.766Z"},"geometry":{"type":"Polygon","coordinates":[[[105.64547538757324,-1.6656531672841624],[105.64521789550781,-1.665224195127692],[105.64607620239258,-1.6647094284166712],[105.65019607543945,-1.6632509220056875],[105.6503677368164,-1.6626503602289233],[105.65122604370117,-1.6625645656744865],[105.6511402130127,-1.6618782091046285],[105.65165519714355,-1.6617066199248853],[105.65174102783203,-1.6626503602289233],[105.65328598022461,-1.6621355928462833],[105.65337181091309,-1.6628219493266556],[105.65225601196289,-1.6635941000817667],[105.64950942993164,-1.6643662505346555],[105.64839363098145,-1.665224195127692],[105.64770698547363,-1.664966811788986],[105.64770698547363,-1.6656531672841624],[105.64547538757324,-1.6656531672841624]]]}},{"type":"Feature","id":"pmtiles:10/812/516:landuse:1907260330:13","properties":{"class":"residential","kind":"green","verification":"verified","source":"OpenMapTiles/OpenStreetMap national PMTiles","sourceId":"10/812/516:landuse:1907260330:13","sourceLayer":"landuse","archive":"https://its.hanifahseptiani45.workers.dev/v1/map/archive/indonesia.pmtiles","updatedAt":"2026-07-26T09:42:15.766Z"},"geometry":{"type":"Polygon","coordinates":[[[105.78117370605469,-1.6540708863568199],[105.78048706054688,-1.6529555520245083],[105.78143119812012,-1.6520976021117235],[105.78065872192383,-1.6508964716113752],[105.77499389648438,-1.645577170679232],[105.7737922668457,-1.645491375386527],[105.77078819274902,-1.6476362565965417],[105.76984405517578,-1.6474646661847032],[105.77027320861816,-1.6449766035527915],[105.76872825622559,-1.6443760362455464],[105.76967239379883,-1.6424027423926049],[105.76924324035645,-1.6422311515306518],[105.76821327209473,-1.6432606964812777],[105.76821327209473,-1.6419737652100963],[105.76641082763672,-1.6417163788564153],[105.76658248901367,-1.6410300150845814],[105.76598167419434,-1.6408584241048203],[105.76555252075195,-1.6414589924695804],[105.76409339904785,-1.6392283090630144],[105.75860023498535,-1.636053870700195],[105.75774192810059,-1.633565793876656],[105.75920104980469,-1.6324504480931523],[105.76383590698242,-1.6366544405057795],[105.76443672180176,-1.636397053468258],[105.76460838317871,-1.6345953432810632],[105.76263427734375,-1.634337955979447],[105.7610034942627,-1.6333942022579322],[105.76117515563965,-1.6324504480931523],[105.75928688049316,-1.6309061221407433],[105.75714111328125,-1.631506693485349],[105.75576782226562,-1.6306487343667442],[105.75525283813477,-1.6295333869658037],[105.75336456298828,-1.6286754270063142],[105.75353622436523,-1.6279032627304275],[105.75705528259277,-1.628503834970573],[105.75782775878906,-1.6291044070317326],[105.76048851013184,-1.6287612230186994],[105.76126098632812,-1.6298765708473013],[105.76108932495117,-1.6304771424991173],[105.76469421386719,-1.6324504480931523],[105.76804161071777,-1.632536243944628],[105.76864242553711,-1.6311635098818158],[105.77104568481445,-1.630562938434764],[105.77181816101074,-1.630991918058072],[105.77156066894531,-1.631678285265167],[105.77010154724121,-1.6321930605167694],[105.77250480651855,-1.635968074998999],[105.77327728271484,-1.636053870700195],[105.7734489440918,-1.6349385262985692],[105.77301979064941,-1.634252160204909],[105.77387809753418,-1.6331368148024126],[105.77413558959961,-1.6314208975899476],[105.77465057373047,-1.631335101690894],[105.77499389648438,-1.6331368148024126],[105.77576637268066,-1.6321930605167694],[105.77473640441895,-1.6307345302950722],[105.7749080657959,-1.629619182941667],[105.77327728271484,-1.629361795003149],[105.7737922668457,-1.6273026903113674],[105.77576637268066,-1.6229270858643332],[105.77662467956543,-1.6228412896039828],[105.77713966369629,-1.6219833268002901],[105.77791213989258,-1.6220691230970345],[105.77834129333496,-1.6244714179280493],[105.77679634094238,-1.6303055506168818],[105.77791213989258,-1.6297049789138498],[105.77774047851562,-1.6280748548172994],[105.77980041503906,-1.6261873410586958],[105.78065872192383,-1.626101544936816],[105.78057289123535,-1.6267879138098351],[105.78228950500488,-1.6270453020770361],[105.78263282775879,-1.6279032627304275],[105.78503608703613,-1.6273026903113674],[105.7862377166748,-1.628418038947217],[105.78829765319824,-1.6289328150325275],[105.78709602355957,-1.631506693485349],[105.78606605529785,-1.6321930605167694],[105.78546524047852,-1.6314208975899476],[105.78580856323242,-1.6297049789138498],[105.78426361083984,-1.6290186110339704],[105.7804012298584,-1.6287612230186994],[105.77954292297363,-1.629275999016329],[105.77937126159668,-1.6314208975899476],[105.77988624572754,-1.6315924893770841],[105.7789421081543,-1.6338231812772364],[105.77774047851562,-1.6338231812772364],[105.7760238647461,-1.6350243220437761],[105.77653884887695,-1.63742660142006],[105.77705383300781,-1.6375981926939573],[105.7778263092041,-1.635195913523205],[105.77945709228516,-1.6367402361776016],[105.77902793884277,-1.6375981926939573],[105.77954292297363,-1.6379413751976841],[105.78048706054688,-1.6361396663977246],[105.78108787536621,-1.635968074998999],[105.78065872192383,-1.6373408057776118],[105.78108787536621,-1.6378555795772627],[105.78065872192383,-1.6383703532446532],[105.78143119812012,-1.640343651077174],[105.78160285949707,-1.6392283090630144],[105.7833194732666,-1.6383703532446532],[105.7847785949707,-1.6393999001825534],[105.78366279602051,-1.6412874015266254],[105.78228950500488,-1.6419737652100963],[105.78143119812012,-1.6412874015266254],[105.78125953674316,-1.6417163788564153],[105.78005790710449,-1.6414589924695804],[105.77962875366211,-1.640257855559696],[105.77911376953125,-1.640944219596534],[105.77834129333496,-1.6401720600385374],[105.77799797058105,-1.6412874015266254],[105.77619552612305,-1.6416305833978129],[105.7767105102539,-1.642059560653962],[105.77696800231934,-1.6440328548459888],[105.7774829864502,-1.6443760362455464],[105.77842712402344,-1.6434322872548108],[105.77877044677734,-1.644204445553143],[105.77954292297363,-1.6437754687576103],[105.78065872192383,-1.6443760362455464],[105.78289031982422,-1.6436038780135647],[105.78177452087402,-1.6427459240722868],[105.7829761505127,-1.642059560653962],[105.78400611877441,-1.6436896733874278],[105.78495025634766,-1.6426601286578943],[105.78529357910156,-1.6431749010889973],[105.78649520874023,-1.6427459240722868],[105.78743934631348,-1.6431749010889973],[105.78692436218262,-1.6441186502014205],[105.78606605529785,-1.6435180826360352],[105.78495025634766,-1.644547626923213],[105.78598022460938,-1.6457487612535857],[105.78486442565918,-1.646778304389528],[105.78512191772461,-1.6490947745002842],[105.78709602355957,-1.647979437375895],[105.78692436218262,-1.646778304389528],[105.78812599182129,-1.6473788709732275],[105.7888126373291,-1.646349328147494],[105.78975677490234,-1.646349328147494],[105.7902717590332,-1.6458345565352204],[105.79018592834473,-1.644461831586213],[105.79095840454102,-1.6437754687576103],[105.79147338867188,-1.6436038780135647],[105.7917308807373,-1.644204445553143],[105.7925033569336,-1.6431749010889973],[105.79301834106445,-1.6434322872548108],[105.79241752624512,-1.644461831586213],[105.79276084899902,-1.6453197847900327],[105.79413414001465,-1.64463342225649],[105.79567909240723,-1.6449766035527915],[105.79559326171875,-1.6437754687576103],[105.79524993896484,-1.6441186502014205],[105.79482078552246,-1.6436896733874278],[105.79559326171875,-1.6425743332398213],[105.79499244689941,-1.6418021743113371],[105.7957649230957,-1.6410300150845814],[105.79705238342285,-1.6413731969999361],[105.79730987548828,-1.6427459240722868],[105.79825401306152,-1.6413731969999361],[105.80065727233887,-1.6406010376075528],[105.80022811889648,-1.642059560653962],[105.80117225646973,-1.6432606964812777],[105.80074310302734,-1.6437754687576103],[105.79928398132324,-1.6424885378180534],[105.79876899719238,-1.6427459240722868],[105.79911231994629,-1.6430891056930221],[105.79782485961914,-1.6435180826360352],[105.79765319824219,-1.6441186502014205],[105.79773902893066,-1.6471214853166742],[105.79602241516113,-1.6472930757580713],[105.79464912414551,-1.6482368229215894],[105.79524993896484,-1.6490089793590528],[105.79524993896484,-1.6500385208096304],[105.79593658447266,-1.6505532913351004],[105.79679489135742,-1.6500385208096304],[105.7968807220459,-1.6515828319861896],[105.79490661621094,-1.651840217065626],[105.79456329345703,-1.6513254468734146],[105.79499244689941,-1.6509822666711926],[105.79387664794922,-1.6483226180961026],[105.79276084899902,-1.6490089793590528],[105.7925033569336,-1.648408413266921],[105.79035758972168,-1.6477220517969187],[105.79198837280273,-1.6507248814806417],[105.79061508178711,-1.6511538567797004],[105.78975677490234,-1.6521833971196713],[105.79044342041016,-1.6538992965003416],[105.78975677490234,-1.654414066025268],[105.78752517700195,-1.6540708863568199],[105.78949928283691,-1.6514970369522928],[105.78907012939453,-1.651239651828405],[105.78958511352539,-1.6497811354969514],[105.78932762145996,-1.6494379550282048],[105.78786849975586,-1.6507248814806417],[105.78658103942871,-1.649952725709113],[105.78486442565918,-1.6501243159064671],[105.78529357910156,-1.650810676547863],[105.78392028808594,-1.6525265771144433],[105.7818603515625,-1.6524407821213174],[105.78203201293945,-1.6535561167428625],[105.78117370605469,-1.6540708863568199]]]}},{"type":"Feature","id":"pmtiles:10/812/516:mountain_peak:10701863271:0","properties":{"name_int":"Gunung Klabat","name_de":"Gunung Klabat","name":"Gunung Klabat","rank":1,"class":"peak","name:latin":"Gunung Klabat","name_en":"Gunung Klabat","kind":"poi","verification":"verified","source":"OpenMapTiles/OpenStreetMap national PMTiles","sourceId":"10/812/516:mountain_peak:10701863271:0","sourceLayer":"mountain_peak","archive":"https://its.hanifahseptiani45.workers.dev/v1/map/archive/indonesia.pmtiles","updatedAt":"2026-07-26T09:42:15.766Z"},"geometry":{"type":"Point","coordinates":[105.59998512268066,-1.600019355698393]}},{"type":"Feature","id":"pmtiles:10/812/516:park:10642459872:0","properties":{"name":"Taman Nasional Gunung Maras","name_int":"Gunung Maras National Park","class":"national_park","name:latin":"Taman Nasional Gunung Maras","name_de":"Taman Nasional Gunung Maras","name_en":"Gunung Maras National Park","kind":"green","verification":"verified","source":"OpenMapTiles/OpenStreetMap national PMTiles","sourceId":"10/812/516:park:10642459872:0","sourceLayer":"park","archive":"https://its.hanifahseptiani45.workers.dev/v1/map/archive/indonesia.pmtiles","updatedAt":"2026-07-26T09:42:15.766Z"},"geometry":{"type":"Polygon","coordinates":[[[105.79233169555664,-1.7630273831138652],[105.79233169555664,-1.762855802989833],[105.79155921936035,-1.7615689515555175],[105.78975677490234,-1.759595777630068],[105.78855514526367,-1.7565073272958784],[105.78683853149414,-1.754190986194402],[105.78615188598633,-1.7535904528479165],[105.78417778015137,-1.7535904528479165],[105.78366279602051,-1.752989919308746],[105.78366279602051,-1.7521320139186116],[105.78383445739746,-1.7519604327934246],[105.78434944152832,-1.7522178044753076],[105.7844352722168,-1.7518746422249478],[105.78263282775879,-1.7499872487245653],[105.78160285949707,-1.7493867140305355],[105.78031539916992,-1.7493867140305355],[105.77859878540039,-1.748528806991331],[105.77842712402344,-1.7479282718305313],[105.77919960021973,-1.747070364124781],[105.77937126159668,-1.7456977109806928],[105.77902793884277,-1.7447540113627156],[105.77816963195801,-1.7439818931412532],[105.7767105102539,-1.7432097746030024],[105.77430725097656,-1.742180282726082],[105.77259063720703,-1.7394349683045363],[105.7705307006836,-1.7372043973953595],[105.76924324035645,-1.7362606935253382],[105.76675415039062,-1.7354027805073855],[105.76589584350586,-1.7353169891841844],[105.76469421386719,-1.7360033196608384],[105.7639217376709,-1.7358317370650411],[105.76357841491699,-1.7351454065260867],[105.76074600219727,-1.732314290421499],[105.7584285736084,-1.7307700434898408],[105.75662612915039,-1.728796837247117],[105.75499534606934,-1.7280247125067518],[105.75456619262695,-1.7276815458546935],[105.75456619262695,-1.7270810040644307],[105.75525283813477,-1.7249362104074777],[105.75525283813477,-1.723306165610964],[105.75482368469238,-1.722448246736505],[105.75345039367676,-1.71687176464512],[105.75104713439941,-1.710437342020171],[105.74984550476074,-1.7087214923392082],[105.74804306030273,-1.7064908854625145],[105.74752807617188,-1.7052897883801563],[105.74701309204102,-1.7024586280066814],[105.74787139892578,-1.7012575284098403],[105.7485580444336,-1.700828564086848],[105.74872970581055,-1.6999706351547843],[105.74769973754883,-1.6992842917346138],[105.75130462646484,-1.6992842917346138],[105.75310707092285,-1.6988553269731455],[105.75499534606934,-1.6980831901624782],[105.75688362121582,-1.697825811157017],[105.75945854187012,-1.6966247086785415],[105.76031684875488,-1.6966247086785415],[105.76091766357422,-1.6973110530433075],[105.76417922973633,-1.7020296639508388],[105.76443672180176,-1.7028875919670838],[105.7668399810791,-1.7071772263156788],[105.76847076416016,-1.7094078323956268],[105.77868461608887,-1.7270810040644307],[105.77945709228516,-1.7289684204801148],[105.78083038330078,-1.7313705841127813],[105.78228950500488,-1.7358317370650411],[105.78323364257812,-1.7377191447621243],[105.78778266906738,-1.7426092377431814],[105.78864097595215,-1.744925593146661],[105.80220222473145,-1.7630273831138652],[105.79233169555664,-1.7630273831138652]]]}},{"type":"Feature","id":"pmtiles:10/812/516:transportation:12808014600:0","properties":{"class":"ferry","highway":"ferry","kind":"road","verification":"verified","source":"OpenMapTiles/OpenStreetMap national PMTiles","sourceId":"10/812/516:transportation:12808014600:0","sourceLayer":"transportation","archive":"https://its.hanifahseptiani45.workers.dev/v1/map/archive/indonesia.pmtiles","updatedAt":"2026-07-26T09:42:15.766Z"},"geometry":{"type":"LineString","coordinates":[[105.62247276306152,-1.4006173190275177],[105.68023681640625,-1.5276052400799784],[105.6939697265625,-1.5568629023300105],[105.7034969329834,-1.575052212480216],[105.72821617126465,-1.6243856217332535],[105.7309627532959,-1.6285896309902625],[105.73190689086914,-1.6295333869658037],[105.73285102844238,-1.6299623668085275],[105.73199272155762,-1.6295333869658037],[105.73122024536133,-1.6286754270063142],[105.72890281677246,-1.624557214119207],[105.7240104675293,-1.6134036787865398],[105.71731567382812,-1.6007057333721093],[105.70967674255371,-1.5850047867926804],[105.69491386413574,-1.556433907264477],[105.68504333496094,-1.53455504372468],[105.6815242767334,-1.5272620393166534],[105.6826400756836,-1.5129333586834264],[105.69079399108887,-1.5067556946686835],[105.8258056640625,-1.4698609500601663]]}},{"type":"Feature","id":"pmtiles:10/812/516:transportation:1903803670:0","properties":{"class":"secondary","highway":"secondary","kind":"road","verification":"verified","source":"OpenMapTiles/OpenStreetMap national PMTiles","sourceId":"10/812/516:transportation:1903803670:0","sourceLayer":"transportation","archive":"https://its.hanifahseptiani45.workers.dev/v1/map/archive/indonesia.pmtiles","updatedAt":"2026-07-26T09:42:15.766Z"},"geometry":{"type":"LineString","coordinates":[[105.50711631774902,-1.6697712952308592],[105.50745964050293,-1.671830355969874],[105.50780296325684,-1.6735462382693385],[105.50634384155273,-1.6766348226238676],[105.50848960876465,-1.6860721334732744],[105.51097869873047,-1.6949088467013667],[105.51175117492676,-1.7002280138744368],[105.51037788391113,-1.7007427712107983],[105.50780296325684,-1.7010859426920888],[105.50093650817871,-1.7014291141123294],[105.49827575683594,-1.7010001498274931],[105.49407005310059,-1.6992842917346138],[105.49278259277344,-1.6990269128891669],[105.49209594726562,-1.7004853925597843],[105.49175262451172,-1.7020296639508388],[105.49115180969238,-1.7031449702974868],[105.48763275146484,-1.7042602759985925],[105.48583030700684,-1.7044318614337612],[105.48531532287598,-1.7051182030214704],[105.48505783081055,-1.7061477149440805],[105.48437118530273,-1.706919848524464],[105.48188209533691,-1.7065766780825555],[105.47638893127441,-1.7071772263156788],[105.47098159790039,-1.7088072848596738],[105.46892166137695,-1.709836794806293],[105.46686172485352,-1.7112094738760817],[105.46608924865723,-1.7120673977958205],[105.46488761901855,-1.7121531901666742],[105.4632568359375,-1.713268490638356]]}},{"type":"Feature","id":"pmtiles:10/812/516:transportation:1903803670:1","properties":{"class":"secondary","highway":"secondary","kind":"road","verification":"verified","source":"OpenMapTiles/OpenStreetMap national PMTiles","sourceId":"10/812/516:transportation:1903803670:1","sourceLayer":"transportation","archive":"https://its.hanifahseptiani45.workers.dev/v1/map/archive/indonesia.pmtiles","updatedAt":"2026-07-26T09:42:15.766Z"},"geometry":{"type":"LineString","coordinates":[[105.50745964050293,-1.671830355969874],[105.50703048706055,-1.6704576490503484],[105.50711631774902,-1.6697712952308592],[105.50711631774902,-1.66831279256877],[105.50909042358398,-1.6672832606267747],[105.50857543945312,-1.6660821393472247],[105.50745964050293,-1.6653099895664525],[105.5068588256836,-1.6639372780981603],[105.50634384155273,-1.6599049326378577],[105.50582885742188,-1.6579316542016755],[105.50522804260254,-1.6569021168452451],[105.50737380981445,-1.6562157583103243],[105.50883293151855,-1.6538992965003416],[105.50960540771484,-1.651068061727301],[105.51046371459961,-1.6492663647716483],[105.51286697387695,-1.647979437375895],[105.51432609558105,-1.6457487612535857],[105.51484107971191,-1.6436038780135647],[105.51630020141602,-1.6406010376075528],[105.51810264587402,-1.6394856957368376],[105.51981925964355,-1.6373408057776118],[105.52033424377441,-1.6352817092573986],[105.52179336547852,-1.634337955979447],[105.52205085754395,-1.6339089770700923],[105.5233383178711,-1.6232702708693552],[105.52574157714844,-1.6199242145875417],[105.5265998840332,-1.6172645248823727],[105.52685737609863,-1.6130604921120124],[105.52574157714844,-1.6087706538002635],[105.52788734436035,-1.604137618292114],[105.53277969360352,-1.6028506621210852],[105.53818702697754,-1.604137618292114],[105.53964614868164,-1.6038802271226587],[105.54136276245117,-1.6048239945857148],[105.55706977844238,-1.6083416694725514],[105.55844306945801,-1.6079126850546572],[105.56015968322754,-1.608084278832635],[105.5606746673584,-1.607826888160261],[105.56110382080078,-1.6072263097984916],[105.56153297424316,-1.6051671826461273],[105.56264877319336,-1.6036228359208167],[105.56754112243652,-1.5989039914887826],[105.56848526000977,-1.5971880453676022],[105.57518005371094,-1.5889514840663992],[105.57612419128418,-1.5880077093167273],[105.57912826538086,-1.5867207430544994],[105.58127403259277,-1.5850047867926804],[105.5826473236084,-1.584747393230728],[105.58616638183594,-1.5856053716461531],[105.59123039245605,-1.586205956325344],[105.59303283691406,-1.5874071251607091],[105.59406280517578,-1.5884366978927602],[105.59603691101074,-1.5896378654316834],[105.59809684753418,-1.5901526513058855],[105.59938430786133,-1.5908390322717736],[105.60101509094238,-1.5909248298764567],[105.60153007507324,-1.5901526513058855],[105.60238838195801,-1.5897236630862892],[105.60453414916992,-1.5896378654316834],[105.60667991638184,-1.589208877105122],[105.60908317565918,-1.5882651024730308],[105.61037063598633,-1.5880077093167273],[105.61182975769043,-1.5881793047578299],[105.61165809631348,-1.5858627651014388],[105.61105728149414,-1.583803616563216],[105.61088562011719,-1.5809722839826605],[105.61019897460938,-1.5801143036500918],[105.60959815979004,-1.576939773339447],[105.60968399047852,-1.5759101949010415],[105.61028480529785,-1.5752238089926465],[105.61037063598633,-1.574709019412964],[105.60916900634766,-1.567587750533292],[105.60959815979004,-1.565871778502867],[105.60916900634766,-1.5639842076468113],[105.60856819152832,-1.562868824070037],[105.60564994812012,-1.5602948597094581],[105.60376167297363,-1.557720892199157],[105.60238838195801,-1.5566913043142563],[105.60187339782715,-1.5559191130706296],[105.60110092163086,-1.556433907264477],[105.59895515441895,-1.5566913043142563],[105.59826850891113,-1.5570345003317811],[105.59723854064941,-1.5580640880489938],[105.59672355651855,-1.559522669786844],[105.59500694274902,-1.5615818422837862],[105.59286117553711,-1.562868824070037],[105.59123039245605,-1.5654427852756783],[105.58985710144043,-1.5694753181422811],[105.5881404876709,-1.5700759074788522],[105.58616638183594,-1.57024750440047],[105.58419227600098,-1.5717918760608285],[105.58290481567383,-1.5733362465789327],[105.58196067810059,-1.575052212480216],[105.5815315246582,-1.5766823787775905],[105.58238983154297,-1.5798569094811938],[105.58256149291992,-1.5819160619389265],[105.58341979980469,-1.5850047867926804]]}},{"type":"Feature","id":"pmtiles:10/812/516:transportation:1903803670:2","properties":{"class":"secondary","highway":"secondary","kind":"road","verification":"verified","source":"OpenMapTiles/OpenStreetMap national PMTiles","sourceId":"10/812/516:transportation:1903803670:2","sourceLayer":"transportation","archive":"https://its.hanifahseptiani45.workers.dev/v1/map/archive/indonesia.pmtiles","updatedAt":"2026-07-26T09:42:15.766Z"},"geometry":{"type":"LineString","coordinates":[[105.4632568359375,-1.749300923344265],[105.46703338623047,-1.7523035950280814],[105.47123908996582,-1.7547915193481032],[105.479736328125,-1.7554778427162034],[105.47982215881348,-1.7630273831138652]]}},{"type":"Feature","id":"pmtiles:10/812/516:transportation:2199173980:0","properties":{"class":"trunk","highway":"trunk","kind":"road","verification":"verified","source":"OpenMapTiles/OpenStreetMap national PMTiles","sourceId":"10/812/516:transportation:2199173980:0","sourceLayer":"transportation","archive":"https://its.hanifahseptiani45.workers.dev/v1/map/archive/indonesia.pmtiles","updatedAt":"2026-07-26T09:42:15.766Z"},"geometry":{"type":"LineString","coordinates":[[105.73413848876953,-1.6299623668085275],[105.73465347290039,-1.6298765708473013],[105.73542594909668,-1.6300481627660872],[105.73945999145508,-1.6302197546702928],[105.74220657348633,-1.6290186110339704],[105.74709892272949,-1.6279032627304275],[105.75310707092285,-1.6280748548172994],[105.75980186462402,-1.630133958720009],[105.76297760009766,-1.6326220397924374],[105.76606750488281,-1.6338231812772364],[105.7679557800293,-1.634252160204909],[105.77010154724121,-1.6368260318457715],[105.77147483825684,-1.6381129664274994],[105.77293395996094,-1.640257855559696],[105.77404975891113,-1.6410300150845814],[105.77447891235352,-1.6422311515306518],[105.77619552612305,-1.6432606964812777],[105.7763671875,-1.6435180826360352],[105.7760238647461,-1.6441186502014205]]}},{"type":"Feature","id":"pmtiles:10/812/516:transportation:2199173980:1","properties":{"class":"trunk","highway":"trunk","kind":"road","verification":"verified","source":"OpenMapTiles/OpenStreetMap national PMTiles","sourceId":"10/812/516:transportation:2199173980:1","sourceLayer":"transportation","archive":"https://its.hanifahseptiani45.workers.dev/v1/map/archive/indonesia.pmtiles","updatedAt":"2026-07-26T09:42:15.766Z"},"geometry":{"type":"LineString","coordinates":[[105.8258056640625,-1.6953378123382663],[105.82245826721191,-1.6934503628252173],[105.81713676452637,-1.6894180781640955],[105.8144760131836,-1.6846994365509858],[105.81421852111816,-1.6791228453657254],[105.81387519836426,-1.6780075252176374],[105.81241607666016,-1.6755195010575363],[105.8133602142334,-1.6717445618155153],[105.81310272216797,-1.6702002663961366],[105.81421852111816,-1.6662537281463017],[105.81439018249512,-1.6629077438699085],[105.81421852111816,-1.6623929765543863],[105.81155776977539,-1.6611060576783956],[105.81095695495605,-1.6588753963080194],[105.81009864807129,-1.6579316542016755],[105.80924034118652,-1.6576742699127465],[105.80692291259766,-1.6580174489572101],[105.80572128295898,-1.6573310908088104],[105.80520629882812,-1.656301553140196],[105.8049488067627,-1.6540708863568199],[105.8041763305664,-1.653127141962571],[105.80254554748535,-1.6526981670895822],[105.79825401306152,-1.6526981670895822],[105.79730987548828,-1.6523549871244683],[105.79516410827637,-1.6503817011747657],[105.79464912414551,-1.6495237501509479],[105.79421997070312,-1.6473788709732275],[105.79379081726074,-1.6470356900904193],[105.79258918762207,-1.6472930757580713],[105.78915596008301,-1.6471214853166742],[105.78555107116699,-1.6494379550282048],[105.78383445739746,-1.6498669306048726],[105.78005790710449,-1.6468640996268533],[105.7760238647461,-1.6441186502014205],[105.77404975891113,-1.64291751489003],[105.77447891235352,-1.6422311515306518]]}},{"type":"Feature","id":"pmtiles:10/812/516:transportation_name:8032068720:0","properties":{"name":"Jalan Raya Sungailiat - Belinyu","name_int":"Jalan Raya Sungailiat - Belinyu","class":"trunk","name:latin":"Jalan Raya Sungailiat - Belinyu","name_de":"Jalan Raya Sungailiat - Belinyu","name_en":"Jalan Raya Sungailiat - Belinyu","highway":"trunk","kind":"road","verification":"verified","source":"OpenMapTiles/OpenStreetMap national PMTiles","sourceId":"10/812/516:transportation_name:8032068720:0","sourceLayer":"transportation_name","archive":"https://its.hanifahseptiani45.workers.dev/v1/map/archive/indonesia.pmtiles","updatedAt":"2026-07-26T09:42:15.766Z"},"geometry":{"type":"LineString","coordinates":[[105.83430290222168,-1.7028017991826374],[105.83009719848633,-1.6991127058414577],[105.82941055297852,-1.697825811157017],[105.82846641540527,-1.6969678808913784],[105.82743644714355,-1.6966247086785415],[105.82563400268555,-1.695166226094912],[105.82245826721191,-1.6934503628252173],[105.81713676452637,-1.6894180781640955],[105.8144760131836,-1.6846994365509858],[105.81421852111816,-1.6791228453657254],[105.81387519836426,-1.6780075252176374],[105.81241607666016,-1.6755195010575363],[105.8133602142334,-1.6717445618155153],[105.81310272216797,-1.6702002663961366],[105.81421852111816,-1.6662537281463017],[105.81439018249512,-1.6629077438699085],[105.81421852111816,-1.6623929765543863],[105.81155776977539,-1.6611060576783956],[105.81095695495605,-1.6588753963080194],[105.81009864807129,-1.6579316542016755],[105.80924034118652,-1.6576742699127465],[105.80692291259766,-1.6580174489572101],[105.80572128295898,-1.6573310908088104],[105.80520629882812,-1.656301553140196],[105.8049488067627,-1.6540708863568199],[105.8041763305664,-1.653127141962571],[105.80254554748535,-1.6526981670895822],[105.79919815063477,-1.6526981670895822]]}},{"type":"Feature","id":"pmtiles:10/812/516:water:1310:0","properties":{"class":"ocean","water":"ocean","kind":"waterway","verification":"verified","source":"OpenMapTiles/OpenStreetMap national PMTiles","sourceId":"10/812/516:water:1310:0","sourceLayer":"water","archive":"https://its.hanifahseptiani45.workers.dev/v1/map/archive/indonesia.pmtiles","updatedAt":"2026-07-26T09:42:15.767Z"},"geometry":{"type":"Polygon","coordinates":[[[105.46711921691895,-1.5644132011723428],[105.4632568359375,-1.565271187960235],[105.4632568359375,-1.4006173190275177],[105.8258056640625,-1.4006173190275177],[105.8258056640625,-1.5284632417483976],[105.81619262695312,-1.5311230447409372],[105.80048561096191,-1.5323242450109262],[105.78065872192383,-1.5320668450097656],[105.77954292297363,-1.5322384450139594],[105.77336311340332,-1.5320668450097656],[105.75825691223145,-1.5322384450139594],[105.7540512084961,-1.5316378449390982],[105.74907302856445,-1.5314662448867722],[105.74323654174805,-1.5306940444813506],[105.7393741607666,-1.5305224443534655],[105.73319435119629,-1.529407043187689],[105.72847366333008,-1.5290638427123184],[105.72332382202148,-1.5281200411221647],[105.71808815002441,-1.5281200411221647],[105.71671485900879,-1.5276910402622406],[105.71268081665039,-1.5276052400799784],[105.71053504943848,-1.5280342409570267],[105.70624351501465,-1.5282058412838637],[105.70452690124512,-1.5280342409570267],[105.70392608642578,-1.5276052400799784],[105.7034969329834,-1.5275194398942773],[105.70366859436035,-1.5292354429568462],[105.7034969329834,-1.5295786434047756],[105.70272445678711,-1.529836043704691],[105.70255279541016,-1.5300934439737262],[105.7038402557373,-1.5315520449146476],[105.70435523986816,-1.5331822447913623],[105.70512771606445,-1.5337828444330626],[105.7064151763916,-1.5347266435294102],[105.70847511291504,-1.5350698430975456],[105.72023391723633,-1.5433924157292864],[105.71971893310547,-1.58183026396064],[105.73079109191895,-1.5972738427077076],[105.73156356811523,-1.598131815911671],[105.73225021362305,-1.598389207802967],[105.73302268981934,-1.600019355698393],[105.73302268981934,-1.6010489221228283],[105.73413848876953,-1.6036228359208167],[105.73576927185059,-1.604995588623126],[105.73697090148926,-1.6055103706489433],[105.73697090148926,-1.6061109495151982],[105.73808670043945,-1.6073121067181262],[105.73954582214355,-1.6081700757162167],[105.74057579040527,-1.6091138411974981],[105.74143409729004,-1.6106581837702265],[105.74212074279785,-1.6127173053796184],[105.74254989624023,-1.6127173053796184],[105.74254989624023,-1.6147764249055],[105.74332237243652,-1.6151196112904103],[105.743408203125,-1.6154627976173543],[105.74272155761719,-1.6161491700973016],[105.7422924041748,-1.6176077108467837],[105.7422924041748,-1.619409436207249],[105.74272155761719,-1.6206105855577846],[105.74220657348633,-1.6204389928370233],[105.74100494384766,-1.6215543452620267],[105.74100494384766,-1.622154919390141],[105.74023246765137,-1.6226696970723538],[105.73963165283203,-1.6236992520436928],[105.73928833007812,-1.6236134558160984],[105.73963165283203,-1.623785048267635],[105.7393741607666,-1.6242140293327196],[105.73911666870117,-1.6241282331269815],[105.73920249938965,-1.6242998255348056],[105.73843002319336,-1.6246430103067269],[105.73834419250488,-1.6244714179280493],[105.7382583618164,-1.6247288064905945],[105.73782920837402,-1.6249003988474158],[105.73740005493164,-1.6244714179280493],[105.73731422424316,-1.6246430103067269],[105.73714256286621,-1.6242140293327196],[105.73705673217773,-1.6244714179280493],[105.73705673217773,-1.6240424369176054],[105.73671340942383,-1.6244714179280493],[105.73637008666992,-1.6241282331269815],[105.7364559173584,-1.6242998255348056],[105.73611259460449,-1.6244714179280493],[105.73619842529297,-1.6251577873552918],[105.73568344116211,-1.6260157488112839],[105.73508262634277,-1.626530525509807],[105.73491096496582,-1.6264447294025217],[105.73473930358887,-1.6282464468895625],[105.73405265808105,-1.6283322429202087],[105.73482513427734,-1.6283322429202087],[105.7349967956543,-1.6288470190274325],[105.73456764221191,-1.6288470190274325],[105.73465347290039,-1.6291902030258711],[105.73422431945801,-1.6299623668085275],[105.73302268981934,-1.6299623668085275],[105.73285102844238,-1.6294475909863166],[105.7327651977539,-1.6303913465598328],[105.73302268981934,-1.6300481627660872],[105.73405265808105,-1.6300481627660872],[105.73336601257324,-1.6309061221407433],[105.7335376739502,-1.631506693485349],[105.73328018188477,-1.6317640811495835],[105.73336601257324,-1.6319356729074457],[105.73362350463867,-1.6315924893770841],[105.73482513427734,-1.6317640811495835],[105.73473930358887,-1.6320214687808772],[105.7338809967041,-1.6321072646506565],[105.73405265808105,-1.63227885637923],[105.73473930358887,-1.6324504480931523],[105.73525428771973,-1.6321072646506565],[105.73576927185059,-1.6323646522380244],[105.73619842529297,-1.63227885637923],[105.73594093322754,-1.6324504480931523],[105.73568344116211,-1.6341663644266902],[105.73508262634277,-1.6345095475175242],[105.73439598083496,-1.634337955979447],[105.73413848876953,-1.6348527305496958],[105.73422431945801,-1.635195913523205],[105.73482513427734,-1.635195913523205],[105.73491096496582,-1.6349385262985692],[105.7353401184082,-1.6345953432810632],[105.73602676391602,-1.6351101177853167],[105.73637008666992,-1.6349385262985692],[105.73662757873535,-1.6348527305496958],[105.73765754699707,-1.6350243220437761],[105.73834419250488,-1.6354533007148149],[105.73885917663574,-1.6355390964380092],[105.73954582214355,-1.635195913523205],[105.7408332824707,-1.6352817092573986],[105.74117660522461,-1.6351101177853167],[105.74169158935547,-1.6341663644266902],[105.74263572692871,-1.6340805686448192],[105.7430648803711,-1.6341663644266902],[105.7437515258789,-1.6341663644266902],[105.75061798095703,-1.635968074998999],[105.7540512084961,-1.6378555795772627],[105.75748443603516,-1.6424885378180534],[105.75851440429688,-1.6473788709732275],[105.7547378540039,-1.6482368229215894],[105.75456619262695,-1.6514112419147153],[105.7532787322998,-1.651239651828405],[105.75302124023438,-1.6514970369522928],[105.75319290161133,-1.6520976021117235],[105.75422286987305,-1.6532129369260389],[105.75834274291992,-1.655272014936628],[105.76083183288574,-1.6571595012345455],[105.76186180114746,-1.6596475486056335],[105.76066017150879,-1.6631651274773418],[105.76074600219727,-1.6640230725929257],[105.76057434082031,-1.664966811788986],[105.75937271118164,-1.6665969056996062],[105.75851440429688,-1.6665969056996062],[105.75817108154297,-1.6669400831931114],[105.75885772705078,-1.6738036204847901],[105.75791358947754,-1.6770637922878677],[105.7555103302002,-1.6802381648773377],[105.75319290161133,-1.6820398335121638],[105.74709892272949,-1.6830693576994946],[105.74589729309082,-1.683498325950481],[105.74383735656738,-1.683498325950481],[105.74212074279785,-1.6857289593334315],[105.74126243591309,-1.6861579269987885],[105.74100494384766,-1.6865011010629871],[105.74186325073242,-1.6901902184285973],[105.74349403381348,-1.6933645696218207],[105.74727058410645,-1.6985121550953721],[105.7485580444336,-1.6992842917346138],[105.74727058410645,-1.7028875919670838],[105.74761390686035,-1.7042602759985925],[105.7485580444336,-1.7064908854625145],[105.74915885925293,-1.7071772263156788],[105.75044631958008,-1.7095794173714012],[105.75276374816895,-1.715842258478503],[105.7547378540039,-1.7236493330525349],[105.75508117675781,-1.7275099625054224],[105.76314926147461,-1.7340301188691853],[105.76417922973633,-1.7357459457612947],[105.76512336730957,-1.7360033196608384],[105.7664966583252,-1.7351454065260867],[105.76778411865234,-1.7354027805073855],[105.76915740966797,-1.7360033196608384],[105.7719898223877,-1.7382338919885996],[105.77473640441895,-1.7420087006918834],[105.77756881713867,-1.7433813565277632],[105.77937126159668,-1.745268756667599],[105.77971458435059,-1.747070364124781],[105.77885627746582,-1.7478424810775977],[105.77988624572754,-1.7491293419599572],[105.78177452087402,-1.7492151326540863],[105.78400611877441,-1.750673573853689],[105.78546524047852,-1.7534188718563826],[105.7899284362793,-1.75839471421844],[105.79224586486816,-1.7630273831138652],[105.67379951477051,-1.7630273831138652],[105.67354202270508,-1.762855802989833],[105.66624641418457,-1.7549631002137431],[105.66049575805664,-1.7438961022082111],[105.65431594848633,-1.7225340386413421],[105.65242767333984,-1.7166143881554348],[105.6434154510498,-1.7117242282739937],[105.63817977905273,-1.7080351520375388],[105.63766479492188,-1.705890337015063],[105.64461708068848,-1.7100083797437122],[105.65646171569824,-1.7138690367772256],[105.66238403320312,-1.7033165558320036],[105.67062377929688,-1.6966247086785415],[105.68967819213867,-1.68255459567375],[105.70804595947266,-1.6628219493266556],[105.71233749389648,-1.6602481112953456],[105.71293830871582,-1.6596475486056335],[105.7130241394043,-1.6587038068676065],[105.71379661560059,-1.6578458594424177],[105.7148265838623,-1.6574168855903793],[105.71645736694336,-1.654671450737652],[105.7170581817627,-1.6543282711137266],[105.71757316589355,-1.654414066025268],[105.71765899658203,-1.654242476198462],[105.71680068969727,-1.653813501566546],[105.71671485900879,-1.651840217065626],[105.71963310241699,-1.6481510277433955],[105.7228946685791,-1.6453197847900327],[105.7240104675293,-1.64463342225649],[105.72409629821777,-1.6438612641240837],[105.72366714477539,-1.6436038780135647],[105.72272300720215,-1.6437754687576103],[105.71731567382812,-1.645577170679232],[105.70856094360352,-1.6498669306048726],[105.70169448852539,-1.6520118071000667],[105.69474220275879,-1.6532129369260389],[105.68581581115723,-1.6540708863568199],[105.68367004394531,-1.6545856558372378],[105.68212509155273,-1.6541566812795025],[105.68109512329102,-1.6544998609331003],[105.67680358886719,-1.6544998609331003],[105.66804885864258,-1.653813501566546],[105.66298484802246,-1.6537277066290272],[105.66006660461426,-1.6528697570498991],[105.65792083740234,-1.6526123721038601],[105.6569766998291,-1.6520118071000667],[105.6558609008789,-1.6519260120847008],[105.65448760986328,-1.651239651828405],[105.65242767333984,-1.6507248814806417],[105.65182685852051,-1.6497811354969514],[105.65182685852051,-1.6492663647716483],[105.65088272094727,-1.6481510277433955],[105.65019607543945,-1.6477220517969187],[105.6500244140625,-1.6472072805392202],[105.6500244140625,-1.646692509148508],[105.64410209655762,-1.64463342225649],[105.64221382141113,-1.6433464918698775],[105.64135551452637,-1.6430033102933663],[105.64032554626465,-1.6406868331103226],[105.64006805419922,-1.6384561488430336],[105.63878059387207,-1.637255010131497],[105.63775062561035,-1.634252160204909],[105.63594818115234,-1.632536243944628],[105.6320858001709,-1.6306487343667442],[105.62968254089355,-1.6282464468895625],[105.63131332397461,-1.6274742824493558],[105.63174247741699,-1.6264447294025217],[105.63182830810547,-1.625243583517289],[105.63114166259766,-1.623527659584866],[105.62959671020508,-1.6224981045261728],[105.62942504882812,-1.6218975304999077],[105.62779426574707,-1.6211253636328138],[105.6291675567627,-1.6200958073519018],[105.62856674194336,-1.6185514719495444],[105.62736511230469,-1.6182082861448066],[105.62685012817383,-1.6162349666409739],[105.6283950805664,-1.6151196112904103],[105.62848091125488,-1.6144332384626523],[105.62796592712402,-1.6140042553276288],[105.62727928161621,-1.6139184586897528],[105.62642097473145,-1.6145190350788],[105.62650680541992,-1.613832662048253],[105.62616348266602,-1.6134036787865398],[105.62564849853516,-1.6133178821233258],[105.62556266784668,-1.6128888987530416],[105.62607765197754,-1.612631508687457],[105.62667846679688,-1.6128888987530416],[105.6265926361084,-1.6130604921120124],[105.62830924987793,-1.612803102068142],[105.62865257263184,-1.6119451350201075],[105.62848091125488,-1.6114303546177382],[105.62762260437012,-1.61091557408524],[105.62719345092773,-1.6110871676105347],[105.62676429748535,-1.6117735415671035],[105.62633514404297,-1.6104865902088221],[105.62667846679688,-1.6102291998396083],[105.62736511230469,-1.61005760624208],[105.62796592712402,-1.6102291998396083],[105.62830924987793,-1.6098002158186944],[105.62856674194336,-1.6098860126300991],[105.62873840332031,-1.6096286221850562],[105.62848091125488,-1.609285434874451],[105.62865257263184,-1.6086848569419345],[105.62745094299316,-1.6083416694725514],[105.6269359588623,-1.608599060079996],[105.62642097473145,-1.6083416694725514],[105.62590599060059,-1.6087706538002635],[105.62539100646973,-1.6087706538002635],[105.62487602233887,-1.6074837005465952],[105.62650680541992,-1.606883122083886],[105.6277084350586,-1.6070547159483937],[105.62753677368164,-1.608084278832635],[105.62865257263184,-1.6083416694725514],[105.62976837158203,-1.6070547159483937],[105.63019752502441,-1.605424573653636],[105.62968254089355,-1.604909791606218],[105.62530517578125,-1.604137618292114],[105.6240177154541,-1.6042234153414228],[105.62376022338867,-1.6045666035026045],[105.62461853027344,-1.604909791606218],[105.62315940856934,-1.6055961676406412],[105.62247276306152,-1.6055103706489433],[105.62230110168457,-1.6036228359208167],[105.62350273132324,-1.6031938505124685],[105.62298774719238,-1.6020784880301306],[105.62307357788086,-1.6015637051411318],[105.62418937683105,-1.60122051647663],[105.62436103820801,-1.600791530565175],[105.6222152709961,-1.5988181942167614],[105.6214427947998,-1.5966732612517376],[105.6229019165039,-1.5934987563567375],[105.61766624450684,-1.5877503161283641],[105.61577796936035,-1.5745374228581284],[105.61131477355957,-1.5629546228277462],[105.60419082641602,-1.5515433573545465],[105.6031608581543,-1.538845034708359],[105.60539245605469,-1.5324100450044398],[105.6046199798584,-1.532152645013582],[105.60453414916992,-1.5318952449918015],[105.6046199798584,-1.5306940444813506],[105.60530662536621,-1.5304366442843929],[105.60522079467773,-1.5300934439737262],[105.6046199798584,-1.5294928432979447],[105.60359001159668,-1.529836043704691],[105.60341835021973,-1.5300934439737262],[105.60127258300781,-1.5300934439737262],[105.6009292602539,-1.529836043704691],[105.60050010681152,-1.5277768404410637],[105.59989929199219,-1.5275194398942773],[105.59818267822266,-1.5281200411221647],[105.5976676940918,-1.5275194398942773],[105.59586524963379,-1.5272620393166534],[105.59517860412598,-1.5282058412838637],[105.59432029724121,-1.5284632417483976],[105.59432029724121,-1.5288064423197767],[105.59329032897949,-1.529750243608163],[105.59320449829102,-1.5305224443534655],[105.59260368347168,-1.5311230447409372],[105.59268951416016,-1.5320668450097656],[105.59157371520996,-1.5328390449204505],[105.59037208557129,-1.5330964448287858],[105.58762550354004,-1.5326674449643463],[105.58633804321289,-1.5328390449204505],[105.58505058288574,-1.5331822447913623],[105.58247566223145,-1.5346408436287646],[105.57852745056152,-1.5348124434266026],[105.57672500610352,-1.5347266435294102],[105.5734634399414,-1.5340402442278958],[105.56771278381348,-1.5323242450109262],[105.56771278381348,-1.5315520449146476],[105.56668281555176,-1.5315520449146476],[105.56633949279785,-1.5311230447409372],[105.5661678314209,-1.5306940444813506],[105.56668281555176,-1.5300934439737262],[105.56548118591309,-1.529836043704691],[105.56479454040527,-1.5293212430739942],[105.56462287902832,-1.528634842040944],[105.5635929107666,-1.5282058412838637],[105.56239128112793,-1.5299218437978084],[105.56230545043945,-1.5307798445401346],[105.5617904663086,-1.531981045002496],[105.56230545043945,-1.5325816449811498],[105.56350708007812,-1.5330106448627845],[105.56385040283203,-1.533353844706184],[105.56350708007812,-1.5350698430975456],[105.56462287902832,-1.5361852413134471],[105.5647087097168,-1.5367858401116337],[105.56539535522461,-1.5372148391497689],[105.56548118591309,-1.5380728369674301],[105.56530952453613,-1.5394456327580173],[105.56591033935547,-1.540475229020899],[105.56582450866699,-1.5408184276646608],[105.56513786315918,-1.5415048247862302],[105.56445121765137,-1.543649814364457],[105.55887222290039,-1.5519723534136034],[105.55689811706543,-1.5537741359110555],[105.5551815032959,-1.556433907264477],[105.55466651916504,-1.5569487013326295],[105.55063247680664,-1.5590078763477067],[105.54900169372559,-1.559265273083028],[105.54719924926758,-1.560466457431545],[105.54625511169434,-1.560723853988435],[105.54479598999023,-1.5606380551396484],[105.54265022277832,-1.5614960434700151],[105.53818702697754,-1.5644132011723428],[105.53672790527344,-1.5649279932871991],[105.53363800048828,-1.565185389297227],[105.5280590057373,-1.5650995906307372],[105.52582740783691,-1.5655285839281419],[105.52273750305176,-1.5654427852756783],[105.51861763000488,-1.5660433757691408],[105.51630020141602,-1.5660433757691408],[105.51587104797363,-1.565871778502867],[105.51535606384277,-1.5650995906307372],[105.50780296325684,-1.5647563959296065],[105.50531387329102,-1.5641558050675428],[105.50368309020996,-1.5635552140335705],[105.50308227539062,-1.562868824070037],[105.50299644470215,-1.5621824338821568],[105.50273895263672,-1.5618392387041098],[105.5013656616211,-1.5617534399008406],[105.50050735473633,-1.5606380551396484],[105.49982070922852,-1.560209060843178],[105.49690246582031,-1.5621824338821568],[105.4965591430664,-1.5633836165637263],[105.4918384552002,-1.5643274024742624],[105.48703193664551,-1.5644989998669274],[105.48274040222168,-1.5642416037726576],[105.48076629638672,-1.5636410127632416],[105.47801971435547,-1.5633836165637263],[105.47432899475098,-1.5625256290041278],[105.47123908996582,-1.561410244652734],[105.47063827514648,-1.5615818422837862],[105.4698657989502,-1.5608096528337114],[105.46926498413086,-1.5616676410940755],[105.46857833862305,-1.5633836165637263],[105.46711921691895,-1.5644132011723428]],[[105.74280738830566,-1.6357964835856222],[105.7430648803711,-1.6341663644266902],[105.74263572692871,-1.6357964835856222],[105.74280738830566,-1.6357964835856222]],[[105.7364559173584,-1.6354533007148149],[105.73628425598145,-1.6352817092573986],[105.73619842529297,-1.63536750498794],[105.7364559173584,-1.6354533007148149]],[[105.76769828796387,-1.7403786705878304],[105.7682991027832,-1.7423518647446485],[105.76881408691406,-1.7430381926625955],[105.76992988586426,-1.7432955655673368],[105.77027320861816,-1.7430381926625955],[105.77027320861816,-1.7422660737373121],[105.77061653137207,-1.7418371186420671],[105.76992988586426,-1.7387486390747426],[105.76907157897949,-1.7371186061539277],[105.76718330383301,-1.7363464848057362],[105.76546669006348,-1.7370328149085879],[105.76452255249023,-1.7368612324062411],[105.76349258422852,-1.7369470236593685],[105.76349258422852,-1.7377191447621243],[105.76478004455566,-1.739177594872615],[105.76615333557129,-1.739949715063048],[105.76769828796387,-1.7403786705878304]],[[105.75662612915039,-1.731284792606857],[105.75619697570801,-1.7311990010970675],[105.7558536529541,-1.732314290421499],[105.75671195983887,-1.733000621987145],[105.75739860534668,-1.7331722048396898],[105.75757026672363,-1.7328290391190535],[105.75739860534668,-1.7316279586072056],[105.75688362121582,-1.7310274180658212],[105.75662612915039,-1.731284792606857]],[[105.73559761047363,-1.681782452380432],[105.73508262634277,-1.6821256272151857],[105.7349967956543,-1.6829835640379827],[105.73559761047363,-1.6839272941070789],[105.73688507080078,-1.6843562621692456],[105.7379150390625,-1.6843562621692456],[105.73834419250488,-1.6841846749557021],[105.73868751525879,-1.683326738661421],[105.73834419250488,-1.6823830083016418],[105.73782920837402,-1.681782452380432],[105.73662757873535,-1.68161086494041],[105.73559761047363,-1.681782452380432]],[[105.71062088012695,-1.7034881413512295],[105.70959091186523,-1.7035739341051084],[105.70864677429199,-1.7034023485935137],[105.70804595947266,-1.7038313123438371],[105.71096420288086,-1.705375581053758],[105.71199417114258,-1.7051182030214704],[105.71285247802734,-1.7051182030214704],[105.71328163146973,-1.7046034468536249],[105.71328163146973,-1.7038313123438371],[105.71268081665039,-1.7034023485935137],[105.71293830871582,-1.7027160063943825],[105.71259498596191,-1.701943871128222],[105.71225166320801,-1.7024586280066814],[105.71182250976562,-1.7025444208064044],[105.71130752563477,-1.7023728352031497],[105.71096420288086,-1.7031449702974868],[105.71062088012695,-1.7034881413512295]],[[105.699462890625,-1.7332579962601358],[105.69886207580566,-1.7331722048396898],[105.69843292236328,-1.7336011619030387],[105.6983470916748,-1.7344590757381155],[105.69851875305176,-1.734802241163223],[105.69903373718262,-1.7348880325097866],[105.69972038269043,-1.734544867100226],[105.6998062133789,-1.7340301188691853],[105.699462890625,-1.7332579962601358]],[[105.68778991699219,-1.5276052400799784],[105.68830490112305,-1.5279484407884638],[105.68873405456543,-1.5279484407884638],[105.68821907043457,-1.528634842040944],[105.68830490112305,-1.5293212430739942],[105.68916320800781,-1.5294928432979447],[105.69002151489258,-1.5293212430739942],[105.69053649902344,-1.528634842040944],[105.69036483764648,-1.5275194398942773],[105.69062232971191,-1.5275194398942773],[105.69062232971191,-1.5272620393166534],[105.69027900695801,-1.526747238068893],[105.68864822387695,-1.5275194398942773],[105.68787574768066,-1.5272620393166534],[105.68778991699219,-1.5276052400799784]],[[105.67697525024414,-1.7005711854472736],[105.67680358886719,-1.7006569783309402],[105.6771469116211,-1.702115456769647],[105.67800521850586,-1.7023728352031497],[105.67869186401367,-1.7020296639508388],[105.67869186401367,-1.7016864926374495],[105.67826271057129,-1.7012575284098403],[105.67697525024414,-1.7005711854472736]]]}},{"type":"Feature","id":"pmtiles:10/812/516:water:210401333:0","properties":{"intermittent":0,"class":"lake","id":21040133,"water":"lake","kind":"waterway","verification":"verified","source":"OpenMapTiles/OpenStreetMap national PMTiles","sourceId":"10/812/516:water:210401333:0","sourceLayer":"water","archive":"https://its.hanifahseptiani45.workers.dev/v1/map/archive/indonesia.pmtiles","updatedAt":"2026-07-26T09:42:15.767Z"},"geometry":{"type":"Polygon","coordinates":[[[105.76804161071777,-1.6545856558372378],[105.76726913452148,-1.6538992965003416],[105.76786994934082,-1.6543282711137266],[105.76907157897949,-1.6539850914304424],[105.76889991760254,-1.654242476198462],[105.76924324035645,-1.6545856558372378],[105.76907157897949,-1.6550146303022046],[105.77035903930664,-1.6557867841052456],[105.77027320861816,-1.6549288354166265],[105.77061653137207,-1.6547572456343573],[105.77104568481445,-1.6551004251840595],[105.77113151550293,-1.6562157583103243],[105.77130317687988,-1.656301553140196],[105.7705307006836,-1.6562157583103243],[105.77044486999512,-1.655958373798427],[105.76864242553711,-1.6549288354166265],[105.76812744140625,-1.6549288354166265],[105.76804161071777,-1.6545856558372378]]]}},{"type":"Feature","id":"pmtiles:10/812/516:water:210401333:1","properties":{"intermittent":0,"class":"lake","id":21040133,"water":"lake","kind":"waterway","verification":"verified","source":"OpenMapTiles/OpenStreetMap national PMTiles","sourceId":"10/812/516:water:210401333:1","sourceLayer":"water","archive":"https://its.hanifahseptiani45.workers.dev/v1/map/archive/indonesia.pmtiles","updatedAt":"2026-07-26T09:42:15.767Z"},"geometry":{"type":"Polygon","coordinates":[[[105.76589584350586,-1.6461777376248392],[105.76314926147461,-1.6473788709732275],[105.76297760009766,-1.647979437375895],[105.7642650604248,-1.648580003597445],[105.7642650604248,-1.6489231842141265],[105.76460838317871,-1.6490089793590528],[105.76460838317871,-1.6492663647716483],[105.76349258422852,-1.6500385208096304],[105.76323509216309,-1.6497811354969514],[105.76332092285156,-1.6489231842141265],[105.76229095458984,-1.648580003597445],[105.76143264770508,-1.6494379550282048],[105.76014518737793,-1.649952725709113],[105.76005935668945,-1.6502959060890277],[105.7613468170166,-1.6502959060890277],[105.76169013977051,-1.650810676547863],[105.76349258422852,-1.6506390864097256],[105.76272010803223,-1.6514112419147153],[105.76323509216309,-1.6515828319861896],[105.76409339904785,-1.651239651828405],[105.76340675354004,-1.6521833971196713],[105.76349258422852,-1.6525265771144433],[105.76495170593262,-1.6520976021117235],[105.76589584350586,-1.6533845268418759],[105.76666831970215,-1.6534703217942166],[105.76726913452148,-1.6538992965003416],[105.76658248901367,-1.6535561167428625],[105.76581001281738,-1.6534703217942166],[105.76486587524414,-1.6522691921239243],[105.76357841491699,-1.6529555520245083],[105.76126098632812,-1.653298731885812],[105.76083183288574,-1.653298731885812],[105.76057434082031,-1.6530413469953942],[105.75963020324707,-1.653127141962571],[105.75937271118164,-1.6526123721038601],[105.75851440429688,-1.6522691921239243],[105.75722694396973,-1.6524407821213174],[105.75705528259277,-1.6520118071000667],[105.75671195983887,-1.651840217065626],[105.7558536529541,-1.651840217065626],[105.75456619262695,-1.6514112419147153],[105.7547378540039,-1.6482368229215894],[105.75851440429688,-1.6473788709732275],[105.76332092285156,-1.6471214853166742],[105.76589584350586,-1.6459203518131602],[105.76752662658691,-1.6460919423579696],[105.76786994934082,-1.645491375386527],[105.76769828796387,-1.6460919423579696],[105.76872825622559,-1.6470356900904193],[105.76907157897949,-1.6469498948604837],[105.76950073242188,-1.6476362565965417],[105.76924324035645,-1.647807846993615],[105.76950073242188,-1.6483226180961026],[105.77061653137207,-1.647807846993615],[105.76958656311035,-1.6484942084340304],[105.76958656311035,-1.6490947745002842],[105.7694149017334,-1.6490947745002842],[105.7694149017334,-1.6486657987571647],[105.76872825622559,-1.6472930757580713],[105.76812744140625,-1.6466067139037932],[105.76752662658691,-1.646349328147494],[105.76589584350586,-1.6461777376248392]],[[105.75791358947754,-1.6502959060890277],[105.75945854187012,-1.6497811354969514],[105.76254844665527,-1.6483226180961026],[105.76297760009766,-1.6473788709732275],[105.75576782226562,-1.6482368229215894],[105.75628280639648,-1.6490089793590528],[105.75602531433105,-1.6497811354969514],[105.75791358947754,-1.6502959060890277]]]}},{"type":"Feature","id":"pmtiles:10/811/517:transportation:5480398710:2","properties":{"class":"secondary","highway":"secondary","kind":"road","verification":"verified","source":"OpenMapTiles/OpenStreetMap national PMTiles","sourceId":"10/811/517:transportation:5480398710:2","sourceLayer":"transportation","archive":"https://its.hanifahseptiani45.workers.dev/v1/map/archive/indonesia.pmtiles","updatedAt":"2026-07-26T09:42:24.379Z"},"geometry":{"type":"LineString","coordinates":[[105.46669006347656,-1.7520462233579792],[105.47123908996582,-1.7547915193481032],[105.4742431640625,-1.7550488906406514]]}},{"type":"Feature","id":"pmtiles:8/202/128:mountain_peak:10701863271:0","properties":{"name_int":"Gunung Klabat","name_de":"Gunung Klabat","name":"Gunung Klabat","rank":2,"class":"peak","name:latin":"Gunung Klabat","name_en":"Gunung Klabat","kind":"poi","verification":"verified","source":"OpenMapTiles/OpenStreetMap national PMTiles","sourceId":"8/202/128:mountain_peak:10701863271:0","sourceLayer":"mountain_peak","archive":"https://its.hanifahseptiani45.workers.dev/v1/map/archive/indonesia.pmtiles","updatedAt":"2026-07-26T09:35:31.927Z"},"geometry":{"type":"Point","coordinates":[105.59989929199219,-1.600019355698393]}},{"type":"Feature","id":"pmtiles:8/203/128:mountain_peak:10701863271:0","properties":{"name_int":"Gunung Klabat","name_de":"Gunung Klabat","name":"Gunung Klabat","rank":2,"class":"peak","name:latin":"Gunung Klabat","name_en":"Gunung Klabat","kind":"poi","verification":"verified","source":"OpenMapTiles/OpenStreetMap national PMTiles","sourceId":"8/203/128:mountain_peak:10701863271:0","sourceLayer":"mountain_peak","archive":"https://its.hanifahseptiani45.workers.dev/v1/map/archive/indonesia.pmtiles","updatedAt":"2026-07-26T09:35:31.988Z"},"geometry":{"type":"Point","coordinates":[105.59989929199219,-1.600019355698393]}},{"type":"Feature","id":"pmtiles:8/202/129:mountain_peak:10701863271:0","properties":{"name_int":"Gunung Klabat","name_de":"Gunung Klabat","name":"Gunung Klabat","rank":2,"class":"peak","name:latin":"Gunung Klabat","name_en":"Gunung Klabat","kind":"poi","verification":"verified","source":"OpenMapTiles/OpenStreetMap national PMTiles","sourceId":"8/202/129:mountain_peak:10701863271:0","sourceLayer":"mountain_peak","archive":"https://its.hanifahseptiani45.workers.dev/v1/map/archive/indonesia.pmtiles","updatedAt":"2026-07-26T09:35:34.651Z"},"geometry":{"type":"Point","coordinates":[105.59989929199219,-1.600019355698393]}},{"type":"Feature","id":"pmtiles:8/203/129:landuse:612707730:0","properties":{"class":"residential","kind":"green","verification":"verified","source":"OpenMapTiles/OpenStreetMap national PMTiles","sourceId":"8/203/129:landuse:612707730:0","sourceLayer":"landuse","archive":"https://its.hanifahseptiani45.workers.dev/v1/map/archive/indonesia.pmtiles","updatedAt":"2026-07-26T09:35:34.736Z"},"geometry":{"type":"Polygon","coordinates":[[[105.59406280517578,-1.561925037503869],[105.59577941894531,-1.556433907264477],[105.59852600097656,-1.55609071114921],[105.59886932373047,-1.5530019436002505],[105.59646606445312,-1.5495699743626261],[105.59818267822266,-1.5481971851097995],[105.60436248779297,-1.5581498870027275],[105.60161590576172,-1.556433907264477],[105.59749603271484,-1.5581498870027275],[105.6002426147461,-1.563297817823539],[105.59715270996094,-1.5598658653430135],[105.59406280517578,-1.561925037503869]]]}},{"type":"Feature","id":"pmtiles:8/203/129:landuse:612707730:1","properties":{"class":"residential","kind":"green","verification":"verified","source":"OpenMapTiles/OpenStreetMap national PMTiles","sourceId":"8/203/129:landuse:612707730:1","sourceLayer":"landuse","archive":"https://its.hanifahseptiani45.workers.dev/v1/map/archive/indonesia.pmtiles","updatedAt":"2026-07-26T09:35:34.737Z"},"geometry":{"type":"Polygon","coordinates":[[[105.59268951416016,-1.5866349452752075],[105.60127258300781,-1.5873213274098958],[105.6002426147461,-1.5904100441948543],[105.60127258300781,-1.5876645183918043],[105.60401916503906,-1.589380472446436],[105.60367584228516,-1.586291754122442],[105.6060791015625,-1.5876645183918043],[105.60710906982422,-1.585262180322644],[105.60779571533203,-1.588350900184679],[105.6119155883789,-1.5886940909956166],[105.60195922851562,-1.591439615429607],[105.60298919677734,-1.5941851362084236],[105.59268951416016,-1.589380472446436],[105.59268951416016,-1.5866349452752075]]]}},{"type":"Feature","id":"pmtiles:8/203/129:landuse:612707730:2","properties":{"class":"residential","kind":"green","verification":"verified","source":"OpenMapTiles/OpenStreetMap national PMTiles","sourceId":"8/203/129:landuse:612707730:2","sourceLayer":"landuse","archive":"https://its.hanifahseptiani45.workers.dev/v1/map/archive/indonesia.pmtiles","updatedAt":"2026-07-26T09:35:34.737Z"},"geometry":{"type":"Polygon","coordinates":[[[105.78117370605469,-1.654242476198462],[105.78083038330078,-1.650810676547863],[105.77499389648438,-1.6456629659682562],[105.76984405517578,-1.6473788709732275],[105.76984405517578,-1.6422311515306518],[105.765380859375,-1.641544787935544],[105.75782775878906,-1.633651589680511],[105.75920104980469,-1.63227885637923],[105.76400756835938,-1.6367402361776016],[105.76469421386719,-1.6346811390409357],[105.75370788574219,-1.6278174666815062],[105.76057434082031,-1.6288470190274325],[105.76469421386719,-1.63227885637923],[105.7712173461914,-1.630562938434764],[105.77018737792969,-1.63227885637923],[105.77327728271484,-1.636053870700195],[105.77430725097656,-1.6312493057881738],[105.77568054199219,-1.63227885637923],[105.77362060546875,-1.6274742824493558],[105.77705383300781,-1.6219833268002901],[105.7767105102539,-1.6302197546702928],[105.77980041503906,-1.626101544936816],[105.78838348388672,-1.6288470190274325],[105.78598022460938,-1.63227885637923],[105.78598022460938,-1.6295333869658037],[105.78048706054688,-1.6288470190274325],[105.77911376953125,-1.633994772859296],[105.7760238647461,-1.6350243220437761],[105.77705383300781,-1.6377697839531749],[105.77774047851562,-1.63536750498794],[105.77945709228516,-1.6377697839531749],[105.78117370605469,-1.636053870700195],[105.7815170288086,-1.6401720600385374],[105.78495025634766,-1.6394856957368376],[105.7822036743164,-1.6418879697625641],[105.77842712402344,-1.6401720600385374],[105.7763671875,-1.641544787935544],[105.77705383300781,-1.6439470594868766],[105.78048706054688,-1.6442902409011992],[105.78289031982422,-1.6422311515306518],[105.787353515625,-1.6432606964812777],[105.78495025634766,-1.64463342225649],[105.78495025634766,-1.6490947745002842],[105.79078674316406,-1.6436038780135647],[105.79559326171875,-1.6449766035527915],[105.79559326171875,-1.64120160604962],[105.79730987548828,-1.64291751489003],[105.80074310302734,-1.6405152421011167],[105.80108642578125,-1.6432606964812777],[105.7986831665039,-1.6425743332398213],[105.79765319824219,-1.6470356900904193],[105.79456329345703,-1.648408413266921],[105.79696655273438,-1.6514970369522928],[105.79044342041016,-1.6477220517969187],[105.79216003417969,-1.650810676547863],[105.78975677490234,-1.654242476198462],[105.787353515625,-1.654242476198462],[105.78941345214844,-1.6494379550282048],[105.78495025634766,-1.6501243159064671],[105.78117370605469,-1.654242476198462]]]}},{"type":"Feature","id":"pmtiles:8/203/129:mountain_peak:10701863271:0","properties":{"name_int":"Gunung Klabat","name_de":"Gunung Klabat","name":"Gunung Klabat","rank":2,"class":"peak","name:latin":"Gunung Klabat","name_en":"Gunung Klabat","kind":"poi","verification":"verified","source":"OpenMapTiles/OpenStreetMap national PMTiles","sourceId":"8/203/129:mountain_peak:10701863271:0","sourceLayer":"mountain_peak","archive":"https://its.hanifahseptiani45.workers.dev/v1/map/archive/indonesia.pmtiles","updatedAt":"2026-07-26T09:35:34.741Z"},"geometry":{"type":"Point","coordinates":[105.59989929199219,-1.600019355698393]}},{"type":"Feature","id":"pmtiles:8/203/129:transportation:455557950:0","properties":{"class":"trunk","highway":"trunk","kind":"road","verification":"verified","source":"OpenMapTiles/OpenStreetMap national PMTiles","sourceId":"8/203/129:transportation:455557950:0","sourceLayer":"transportation","archive":"https://its.hanifahseptiani45.workers.dev/v1/map/archive/indonesia.pmtiles","updatedAt":"2026-07-26T09:35:34.743Z"},"geometry":{"type":"LineString","coordinates":[[105.73413848876953,-1.6298765708473013],[105.73448181152344,-1.6298765708473013],[105.73654174804688,-1.6298765708473013],[105.73963165283203,-1.6302197546702928],[105.74718475341797,-1.6278174666815062],[105.75714111328125,-1.6291902030258711],[105.76297760009766,-1.6326220397924374],[105.76812744140625,-1.634337955979447],[105.77465057373047,-1.6422311515306518],[105.7763671875,-1.6432606964812777],[105.7760238647461,-1.6439470594868766]]}}]}