{"type":"FeatureCollection","features":[{"type":"Feature","id":"pmtiles:12/3512/1976:water:340:0","properties":{"class":"ocean","water":"ocean","kind":"waterway","verification":"verified","source":"OpenMapTiles/OpenStreetMap national PMTiles","sourceId":"12/3512/1976:water:340:0","sourceLayer":"water","archive":"https://its.hanifahseptiani45.workers.dev/v1/map/archive/indonesia.pmtiles","updatedAt":"2026-07-26T10:35:46.321Z"},"geometry":{"type":"Polygon","coordinates":[[[128.67050170898438,6.316663493894268],[128.76113891601562,6.316663493894268],[128.76113891601562,6.226568742378319],[128.67050170898438,6.226568742378319],[128.67050170898438,6.316663493894268]]]}},{"type":"Feature","id":"pmtiles:12/3513/1976:water:340:0","properties":{"class":"ocean","water":"ocean","kind":"waterway","verification":"verified","source":"OpenMapTiles/OpenStreetMap national PMTiles","sourceId":"12/3513/1976:water:340:0","sourceLayer":"water","archive":"https://its.hanifahseptiani45.workers.dev/v1/map/archive/indonesia.pmtiles","updatedAt":"2026-07-26T10:35:46.384Z"},"geometry":{"type":"Polygon","coordinates":[[[128.75839233398438,6.316663493894268],[128.84902954101562,6.316663493894268],[128.84902954101562,6.226568742378319],[128.75839233398438,6.226568742378319],[128.75839233398438,6.316663493894268]]]}},{"type":"Feature","id":"pmtiles:12/3514/1976:water:340:0","properties":{"class":"ocean","water":"ocean","kind":"waterway","verification":"verified","source":"OpenMapTiles/OpenStreetMap national PMTiles","sourceId":"12/3514/1976:water:340:0","sourceLayer":"water","archive":"https://its.hanifahseptiani45.workers.dev/v1/map/archive/indonesia.pmtiles","updatedAt":"2026-07-26T10:35:46.454Z"},"geometry":{"type":"Polygon","coordinates":[[[128.84628295898438,6.316663493894268],[128.93692016601562,6.316663493894268],[128.93692016601562,6.226568742378319],[128.84628295898438,6.226568742378319],[128.84628295898438,6.316663493894268]]]}},{"type":"Feature","id":"pmtiles:12/3515/1976:water:340:0","properties":{"class":"ocean","water":"ocean","kind":"waterway","verification":"verified","source":"OpenMapTiles/OpenStreetMap national PMTiles","sourceId":"12/3515/1976:water:340:0","sourceLayer":"water","archive":"https://its.hanifahseptiani45.workers.dev/v1/map/archive/indonesia.pmtiles","updatedAt":"2026-07-26T10:35:46.511Z"},"geometry":{"type":"Polygon","coordinates":[[[128.93417358398438,6.316663493894268],[129.02481079101562,6.316663493894268],[129.02481079101562,6.226568742378319],[128.93417358398438,6.226568742378319],[128.93417358398438,6.316663493894268]]]}},{"type":"Feature","id":"pmtiles:12/3512/1977:water:340:0","properties":{"class":"ocean","water":"ocean","kind":"waterway","verification":"verified","source":"OpenMapTiles/OpenStreetMap national PMTiles","sourceId":"12/3512/1977:water:340:0","sourceLayer":"water","archive":"https://its.hanifahseptiani45.workers.dev/v1/map/archive/indonesia.pmtiles","updatedAt":"2026-07-26T10:36:17.107Z"},"geometry":{"type":"Polygon","coordinates":[[[128.67050170898438,6.22929911460929],[128.76113891601562,6.22929911460929],[128.76113891601562,6.139189368969383],[128.67050170898438,6.139189368969383],[128.67050170898438,6.22929911460929]]]}},{"type":"Feature","id":"pmtiles:12/3513/1977:water:340:0","properties":{"class":"ocean","water":"ocean","kind":"waterway","verification":"verified","source":"OpenMapTiles/OpenStreetMap national PMTiles","sourceId":"12/3513/1977:water:340:0","sourceLayer":"water","archive":"https://its.hanifahseptiani45.workers.dev/v1/map/archive/indonesia.pmtiles","updatedAt":"2026-07-26T10:36:17.168Z"},"geometry":{"type":"Polygon","coordinates":[[[128.75839233398438,6.22929911460929],[128.84902954101562,6.22929911460929],[128.84902954101562,6.139189368969383],[128.75839233398438,6.139189368969383],[128.75839233398438,6.22929911460929]]]}},{"type":"Feature","id":"pmtiles:12/3514/1977:water:340:0","properties":{"class":"ocean","water":"ocean","kind":"waterway","verification":"verified","source":"OpenMapTiles/OpenStreetMap national PMTiles","sourceId":"12/3514/1977:water:340:0","sourceLayer":"water","archive":"https://its.hanifahseptiani45.workers.dev/v1/map/archive/indonesia.pmtiles","updatedAt":"2026-07-26T10:36:17.237Z"},"geometry":{"type":"Polygon","coordinates":[[[128.84628295898438,6.22929911460929],[128.93692016601562,6.22929911460929],[128.93692016601562,6.139189368969383],[128.84628295898438,6.139189368969383],[128.84628295898438,6.22929911460929]]]}},{"type":"Feature","id":"pmtiles:12/3515/1977:water:340:0","properties":{"class":"ocean","water":"ocean","kind":"waterway","verification":"verified","source":"OpenMapTiles/OpenStreetMap national PMTiles","sourceId":"12/3515/1977:water:340:0","sourceLayer":"water","archive":"https://its.hanifahseptiani45.workers.dev/v1/map/archive/indonesia.pmtiles","updatedAt":"2026-07-26T10:36:17.293Z"},"geometry":{"type":"Polygon","coordinates":[[[128.93417358398438,6.22929911460929],[129.02481079101562,6.22929911460929],[129.02481079101562,6.139189368969383],[128.93417358398438,6.139189368969383],[128.93417358398438,6.22929911460929]]]}},{"type":"Feature","id":"pmtiles:12/3512/1978:water:340:0","properties":{"class":"ocean","water":"ocean","kind":"waterway","verification":"verified","source":"OpenMapTiles/OpenStreetMap national PMTiles","sourceId":"12/3512/1978:water:340:0","sourceLayer":"water","archive":"https://its.hanifahseptiani45.workers.dev/v1/map/archive/indonesia.pmtiles","updatedAt":"2026-07-26T10:36:48.979Z"},"geometry":{"type":"Polygon","coordinates":[[[128.67050170898438,6.1419201924305185],[128.76113891601562,6.1419201924305185],[128.76113891601562,6.05179565978203],[128.67050170898438,6.05179565978203],[128.67050170898438,6.1419201924305185]]]}},{"type":"Feature","id":"pmtiles:12/3513/1978:water:340:0","properties":{"class":"ocean","water":"ocean","kind":"waterway","verification":"verified","source":"OpenMapTiles/OpenStreetMap national PMTiles","sourceId":"12/3513/1978:water:340:0","sourceLayer":"water","archive":"https://its.hanifahseptiani45.workers.dev/v1/map/archive/indonesia.pmtiles","updatedAt":"2026-07-26T10:36:49.129Z"},"geometry":{"type":"Polygon","coordinates":[[[128.75839233398438,6.1419201924305185],[128.84902954101562,6.1419201924305185],[128.84902954101562,6.05179565978203],[128.75839233398438,6.05179565978203],[128.75839233398438,6.1419201924305185]]]}},{"type":"Feature","id":"pmtiles:12/3514/1978:water:340:0","properties":{"class":"ocean","water":"ocean","kind":"waterway","verification":"verified","source":"OpenMapTiles/OpenStreetMap national PMTiles","sourceId":"12/3514/1978:water:340:0","sourceLayer":"water","archive":"https://its.hanifahseptiani45.workers.dev/v1/map/archive/indonesia.pmtiles","updatedAt":"2026-07-26T10:36:49.256Z"},"geometry":{"type":"Polygon","coordinates":[[[128.84628295898438,6.1419201924305185],[128.93692016601562,6.1419201924305185],[128.93692016601562,6.05179565978203],[128.84628295898438,6.05179565978203],[128.84628295898438,6.1419201924305185]]]}},{"type":"Feature","id":"pmtiles:12/3515/1978:water:340:0","properties":{"class":"ocean","water":"ocean","kind":"waterway","verification":"verified","source":"OpenMapTiles/OpenStreetMap national PMTiles","sourceId":"12/3515/1978:water:340:0","sourceLayer":"water","archive":"https://its.hanifahseptiani45.workers.dev/v1/map/archive/indonesia.pmtiles","updatedAt":"2026-07-26T10:36:49.395Z"},"geometry":{"type":"Polygon","coordinates":[[[128.93417358398438,6.1419201924305185],[129.02481079101562,6.1419201924305185],[129.02481079101562,6.05179565978203],[128.93417358398438,6.05179565978203],[128.93417358398438,6.1419201924305185]]]}},{"type":"Feature","id":"pmtiles:12/3512/1979:water:340:0","properties":{"class":"ocean","water":"ocean","kind":"waterway","verification":"verified","source":"OpenMapTiles/OpenStreetMap national PMTiles","sourceId":"12/3512/1979:water:340:0","sourceLayer":"water","archive":"https://its.hanifahseptiani45.workers.dev/v1/map/archive/indonesia.pmtiles","updatedAt":"2026-07-26T10:37:23.726Z"},"geometry":{"type":"Polygon","coordinates":[[[128.67050170898438,6.054526928194491],[128.76113891601562,6.054526928194491],[128.76113891601562,5.964387815824367],[128.67050170898438,5.964387815824367],[128.67050170898438,6.054526928194491]]]}},{"type":"Feature","id":"pmtiles:12/3513/1979:water:340:0","properties":{"class":"ocean","water":"ocean","kind":"waterway","verification":"verified","source":"OpenMapTiles/OpenStreetMap national PMTiles","sourceId":"12/3513/1979:water:340:0","sourceLayer":"water","archive":"https://its.hanifahseptiani45.workers.dev/v1/map/archive/indonesia.pmtiles","updatedAt":"2026-07-26T10:37:23.808Z"},"geometry":{"type":"Polygon","coordinates":[[[128.75839233398438,6.054526928194491],[128.84902954101562,6.054526928194491],[128.84902954101562,5.964387815824367],[128.75839233398438,5.964387815824367],[128.75839233398438,6.054526928194491]]]}},{"type":"Feature","id":"pmtiles:12/3514/1979:water:340:0","properties":{"class":"ocean","water":"ocean","kind":"waterway","verification":"verified","source":"OpenMapTiles/OpenStreetMap national PMTiles","sourceId":"12/3514/1979:water:340:0","sourceLayer":"water","archive":"https://its.hanifahseptiani45.workers.dev/v1/map/archive/indonesia.pmtiles","updatedAt":"2026-07-26T10:37:23.879Z"},"geometry":{"type":"Polygon","coordinates":[[[128.84628295898438,6.054526928194491],[128.93692016601562,6.054526928194491],[128.93692016601562,5.964387815824367],[128.84628295898438,5.964387815824367],[128.84628295898438,6.054526928194491]]]}},{"type":"Feature","id":"pmtiles:12/3515/1979:water:340:0","properties":{"class":"ocean","water":"ocean","kind":"waterway","verification":"verified","source":"OpenMapTiles/OpenStreetMap national PMTiles","sourceId":"12/3515/1979:water:340:0","sourceLayer":"water","archive":"https://its.hanifahseptiani45.workers.dev/v1/map/archive/indonesia.pmtiles","updatedAt":"2026-07-26T10:37:23.939Z"},"geometry":{"type":"Polygon","coordinates":[[[128.93417358398438,6.054526928194491],[129.02481079101562,6.054526928194491],[129.02481079101562,5.964387815824367],[128.93417358398438,5.964387815824367],[128.93417358398438,6.054526928194491]]]}},{"type":"Feature","id":"pmtiles:10/878/494:water:340:0","properties":{"class":"ocean","water":"ocean","kind":"waterway","verification":"verified","source":"OpenMapTiles/OpenStreetMap national PMTiles","sourceId":"10/878/494:water:340:0","sourceLayer":"water","archive":"https://its.hanifahseptiani45.workers.dev/v1/map/archive/indonesia.pmtiles","updatedAt":"2026-07-26T09:38:07.291Z"},"geometry":{"type":"Polygon","coordinates":[[[128.6663818359375,6.320758338986863],[129.0289306640625,6.320758338986863],[129.0289306640625,5.960290229693385],[128.6663818359375,5.960290229693385],[128.6663818359375,6.320758338986863]]]}},{"type":"Feature","id":"pmtiles:8/219/123:water:80:0","properties":{"class":"ocean","water":"ocean","kind":"waterway","verification":"verified","source":"OpenMapTiles/OpenStreetMap national PMTiles","sourceId":"8/219/123:water:80:0","sourceLayer":"water","archive":"https://its.hanifahseptiani45.workers.dev/v1/map/archive/indonesia.pmtiles","updatedAt":"2026-07-26T09:35:16.872Z"},"geometry":{"type":"Polygon","coordinates":[[[127.94677734375,7.035475652433021],[129.39697265625,7.035475652433021],[129.39697265625,5.5941182188847876],[127.94677734375,5.5941182188847876],[127.94677734375,7.035475652433021]]]}}]}