{"type":"FeatureCollection","features":[{"type":"Feature","id":"pmtiles:10/885/525:transportation:12814043752:0","properties":{"class":"ferry","highway":"ferry","kind":"road","verification":"verified","source":"OpenMapTiles/OpenStreetMap national PMTiles","sourceId":"10/885/525:transportation:12814043752:0","sourceLayer":"transportation","archive":"https://its.hanifahseptiani45.workers.dev/v1/map/archive/indonesia.pmtiles","updatedAt":"2026-07-26T09:44:15.083Z"},"geometry":{"type":"LineString","coordinates":[[131.1284351348877,-4.921305737130197],[131.1273193359375,-4.920878165639806]]}},{"type":"Feature","id":"pmtiles:10/884/526:transportation:10294303050:0","properties":{"class":"ferry","highway":"ferry","kind":"road","verification":"verified","source":"OpenMapTiles/OpenStreetMap national PMTiles","sourceId":"10/884/526:transportation:10294303050:0","sourceLayer":"transportation","archive":"https://its.hanifahseptiani45.workers.dev/v1/map/archive/indonesia.pmtiles","updatedAt":"2026-07-26T09:44:24.239Z"},"geometry":{"type":"LineString","coordinates":[[131.0932445526123,-4.910359820532264],[131.1383056640625,-4.927035168584936]]}},{"type":"Feature","id":"pmtiles:10/884/526:transportation:10294303050:1","properties":{"class":"ferry","highway":"ferry","kind":"road","verification":"verified","source":"OpenMapTiles/OpenStreetMap national PMTiles","sourceId":"10/884/526:transportation:10294303050:1","sourceLayer":"transportation","archive":"https://its.hanifahseptiani45.workers.dev/v1/map/archive/indonesia.pmtiles","updatedAt":"2026-07-26T09:44:24.239Z"},"geometry":{"type":"LineString","coordinates":[[131.1383056640625,-4.924982840603718],[131.09882354736328,-4.910359820532264]]}},{"type":"Feature","id":"pmtiles:10/884/526:water:1080:0","properties":{"class":"ocean","water":"ocean","kind":"waterway","verification":"verified","source":"OpenMapTiles/OpenStreetMap national PMTiles","sourceId":"10/884/526:water:1080:0","sourceLayer":"water","archive":"https://its.hanifahseptiani45.workers.dev/v1/map/archive/indonesia.pmtiles","updatedAt":"2026-07-26T09:44:24.239Z"},"geometry":{"type":"Polygon","coordinates":[[[130.7757568359375,-4.910359820532264],[131.1383056640625,-4.910359820532264],[131.1383056640625,-5.271477837928359],[130.7757568359375,-5.271477837928359],[130.7757568359375,-4.910359820532264]]]}}]}