{"type":"FeatureCollection","features":[{"type":"Feature","id":"pmtiles:10/842/543:water:510:0","properties":{"class":"ocean","water":"ocean","kind":"waterway","verification":"verified","source":"OpenMapTiles/OpenStreetMap national PMTiles","sourceId":"10/842/543:water:510:0","sourceLayer":"water","archive":"https://its.hanifahseptiani45.workers.dev/v1/map/archive/indonesia.pmtiles","updatedAt":"2026-07-26T09:47:30.013Z"},"geometry":{"type":"Polygon","coordinates":[[[116.0101318359375,-10.827910669267112],[116.3726806640625,-10.827910669267112],[116.3726806640625,-11.183790773046624],[116.0101318359375,-11.183790773046624],[116.0101318359375,-10.827910669267112]]]}}]}