{"type":"FeatureCollection","features":[{"type":"Feature","id":"pmtiles:10/856/508:landcover:9486907172:1","properties":{"subclass":"wood","class":"wood","kind":"green","verification":"verified","source":"OpenMapTiles/OpenStreetMap national PMTiles","sourceId":"10/856/508:landcover:9486907172:1","sourceLayer":"landcover","archive":"https://its.hanifahseptiani45.workers.dev/v1/map/archive/indonesia.pmtiles","updatedAt":"2026-07-26T09:40:47.126Z"},"geometry":{"type":"Polygon","coordinates":[[[121.28511428833008,1.1031136829181065],[121.2945556640625,1.1098072283118228],[121.2945556640625,1.092386815989542],[121.28897666931152,1.091614480088353],[121.28554344177246,1.0946180074773366],[121.28442764282227,1.1010541274557823],[121.28511428833008,1.1031136829181065]]]}},{"type":"Feature","id":"pmtiles:10/856/508:landuse:1573127320:9","properties":{"class":"residential","kind":"green","verification":"verified","source":"OpenMapTiles/OpenStreetMap national PMTiles","sourceId":"10/856/508:landuse:1573127320:9","sourceLayer":"landuse","archive":"https://its.hanifahseptiani45.workers.dev/v1/map/archive/indonesia.pmtiles","updatedAt":"2026-07-26T09:40:47.126Z"},"geometry":{"type":"Polygon","coordinates":[[[121.29000663757324,1.2366383657232802],[121.2894058227539,1.2371532298578103],[121.29137992858887,1.2380971471782516],[121.29386901855469,1.2404140337212226],[121.29429817199707,1.2400707913983382],[121.29086494445801,1.2371532298578103],[121.29120826721191,1.2365525550244882],[121.2901782989502,1.2360376907734292],[121.29000663757324,1.2366383657232802]]]}},{"type":"Feature","id":"pmtiles:10/856/508:mountain_peak:10701627651:0","properties":{"name_int":"Bukii Poongan","name_de":"Bukii Poongan","name":"Bukii Poongan","rank":3,"class":"peak","name:latin":"Bukii Poongan","name_en":"Bukii Poongan","kind":"poi","verification":"verified","source":"OpenMapTiles/OpenStreetMap national PMTiles","sourceId":"10/856/508:mountain_peak:10701627651:0","sourceLayer":"mountain_peak","archive":"https://its.hanifahseptiani45.workers.dev/v1/map/archive/indonesia.pmtiles","updatedAt":"2026-07-26T09:40:47.126Z"},"geometry":{"type":"Point","coordinates":[121.34382247924805,1.2300309338128415]}},{"type":"Feature","id":"pmtiles:10/856/508:mountain_peak:10701671091:0","properties":{"name_int":"Bukii Oyak","name_de":"Bukii Oyak","name":"Bukii Oyak","rank":4,"class":"peak","name:latin":"Bukii Oyak","name_en":"Bukii Oyak","kind":"poi","verification":"verified","source":"OpenMapTiles/OpenStreetMap national PMTiles","sourceId":"10/856/508:mountain_peak:10701671091:0","sourceLayer":"mountain_peak","archive":"https://its.hanifahseptiani45.workers.dev/v1/map/archive/indonesia.pmtiles","updatedAt":"2026-07-26T09:40:47.126Z"},"geometry":{"type":"Point","coordinates":[121.36579513549805,1.2252255185058658]}},{"type":"Feature","id":"pmtiles:10/856/508:mountain_peak:10701698501:0","properties":{"name_int":"Bukii Bogu","name_de":"Bukii Bogu","name":"Bukii Bogu","rank":5,"class":"peak","name:latin":"Bukii Bogu","name_en":"Bukii Bogu","kind":"poi","verification":"verified","source":"OpenMapTiles/OpenStreetMap national PMTiles","sourceId":"10/856/508:mountain_peak:10701698501:0","sourceLayer":"mountain_peak","archive":"https://its.hanifahseptiani45.workers.dev/v1/map/archive/indonesia.pmtiles","updatedAt":"2026-07-26T09:40:47.126Z"},"geometry":{"type":"Point","coordinates":[121.31644248962402,1.2270275502579437]}},{"type":"Feature","id":"pmtiles:10/856/508:mountain_peak:10701553201:0","properties":{"name_int":"Mbukid Ledun","name_de":"Mbukid Ledun","name":"Mbukid Ledun","rank":1,"class":"peak","name:latin":"Mbukid Ledun","name_en":"Mbukid Ledun","kind":"poi","verification":"verified","source":"OpenMapTiles/OpenStreetMap national PMTiles","sourceId":"10/856/508:mountain_peak:10701553201:0","sourceLayer":"mountain_peak","archive":"https://its.hanifahseptiani45.workers.dev/v1/map/archive/indonesia.pmtiles","updatedAt":"2026-07-26T09:40:47.126Z"},"geometry":{"type":"Point","coordinates":[121.37068748474121,1.155717671446638]}},{"type":"Feature","id":"pmtiles:10/856/508:mountain_peak:10701568201:0","properties":{"name_int":"Mbukid Tabodok","name_de":"Mbukid Tabodok","name":"Mbukid Tabodok","rank":2,"class":"peak","name:latin":"Mbukid Tabodok","name_en":"Mbukid Tabodok","kind":"poi","verification":"verified","source":"OpenMapTiles/OpenStreetMap national PMTiles","sourceId":"10/856/508:mountain_peak:10701568201:0","sourceLayer":"mountain_peak","archive":"https://its.hanifahseptiani45.workers.dev/v1/map/archive/indonesia.pmtiles","updatedAt":"2026-07-26T09:40:47.126Z"},"geometry":{"type":"Point","coordinates":[121.32923126220703,1.1129823663479783]}},{"type":"Feature","id":"pmtiles:10/856/508:mountain_peak:10701569991:0","properties":{"name_int":"Bukii Kalamotu","name_de":"Bukii Kalamotu","name":"Bukii Kalamotu","rank":3,"class":"peak","name:latin":"Bukii Kalamotu","name_en":"Bukii Kalamotu","kind":"poi","verification":"verified","source":"OpenMapTiles/OpenStreetMap national PMTiles","sourceId":"10/856/508:mountain_peak:10701569991:0","sourceLayer":"mountain_peak","archive":"https://its.hanifahseptiani45.workers.dev/v1/map/archive/indonesia.pmtiles","updatedAt":"2026-07-26T09:40:47.126Z"},"geometry":{"type":"Point","coordinates":[121.34682655334473,1.1850656425056627]}},{"type":"Feature","id":"pmtiles:10/856/508:mountain_peak:10701614941:0","properties":{"name_int":"Bukii Botumeme","name_de":"Bukii Botumeme","name":"Bukii Botumeme","rank":4,"class":"peak","name:latin":"Bukii Botumeme","name_en":"Bukii Botumeme","kind":"poi","verification":"verified","source":"OpenMapTiles/OpenStreetMap national PMTiles","sourceId":"10/856/508:mountain_peak:10701614941:0","sourceLayer":"mountain_peak","archive":"https://its.hanifahseptiani45.workers.dev/v1/map/archive/indonesia.pmtiles","updatedAt":"2026-07-26T09:40:47.126Z"},"geometry":{"type":"Point","coordinates":[121.36828422546387,1.1756262701637468]}},{"type":"Feature","id":"pmtiles:10/856/508:mountain_peak:10701625081:0","properties":{"name_int":"Bukii Penyesalan","name_de":"Bukii Penyesalan","name":"Bukii Penyesalan","rank":5,"class":"peak","name:latin":"Bukii Penyesalan","name_en":"Bukii Penyesalan","kind":"poi","verification":"verified","source":"OpenMapTiles/OpenStreetMap national PMTiles","sourceId":"10/856/508:mountain_peak:10701625081:0","sourceLayer":"mountain_peak","archive":"https://its.hanifahseptiani45.workers.dev/v1/map/archive/indonesia.pmtiles","updatedAt":"2026-07-26T09:40:47.126Z"},"geometry":{"type":"Point","coordinates":[121.30640029907227,1.1726228268047265]}},{"type":"Feature","id":"pmtiles:10/857/508:landcover:9486907172:0","properties":{"subclass":"wood","class":"wood","kind":"green","verification":"verified","source":"OpenMapTiles/OpenStreetMap national PMTiles","sourceId":"10/857/508:landcover:9486907172:0","sourceLayer":"landcover","archive":"https://its.hanifahseptiani45.workers.dev/v1/map/archive/indonesia.pmtiles","updatedAt":"2026-07-26T09:40:47.193Z"},"geometry":{"type":"Polygon","coordinates":[[[121.29721641540527,1.1184744889292233],[121.2835693359375,1.1305742851537275],[121.2835693359375,1.2159579075296705],[121.28983497619629,1.2112382785857676],[121.29240989685059,1.2107234094758752],[121.29618644714355,1.2126970738657974],[121.30022048950195,1.2114957131040427],[121.30313873291016,1.214241679775867],[121.30279541015625,1.2299451229010003],[121.33601188659668,1.2153572279398759],[121.34588241577148,1.214928171008225],[121.35008811950684,1.2156146620661445],[121.35652542114258,1.2201626609117682],[121.36270523071289,1.2289153917437545],[121.36682510375977,1.2320903948687345],[121.37600898742676,1.2341498543325287],[121.38150215148926,1.231403908026877],[121.38999938964844,1.2211065842379014],[121.39918327331543,1.1972509664693405],[121.39094352722168,1.173566766493778],[121.39094352722168,1.1317756806171957],[121.38768196105957,1.1320331224375053],[121.376953125,1.1460207601751193],[121.36519432067871,1.1490242317905626],[121.36176109313965,1.146707268250907],[121.3546371459961,1.1343500977909997],[121.33901596069336,1.1205340322500632],[121.3373851776123,1.1207914750634131],[121.33420944213867,1.1246531145449836],[121.33283615112305,1.1345217255212106],[121.33463859558105,1.149453298906593],[121.33669853210449,1.1520277002481691],[121.34888648986816,1.1570906827626288],[121.35120391845703,1.162067843206401],[121.34957313537598,1.1708207592419058],[121.34021759033203,1.171936325012723],[121.33626937866211,1.1685038135307053],[121.33214950561523,1.1605232081434025],[121.31790161132812,1.1508263132445933],[121.31446838378906,1.1402712485900253],[121.32596969604492,1.119418446464195],[121.33378028869629,1.1102363012188334],[121.33515357971191,1.104744163314919],[121.3263988494873,1.1031136829181065],[121.32339477539062,1.0980506065234295],[121.31695747375488,1.0953045276013],[121.28897666931152,1.091614480088353],[121.28554344177246,1.0946180074773366],[121.28442764282227,1.1010541274557823],[121.28511428833008,1.1031136829181065],[121.29610061645508,1.1109228177404873],[121.29721641540527,1.1184744889292233]]]}},{"type":"Feature","id":"pmtiles:10/857/508:landuse:1509350820:0","properties":{"class":"residential","kind":"green","verification":"verified","source":"OpenMapTiles/OpenStreetMap national PMTiles","sourceId":"10/857/508:landuse:1509350820:0","sourceLayer":"landuse","archive":"https://its.hanifahseptiani45.workers.dev/v1/map/archive/indonesia.pmtiles","updatedAt":"2026-07-26T09:40:47.193Z"},"geometry":{"type":"Polygon","coordinates":[[[121.40836715698242,1.251912625732004],[121.40819549560547,1.2527707275970101],[121.40690803527832,1.2527707275970101],[121.40570640563965,1.2540578798674886],[121.40459060668945,1.2574902828257137],[121.40047073364258,1.2590348626850698],[121.40055656433105,1.2595497224348833],[121.40424728393555,1.2598929622115804],[121.40356063842773,1.2584341928484548],[121.40484809875488,1.2574902828257137],[121.40562057495117,1.2554308415916182],[121.40639305114746,1.2555166516754497],[121.40613555908203,1.2550017911302405],[121.40682220458984,1.2539720697358092],[121.40802383422852,1.2536288291809683],[121.40768051147461,1.255087601228169],[121.40802383422852,1.2559457020523297],[121.40810966491699,1.255087601228169],[121.40931129455566,1.2553450315049872],[121.409912109375,1.2543153102456586],[121.40922546386719,1.2550017911302405],[121.40862464904785,1.2546585507104737],[121.40922546386719,1.2536288291809683],[121.4113712310791,1.2541436899963543],[121.4095687866211,1.2533713987352968],[121.40999794006348,1.251483574694177],[121.41162872314453,1.2508829031232978],[121.41386032104492,1.250797092887666],[121.41351699829102,1.2502822314149284],[121.41197204589844,1.2502822314149284],[121.40836715698242,1.251912625732004]]]}},{"type":"Feature","id":"pmtiles:10/857/508:landuse:1509350820:1","properties":{"class":"residential","kind":"green","verification":"verified","source":"OpenMapTiles/OpenStreetMap national PMTiles","sourceId":"10/857/508:landuse:1509350820:1","sourceLayer":"landuse","archive":"https://its.hanifahseptiani45.workers.dev/v1/map/archive/indonesia.pmtiles","updatedAt":"2026-07-26T09:40:47.193Z"},"geometry":{"type":"Polygon","coordinates":[[[121.41497611999512,1.2465065775321449],[121.4154052734375,1.2482227845146099],[121.41772270202637,1.2478795432076737],[121.41720771789551,1.246592387907853],[121.41592025756836,1.2460775256117103],[121.41497611999512,1.2465065775321449]]]}},{"type":"Feature","id":"pmtiles:10/857/508:landuse:1509350820:2","properties":{"class":"residential","kind":"green","verification":"verified","source":"OpenMapTiles/OpenStreetMap national PMTiles","sourceId":"10/857/508:landuse:1509350820:2","sourceLayer":"landuse","archive":"https://its.hanifahseptiani45.workers.dev/v1/map/archive/indonesia.pmtiles","updatedAt":"2026-07-26T09:40:47.193Z"},"geometry":{"type":"Polygon","coordinates":[[[121.40939712524414,1.2652131729600171],[121.41077041625977,1.2672726064521243],[121.41128540039062,1.2671009870569492],[121.41119956970215,1.2660712704472274],[121.41171455383301,1.265728031486404],[121.41111373901367,1.2647841241099655],[121.40939712524414,1.2652131729600171]]]}},{"type":"Feature","id":"pmtiles:10/857/508:landuse:1509350820:3","properties":{"class":"residential","kind":"green","verification":"verified","source":"OpenMapTiles/OpenStreetMap national PMTiles","sourceId":"10/857/508:landuse:1509350820:3","sourceLayer":"landuse","archive":"https://its.hanifahseptiani45.workers.dev/v1/map/archive/indonesia.pmtiles","updatedAt":"2026-07-26T09:40:47.193Z"},"geometry":{"type":"Polygon","coordinates":[[[121.32081985473633,1.250797092887666],[121.32064819335938,1.252684917423153],[121.3191032409668,1.2532855885811358],[121.3209056854248,1.2530281581017277],[121.3209056854248,1.2539720697358092],[121.31901741027832,1.2538004494640091],[121.31901741027832,1.2542295001224204],[121.32245063781738,1.2539720697358092],[121.32184982299805,1.2525132970670114],[121.32193565368652,1.2510545235861628],[121.32081985473633,1.250797092887666]]]}},{"type":"Feature","id":"pmtiles:10/857/508:landuse:1509350820:4","properties":{"class":"residential","kind":"green","verification":"verified","source":"OpenMapTiles/OpenStreetMap national PMTiles","sourceId":"10/857/508:landuse:1509350820:4","sourceLayer":"landuse","archive":"https://its.hanifahseptiani45.workers.dev/v1/map/archive/indonesia.pmtiles","updatedAt":"2026-07-26T09:40:47.193Z"},"geometry":{"type":"Polygon","coordinates":[[[121.29000663757324,1.2366383657232802],[121.2894058227539,1.2371532298578103],[121.29137992858887,1.2380971471782516],[121.29386901855469,1.2404140337212226],[121.29429817199707,1.2400707913983382],[121.29086494445801,1.2371532298578103],[121.29120826721191,1.2365525550244882],[121.2901782989502,1.2360376907734292],[121.29000663757324,1.2366383657232802]]]}},{"type":"Feature","id":"pmtiles:10/857/508:landuse:1509350820:6","properties":{"class":"residential","kind":"green","verification":"verified","source":"OpenMapTiles/OpenStreetMap national PMTiles","sourceId":"10/857/508:landuse:1509350820:6","sourceLayer":"landuse","archive":"https://its.hanifahseptiani45.workers.dev/v1/map/archive/indonesia.pmtiles","updatedAt":"2026-07-26T09:40:47.193Z"},"geometry":{"type":"Polygon","coordinates":[[[121.48990631103516,1.1022555349818788],[121.48956298828125,1.10285623856322],[121.48853302001953,1.1021697201746576],[121.48638725280762,1.1058597546499271],[121.48690223693848,1.1062030134378915],[121.48458480834961,1.1071469749000329],[121.48475646972656,1.107747677492199],[121.4864730834961,1.1071469749000329],[121.48604393005371,1.107747677492199],[121.48655891418457,1.1081767506977513],[121.48896217346191,1.1048299780478743],[121.48990631103516,1.104744163314919],[121.49102210998535,1.1023413497866414],[121.49024963378906,1.1018264609210178],[121.48990631103516,1.1022555349818788]]]}},{"type":"Feature","id":"pmtiles:10/857/508:landuse:1509350820:7","properties":{"class":"residential","kind":"green","verification":"verified","source":"OpenMapTiles/OpenStreetMap national PMTiles","sourceId":"10/857/508:landuse:1509350820:7","sourceLayer":"landuse","archive":"https://its.hanifahseptiani45.workers.dev/v1/map/archive/indonesia.pmtiles","updatedAt":"2026-07-26T09:40:47.193Z"},"geometry":{"type":"Polygon","coordinates":[[[121.4798641204834,1.1133256243094678],[121.47849082946777,1.114870284641455],[121.4769458770752,1.1153851712387564],[121.4769458770752,1.116243315367356],[121.47025108337402,1.1215638033676356],[121.46939277648926,1.1208772893294991],[121.46853446960449,1.122164503018908],[121.4688777923584,1.1225077599071085],[121.46784782409668,1.1228510167550354],[121.46647453308105,1.124567300389728],[121.46527290344238,1.1254254418287388],[121.46458625793457,1.1243956720716568],[121.46407127380371,1.1249105569956157],[121.46484375,1.125940326570955],[121.45188331604004,1.1353798640194839],[121.45248413085938,1.1361521884501542],[121.45317077636719,1.1356373055193103],[121.45359992980957,1.136238002263056],[121.45265579223633,1.1373535815985605],[121.45334243774414,1.1378684642233594],[121.45428657531738,1.1370103264643063],[121.4549732208252,1.1376968366919726],[121.48003578186035,1.1143553979541139],[121.48055076599121,1.1136688822310106],[121.4798641204834,1.1133256243094678]]]}},{"type":"Feature","id":"pmtiles:10/857/508:landuse:1509350820:8","properties":{"class":"residential","kind":"green","verification":"verified","source":"OpenMapTiles/OpenStreetMap national PMTiles","sourceId":"10/857/508:landuse:1509350820:8","sourceLayer":"landuse","archive":"https://its.hanifahseptiani45.workers.dev/v1/map/archive/indonesia.pmtiles","updatedAt":"2026-07-26T09:40:47.193Z"},"geometry":{"type":"Polygon","coordinates":[[[121.56569480895996,1.0600343549490248],[121.56423568725586,1.0598627229454962],[121.56320571899414,1.057974770279202],[121.56286239624023,1.0588329307246056],[121.56380653381348,1.0596910909324464],[121.56389236450195,1.0613215946721937],[121.56535148620605,1.0613215946721937],[121.56543731689453,1.0607208828680257],[121.56449317932129,1.0608066988471876],[121.56457901000977,1.0602059869430462],[121.56569480895996,1.0600343549490248]]]}},{"type":"Feature","id":"pmtiles:10/857/508:mountain_peak:10701553931:0","properties":{"name_int":"Bukii Ondor","name_de":"Bukii Ondor","name":"Bukii Ondor","rank":1,"class":"peak","name:latin":"Bukii Ondor","name_en":"Bukii Ondor","kind":"poi","verification":"verified","source":"OpenMapTiles/OpenStreetMap national PMTiles","sourceId":"10/857/508:mountain_peak:10701553931:0","sourceLayer":"mountain_peak","archive":"https://its.hanifahseptiani45.workers.dev/v1/map/archive/indonesia.pmtiles","updatedAt":"2026-07-26T09:40:47.193Z"},"geometry":{"type":"Point","coordinates":[121.38733863830566,1.2530281581017277]}},{"type":"Feature","id":"pmtiles:10/857/508:mountain_peak:10701612381:0","properties":{"name_int":"Bukii Kepaatan","name_de":"Bukii Kepaatan","name":"Bukii Kepaatan","rank":2,"class":"peak","name:latin":"Bukii Kepaatan","name_en":"Bukii Kepaatan","kind":"poi","verification":"verified","source":"OpenMapTiles/OpenStreetMap national PMTiles","sourceId":"10/857/508:mountain_peak:10701612381:0","sourceLayer":"mountain_peak","archive":"https://its.hanifahseptiani45.workers.dev/v1/map/archive/indonesia.pmtiles","updatedAt":"2026-07-26T09:40:47.193Z"},"geometry":{"type":"Point","coordinates":[121.38270378112793,1.2266843062082273]}},{"type":"Feature","id":"pmtiles:10/857/508:mountain_peak:10701627651:0","properties":{"name_int":"Bukii Poongan","name_de":"Bukii Poongan","name":"Bukii Poongan","rank":3,"class":"peak","name:latin":"Bukii Poongan","name_en":"Bukii Poongan","kind":"poi","verification":"verified","source":"OpenMapTiles/OpenStreetMap national PMTiles","sourceId":"10/857/508:mountain_peak:10701627651:0","sourceLayer":"mountain_peak","archive":"https://its.hanifahseptiani45.workers.dev/v1/map/archive/indonesia.pmtiles","updatedAt":"2026-07-26T09:40:47.193Z"},"geometry":{"type":"Point","coordinates":[121.34382247924805,1.2300309338128415]}},{"type":"Feature","id":"pmtiles:10/857/508:mountain_peak:10701671091:0","properties":{"name_int":"Bukii Oyak","name_de":"Bukii Oyak","name":"Bukii Oyak","rank":4,"class":"peak","name:latin":"Bukii Oyak","name_en":"Bukii Oyak","kind":"poi","verification":"verified","source":"OpenMapTiles/OpenStreetMap national PMTiles","sourceId":"10/857/508:mountain_peak:10701671091:0","sourceLayer":"mountain_peak","archive":"https://its.hanifahseptiani45.workers.dev/v1/map/archive/indonesia.pmtiles","updatedAt":"2026-07-26T09:40:47.193Z"},"geometry":{"type":"Point","coordinates":[121.36579513549805,1.2252255185058658]}},{"type":"Feature","id":"pmtiles:10/857/508:mountain_peak:10701698501:0","properties":{"name_int":"Bukii Bogu","name_de":"Bukii Bogu","name":"Bukii Bogu","rank":5,"class":"peak","name:latin":"Bukii Bogu","name_en":"Bukii Bogu","kind":"poi","verification":"verified","source":"OpenMapTiles/OpenStreetMap national PMTiles","sourceId":"10/857/508:mountain_peak:10701698501:0","sourceLayer":"mountain_peak","archive":"https://its.hanifahseptiani45.workers.dev/v1/map/archive/indonesia.pmtiles","updatedAt":"2026-07-26T09:40:47.193Z"},"geometry":{"type":"Point","coordinates":[121.31644248962402,1.2270275502579437]}},{"type":"Feature","id":"pmtiles:10/857/508:mountain_peak:10701553201:0","properties":{"name_int":"Mbukid Ledun","name_de":"Mbukid Ledun","name":"Mbukid Ledun","rank":1,"class":"peak","name:latin":"Mbukid Ledun","name_en":"Mbukid Ledun","kind":"poi","verification":"verified","source":"OpenMapTiles/OpenStreetMap national PMTiles","sourceId":"10/857/508:mountain_peak:10701553201:0","sourceLayer":"mountain_peak","archive":"https://its.hanifahseptiani45.workers.dev/v1/map/archive/indonesia.pmtiles","updatedAt":"2026-07-26T09:40:47.193Z"},"geometry":{"type":"Point","coordinates":[121.37068748474121,1.155717671446638]}},{"type":"Feature","id":"pmtiles:10/857/508:mountain_peak:10701568201:0","properties":{"name_int":"Mbukid Tabodok","name_de":"Mbukid Tabodok","name":"Mbukid Tabodok","rank":2,"class":"peak","name:latin":"Mbukid Tabodok","name_en":"Mbukid Tabodok","kind":"poi","verification":"verified","source":"OpenMapTiles/OpenStreetMap national PMTiles","sourceId":"10/857/508:mountain_peak:10701568201:0","sourceLayer":"mountain_peak","archive":"https://its.hanifahseptiani45.workers.dev/v1/map/archive/indonesia.pmtiles","updatedAt":"2026-07-26T09:40:47.193Z"},"geometry":{"type":"Point","coordinates":[121.32923126220703,1.1129823663479783]}},{"type":"Feature","id":"pmtiles:10/857/508:mountain_peak:10701569991:0","properties":{"name_int":"Bukii Kalamotu","name_de":"Bukii Kalamotu","name":"Bukii Kalamotu","rank":3,"class":"peak","name:latin":"Bukii Kalamotu","name_en":"Bukii Kalamotu","kind":"poi","verification":"verified","source":"OpenMapTiles/OpenStreetMap national PMTiles","sourceId":"10/857/508:mountain_peak:10701569991:0","sourceLayer":"mountain_peak","archive":"https://its.hanifahseptiani45.workers.dev/v1/map/archive/indonesia.pmtiles","updatedAt":"2026-07-26T09:40:47.193Z"},"geometry":{"type":"Point","coordinates":[121.34682655334473,1.1850656425056627]}},{"type":"Feature","id":"pmtiles:10/857/508:mountain_peak:10701614941:0","properties":{"name_int":"Bukii Botumeme","name_de":"Bukii Botumeme","name":"Bukii Botumeme","rank":4,"class":"peak","name:latin":"Bukii Botumeme","name_en":"Bukii Botumeme","kind":"poi","verification":"verified","source":"OpenMapTiles/OpenStreetMap national PMTiles","sourceId":"10/857/508:mountain_peak:10701614941:0","sourceLayer":"mountain_peak","archive":"https://its.hanifahseptiani45.workers.dev/v1/map/archive/indonesia.pmtiles","updatedAt":"2026-07-26T09:40:47.193Z"},"geometry":{"type":"Point","coordinates":[121.36828422546387,1.1756262701637468]}},{"type":"Feature","id":"pmtiles:10/857/508:mountain_peak:10701625081:0","properties":{"name_int":"Bukii Penyesalan","name_de":"Bukii Penyesalan","name":"Bukii Penyesalan","rank":5,"class":"peak","name:latin":"Bukii Penyesalan","name_en":"Bukii Penyesalan","kind":"poi","verification":"verified","source":"OpenMapTiles/OpenStreetMap national PMTiles","sourceId":"10/857/508:mountain_peak:10701625081:0","sourceLayer":"mountain_peak","archive":"https://its.hanifahseptiani45.workers.dev/v1/map/archive/indonesia.pmtiles","updatedAt":"2026-07-26T09:40:47.193Z"},"geometry":{"type":"Point","coordinates":[121.30640029907227,1.1726228268047265]}},{"type":"Feature","id":"pmtiles:10/857/508:mountain_peak:10701659171:0","properties":{"name_int":"Bukii Papad","name_de":"Bukii Papad","name":"Bukii Papad","rank":1,"class":"peak","name:latin":"Bukii Papad","name_en":"Bukii Papad","kind":"poi","verification":"verified","source":"OpenMapTiles/OpenStreetMap national PMTiles","sourceId":"10/857/508:mountain_peak:10701659171:0","sourceLayer":"mountain_peak","archive":"https://its.hanifahseptiani45.workers.dev/v1/map/archive/indonesia.pmtiles","updatedAt":"2026-07-26T09:40:47.194Z"},"geometry":{"type":"Point","coordinates":[121.45377159118652,1.3033124251201968]}},{"type":"Feature","id":"pmtiles:10/857/508:mountain_peak:10701689131:0","properties":{"name_int":"Bukii Pomadokan","name_de":"Bukii Pomadokan","name":"Bukii Pomadokan","rank":2,"class":"peak","name:latin":"Bukii Pomadokan","name_en":"Bukii Pomadokan","kind":"poi","verification":"verified","source":"OpenMapTiles/OpenStreetMap national PMTiles","sourceId":"10/857/508:mountain_peak:10701689131:0","sourceLayer":"mountain_peak","archive":"https://its.hanifahseptiani45.workers.dev/v1/map/archive/indonesia.pmtiles","updatedAt":"2026-07-26T09:40:47.194Z"},"geometry":{"type":"Point","coordinates":[121.45771980285645,1.2703617536190706]}},{"type":"Feature","id":"pmtiles:10/857/508:mountain_peak:10701859891:0","properties":{"name_int":"Bukii Poongan","name_de":"Bukii Poongan","name":"Bukii Poongan","rank":3,"class":"peak","name:latin":"Bukii Poongan","name_en":"Bukii Poongan","kind":"poi","verification":"verified","source":"OpenMapTiles/OpenStreetMap national PMTiles","sourceId":"10/857/508:mountain_peak:10701859891:0","sourceLayer":"mountain_peak","archive":"https://its.hanifahseptiani45.workers.dev/v1/map/archive/indonesia.pmtiles","updatedAt":"2026-07-26T09:40:47.194Z"},"geometry":{"type":"Point","coordinates":[121.44699096679688,1.3011672121135973]}},{"type":"Feature","id":"pmtiles:10/857/508:mountain_peak:10701863371:0","properties":{"name_int":"Mbukid Sambaragading","name_de":"Mbukid Sambaragading","name":"Mbukid Sambaragading","rank":5,"class":"peak","name:latin":"Mbukid Sambaragading","name_en":"Mbukid Sambaragading","kind":"poi","verification":"verified","source":"OpenMapTiles/OpenStreetMap national PMTiles","sourceId":"10/857/508:mountain_peak:10701863371:0","sourceLayer":"mountain_peak","archive":"https://its.hanifahseptiani45.workers.dev/v1/map/archive/indonesia.pmtiles","updatedAt":"2026-07-26T09:40:47.194Z"},"geometry":{"type":"Point","coordinates":[121.47686004638672,1.0596910909324464]}},{"type":"Feature","id":"pmtiles:10/857/508:transportation:7658949350:0","properties":{"class":"trunk","ramp":1,"highway":"trunk","kind":"road","verification":"verified","source":"OpenMapTiles/OpenStreetMap national PMTiles","sourceId":"10/857/508:transportation:7658949350:0","sourceLayer":"transportation","archive":"https://its.hanifahseptiani45.workers.dev/v1/map/archive/indonesia.pmtiles","updatedAt":"2026-07-26T09:40:47.194Z"},"geometry":{"type":"LineString","coordinates":[[121.42261505126953,1.1801743353827163],[121.42270088195801,1.1801743353827163]]}},{"type":"Feature","id":"pmtiles:10/857/508:transportation:7658949350:1","properties":{"class":"trunk","ramp":1,"highway":"trunk","kind":"road","verification":"verified","source":"OpenMapTiles/OpenStreetMap national PMTiles","sourceId":"10/857/508:transportation:7658949350:1","sourceLayer":"transportation","archive":"https://its.hanifahseptiani45.workers.dev/v1/map/archive/indonesia.pmtiles","updatedAt":"2026-07-26T09:40:47.194Z"},"geometry":{"type":"LineString","coordinates":[[121.42458915710449,1.176055333237187],[121.42467498779297,1.176141145843971]]}},{"type":"Feature","id":"pmtiles:10/857/508:transportation:7658949350:2","properties":{"class":"trunk","ramp":1,"highway":"trunk","kind":"road","verification":"verified","source":"OpenMapTiles/OpenStreetMap national PMTiles","sourceId":"10/857/508:transportation:7658949350:2","sourceLayer":"transportation","archive":"https://its.hanifahseptiani45.workers.dev/v1/map/archive/indonesia.pmtiles","updatedAt":"2026-07-26T09:40:47.194Z"},"geometry":{"type":"LineString","coordinates":[[121.4275074005127,1.1695335674162806],[121.42759323120117,1.1696193802230397]]}},{"type":"Feature","id":"pmtiles:10/857/508:transportation:7658949350:3","properties":{"class":"trunk","ramp":1,"highway":"trunk","kind":"road","verification":"verified","source":"OpenMapTiles/OpenStreetMap national PMTiles","sourceId":"10/857/508:transportation:7658949350:3","sourceLayer":"transportation","archive":"https://its.hanifahseptiani45.workers.dev/v1/map/archive/indonesia.pmtiles","updatedAt":"2026-07-26T09:40:47.194Z"},"geometry":{"type":"LineString","coordinates":[[121.42870903015137,1.1669591819946419],[121.42879486083984,1.1670449948800155]]}},{"type":"Feature","id":"pmtiles:10/857/508:transportation:1507927090:0","properties":{"class":"trunk","highway":"trunk","kind":"road","verification":"verified","source":"OpenMapTiles/OpenStreetMap national PMTiles","sourceId":"10/857/508:transportation:1507927090:0","sourceLayer":"transportation","archive":"https://its.hanifahseptiani45.workers.dev/v1/map/archive/indonesia.pmtiles","updatedAt":"2026-07-26T09:40:47.194Z"},"geometry":{"type":"LineString","coordinates":[[121.2835693359375,1.238268768473148],[121.28511428833008,1.2381829578270924],[121.29009246826172,1.2368957978030295],[121.29180908203125,1.2379255258722566],[121.29438400268555,1.2403282231446724],[121.29481315612793,1.242301865700938],[121.29464149475098,1.2430741602130837],[121.29627227783203,1.245562663214912],[121.29652976989746,1.246592387907853],[121.29738807678223,1.246764008650871],[121.2974739074707,1.2474504915110316],[121.29824638366699,1.2479653535386177],[121.29987716674805,1.2477937328739444],[121.30107879638672,1.248136974192093],[121.3015079498291,1.2490808875859045],[121.3003921508789,1.2511403338133817],[121.29987716674805,1.2515693849073557],[121.29996299743652,1.2517410053253002],[121.3015079498291,1.2515693849073557],[121.30236625671387,1.251912625732004],[121.30356788635254,1.2513977644781846],[121.30468368530273,1.2516551951177348],[121.30562782287598,1.252684917423153],[121.30648612976074,1.2525991072464961],[121.30691528320312,1.2539720697358092],[121.30743026733398,1.2542295001224204],[121.30751609802246,1.2549159810295265],[121.30803108215332,1.2549159810295265],[121.30828857421875,1.2553450315049872],[121.30888938903809,1.2551734113232556],[121.30974769592285,1.2557740819100331],[121.31034851074219,1.2554308415916182],[121.31043434143066,1.2546585507104737],[121.31077766418457,1.2544869304836936],[121.31146430969238,1.2546585507104737],[121.31283760070801,1.2556024617564674],[121.31386756896973,1.2556024617564674],[121.31730079650879,1.2536288291809683],[121.31841659545898,1.2539720697358092],[121.32013320922852,1.2530281581017277],[121.32365226745605,1.2529423479362833],[121.32408142089844,1.25311396826433],[121.3249397277832,1.2546585507104737],[121.32596969604492,1.2535430190352201],[121.3271713256836,1.2537146393239027],[121.32760047912598,1.2527707275970101],[121.32742881774902,1.2521700563209919],[121.32828712463379,1.2522558665117316],[121.3286304473877,1.251912625732004],[121.33352279663086,1.2523416766996291],[121.3355827331543,1.2532855885811358],[121.33635520935059,1.2527707275970101],[121.3370418548584,1.252684917423153],[121.3381576538086,1.252084246127481],[121.3388442993164,1.2522558665117316],[121.33935928344727,1.250196421159643],[121.34081840515137,1.2482227845146099],[121.34339332580566,1.2474504915110316],[121.34502410888672,1.2447045589967445],[121.34897232055664,1.2429883497228786],[121.35429382324219,1.2427309182355657],[121.35764122009277,1.2435890230956943],[121.36141777038574,1.2485660257767535],[121.36467933654785,1.2519984359311565],[121.36639595031738,1.2530281581017277],[121.3688850402832,1.2532855885811358],[121.36965751647949,1.2537146393239027],[121.37154579162598,1.253886259601316],[121.37721061706543,1.2559457020523297],[121.37772560119629,1.2564605624116183],[121.38004302978516,1.257747712865779],[121.3821029663086,1.2597213423288878],[121.38373374938965,1.2602362019430728],[121.38622283935547,1.260579441629318],[121.38802528381348,1.2612659208660517],[121.38914108276367,1.2614375406469378],[121.39266014099121,1.2601503920144381],[121.3934326171875,1.2594639124836533],[121.39506340026855,1.2591206726504538],[121.39643669128418,1.2585200028335777],[121.39823913574219,1.2586916227953822],[121.4003849029541,1.2592922925726953],[121.40201568603516,1.2588632427458748],[121.40433311462402,1.2575760928418873],[121.40484809875488,1.256975422669413],[121.40519142150879,1.2556024617564674],[121.40673637390137,1.2533713987352968],[121.40853881835938,1.25311396826433],[121.40982627868652,1.2512261440377728],[121.41111373901367,1.250625472407961],[121.41368865966797,1.250625472407961],[121.4124870300293,1.2468498190181663],[121.41317367553711,1.2461633360013877],[121.41351699829102,1.2468498190181663],[121.41454696655273,1.2469356293826905],[121.41489028930664,1.247536301855959],[121.41454696655273,1.248051163866748],[121.41489028930664,1.2484802154654062],[121.41557693481445,1.2479653535386177],[121.4154052734375,1.247021439744401],[121.41609191894531,1.2465065775321449],[121.41669273376465,1.2446187485595601],[121.4165210723877,1.2435890230956943],[121.41600608825684,1.2426451077342335],[121.41489028930664,1.2421302446675924],[121.41420364379883,1.2421302446675924],[121.41317367553711,1.2407572759995986],[121.4124870300293,1.2404140337212226],[121.41077041625977,1.2381829578270924],[121.41119956970215,1.2374106618876084],[121.41265869140625,1.236295122911443],[121.41231536865234,1.2341498543325287],[121.41180038452148,1.2332059356094192],[121.41197204589844,1.2274566052581406],[121.4110279083252,1.2248822742251235],[121.41188621520996,1.224367407721573],[121.41222953796387,1.2231660521621706],[121.41162872314453,1.2205917170101799],[121.41180038452148,1.219218737254451],[121.4124870300293,1.2193903597622153],[121.41420364379883,1.2193045485096974],[121.41497611999512,1.2195619822590373],[121.41549110412598,1.2188754922060525],[121.41497611999512,1.217073454984586],[121.4142894744873,1.2156146620661445],[121.41489028930664,1.2144991140084471],[121.41471862792969,1.2135551883691846],[121.4154052734375,1.2123538279882524],[121.41523361206055,1.2114099016006747],[121.41549110412598,1.210294351809594],[121.41463279724121,1.2065186414220221],[121.4150619506836,1.2059179597404182],[121.4157485961914,1.2022280550762048],[121.4154052734375,1.2004260067989065],[121.41480445861816,1.1988813930444309],[121.41489028930664,1.197937461987621],[121.41420364379883,1.1966502827498005],[121.41471862792969,1.1961354108855176],[121.41480445861816,1.1951914788834301],[121.41669273376465,1.194247546556909],[121.41703605651855,1.1933036139061954],[121.41858100891113,1.1933036139061954],[121.41969680786133,1.1925313051328459],[121.41892433166504,1.1914157476332434],[121.41875267028809,1.1884123213518194],[121.41918182373047,1.1859237656726833],[121.41969680786133,1.1848940178403637],[121.42038345336914,1.1842075190727854],[121.42261505126953,1.1804317728144866],[121.42939567565918,1.1657578013245313],[121.43308639526367,1.1616387779958046]]}},{"type":"Feature","id":"pmtiles:10/857/508:transportation:1507927090:1","properties":{"class":"trunk","highway":"trunk","kind":"road","verification":"verified","source":"OpenMapTiles/OpenStreetMap national PMTiles","sourceId":"10/857/508:transportation:1507927090:1","sourceLayer":"transportation","archive":"https://its.hanifahseptiani45.workers.dev/v1/map/archive/indonesia.pmtiles","updatedAt":"2026-07-26T09:40:47.194Z"},"geometry":{"type":"LineString","coordinates":[[121.56526565551758,1.0491357039128246],[121.56449317932129,1.0535123321411248],[121.56380653381348,1.0561726325714602],[121.56294822692871,1.0583180344858647],[121.56389236450195,1.0596910909324464],[121.56380653381348,1.0609783307983633],[121.56105995178223,1.0620081223055138],[121.55917167663574,1.0612357787073137],[121.55496597290039,1.06226557012873],[121.55256271362305,1.0633811771146213],[121.54998779296875,1.0650116789070694],[121.5432071685791,1.0701606262666843],[121.54088973999023,1.0710187833207385],[121.5391731262207,1.0720485714684003],[121.5336799621582,1.076167720592224],[121.53136253356934,1.077540769065024],[121.52981758117676,1.0793428942462384],[121.5212345123291,1.083290402813816],[121.51883125305176,1.0836336641856263],[121.51488304138184,1.0849208939833375],[121.5102481842041,1.0848350786804986],[121.50578498840332,1.0870662757621403],[121.50449752807617,1.0880102432621044],[121.50140762329102,1.0914428498611386],[121.49685859680176,1.0953045276013],[121.4923095703125,1.0998527194454937],[121.48690223693848,1.1068895308946907],[121.48149490356445,1.1080909360616147],[121.48046493530273,1.1090348969223953],[121.47917747497559,1.1098072283118228],[121.47831916809082,1.1122100357885785],[121.47763252258301,1.1132398098228435],[121.47771835327148,1.1154709856628529],[121.47746086120605,1.1160716865616536],[121.47531509399414,1.1176163454521344],[121.46750450134277,1.1248247428479345],[121.45780563354492,1.1328054477612426],[121.4553165435791,1.1352082363402047],[121.45256996154785,1.1383833467562852],[121.44604682922363,1.1400996212017134],[121.44450187683105,1.1411293853779938],[121.43712043762207,1.1515986335192991],[121.43660545349121,1.154258846196143],[121.43686294555664,1.154859539037048],[121.43857955932617,1.1567474299958889],[121.43308639526367,1.1616387779958046],[121.4307689666748,1.1638699163789],[121.4293098449707,1.1657578013245313],[121.42630577087402,1.171936325012723],[121.42450332641602,1.1763127710496093],[121.42038345336914,1.1842075190727854]]}},{"type":"Feature","id":"pmtiles:10/857/508:water:90:0","properties":{"class":"ocean","water":"ocean","kind":"waterway","verification":"verified","source":"OpenMapTiles/OpenStreetMap national PMTiles","sourceId":"10/857/508:water:90:0","sourceLayer":"water","archive":"https://its.hanifahseptiani45.workers.dev/v1/map/archive/indonesia.pmtiles","updatedAt":"2026-07-26T09:40:47.194Z"},"geometry":{"type":"Polygon","coordinates":[[[121.64122581481934,1.0491357039128246],[121.64053916931152,1.049650601669697],[121.63968086242676,1.0499080505163647],[121.63933753967285,1.050422948146064],[121.63693428039551,1.050337131880326],[121.63504600524902,1.0509378456909104],[121.63350105285645,1.0518818243026686],[121.63161277770996,1.0520534567468616],[121.63066864013672,1.0525683540227675],[121.62920951843262,1.0524825378160187],[121.62594795227051,1.0532548835917623],[121.62431716918945,1.054113045340273],[121.62311553955078,1.0544563099734887],[121.6226863861084,1.0547995745688183],[121.62079811096191,1.055314471390858],[121.61805152893066,1.0554861036459187],[121.61710739135742,1.056601713072908],[121.61581993103027,1.0575456899674833],[121.6135025024414,1.0586612986545134],[121.61144256591797,1.0591761948362404],[121.61032676696777,1.0587471146907603],[121.60929679870605,1.0591761948362404],[121.6087818145752,1.0599485389484613],[121.60843849182129,1.0600343549490248],[121.60775184631348,1.0596052749223475],[121.607666015625,1.0591761948362404],[121.60809516906738,1.0584038505315903],[121.6080093383789,1.057717322099279],[121.60826683044434,1.056344264779142],[121.607666015625,1.0545421261258525],[121.60740852355957,1.0546279422758857],[121.60749435424805,1.0552286552597678],[121.60629272460938,1.055314471390858],[121.60483360290527,1.0549712068523007],[121.60165786743164,1.0547995745688183],[121.59590721130371,1.055314471390858],[121.58938407897949,1.0569449774314137],[121.58663749694824,1.0580605863344203],[121.5853500366211,1.0580605863344203],[121.58414840698242,1.0574598738980114],[121.5831184387207,1.0576315060345678],[121.57882690429688,1.0596052749223475],[121.57247543334961,1.0637244407214865],[121.57256126403809,1.0633811771146213],[121.57221794128418,1.063209545296857],[121.57135963439941,1.063466993019901],[121.57110214233398,1.0632953612069258],[121.57127380371094,1.063123729384401],[121.57084465026855,1.0629520975523548],[121.56981468200684,1.0626088338595991],[121.56766891479492,1.0635528089228217],[121.56723976135254,1.063466993019901],[121.56681060791016,1.0626946497863514],[121.56741142272949,1.061750674460896],[121.56672477722168,1.0607208828680257],[121.56586647033691,1.0602059869430462],[121.56560897827148,1.0603776189275607],[121.56457901000977,1.0602059869430462],[121.56449317932129,1.0608066988471876],[121.56569480895996,1.0608066988471876],[121.56535148620605,1.0614074106347005],[121.56294822692871,1.0615790425525518],[121.56183242797852,1.06226557012873],[121.56011581420898,1.0623513860650178],[121.55917167663574,1.061750674460896],[121.5556526184082,1.0626088338595991],[121.55256271362305,1.063981888401571],[121.54955863952637,1.065784021560404],[121.54561042785645,1.0692166532299296],[121.54071807861328,1.0721343871317401],[121.5347957611084,1.0765967983064115],[121.53196334838867,1.078313108559044],[121.52887344360352,1.0808017567060801],[121.52775764465332,1.081402464574154],[121.52629852294922,1.0826896953196012],[121.52423858642578,1.0832045874647918],[121.52209281921387,1.084062740845667],[121.52003288269043,1.0841485561703763],[121.51934623718262,1.0844060021299242],[121.5153980255127,1.0863797537586208],[121.51419639587402,1.0866371995282407],[121.51342391967773,1.0863797537586208],[121.51059150695801,1.0868088300291134],[121.50415420532227,1.091099589377336],[121.49883270263672,1.0953045276013],[121.49308204650879,1.1012257571320134],[121.4882755279541,1.107490233539039],[121.48552894592285,1.1096355991316074],[121.48492813110352,1.109463969941416],[121.48501396179199,1.1088632676973589],[121.48458480834961,1.1086916384623748],[121.48415565490723,1.1086916384623748],[121.48321151733398,1.109463969941416],[121.48235321044922,1.1097214137229656],[121.48261070251465,1.1117809631682292],[121.48106575012207,1.1137546967051435],[121.46038055419922,1.1333203311960318],[121.45428657531738,1.1395847389754579],[121.45179748535156,1.1426740309510706],[121.45051002502441,1.1451626248489788],[121.4483642578125,1.1506546864884655],[121.44767761230469,1.151941886907565],[121.44639015197754,1.1530574601337804],[121.44372940063477,1.1537439665172542],[121.44235610961914,1.1559751111189627],[121.44124031066895,1.1571764959478088],[121.43557548522949,1.160780647379184],[121.4333438873291,1.1626685343917416],[121.43179893493652,1.1643847942167724],[121.42965316772461,1.167645685004345],[121.42021179199219,1.1857521410605614],[121.41969680786133,1.1891846312793177],[121.42012596130371,1.1913299354991693],[121.4212417602539,1.1909866869361707],[121.42167091369629,1.192016432496871],[121.42192840576172,1.1921022446095577],[121.42210006713867,1.1927887414147023],[121.42132759094238,1.1930461776724997],[121.42107009887695,1.1924454930335315],[121.42072677612305,1.1926171172294744],[121.4212417602539,1.194161734511141],[121.4220142364502,1.1945907947131644],[121.42252922058105,1.1945907947131644],[121.42373085021973,1.1959637869092745],[121.42579078674316,1.1970793425629012],[121.42510414123535,1.1951056668671498],[121.4263916015625,1.1957921629223023],[121.42682075500488,1.1957063509248087],[121.42733573913574,1.1950198548481836],[121.42759323120117,1.194333358599991],[121.42793655395508,1.1946766067455314],[121.42819404602051,1.1959637869092745],[121.4289665222168,1.1962212228696103],[121.43051147460938,1.2013699369971533],[121.42965316772461,1.2021422432804485],[121.43102645874023,1.2055747130057028],[121.43136978149414,1.2063470180979436],[121.43205642700195,1.206947699684818],[121.43205642700195,1.2072909462463173],[121.43325805664062,1.2079774392393148],[121.4330005645752,1.2087497436491077],[121.4333438873291,1.209178801559645],[121.43377304077148,1.2090929899829632],[121.43420219421387,1.209178801559645],[121.43394470214844,1.2099511056276953],[121.43360137939453,1.2099511056276953],[121.43360137939453,1.2107234094758752],[121.43394470214844,1.2111524670742568],[121.43403053283691,1.2120963935515476],[121.43377304077148,1.2134693769310871],[121.43282890319824,1.2157862848033574],[121.43291473388672,1.2175025115751623],[121.43342971801758,1.218703869665461],[121.43368721008301,1.2205059057959744],[121.4333438873291,1.222136318397446],[121.43360137939453,1.2230802410302033],[121.43291473388672,1.2236809188963775],[121.43291473388672,1.2247964631480812],[121.43205642700195,1.2265984951889095],[121.43094062805176,1.2273707942636065],[121.42853736877441,1.2282289040850145],[121.42716407775879,1.2281430931152642],[121.42596244812012,1.2288295807960594],[121.4263916015625,1.2296876901489213],[121.42630577087402,1.2303741774326085],[121.42458915710449,1.2309748536609249],[121.42270088195801,1.2307174210082081],[121.42141342163086,1.2308890427794381],[121.42046928405762,1.2315755297539255],[121.41858100891113,1.231403908026877],[121.4168643951416,1.2315755297539255],[121.41489028930664,1.231403908026877],[121.41325950622559,1.2305457992259363],[121.4128303527832,1.2306316101184507],[121.41240119934082,1.2313180971592033],[121.41257286071777,1.2332059356094192],[121.41403198242188,1.2374106618876084],[121.4142894744873,1.237582283226942],[121.41463279724121,1.2374964725586608],[121.41497611999512,1.2379255258722566],[121.41446113586426,1.2384403897569314],[121.41523361206055,1.2381829578270924],[121.41480445861816,1.238612011029602],[121.41557693481445,1.2391268747808937],[121.41557693481445,1.2395559278305228],[121.41677856445312,1.2413579498795713],[121.41823768615723,1.2429025392299025],[121.41995429992676,1.2441038858778768],[121.42175674438477,1.2441896963318015],[121.4238166809082,1.2431599707004892],[121.42733573913574,1.2435032126222438],[121.43162727355957,1.2425592972300876],[121.43325805664062,1.242816728734141],[121.43523216247559,1.2427309182355657],[121.43651962280273,1.2429025392299025],[121.43797874450684,1.2434174021459796],[121.44209861755371,1.2465065775321449],[121.44407272338867,1.247021439744401],[121.44510269165039,1.2474504915110316],[121.4457893371582,1.247536301855959],[121.44639015197754,1.2468498190181663],[121.44750595092773,1.246764008650871],[121.45025253295898,1.2479653535386177],[121.4509391784668,1.248737646391021],[121.45308494567871,1.2496815595690975],[121.45454406738281,1.2501106109015723],[121.45634651184082,1.2501106109015723],[121.45874977111816,1.2497673698411944],[121.45986557006836,1.2499389903769895],[121.4608097076416,1.2507112826492204],[121.46132469177246,1.252084246127481],[121.46106719970703,1.2551734113232556],[121.46158218383789,1.256546372461628],[121.46484375,1.2606652515437986],[121.46587371826172,1.261609160416512],[121.46724700927734,1.2619523999216966],[121.46930694580078,1.2631537378330364],[121.46990776062012,1.2641834556007154],[121.47007942199707,1.2658138412308801],[121.46956443786621,1.268216512922237],[121.46930694580078,1.2708766111213947],[121.46853446960449,1.2731076591115311],[121.46836280822754,1.274223182382812],[121.4674186706543,1.2758535616794262],[121.46724700927734,1.276625846248848],[121.4677619934082,1.2773123212269297],[121.46784782409668,1.2779987960216062],[121.46707534790039,1.2788568892569145],[121.46398544311523,1.280658884117031],[121.4633846282959,1.2816027856811019],[121.46218299865723,1.2823750685201958],[121.46183967590332,1.283662206067504],[121.46218299865723,1.2871803787223257],[121.46278381347656,1.2878668508699178],[121.4645004272461,1.288724940794367],[121.46544456481934,1.2924147241727582],[121.4659595489502,1.2933586213858064],[121.46801948547363,1.2949889884722268],[121.46956443786621,1.296876780630427],[121.46947860717773,1.2974774414764738],[121.4688777923584,1.2977348675096891],[121.46870613098145,1.2984213368035142],[121.46870613098145,1.3010814035553722],[121.46707534790039,1.301338829221308],[121.46570205688477,1.3035698505582616],[121.46467208862305,1.3044279351616552],[121.46244049072266,1.3060582951017778],[121.45806312561035,1.308203503937662],[121.45471572875977,1.3090615869586202],[121.45025253295898,1.3104345191812286],[121.44810676574707,1.3104345191812286],[121.4454460144043,1.3106919438892248],[121.44493103027344,1.3114642178543647],[121.44381523132324,1.3121506834011285],[121.44330024719238,1.3118932588431562],[121.44381523132324,1.3101770944468],[121.44012451171875,1.3084609288747657],[121.43832206726074,1.3083751205653442],[121.43720626831055,1.3094048200847794],[121.43643379211426,1.3086325454848406],[121.4362621307373,1.307774462317127],[121.43523216247559,1.3076028456483755],[121.43454551696777,1.3066589537605324],[121.43385887145996,1.3063157202588371],[121.4333438873291,1.304942785783254],[121.43325805664062,1.3033124251201968],[121.43248558044434,1.3027975741651687],[121.43102645874023,1.3026259571567635],[121.43059730529785,1.301338829221308],[121.4293098449707,1.3003949349844817],[121.42879486083984,1.2983355281519664],[121.42956733703613,1.297134206724749],[121.42973899841309,1.295761267252459],[121.43094062805176,1.2951606059992855],[121.4307689666748,1.293444430205966],[121.42982482910156,1.2924147241727582],[121.42845153808594,1.2917282532519891],[121.42991065979004,1.290012075138904],[121.4293098449707,1.28915398564817],[121.4275074005127,1.288724940794367],[121.4252758026123,1.2888965587445682],[121.42510414123535,1.2885533228325983],[121.42544746398926,1.2876952328503393],[121.42518997192383,1.2873519967765361],[121.4252758026123,1.2864080973353964],[121.42433166503906,1.2843486791611696],[121.42141342163086,1.2823750685201958],[121.41626358032227,1.2793717450604163],[121.41523361206055,1.2783420333501425],[121.4142894744873,1.2791143171715902],[121.41240119934082,1.2779129866823098],[121.41085624694824,1.277741367995091],[121.41059875488281,1.2785994613164462],[121.40999794006348,1.2782562240223143],[121.40931129455566,1.2773123212269297],[121.4095687866211,1.2769690837607897],[121.41016960144043,1.276883274387103],[121.4095687866211,1.275939371087489],[121.40965461730957,1.2752528957429234],[121.41034126281738,1.2743948013047515],[121.41008377075195,1.2737083255483697],[121.41042709350586,1.272506992534744],[121.41016960144043,1.2715630876314776],[121.41059875488281,1.26924622867881],[121.41008377075195,1.2674442258359164],[121.40905380249023,1.2662428899106004],[121.40716552734375,1.2648699338856346],[121.40665054321289,1.26495574365849],[121.40570640563965,1.2643550751889734],[121.4044189453125,1.2625530689467581],[121.40347480773926,1.262209829520856],[121.40270233154297,1.2615233505331247],[121.39557838439941,1.2601503920144381],[121.39248847961426,1.2608368713643046],[121.38957023620605,1.2617807801747603],[121.38802528381348,1.2618665900496495],[121.38725280761719,1.262295639381577],[121.38545036315918,1.2617807801747603],[121.38373374938965,1.261609160416512],[121.3827896118164,1.2611801109713525],[121.38012886047363,1.2585200028335777],[121.3798713684082,1.257833522873483],[121.37832641601562,1.2571470427327966],[121.37557983398438,1.2563747523587807],[121.37429237365723,1.2562031322446643],[121.36931419372559,1.2562031322446643],[121.36871337890625,1.2554308415916182],[121.36167526245117,1.250797092887666],[121.35729789733887,1.2489950772913971],[121.35257720947266,1.248737646391021],[121.34888648986816,1.249338318452672],[121.34536743164062,1.2513119542593927],[121.34476661682129,1.252084246127481],[121.3443374633789,1.25311396826433],[121.34476661682129,1.2534572088866582],[121.34356498718262,1.2553450315049872],[121.34382247924805,1.2560315121192502],[121.34184837341309,1.260579441629318],[121.33858680725098,1.2619523999216966],[121.33729934692383,1.2621240196572927],[121.33669853210449,1.2617807801747603],[121.33661270141602,1.2596355323833137],[121.3355827331543,1.2574044728067122],[121.3341236114502,1.255087601228169],[121.33223533630371,1.2542295001224204],[121.32854461669922,1.2537146393239027],[121.32622718811035,1.2546585507104737],[121.32511138916016,1.2548301709259846],[121.3249397277832,1.2555166516754497],[121.32451057434082,1.2555166516754497],[121.32433891296387,1.2546585507104737],[121.32408142089844,1.254401120366083],[121.32296562194824,1.2541436899963543],[121.3191032409668,1.254401120366083],[121.31730079650879,1.2540578798674886],[121.31558418273926,1.2549159810295265],[121.31472587585449,1.2556882718346571],[121.31472587585449,1.2564605624116183],[121.31378173828125,1.2560315121192502],[121.30974769592285,1.2560315121192502],[121.30897521972656,1.2556882718346571],[121.30837440490723,1.2556882718346571],[121.30794525146484,1.2553450315049872],[121.30751609802246,1.2556882718346571],[121.30734443664551,1.2555166516754497],[121.30717277526855,1.2545727405984906],[121.30614280700684,1.2530281581017277],[121.30468368530273,1.2525132970670114],[121.29996299743652,1.2519984359311565],[121.2997055053711,1.251826815530066],[121.30013465881348,1.2507112826492204],[121.29979133605957,1.2499389903769895],[121.2989330291748,1.2488234566939411],[121.29618644714355,1.246764008650871],[121.2942123413086,1.2427309182355657],[121.29361152648926,1.2419586236230913],[121.29043579101562,1.2400707913983382],[121.2887191772461,1.2393843066190158],[121.28631591796875,1.2388694429177463],[121.2846851348877,1.238612011029602],[121.2835693359375,1.238697821661745],[121.2835693359375,1.4116003389233356],[121.6461181640625,1.4116003389233356],[121.6461181640625,1.0491357039128246],[121.64122581481934,1.0491357039128246]],[[121.36528015136719,1.2717347067304843],[121.36553764343262,1.2720779448942352],[121.36545181274414,1.2723353734870955],[121.36416435241699,1.272421183012355],[121.36201858520508,1.2707908015447913],[121.36141777038574,1.2710482302660182],[121.36098861694336,1.2696752767897266],[121.3615894317627,1.2687313708517678],[121.3630485534668,1.2685597515532834],[121.36390686035156,1.2677874645693805],[121.36416435241699,1.2677874645693805],[121.36433601379395,1.2687313708517678],[121.36425018310547,1.269503657553912],[121.3648509979248,1.2705333727979138],[121.36476516723633,1.2712198493992446],[121.36528015136719,1.2717347067304843]]]}},{"type":"Feature","id":"pmtiles:10/857/508:water:1507940732:0","properties":{"intermittent":0,"class":"river","id":150794073,"water":"river","kind":"waterway","verification":"verified","source":"OpenMapTiles/OpenStreetMap national PMTiles","sourceId":"10/857/508:water:1507940732:0","sourceLayer":"water","archive":"https://its.hanifahseptiani45.workers.dev/v1/map/archive/indonesia.pmtiles","updatedAt":"2026-07-26T09:40:47.194Z"},"geometry":{"type":"Polygon","coordinates":[[[121.43960952758789,1.1520277002481691],[121.43506050109863,1.1515986335192991],[121.4322280883789,1.1507404998678226],[121.43197059631348,1.1514270068096693],[121.43531799316406,1.1531432734407616],[121.43669128417969,1.1533149000469791],[121.43857955932617,1.1540872196468683],[121.43960952758789,1.1520277002481691]]]}},{"type":"Feature","id":"pmtiles:10/857/508:water:1799518942:0","properties":{"intermittent":0,"class":"river","id":179951894,"water":"river","kind":"waterway","verification":"verified","source":"OpenMapTiles/OpenStreetMap national PMTiles","sourceId":"10/857/508:water:1799518942:0","sourceLayer":"water","archive":"https://its.hanifahseptiani45.workers.dev/v1/map/archive/indonesia.pmtiles","updatedAt":"2026-07-26T09:40:47.194Z"},"geometry":{"type":"Polygon","coordinates":[[[121.47806167602539,1.113926325645906],[121.47720336914062,1.1142695834974603],[121.47711753845215,1.115213542382989],[121.47814750671387,1.1150419135172314],[121.47960662841797,1.1138405111767753],[121.48158073425293,1.1098930428982072],[121.4809799194336,1.1090348969223953],[121.4802074432373,1.1096355991316074],[121.47900581359863,1.1125532938399516],[121.47806167602539,1.113926325645906]]]}},{"type":"Feature","id":"pmtiles:10/857/508:water:13017015622:0","properties":{"intermittent":0,"class":"river","id":1301701562,"water":"river","kind":"waterway","verification":"verified","source":"OpenMapTiles/OpenStreetMap national PMTiles","sourceId":"10/857/508:water:13017015622:0","sourceLayer":"water","archive":"https://its.hanifahseptiani45.workers.dev/v1/map/archive/indonesia.pmtiles","updatedAt":"2026-07-26T09:40:47.194Z"},"geometry":{"type":"Polygon","coordinates":[[[121.42596244812012,1.148423537719836],[121.42656326293945,1.1492816720679144],[121.42656326293945,1.1487667914899902],[121.42690658569336,1.1485093511662257],[121.42879486083984,1.1481660973651486],[121.42982482910156,1.1475654031140863],[121.43008232116699,1.147136335714677],[121.43016815185547,1.1462782007228327],[121.42939567565918,1.1454200654738145],[121.42613410949707,1.1449051842010505],[121.42561912536621,1.1447335570895802],[121.42518997192383,1.1442186756935229],[121.42518997192383,1.1431889126242254],[121.42536163330078,1.1427598445696532],[121.42579078674316,1.142159149185602],[121.42707824707031,1.1413010127048722],[121.42759323120117,1.1404428759680911],[121.42776489257812,1.1393272978277906],[121.42759323120117,1.1383833467562852],[121.42656326293945,1.1376968366919726],[121.42544746398926,1.1376968366919726],[121.4249324798584,1.1381259055013118],[121.42407417297363,1.140013807503749],[121.42295837402344,1.1405286896532942],[121.42227172851562,1.1405286896532942],[121.42132759094238,1.139927993803198],[121.42072677612305,1.1389840429284703],[121.42081260681152,1.1378684642233594],[121.4212417602539,1.1372677678188126],[121.42313003540039,1.1360663746347228],[121.42510414123535,1.1342642839220787],[121.42596244812012,1.1338352145393031],[121.42613410949707,1.132977075583014],[121.42561912536621,1.132118936372521],[121.42441749572754,1.1314324248212557],[121.42407417297363,1.1308317270806185],[121.42398834228516,1.1304026571897765],[121.42433166503906,1.1293728891931067],[121.4252758026123,1.128428934875629],[121.42579078674316,1.1275707943211728],[121.42561912536621,1.1269700957825393],[121.42476081848145,1.1265410253219414],[121.4223575592041,1.1268842816954816],[121.42167091369629,1.1267984676058802],[121.4208984375,1.1264552112222361],[121.42064094543457,1.1257686983336441],[121.42098426818848,1.1247389286977238],[121.42330169677734,1.1237091586984178],[121.4238166809082,1.122936830960711],[121.42398834228516,1.1222503172447489],[121.42373085021973,1.1213063606221993],[121.42338752746582,1.1207914750634131],[121.42252922058105,1.1203624036952675],[121.42021179199219,1.1201907751304105],[121.41815185546875,1.1196758893755288],[121.41772270202637,1.1189893748950368],[121.41763687133789,1.1185603032631377],[121.41849517822266,1.1174447167266237],[121.41901016235352,1.1159858721550648],[121.41918182373047,1.1147844701998224],[121.41952514648438,1.113926325645906],[121.42004013061523,1.1136688822310106],[121.42244338989258,1.1131539953337324],[121.42278671264648,1.1129823663479783],[121.42304420471191,1.1122958503051592],[121.42295837402344,1.1117809631682292],[121.42244338989258,1.111094446845982],[121.42098426818848,1.1112660759415007],[121.42064094543457,1.1107511886250165],[121.42081260681152,1.1103221157927408],[121.4220142364502,1.1097214137229656],[121.42244338989258,1.10920652613747],[121.42252922058105,1.1086916384623748],[121.42244338989258,1.1080051214229911],[121.42167091369629,1.1057739399467295],[121.42184257507324,1.1038860158490849],[121.42184257507324,1.1025129793887203],[121.4205551147461,1.1001101640598705],[121.41858100891113,1.0981364214491123],[121.41875267028809,1.097535716917477],[121.41909599304199,1.0970208272229058],[121.42072677612305,1.0961626775350624],[121.42115592956543,1.0953903426057394],[121.42107009887695,1.0947896375230641],[121.42038345336914,1.0942747473564225],[121.41823768615723,1.0942747473564225],[121.41729354858398,1.0937598571013893],[121.41626358032227,1.0918719254107998],[121.41677856445312,1.089898177375673],[121.4165210723877,1.0892116560166585],[121.4157485961914,1.0887825800878517],[121.41420364379883,1.0893832863710742],[121.41240119934082,1.091271219624133],[121.41145706176758,1.091271219624133],[121.41111373901367,1.0907563288543685],[121.41042709350586,1.0903272531456025],[121.40982627868652,1.090498883436453],[121.40939712524414,1.090927959120748],[121.40922546386719,1.0918719254107998],[121.4087963104248,1.0927300763263617],[121.40725135803223,1.092386815989542],[121.40647888183594,1.0926442612458231],[121.40570640563965,1.0938456721500245],[121.40450477600098,1.0947896375230641],[121.40364646911621,1.0948754525422402],[121.40253067016602,1.0944463774218036],[121.40124320983887,1.0943605623903352],[121.39969825744629,1.0947038225014296],[121.3992691040039,1.0946180074773366],[121.39901161193848,1.0941031172812217],[121.39883995056152,1.0929875215532263],[121.39798164367676,1.0921293707111772],[121.39703750610352,1.092386815989542],[121.39549255371094,1.0938456721500245],[121.39369010925293,1.094188932320037],[121.3923168182373,1.095047082573231],[121.39077186584473,1.0941031172812217],[121.39042854309082,1.0941031172812217],[121.3893985748291,1.0946180074773366],[121.38854026794434,1.0944463774218036],[121.3875961303711,1.092901706480049],[121.3868236541748,1.092386815989542],[121.38579368591309,1.092386815989542],[121.38407707214355,1.092901706480049],[121.38304710388184,1.092301000899198],[121.38175964355469,1.0917861103057618],[121.38090133666992,1.0917002951982653],[121.37944221496582,1.0919577405133793],[121.37849807739258,1.0918719254107998],[121.37738227844238,1.091357034743865],[121.37652397155762,1.0902414379965109],[121.37678146362305,1.089554916715727],[121.3780689239502,1.0894691015446227],[121.37849807739258,1.0893832863710742],[121.37901306152344,1.0887825800878517],[121.37909889221191,1.0874953519350896],[121.37798309326172,1.0862081232333622],[121.37798309326172,1.085779046877576],[121.37875556945801,1.0846634480675732],[121.37909889221191,1.0824322492142073],[121.37866973876953,1.0814882799741667],[121.37824058532715,1.0811450183595355],[121.37669563293457,1.0810592029498025],[121.37669563293457,1.0814882799741667],[121.37789726257324,1.0814882799741667],[121.37849807739258,1.0820889877063706],[121.37849807739258,1.08380529485693],[121.37772560119629,1.085006709283718],[121.37746810913086,1.0861223079670737],[121.37772560119629,1.0868946452758905],[121.37832641601562,1.0874095367053798],[121.37866973876953,1.088181873684917],[121.37858390808105,1.088696764894749],[121.37815475463867,1.0889542104666958],[121.37669563293457,1.0890400256524657],[121.37618064880371,1.0894691015446227],[121.37592315673828,1.0900698076909805],[121.37609481811523,1.0906705137175123],[121.37686729431152,1.091614480088353],[121.37824058532715,1.092301000899198],[121.37944221496582,1.0924726310774133],[121.38167381286621,1.092301000899198],[121.38399124145508,1.0935024119407473],[121.38519287109375,1.0934165968822924],[121.38630867004395,1.093073336623931],[121.38708114624023,1.0931591516922055],[121.38862609863281,1.09513289758506],[121.38922691345215,1.0953045276013],[121.39060020446777,1.0947896375230641],[121.39137268066406,1.095047082573231],[121.39205932617188,1.0959052325807477],[121.39248847961426,1.0959052325807477],[121.39403343200684,1.0947896375230641],[121.3960075378418,1.094188932320037],[121.39763832092285,1.0928158914044275],[121.39823913574219,1.0932449667580215],[121.39892578125,1.094961267558972],[121.39961242675781,1.0953045276013],[121.4015007019043,1.094961267558972],[121.40450477600098,1.0954761576077061],[121.40527725219727,1.0953045276013],[121.40570640563965,1.095047082573231],[121.40656471252441,1.0932449667580215],[121.40759468078613,1.093073336623931],[121.40888214111328,1.093330781821379],[121.40931129455566,1.0932449667580215],[121.40982627868652,1.0924726310774133],[121.40974044799805,1.091357034743865],[121.41008377075195,1.091099589377336],[121.41059875488281,1.0911854045019709],[121.4113712310791,1.0918719254107998],[121.4124870300293,1.0918719254107998],[121.41317367553711,1.091357034743865],[121.41411781311035,1.0901556228449607],[121.41549110412598,1.0893832863710742],[121.41583442687988,1.0893832863710742],[121.41634941101074,1.0900698076909805],[121.4157485961914,1.0920435556135146],[121.41703605651855,1.0942747473564225],[121.41823768615723,1.094961267558972],[121.41952514648438,1.0947038225014296],[121.42046928405762,1.0948754525422402],[121.42064094543457,1.0954761576077061],[121.42038345336914,1.0958194175910592],[121.41875267028809,1.0967633823423881],[121.41823768615723,1.0972782720812688],[121.41806602478027,1.0979647915952455],[121.41883850097656,1.099252015258969],[121.42046928405762,1.100710868073648],[121.42107009887695,1.1019980905527973],[121.42141342163086,1.1032853124756485],[121.4212417602539,1.106546272186165],[121.4220142364502,1.1084341945912541],[121.42149925231934,1.1092923407412627],[121.42038345336914,1.1104079303641896],[121.42021179199219,1.1112660759415007],[121.4205551147461,1.1116951486366702],[121.42210006713867,1.1115235195660915],[121.42252922058105,1.111866777697287],[121.42270088195801,1.1124674793308458],[121.42184257507324,1.1129823663479783],[121.41961097717285,1.1132398098228435],[121.41892433166504,1.1138405111767753],[121.41858100891113,1.1145270268598892],[121.41849517822266,1.1155568000844909],[121.41737937927246,1.1178737885216066],[121.41720771789551,1.1189035605736848],[121.41746520996094,1.1195900750742709],[121.4179801940918,1.1200191465555065],[121.42046928405762,1.1208772893294991],[121.42218589782715,1.1209631035930698],[121.42321586608887,1.1217354318520165],[121.42330169677734,1.1227652025468302],[121.42295837402344,1.123280087758232],[121.42021179199219,1.124567300389728],[121.42004013061523,1.1253396276961922],[121.42012596130371,1.1263693971200155],[121.42064094543457,1.1269700957825393],[121.42141342163086,1.1272275380285492],[121.42261505126953,1.1273991661799272],[121.42467498779297,1.1271417239490802],[121.42510414123535,1.1278282365140768],[121.42510414123535,1.128085678684215],[121.42373085021973,1.1293728891931067],[121.42338752746582,1.1304026571897765],[121.42355918884277,1.1312607969080517],[121.42536163330078,1.1327196338465342],[121.42553329467773,1.1336635867683782],[121.42441749572754,1.134178470050614],[121.42278671264648,1.1357231193474888],[121.42064094543457,1.1370961402516997],[121.42029762268066,1.137611022922428],[121.42012596130371,1.1382117192555228],[121.42029762268066,1.1391556703832464],[121.4208984375,1.140013807503749],[121.42167091369629,1.1407003170159982],[121.42261505126953,1.1409577580408694],[121.4234733581543,1.1407861306935132],[121.42424583435059,1.1403570622803443],[121.42518997192383,1.13855497424683],[121.42570495605469,1.1382117192555228],[121.42647743225098,1.1382117192555228],[121.42690658569336,1.1384691605028365],[121.42733573913574,1.1390698566571444],[121.42733573913574,1.139756366394451],[121.42664909362793,1.1410435717107106],[121.42510414123535,1.1420733355490569],[121.42467498779297,1.1426740309510706],[121.42467498779297,1.144132862118525],[121.42553329467773,1.1451626248489788],[121.42888069152832,1.1458491331304401],[121.42982482910156,1.1468788952441429],[121.42870903015137,1.1476512165862545],[121.42699241638184,1.1479944704491487],[121.42596244812012,1.148423537719836]]]}},{"type":"Feature","id":"pmtiles:10/857/508:waterway:3171057170:0","properties":{"name_int":"Buol River","name_de":"Sungai Buol","name":"Sungai Buol","name:en":"Buol River","class":"river","name:latin":"Sungai Buol","name_en":"Buol River","waterway":"river","kind":"waterway","verification":"verified","source":"OpenMapTiles/OpenStreetMap national PMTiles","sourceId":"10/857/508:waterway:3171057170:0","sourceLayer":"waterway","archive":"https://its.hanifahseptiani45.workers.dev/v1/map/archive/indonesia.pmtiles","updatedAt":"2026-07-26T09:40:47.194Z"},"geometry":{"type":"LineString","coordinates":[[121.28348350524902,1.0653549423324478],[121.2839126586914,1.0656123898763923],[121.28511428833008,1.0699889948270567],[121.28605842590332,1.071190414702727],[121.2879467010498,1.0722202027926784],[121.28957748413086,1.0735932530404],[121.29103660583496,1.0732499905362403],[121.29180908203125,1.0710187833207385],[121.29258155822754,1.0705897048237318],[121.29335403442383,1.0707613362297508],[121.29429817199707,1.072649281061274],[121.29532814025879,1.0734216217931163],[121.29618644714355,1.0734216217931163],[121.29678726196289,1.073078359269715],[121.2971305847168,1.07239183410735],[121.2971305847168,1.0717911244639566],[121.29670143127441,1.0707613362297508],[121.29558563232422,1.0691308374849058],[121.29549980163574,1.0685301272026777],[121.29635810852051,1.0675003378741792],[121.29798889160156,1.0667279956514335],[121.2985897064209,1.0665563640200446],[121.29953384399414,1.0675861536647204],[121.30047798156738,1.0694741004505772],[121.30159378051758,1.0699889948270567],[121.30236625671387,1.0698173633778367],[121.30279541015625,1.0692166532299296],[121.30322456359863,1.068186864131519],[121.30348205566406,1.0665563640200446],[121.30382537841797,1.0662989165550272],[121.30691528320312,1.0675003378741792],[121.30897521972656,1.0675861536647204],[121.30966186523438,1.067071258885477],[121.31103515625,1.0647542313129463],[121.31155014038086,1.0644109678206632],[121.31232261657715,1.0646684154434496],[121.31275177001953,1.0650974947670022],[121.31292343139648,1.0659556532348375],[121.31258010864258,1.0666421798369328],[121.31146430969238,1.0678436010220054],[121.3113784790039,1.0685301272026777],[121.31180763244629,1.0694741004505772],[121.31232261657715,1.0695599161859803],[121.3136100769043,1.0694741004505772],[121.31455421447754,1.0690450217375087],[121.31524085998535,1.0684443114384976],[121.31609916687012,1.066470548200769],[121.31669998168945,1.0658698373988074],[121.31936073303223,1.065784021560404],[121.32004737854004,1.0658698373988074],[121.32047653198242,1.0662989165550272],[121.32124900817871,1.0693882847127583],[121.32184982299805,1.0700748105480784],[121.32279396057129,1.0702464419829028],[121.32322311401367,1.0699031791036475],[121.32356643676758,1.0668138114635326],[121.32390975952148,1.0662131007285751],[121.32442474365234,1.0660414690684803],[121.32511138916016,1.0662131007285751],[121.32588386535645,1.0668996272732443],[121.3263988494873,1.0687875744808792],[121.32691383361816,1.0693024689725377],[121.32820129394531,1.06973154764961],[121.32854461669922,1.0700748105480784],[121.32854461669922,1.0706755205279421],[121.32820129394531,1.0710187833207385],[121.3263988494873,1.0713620460750946],[121.3260555267334,1.071705308790996],[121.3260555267334,1.072306018451215],[121.3263988494873,1.072735096707774],[121.32699966430664,1.0728209123518724],[121.32983207702637,1.070932967626149],[121.33137702941895,1.0688733902354954],[121.3315486907959,1.0665563640200446],[121.33206367492676,1.065698205719599],[121.33240699768066,1.0656123898763923],[121.33317947387695,1.0660414690684803],[121.3333511352539,1.0666421798369328],[121.3330078125,1.0687875744808792],[121.33369445800781,1.0691308374849058],[121.33429527282715,1.0688733902354954],[121.33481025695801,1.0676719694528884],[121.33481025695801,1.0655265740307982],[121.33566856384277,1.0648400471800272],[121.33644104003906,1.0650974947670022],[121.3370418548584,1.0662131007285751],[121.33652687072754,1.0699031791036475],[121.33661270141602,1.0705897048237318],[121.33695602416992,1.0708471519291578],[121.33807182312012,1.0705038891171341],[121.33867263793945,1.0691308374849058],[121.3388442993164,1.0680152325815584],[121.33927345275879,1.0673287062858776],[121.34150505065918,1.066384732379106],[121.34193420410156,1.065698205719599],[121.34219169616699,1.0644109678206632],[121.34262084960938,1.0640677042901672],[121.34313583374023,1.0641535201763617],[121.34442329406738,1.0666421798369328],[121.34442329406738,1.0693024689725377],[121.34459495544434,1.0698173633778367],[121.34519577026367,1.0704180734081206],[121.34571075439453,1.0704180734081206],[121.3465690612793,1.0698173633778367],[121.34777069091797,1.0656123898763923],[121.34862899780273,1.0651833106245334],[121.34931564331055,1.0652691264796914],[121.35034561157227,1.0662989165550272],[121.35197639465332,1.0668138114635326],[121.35223388671875,1.067157074687998],[121.35223388671875,1.0678436010220054],[121.35154724121094,1.0692166532299296],[121.35154724121094,1.0700748105480784],[121.35249137878418,1.0705038891171341],[121.35360717773438,1.0699031791036475],[121.35403633117676,1.0681010483577467],[121.35455131530762,1.0674145220812221],[121.35549545288086,1.0676719694528884],[121.35635375976562,1.0687017587238898],[121.35686874389648,1.0689592059876958],[121.35729789733887,1.0688733902354954],[121.3575553894043,1.0679294168029827],[121.35669708251953,1.0662989165550272],[121.35695457458496,1.065698205719599],[121.35746955871582,1.0656123898763923],[121.35807037353516,1.0659556532348375],[121.35884284973145,1.0672428904881315],[121.3608169555664,1.0683584956719017],[121.3608169555664,1.0687017587238898],[121.35884284973145,1.0699889948270567],[121.35884284973145,1.0713620460750946],[121.3604736328125,1.0715336774378557],[121.36107444763184,1.0725634654123724],[121.36176109313965,1.0731641749041927],[121.3633918762207,1.0735074374179732],[121.36382102966309,1.0740223311163817],[121.36356353759766,1.0745372247280471],[121.36236190795898,1.0747088559126468],[121.36073112487793,1.0742797779330573],[121.3604736328125,1.074794671501337],[121.36090278625488,1.0753953805546104],[121.36236190795898,1.0762535361399017],[121.36399269104004,1.0763393516851352],[121.36493682861328,1.0755670116909641],[121.3656234741211,1.0734216217931163],[121.36665344238281,1.0734216217931163],[121.36699676513672,1.0741939623299004],[121.36682510375977,1.0755670116909641],[121.36579513549805,1.076854244905931],[121.36553764343262,1.077626584574034],[121.36639595031738,1.0778840310865547],[121.36716842651367,1.0774549535535982],[121.36811256408691,1.077283322523499],[121.36905670166016,1.0781414775773044],[121.36931419372559,1.0796861560644828],[121.37008666992188,1.0797719715129972],[121.37085914611816,1.0783989240462972],[121.37077331542969,1.077540769065024],[121.36948585510254,1.0766826138419958],[121.36914253234863,1.0755670116909641],[121.36931419372559,1.0735932530404],[121.36982917785645,1.072477649761069],[121.37077331542969,1.072477649761069],[121.37154579162598,1.0731641749041927],[121.37163162231445,1.0758244583774115],[121.37240409851074,1.076940060434282],[121.37343406677246,1.077540769065024],[121.3754940032959,1.0771116914837222],[121.37592315673828,1.0779698465858871],[121.37532234191895,1.0786563704934906],[121.37369155883789,1.078999632389241],[121.37300491333008,1.0801152332827968],[121.37377738952637,1.0812308337668242],[121.37763977050781,1.0813166491716828],[121.37866973876953,1.0826038799535809],[121.37763977050781,1.0856932315990946],[121.37901306152344,1.0872379062386415],[121.37884140014648,1.0883535040979666],[121.37669563293457,1.0891258408357771],[121.3766098022461,1.090927959120748],[121.37815475463867,1.0918719254107998],[121.38150215148926,1.0920435556135146],[121.38304710388184,1.0932449667580215],[121.38484954833984,1.0931591516922055],[121.38579368591309,1.0926442612458231],[121.38673782348633,1.0928158914044275],[121.3864803314209,1.0937598571013893],[121.38690948486328,1.0955619726072285],[121.38673782348633,1.0979647915952455],[121.38836860656738,1.097535716917477],[121.38879776000977,1.0955619726072285],[121.38871192932129,1.0947038225014296],[121.38957023620605,1.0939314871962154],[121.3919734954834,1.0956477876043067],[121.39386177062988,1.0942747473564225],[121.39575004577637,1.0941031172812217],[121.39575004577637,1.0927300763263617],[121.3960075378418,1.092215185806424],[121.3974666595459,1.0927300763263617],[121.39935493469238,1.094188932320037],[121.40467643737793,1.09513289758506],[121.40536308288574,1.0948754525422402],[121.40656471252441,1.0929875215532263],[121.40716552734375,1.0926442612458231],[121.40836715698242,1.0929875215532263],[121.40931129455566,1.0928158914044275],[121.40965461730957,1.0924726310774133],[121.40974044799805,1.090927959120748],[121.41016960144043,1.0905846985781977],[121.41077041625977,1.0907563288543685],[121.41162872314453,1.091528664975968],[121.41214370727539,1.091614480088353],[121.41265869140625,1.0914428498611386],[121.41403198242188,1.089983992534556],[121.41531944274902,1.0891258408357771],[121.41617774963379,1.0892974711950956],[121.41660690307617,1.0901556228449607],[121.41609191894531,1.0918719254107998],[121.41703605651855,1.0938456721500245],[121.4179801940918,1.0945321924507994],[121.42012596130371,1.0944463774218036],[121.4208984375,1.095047082573231],[121.4208984375,1.0954761576077061],[121.42046928405762,1.095991047567992],[121.41849517822266,1.0973640870291348],[121.41840934753418,1.0981364214491123],[121.41866683959961,1.0986513109515812],[121.4205551147461,1.1006250532219326],[121.42158508300781,1.10285623856322],[121.42141342163086,1.1058597546499271],[121.42218589782715,1.1080051214229911],[121.42218589782715,1.1086916384623748],[121.42158508300781,1.1096355991316074],[121.42046928405762,1.1104079303641896],[121.42046928405762,1.1111802613949777],[121.4208984375,1.1114377050270434],[121.4220142364502,1.1113518904855226],[121.42287254333496,1.1120384067479137],[121.42278671264648,1.1126391083465421],[121.42227172851562,1.1130681808421201],[121.42012596130371,1.1133256243094678],[121.41935348510742,1.1138405111767753],[121.41901016235352,1.1144412124082521],[121.41875267028809,1.1161575009657554],[121.41737937927246,1.1184744889292233],[121.41772270202637,1.1196758893755288],[121.42081260681152,1.1205340322500632],[121.42261505126953,1.1207914750634131],[121.42321586608887,1.1214779891216722],[121.42338752746582,1.1225077599071085],[121.42287254333496,1.123280087758232],[121.4212417602539,1.1241382295756068],[121.4205551147461,1.1248247428479345],[121.4205551147461,1.125940326570955],[121.4208984375,1.1266268394191172],[121.42210006713867,1.1270559098670816],[121.42441749572754,1.1267126535137493],[121.42501831054688,1.1270559098670816],[121.42536163330078,1.1277424224523145],[121.42416000366211,1.129029633113106],[121.42364501953125,1.1303168432039996],[121.42579078674316,1.1331487033946104],[121.42561912536621,1.1337494006551196],[121.42458915710449,1.1342642839220787],[121.42338752746582,1.1356373055193103],[121.42107009887695,1.1370103264643063],[121.42046928405762,1.13795427798523],[121.42064094543457,1.1390698566571444],[121.42175674438477,1.1403570622803443],[121.42278671264648,1.1405286896532942],[121.42373085021973,1.1400996212017134],[121.42476081848145,1.1382975330071758],[121.42596244812012,1.1378684642233594],[121.42716407775879,1.1384691605028365],[121.42733573913574,1.140013807503749],[121.42690658569336,1.1410435717107106],[121.42544746398926,1.1422449628195892],[121.4249324798584,1.1433605398280804],[121.42510414123535,1.1444761164030979],[121.42561912536621,1.1448193706465872],[121.42922401428223,1.1456775060755007],[121.42973899841309,1.1461923872094957],[121.42956733703613,1.147307962682163],[121.42862319946289,1.147822843522846],[121.42664909362793,1.148423537719836],[121.42630577087402,1.1487667914899902],[121.42630577087402,1.149453298906593],[121.42682075500488,1.1500539927607605],[121.42819404602051,1.1501398061581654],[121.42973899841309,1.1495391123220742],[121.43033981323242,1.1496249257349689],[121.43205642700195,1.1510837533594014],[121.43557548522949,1.1524567669124082],[121.43918037414551,1.1530574601337804],[121.44158363342285,1.1540872196468683],[121.4432144165039,1.154430472735072]]}},{"type":"Feature","id":"pmtiles:10/856/509:mountain_peak:10701568201:0","properties":{"name_int":"Mbukid Tabodok","name_de":"Mbukid Tabodok","name":"Mbukid Tabodok","rank":2,"class":"peak","name:latin":"Mbukid Tabodok","name_en":"Mbukid Tabodok","kind":"poi","verification":"verified","source":"OpenMapTiles/OpenStreetMap national PMTiles","sourceId":"10/856/509:mountain_peak:10701568201:0","sourceLayer":"mountain_peak","archive":"https://its.hanifahseptiani45.workers.dev/v1/map/archive/indonesia.pmtiles","updatedAt":"2026-07-26T09:40:56.143Z"},"geometry":{"type":"Point","coordinates":[121.32923126220703,1.1129823663479783]}},{"type":"Feature","id":"pmtiles:10/857/509:mountain_peak:10701568201:0","properties":{"name_int":"Mbukid Tabodok","name_de":"Mbukid Tabodok","name":"Mbukid Tabodok","rank":2,"class":"peak","name:latin":"Mbukid Tabodok","name_en":"Mbukid Tabodok","kind":"poi","verification":"verified","source":"OpenMapTiles/OpenStreetMap national PMTiles","sourceId":"10/857/509:mountain_peak:10701568201:0","sourceLayer":"mountain_peak","archive":"https://its.hanifahseptiani45.workers.dev/v1/map/archive/indonesia.pmtiles","updatedAt":"2026-07-26T09:40:56.207Z"},"geometry":{"type":"Point","coordinates":[121.32923126220703,1.1129823663479783]}},{"type":"Feature","id":"pmtiles:10/857/509:mountain_peak:10701863371:0","properties":{"name_int":"Mbukid Sambaragading","name_de":"Mbukid Sambaragading","name":"Mbukid Sambaragading","rank":5,"class":"peak","name:latin":"Mbukid Sambaragading","name_en":"Mbukid Sambaragading","kind":"poi","verification":"verified","source":"OpenMapTiles/OpenStreetMap national PMTiles","sourceId":"10/857/509:mountain_peak:10701863371:0","sourceLayer":"mountain_peak","archive":"https://its.hanifahseptiani45.workers.dev/v1/map/archive/indonesia.pmtiles","updatedAt":"2026-07-26T09:40:56.207Z"},"geometry":{"type":"Point","coordinates":[121.47686004638672,1.0596910909324464]}},{"type":"Feature","id":"pmtiles:8/214/126:mountain_peak:10701553201:0","properties":{"name_int":"Mbukid Ledun","name_de":"Mbukid Ledun","name":"Mbukid Ledun","rank":3,"class":"peak","name:latin":"Mbukid Ledun","name_en":"Mbukid Ledun","kind":"poi","verification":"verified","source":"OpenMapTiles/OpenStreetMap national PMTiles","sourceId":"8/214/126:mountain_peak:10701553201:0","sourceLayer":"mountain_peak","archive":"https://its.hanifahseptiani45.workers.dev/v1/map/archive/indonesia.pmtiles","updatedAt":"2026-07-26T09:35:24.313Z"},"geometry":{"type":"Point","coordinates":[121.37077331542969,1.1555460449854564]}},{"type":"Feature","id":"pmtiles:8/214/126:mountain_peak:10701553931:0","properties":{"name_int":"Bukii Ondor","name_de":"Bukii Ondor","name":"Bukii Ondor","rank":4,"class":"peak","name:latin":"Bukii Ondor","name_en":"Bukii Ondor","kind":"poi","verification":"verified","source":"OpenMapTiles/OpenStreetMap national PMTiles","sourceId":"8/214/126:mountain_peak:10701553931:0","sourceLayer":"mountain_peak","archive":"https://its.hanifahseptiani45.workers.dev/v1/map/archive/indonesia.pmtiles","updatedAt":"2026-07-26T09:35:24.313Z"},"geometry":{"type":"Point","coordinates":[121.38725280761719,1.2530281581017277]}},{"type":"Feature","id":"pmtiles:8/214/126:mountain_peak:10701568201:0","properties":{"name_int":"Mbukid Tabodok","name_de":"Mbukid Tabodok","name":"Mbukid Tabodok","rank":5,"class":"peak","name:latin":"Mbukid Tabodok","name_en":"Mbukid Tabodok","kind":"poi","verification":"verified","source":"OpenMapTiles/OpenStreetMap national PMTiles","sourceId":"8/214/126:mountain_peak:10701568201:0","sourceLayer":"mountain_peak","archive":"https://its.hanifahseptiani45.workers.dev/v1/map/archive/indonesia.pmtiles","updatedAt":"2026-07-26T09:35:24.313Z"},"geometry":{"type":"Point","coordinates":[121.32923126220703,1.1129823663479783]}},{"type":"Feature","id":"pmtiles:8/214/127:landuse:1509350820:2","properties":{"class":"residential","kind":"green","verification":"verified","source":"OpenMapTiles/OpenStreetMap national PMTiles","sourceId":"8/214/127:landuse:1509350820:2","sourceLayer":"landuse","archive":"https://its.hanifahseptiani45.workers.dev/v1/map/archive/indonesia.pmtiles","updatedAt":"2026-07-26T09:35:30.459Z"},"geometry":{"type":"Polygon","coordinates":[[[121.47994995117188,1.1133256243094678],[121.45179748535156,1.1352940501811162],[121.45248413085938,1.1373535815985605],[121.45488739013672,1.1376968366919726],[121.47994995117188,1.1133256243094678]]]}},{"type":"Feature","id":"pmtiles:8/214/127:mountain_peak:10701553201:0","properties":{"name_int":"Mbukid Ledun","name_de":"Mbukid Ledun","name":"Mbukid Ledun","rank":3,"class":"peak","name:latin":"Mbukid Ledun","name_en":"Mbukid Ledun","kind":"poi","verification":"verified","source":"OpenMapTiles/OpenStreetMap national PMTiles","sourceId":"8/214/127:mountain_peak:10701553201:0","sourceLayer":"mountain_peak","archive":"https://its.hanifahseptiani45.workers.dev/v1/map/archive/indonesia.pmtiles","updatedAt":"2026-07-26T09:35:30.459Z"},"geometry":{"type":"Point","coordinates":[121.37077331542969,1.1555460449854564]}},{"type":"Feature","id":"pmtiles:8/214/127:mountain_peak:10701553931:0","properties":{"name_int":"Bukii Ondor","name_de":"Bukii Ondor","name":"Bukii Ondor","rank":4,"class":"peak","name:latin":"Bukii Ondor","name_en":"Bukii Ondor","kind":"poi","verification":"verified","source":"OpenMapTiles/OpenStreetMap national PMTiles","sourceId":"8/214/127:mountain_peak:10701553931:0","sourceLayer":"mountain_peak","archive":"https://its.hanifahseptiani45.workers.dev/v1/map/archive/indonesia.pmtiles","updatedAt":"2026-07-26T09:35:30.459Z"},"geometry":{"type":"Point","coordinates":[121.38725280761719,1.2530281581017277]}},{"type":"Feature","id":"pmtiles:8/214/127:mountain_peak:10701568201:0","properties":{"name_int":"Mbukid Tabodok","name_de":"Mbukid Tabodok","name":"Mbukid Tabodok","rank":5,"class":"peak","name:latin":"Mbukid Tabodok","name_en":"Mbukid Tabodok","kind":"poi","verification":"verified","source":"OpenMapTiles/OpenStreetMap national PMTiles","sourceId":"8/214/127:mountain_peak:10701568201:0","sourceLayer":"mountain_peak","archive":"https://its.hanifahseptiani45.workers.dev/v1/map/archive/indonesia.pmtiles","updatedAt":"2026-07-26T09:35:30.459Z"},"geometry":{"type":"Point","coordinates":[121.32923126220703,1.1129823663479783]}}]}