{"type":"FeatureCollection","features":[{"type":"Feature","id":"pmtiles:10/829/528:water:1390:0","properties":{"class":"ocean","water":"ocean","kind":"waterway","verification":"verified","source":"OpenMapTiles/OpenStreetMap national PMTiles","sourceId":"10/829/528:water:1390:0","sourceLayer":"water","archive":"https://its.hanifahseptiani45.workers.dev/v1/map/archive/indonesia.pmtiles","updatedAt":"2026-07-26T09:44:39.152Z"},"geometry":{"type":"Polygon","coordinates":[[[111.4398193359375,-5.61051899590089],[111.8023681640625,-5.61051899590089],[111.8023681640625,-5.971217057997222],[111.4398193359375,-5.971217057997222],[111.4398193359375,-5.61051899590089]]]}}]}