{"type":"FeatureCollection","features":[{"type":"Feature","id":"pmtiles:10/815/524:water:940:0","properties":{"class":"ocean","water":"ocean","kind":"waterway","verification":"verified","source":"OpenMapTiles/OpenStreetMap national PMTiles","sourceId":"10/815/524:water:940:0","sourceLayer":"water","archive":"https://its.hanifahseptiani45.workers.dev/v1/map/archive/indonesia.pmtiles","updatedAt":"2026-07-26T09:44:00.678Z"},"geometry":{"type":"Polygon","coordinates":[[[106.5179443359375,-4.2094648151634715],[106.8804931640625,-4.2094648151634715],[106.8804931640625,-4.570949264200536],[106.5179443359375,-4.570949264200536],[106.5179443359375,-4.2094648151634715]]]}}]}