{"type":"FeatureCollection","features":[{"type":"Feature","id":"pmtiles:10/876/493:water:340:0","properties":{"class":"ocean","water":"ocean","kind":"waterway","verification":"verified","source":"OpenMapTiles/OpenStreetMap national PMTiles","sourceId":"10/876/493:water:340:0","sourceLayer":"water","archive":"https://its.hanifahseptiani45.workers.dev/v1/map/archive/indonesia.pmtiles","updatedAt":"2026-07-26T09:37:51.532Z"},"geometry":{"type":"Polygon","coordinates":[[[127.9632568359375,6.670063575977281],[128.3258056640625,6.670063575977281],[128.3258056640625,6.309838680093364],[127.9632568359375,6.309838680093364],[127.9632568359375,6.670063575977281]]]}}]}