{"type":"FeatureCollection","features":[{"type":"Feature","id":"pmtiles:10/859/540:water:1980:0","properties":{"class":"ocean","water":"ocean","kind":"waterway","verification":"verified","source":"OpenMapTiles/OpenStreetMap national PMTiles","sourceId":"10/859/540:water:1980:0","sourceLayer":"water","archive":"https://its.hanifahseptiani45.workers.dev/v1/map/archive/indonesia.pmtiles","updatedAt":"2026-07-26T09:47:03.628Z"},"geometry":{"type":"Polygon","coordinates":[[[121.9866943359375,-9.790264460914443],[122.3492431640625,-9.790264460914443],[122.3492431640625,-10.147338971518465],[121.9866943359375,-10.147338971518465],[121.9866943359375,-9.790264460914443]]]}}]}