{"type":"FeatureCollection","features":[{"type":"Feature","id":"pmtiles:10/878/518:water:1690:0","properties":{"class":"ocean","water":"ocean","kind":"waterway","verification":"verified","source":"OpenMapTiles/OpenStreetMap national PMTiles","sourceId":"10/878/518:water:1690:0","sourceLayer":"water","archive":"https://its.hanifahseptiani45.workers.dev/v1/map/archive/indonesia.pmtiles","updatedAt":"2026-07-26T09:42:49.553Z"},"geometry":{"type":"Polygon","coordinates":[[[128.6663818359375,-2.103409206077373],[129.0289306640625,-2.103409206077373],[129.0289306640625,-2.4656692707025485],[128.6663818359375,-2.4656692707025485],[128.6663818359375,-2.103409206077373]]]}}]}