{"type":"FeatureCollection","features":[{"type":"Feature","id":"pmtiles:12/3596/1980:water:140:0","properties":{"class":"ocean","water":"ocean","kind":"waterway","verification":"verified","source":"OpenMapTiles/OpenStreetMap national PMTiles","sourceId":"12/3596/1980:water:140:0","sourceLayer":"water","archive":"https://its.hanifahseptiani45.workers.dev/v1/map/archive/indonesia.pmtiles","updatedAt":"2026-07-26T10:38:04.853Z"},"geometry":{"type":"Polygon","coordinates":[[[136.05331420898438,5.967119522904156],[136.14395141601562,5.967119522904156],[136.14395141601562,5.87696603826862],[136.05331420898438,5.87696603826862],[136.05331420898438,5.967119522904156]]]}},{"type":"Feature","id":"pmtiles:12/3597/1980:water:140:0","properties":{"class":"ocean","water":"ocean","kind":"waterway","verification":"verified","source":"OpenMapTiles/OpenStreetMap national PMTiles","sourceId":"12/3597/1980:water:140:0","sourceLayer":"water","archive":"https://its.hanifahseptiani45.workers.dev/v1/map/archive/indonesia.pmtiles","updatedAt":"2026-07-26T10:38:04.929Z"},"geometry":{"type":"Polygon","coordinates":[[[136.14120483398438,5.967119522904156],[136.23184204101562,5.967119522904156],[136.23184204101562,5.87696603826862],[136.14120483398438,5.87696603826862],[136.14120483398438,5.967119522904156]]]}},{"type":"Feature","id":"pmtiles:12/3598/1980:water:140:0","properties":{"class":"ocean","water":"ocean","kind":"waterway","verification":"verified","source":"OpenMapTiles/OpenStreetMap national PMTiles","sourceId":"12/3598/1980:water:140:0","sourceLayer":"water","archive":"https://its.hanifahseptiani45.workers.dev/v1/map/archive/indonesia.pmtiles","updatedAt":"2026-07-26T10:38:05.003Z"},"geometry":{"type":"Polygon","coordinates":[[[136.22909545898438,5.967119522904156],[136.31973266601562,5.967119522904156],[136.31973266601562,5.87696603826862],[136.22909545898438,5.87696603826862],[136.22909545898438,5.967119522904156]]]}},{"type":"Feature","id":"pmtiles:12/3599/1980:water:140:0","properties":{"class":"ocean","water":"ocean","kind":"waterway","verification":"verified","source":"OpenMapTiles/OpenStreetMap national PMTiles","sourceId":"12/3599/1980:water:140:0","sourceLayer":"water","archive":"https://its.hanifahseptiani45.workers.dev/v1/map/archive/indonesia.pmtiles","updatedAt":"2026-07-26T10:38:05.066Z"},"geometry":{"type":"Polygon","coordinates":[[[136.31698608398438,5.967119522904156],[136.40762329101562,5.967119522904156],[136.40762329101562,5.87696603826862],[136.31698608398438,5.87696603826862],[136.31698608398438,5.967119522904156]]]}},{"type":"Feature","id":"pmtiles:12/3596/1981:water:140:0","properties":{"class":"ocean","water":"ocean","kind":"waterway","verification":"verified","source":"OpenMapTiles/OpenStreetMap national PMTiles","sourceId":"12/3596/1981:water:140:0","sourceLayer":"water","archive":"https://its.hanifahseptiani45.workers.dev/v1/map/archive/indonesia.pmtiles","updatedAt":"2026-07-26T10:38:39.047Z"},"geometry":{"type":"Polygon","coordinates":[[[136.05331420898438,5.879698177726667],[136.14395141601562,5.879698177726667],[136.14395141601562,5.789530528448793],[136.05331420898438,5.789530528448793],[136.05331420898438,5.879698177726667]]]}},{"type":"Feature","id":"pmtiles:12/3597/1981:water:140:0","properties":{"class":"ocean","water":"ocean","kind":"waterway","verification":"verified","source":"OpenMapTiles/OpenStreetMap national PMTiles","sourceId":"12/3597/1981:water:140:0","sourceLayer":"water","archive":"https://its.hanifahseptiani45.workers.dev/v1/map/archive/indonesia.pmtiles","updatedAt":"2026-07-26T10:38:39.113Z"},"geometry":{"type":"Polygon","coordinates":[[[136.14120483398438,5.879698177726667],[136.23184204101562,5.879698177726667],[136.23184204101562,5.789530528448793],[136.14120483398438,5.789530528448793],[136.14120483398438,5.879698177726667]]]}},{"type":"Feature","id":"pmtiles:12/3598/1981:water:140:0","properties":{"class":"ocean","water":"ocean","kind":"waterway","verification":"verified","source":"OpenMapTiles/OpenStreetMap national PMTiles","sourceId":"12/3598/1981:water:140:0","sourceLayer":"water","archive":"https://its.hanifahseptiani45.workers.dev/v1/map/archive/indonesia.pmtiles","updatedAt":"2026-07-26T10:38:39.174Z"},"geometry":{"type":"Polygon","coordinates":[[[136.22909545898438,5.879698177726667],[136.31973266601562,5.879698177726667],[136.31973266601562,5.789530528448793],[136.22909545898438,5.789530528448793],[136.22909545898438,5.879698177726667]]]}},{"type":"Feature","id":"pmtiles:12/3599/1981:water:140:0","properties":{"class":"ocean","water":"ocean","kind":"waterway","verification":"verified","source":"OpenMapTiles/OpenStreetMap national PMTiles","sourceId":"12/3599/1981:water:140:0","sourceLayer":"water","archive":"https://its.hanifahseptiani45.workers.dev/v1/map/archive/indonesia.pmtiles","updatedAt":"2026-07-26T10:38:39.236Z"},"geometry":{"type":"Polygon","coordinates":[[[136.31698608398438,5.879698177726667],[136.40762329101562,5.879698177726667],[136.40762329101562,5.789530528448793],[136.31698608398438,5.789530528448793],[136.31698608398438,5.879698177726667]]]}},{"type":"Feature","id":"pmtiles:12/3596/1982:water:140:0","properties":{"class":"ocean","water":"ocean","kind":"waterway","verification":"verified","source":"OpenMapTiles/OpenStreetMap national PMTiles","sourceId":"12/3596/1982:water:140:0","sourceLayer":"water","archive":"https://its.hanifahseptiani45.workers.dev/v1/map/archive/indonesia.pmtiles","updatedAt":"2026-07-26T10:39:11.790Z"},"geometry":{"type":"Polygon","coordinates":[[[136.05331420898438,5.792263093990954],[136.14395141601562,5.792263093990954],[136.14395141601562,5.702081487858422],[136.05331420898438,5.702081487858422],[136.05331420898438,5.792263093990954]]]}},{"type":"Feature","id":"pmtiles:12/3597/1982:water:140:0","properties":{"class":"ocean","water":"ocean","kind":"waterway","verification":"verified","source":"OpenMapTiles/OpenStreetMap national PMTiles","sourceId":"12/3597/1982:water:140:0","sourceLayer":"water","archive":"https://its.hanifahseptiani45.workers.dev/v1/map/archive/indonesia.pmtiles","updatedAt":"2026-07-26T10:39:11.844Z"},"geometry":{"type":"Polygon","coordinates":[[[136.14120483398438,5.792263093990954],[136.23184204101562,5.792263093990954],[136.23184204101562,5.702081487858422],[136.14120483398438,5.702081487858422],[136.14120483398438,5.792263093990954]]]}},{"type":"Feature","id":"pmtiles:12/3598/1982:water:140:0","properties":{"class":"ocean","water":"ocean","kind":"waterway","verification":"verified","source":"OpenMapTiles/OpenStreetMap national PMTiles","sourceId":"12/3598/1982:water:140:0","sourceLayer":"water","archive":"https://its.hanifahseptiani45.workers.dev/v1/map/archive/indonesia.pmtiles","updatedAt":"2026-07-26T10:39:11.928Z"},"geometry":{"type":"Polygon","coordinates":[[[136.22909545898438,5.792263093990954],[136.31973266601562,5.792263093990954],[136.31973266601562,5.702081487858422],[136.22909545898438,5.702081487858422],[136.22909545898438,5.792263093990954]]]}},{"type":"Feature","id":"pmtiles:12/3599/1982:water:140:0","properties":{"class":"ocean","water":"ocean","kind":"waterway","verification":"verified","source":"OpenMapTiles/OpenStreetMap national PMTiles","sourceId":"12/3599/1982:water:140:0","sourceLayer":"water","archive":"https://its.hanifahseptiani45.workers.dev/v1/map/archive/indonesia.pmtiles","updatedAt":"2026-07-26T10:39:12.004Z"},"geometry":{"type":"Polygon","coordinates":[[[136.31698608398438,5.792263093990954],[136.40762329101562,5.792263093990954],[136.40762329101562,5.702081487858422],[136.31698608398438,5.702081487858422],[136.31698608398438,5.792263093990954]]]}},{"type":"Feature","id":"pmtiles:12/3596/1983:water:140:0","properties":{"class":"ocean","water":"ocean","kind":"waterway","verification":"verified","source":"OpenMapTiles/OpenStreetMap national PMTiles","sourceId":"12/3596/1983:water:140:0","sourceLayer":"water","archive":"https://its.hanifahseptiani45.workers.dev/v1/map/archive/indonesia.pmtiles","updatedAt":"2026-07-26T10:39:49.097Z"},"geometry":{"type":"Polygon","coordinates":[[[136.05331420898438,5.70481447318565],[136.14395141601562,5.70481447318565],[136.14395141601562,5.61461911814834],[136.05331420898438,5.61461911814834],[136.05331420898438,5.70481447318565]]]}},{"type":"Feature","id":"pmtiles:12/3597/1983:water:140:0","properties":{"class":"ocean","water":"ocean","kind":"waterway","verification":"verified","source":"OpenMapTiles/OpenStreetMap national PMTiles","sourceId":"12/3597/1983:water:140:0","sourceLayer":"water","archive":"https://its.hanifahseptiani45.workers.dev/v1/map/archive/indonesia.pmtiles","updatedAt":"2026-07-26T10:39:49.160Z"},"geometry":{"type":"Polygon","coordinates":[[[136.14120483398438,5.70481447318565],[136.23184204101562,5.70481447318565],[136.23184204101562,5.61461911814834],[136.14120483398438,5.61461911814834],[136.14120483398438,5.70481447318565]]]}},{"type":"Feature","id":"pmtiles:12/3598/1983:water:140:0","properties":{"class":"ocean","water":"ocean","kind":"waterway","verification":"verified","source":"OpenMapTiles/OpenStreetMap national PMTiles","sourceId":"12/3598/1983:water:140:0","sourceLayer":"water","archive":"https://its.hanifahseptiani45.workers.dev/v1/map/archive/indonesia.pmtiles","updatedAt":"2026-07-26T10:39:49.235Z"},"geometry":{"type":"Polygon","coordinates":[[[136.22909545898438,5.70481447318565],[136.31973266601562,5.70481447318565],[136.31973266601562,5.61461911814834],[136.22909545898438,5.61461911814834],[136.22909545898438,5.70481447318565]]]}},{"type":"Feature","id":"pmtiles:12/3599/1983:water:140:0","properties":{"class":"ocean","water":"ocean","kind":"waterway","verification":"verified","source":"OpenMapTiles/OpenStreetMap national PMTiles","sourceId":"12/3599/1983:water:140:0","sourceLayer":"water","archive":"https://its.hanifahseptiani45.workers.dev/v1/map/archive/indonesia.pmtiles","updatedAt":"2026-07-26T10:39:49.314Z"},"geometry":{"type":"Polygon","coordinates":[[[136.31698608398438,5.70481447318565],[136.40762329101562,5.70481447318565],[136.40762329101562,5.61461911814834],[136.31698608398438,5.61461911814834],[136.31698608398438,5.70481447318565]]]}},{"type":"Feature","id":"pmtiles:10/899/495:water:140:0","properties":{"class":"ocean","water":"ocean","kind":"waterway","verification":"verified","source":"OpenMapTiles/OpenStreetMap national PMTiles","sourceId":"10/899/495:water:140:0","sourceLayer":"water","archive":"https://its.hanifahseptiani45.workers.dev/v1/map/archive/indonesia.pmtiles","updatedAt":"2026-07-26T09:38:18.169Z"},"geometry":{"type":"Polygon","coordinates":[[[136.0491943359375,5.971217057997222],[136.4117431640625,5.971217057997222],[136.4117431640625,5.61051899590089],[136.0491943359375,5.61051899590089],[136.0491943359375,5.971217057997222]]]}}]}