{"type":"FeatureCollection","features":[{"type":"Feature","id":"pmtiles:10/819/513:water:310:0","properties":{"class":"ocean","water":"ocean","kind":"waterway","verification":"verified","source":"OpenMapTiles/OpenStreetMap national PMTiles","sourceId":"10/819/513:water:310:0","sourceLayer":"water","archive":"https://its.hanifahseptiani45.workers.dev/v1/map/archive/indonesia.pmtiles","updatedAt":"2026-07-26T09:41:46.429Z"},"geometry":{"type":"Polygon","coordinates":[[[107.9241943359375,-0.34606723172845477],[108.2867431640625,-0.34606723172845477],[108.2867431640625,-0.7086000996551007],[107.9241943359375,-0.7086000996551007],[107.9241943359375,-0.34606723172845477]]]}}]}