{"type":"FeatureCollection","features":[{"type":"Feature","id":"pmtiles:10/857/535:mountain_peak:127157047531:0","properties":{"name_int":"Wolo Manunai","ele_ft":2244,"name_de":"Wolo Manunai","name":"Wolo Manunai","rank":1,"class":"peak","ele":684,"name:latin":"Wolo Manunai","name_en":"Wolo Manunai","kind":"poi","verification":"verified","source":"OpenMapTiles/OpenStreetMap national PMTiles","sourceId":"10/857/535:mountain_peak:127157047531:0","sourceLayer":"mountain_peak","archive":"https://its.hanifahseptiani45.workers.dev/v1/map/archive/indonesia.pmtiles","updatedAt":"2026-07-26T09:45:50.626Z"},"geometry":{"type":"Point","coordinates":[121.70680046081543,-8.33447981657541]}},{"type":"Feature","id":"pmtiles:10/857/535:mountain_peak:127157047541:0","properties":{"name_int":"Wolo Waturopala","ele_ft":1519,"name_de":"Wolo Waturopala","name":"Wolo Waturopala","rank":1,"class":"peak","ele":463,"name:latin":"Wolo Waturopala","name_en":"Wolo Waturopala","kind":"poi","verification":"verified","source":"OpenMapTiles/OpenStreetMap national PMTiles","sourceId":"10/857/535:mountain_peak:127157047541:0","sourceLayer":"mountain_peak","archive":"https://its.hanifahseptiani45.workers.dev/v1/map/archive/indonesia.pmtiles","updatedAt":"2026-07-26T09:45:50.626Z"},"geometry":{"type":"Point","coordinates":[121.72765731811523,-8.332781328725247]}},{"type":"Feature","id":"pmtiles:10/857/535:mountain_peak:5482175661:0","properties":{"name_int":"Rokatenda","ele_ft":2871,"name_de":"Gunung Rokatenda","name":"Gunung Rokatenda","rank":2,"name:en":"Rokatenda","class":"volcano","ele":875,"name:latin":"Gunung Rokatenda","name_en":"Rokatenda","kind":"poi","verification":"verified","source":"OpenMapTiles/OpenStreetMap national PMTiles","sourceId":"10/857/535:mountain_peak:5482175661:0","sourceLayer":"mountain_peak","archive":"https://its.hanifahseptiani45.workers.dev/v1/map/archive/indonesia.pmtiles","updatedAt":"2026-07-26T09:45:50.626Z"},"geometry":{"type":"Point","coordinates":[121.71040534973145,-8.333885346666818]}},{"type":"Feature","id":"pmtiles:10/857/535:mountain_peak:10701898451:0","properties":{"name_int":"Rokatenda","ele_ft":2871,"name_de":"Rokatenda","name":"Rokatenda","rank":3,"class":"peak","ele":875,"name:latin":"Rokatenda","name_en":"Rokatenda","kind":"poi","verification":"verified","source":"OpenMapTiles/OpenStreetMap national PMTiles","sourceId":"10/857/535:mountain_peak:10701898451:0","sourceLayer":"mountain_peak","archive":"https://its.hanifahseptiani45.workers.dev/v1/map/archive/indonesia.pmtiles","updatedAt":"2026-07-26T09:45:50.626Z"},"geometry":{"type":"Point","coordinates":[121.71006202697754,-8.328959704100598]}},{"type":"Feature","id":"pmtiles:10/857/535:mountain_peak:38911862901:0","properties":{"name_int":"Paluweh","name_de":"Paluweh","name":"Paluweh","rank":4,"class":"volcano","name:latin":"Paluweh","name_en":"Paluweh","kind":"poi","verification":"verified","source":"OpenMapTiles/OpenStreetMap national PMTiles","sourceId":"10/857/535:mountain_peak:38911862901:0","sourceLayer":"mountain_peak","archive":"https://its.hanifahseptiani45.workers.dev/v1/map/archive/indonesia.pmtiles","updatedAt":"2026-07-26T09:45:50.626Z"},"geometry":{"type":"Point","coordinates":[121.7080020904541,-8.320042434879]}},{"type":"Feature","id":"pmtiles:10/858/535:landuse:1578916600:0","properties":{"class":"residential","kind":"green","verification":"verified","source":"OpenMapTiles/OpenStreetMap national PMTiles","sourceId":"10/858/535:landuse:1578916600:0","sourceLayer":"landuse","archive":"https://its.hanifahseptiani45.workers.dev/v1/map/archive/indonesia.pmtiles","updatedAt":"2026-07-26T09:45:50.694Z"},"geometry":{"type":"Polygon","coordinates":[[[121.72276496887207,-8.299489479871255],[121.7226791381836,-8.299149752563778],[121.72224998474121,-8.29889495689035],[121.72224998474121,-8.298385365047665],[121.7230224609375,-8.297875772543904],[121.72757148742676,-8.298300433009615],[121.72808647155762,-8.299574411652202],[121.72628402709961,-8.30059359159111],[121.72482490539551,-8.299319616254252],[121.72276496887207,-8.299489479871255]]]}},{"type":"Feature","id":"pmtiles:10/858/535:landuse:1578916600:1","properties":{"class":"residential","kind":"green","verification":"verified","source":"OpenMapTiles/OpenStreetMap national PMTiles","sourceId":"10/858/535:landuse:1578916600:1","sourceLayer":"landuse","archive":"https://its.hanifahseptiani45.workers.dev/v1/map/archive/indonesia.pmtiles","updatedAt":"2026-07-26T09:45:50.694Z"},"geometry":{"type":"Polygon","coordinates":[[[121.6970157623291,-8.31027566904902],[121.69856071472168,-8.310615386726965],[121.69830322265625,-8.311209891955386],[121.69941902160645,-8.311974254496363],[121.69830322265625,-8.312398899708754],[121.69787406921387,-8.31154960882418],[121.69744491577148,-8.31282354446131],[121.69692993164062,-8.312653686615477],[121.69632911682129,-8.312059183575627],[121.69692993164062,-8.311719467148237],[121.69564247131348,-8.311124962692205],[121.69572830200195,-8.310530457335062],[121.6970157623291,-8.31027566904902]]]}},{"type":"Feature","id":"pmtiles:10/858/535:landuse:1578916600:2","properties":{"class":"residential","kind":"green","verification":"verified","source":"OpenMapTiles/OpenStreetMap national PMTiles","sourceId":"10/858/535:landuse:1578916600:2","sourceLayer":"landuse","archive":"https://its.hanifahseptiani45.workers.dev/v1/map/archive/indonesia.pmtiles","updatedAt":"2026-07-26T09:45:50.694Z"},"geometry":{"type":"Polygon","coordinates":[[[121.70628547668457,-8.312993402233573],[121.70577049255371,-8.31282354446131],[121.70551300048828,-8.311804396282668],[121.70456886291504,-8.311464679634568],[121.70525550842285,-8.310530457335062],[121.70577049255371,-8.31044552792477],[121.70662879943848,-8.311804396282668],[121.70628547668457,-8.312993402233573]]]}},{"type":"Feature","id":"pmtiles:10/858/535:landuse:1578916600:3","properties":{"class":"residential","kind":"green","verification":"verified","source":"OpenMapTiles/OpenStreetMap national PMTiles","sourceId":"10/858/535:landuse:1578916600:3","sourceLayer":"landuse","archive":"https://its.hanifahseptiani45.workers.dev/v1/map/archive/indonesia.pmtiles","updatedAt":"2026-07-26T09:45:50.694Z"},"geometry":{"type":"Polygon","coordinates":[[[121.69504165649414,-8.309851021537838],[121.69392585754395,-8.310530457335062],[121.69272422790527,-8.31044552792477],[121.6915225982666,-8.309511303197922],[121.69332504272461,-8.309341443917631],[121.69401168823242,-8.308492146413059],[121.69418334960938,-8.309001725136426],[121.69512748718262,-8.308577076246237],[121.69547080993652,-8.309001725136426],[121.69504165649414,-8.309851021537838]]]}},{"type":"Feature","id":"pmtiles:10/858/535:landuse:1578916600:4","properties":{"class":"residential","kind":"green","verification":"verified","source":"OpenMapTiles/OpenStreetMap national PMTiles","sourceId":"10/858/535:landuse:1578916600:4","sourceLayer":"landuse","archive":"https://its.hanifahseptiani45.workers.dev/v1/map/archive/indonesia.pmtiles","updatedAt":"2026-07-26T09:45:50.694Z"},"geometry":{"type":"Polygon","coordinates":[[[121.69083595275879,-8.316135757747404],[121.6915225982666,-8.316985038697538],[121.69135093688965,-8.31791924561712],[121.6900634765625,-8.31825895667211],[121.68903350830078,-8.31647547034828],[121.69083595275879,-8.316135757747404]]]}},{"type":"Feature","id":"pmtiles:10/858/535:landuse:1578916600:5","properties":{"class":"residential","kind":"green","verification":"verified","source":"OpenMapTiles/OpenStreetMap national PMTiles","sourceId":"10/858/535:landuse:1578916600:5","sourceLayer":"landuse","archive":"https://its.hanifahseptiani45.workers.dev/v1/map/archive/indonesia.pmtiles","updatedAt":"2026-07-26T09:45:50.694Z"},"geometry":{"type":"Polygon","coordinates":[[[121.68062210083008,-8.341273694199117],[121.68087959289551,-8.340679234620993],[121.68148040771484,-8.341018925919215],[121.6831111907959,-8.339745082028458],[121.68577194213867,-8.339660158954786],[121.6856861114502,-8.341018925919215],[121.68379783630371,-8.341783230260631],[121.68268203735352,-8.34305706750743],[121.68319702148438,-8.344330900600951],[121.68190956115723,-8.3433967567385],[121.68148040771484,-8.341953075466805],[121.68062210083008,-8.341273694199117]]]}},{"type":"Feature","id":"pmtiles:10/858/535:landuse:1578916600:6","properties":{"class":"residential","kind":"green","verification":"verified","source":"OpenMapTiles/OpenStreetMap national PMTiles","sourceId":"10/858/535:landuse:1578916600:6","sourceLayer":"landuse","archive":"https://its.hanifahseptiani45.workers.dev/v1/map/archive/indonesia.pmtiles","updatedAt":"2026-07-26T09:45:50.694Z"},"geometry":{"type":"Polygon","coordinates":[[[121.68517112731934,-8.321825904967298],[121.68525695800781,-8.32157112402325],[121.68405532836914,-8.320806780196776],[121.68551445007324,-8.320976634509321],[121.68740272521973,-8.322080685745647],[121.6889476776123,-8.323694293493105],[121.68886184692383,-8.324033999540163],[121.68766021728516,-8.32352444035908],[121.68800354003906,-8.323269660519912],[121.68577194213867,-8.321656051023012],[121.68499946594238,-8.322335466358268],[121.68517112731934,-8.321825904967298]]]}},{"type":"Feature","id":"pmtiles:10/858/535:landuse:1578916600:7","properties":{"class":"residential","kind":"green","verification":"verified","source":"OpenMapTiles/OpenStreetMap national PMTiles","sourceId":"10/858/535:landuse:1578916600:7","sourceLayer":"landuse","archive":"https://its.hanifahseptiani45.workers.dev/v1/map/archive/indonesia.pmtiles","updatedAt":"2026-07-26T09:45:50.694Z"},"geometry":{"type":"Polygon","coordinates":[[[121.74276351928711,-8.328704927798555],[121.74336433410645,-8.327685820931961],[121.7435359954834,-8.328025523515649],[121.74448013305664,-8.327600895239968],[121.74490928649902,-8.326836563182923],[121.74482345581055,-8.328110449115513],[121.74370765686035,-8.328620002327682],[121.74327850341797,-8.329639106761789],[121.74276351928711,-8.328704927798555]]]}},{"type":"Feature","id":"pmtiles:10/858/535:landuse:1578916600:8","properties":{"class":"residential","kind":"green","verification":"verified","source":"OpenMapTiles/OpenStreetMap national PMTiles","sourceId":"10/858/535:landuse:1578916600:8","sourceLayer":"landuse","archive":"https://its.hanifahseptiani45.workers.dev/v1/map/archive/indonesia.pmtiles","updatedAt":"2026-07-26T09:45:50.694Z"},"geometry":{"type":"Polygon","coordinates":[[[121.7310905456543,-8.303905908124179],[121.72971725463867,-8.304160700546163],[121.72894477844238,-8.303311391829752],[121.72894477844238,-8.30441549280279],[121.72782897949219,-8.304670284894001],[121.72834396362305,-8.303141529865997],[121.73006057739258,-8.302122356540067],[121.72920227050781,-8.301697700206802],[121.72988891601562,-8.301103180568717],[121.72894477844238,-8.301018249118371],[121.72842979431152,-8.29991413859237],[121.72920227050781,-8.29982920688488],[121.73057556152344,-8.301103180568717],[121.73074722290039,-8.30152783754491],[121.73006057739258,-8.301697700206802],[121.73066139221191,-8.302886736782526],[121.73160552978516,-8.303141529865997],[121.7310905456543,-8.303905908124179]]]}},{"type":"Feature","id":"pmtiles:10/858/535:mountain_peak:127157047531:0","properties":{"name_int":"Wolo Manunai","ele_ft":2244,"name_de":"Wolo Manunai","name":"Wolo Manunai","rank":1,"class":"peak","ele":684,"name:latin":"Wolo Manunai","name_en":"Wolo Manunai","kind":"poi","verification":"verified","source":"OpenMapTiles/OpenStreetMap national PMTiles","sourceId":"10/858/535:mountain_peak:127157047531:0","sourceLayer":"mountain_peak","archive":"https://its.hanifahseptiani45.workers.dev/v1/map/archive/indonesia.pmtiles","updatedAt":"2026-07-26T09:45:50.694Z"},"geometry":{"type":"Point","coordinates":[121.70680046081543,-8.33447981657541]}},{"type":"Feature","id":"pmtiles:10/858/535:mountain_peak:127157047541:0","properties":{"name_int":"Wolo Waturopala","ele_ft":1519,"name_de":"Wolo Waturopala","name":"Wolo Waturopala","rank":1,"class":"peak","ele":463,"name:latin":"Wolo Waturopala","name_en":"Wolo Waturopala","kind":"poi","verification":"verified","source":"OpenMapTiles/OpenStreetMap national PMTiles","sourceId":"10/858/535:mountain_peak:127157047541:0","sourceLayer":"mountain_peak","archive":"https://its.hanifahseptiani45.workers.dev/v1/map/archive/indonesia.pmtiles","updatedAt":"2026-07-26T09:45:50.694Z"},"geometry":{"type":"Point","coordinates":[121.72765731811523,-8.332781328725247]}},{"type":"Feature","id":"pmtiles:10/858/535:mountain_peak:5482175661:0","properties":{"name_int":"Rokatenda","ele_ft":2871,"name_de":"Gunung Rokatenda","name":"Gunung Rokatenda","rank":2,"name:en":"Rokatenda","class":"volcano","ele":875,"name:latin":"Gunung Rokatenda","name_en":"Rokatenda","kind":"poi","verification":"verified","source":"OpenMapTiles/OpenStreetMap national PMTiles","sourceId":"10/858/535:mountain_peak:5482175661:0","sourceLayer":"mountain_peak","archive":"https://its.hanifahseptiani45.workers.dev/v1/map/archive/indonesia.pmtiles","updatedAt":"2026-07-26T09:45:50.694Z"},"geometry":{"type":"Point","coordinates":[121.71040534973145,-8.333885346666818]}},{"type":"Feature","id":"pmtiles:10/858/535:mountain_peak:10701898451:0","properties":{"name_int":"Rokatenda","ele_ft":2871,"name_de":"Rokatenda","name":"Rokatenda","rank":3,"class":"peak","ele":875,"name:latin":"Rokatenda","name_en":"Rokatenda","kind":"poi","verification":"verified","source":"OpenMapTiles/OpenStreetMap national PMTiles","sourceId":"10/858/535:mountain_peak:10701898451:0","sourceLayer":"mountain_peak","archive":"https://its.hanifahseptiani45.workers.dev/v1/map/archive/indonesia.pmtiles","updatedAt":"2026-07-26T09:45:50.694Z"},"geometry":{"type":"Point","coordinates":[121.71006202697754,-8.328959704100598]}},{"type":"Feature","id":"pmtiles:10/858/535:mountain_peak:38911862901:0","properties":{"name_int":"Paluweh","name_de":"Paluweh","name":"Paluweh","rank":4,"class":"volcano","name:latin":"Paluweh","name_en":"Paluweh","kind":"poi","verification":"verified","source":"OpenMapTiles/OpenStreetMap national PMTiles","sourceId":"10/858/535:mountain_peak:38911862901:0","sourceLayer":"mountain_peak","archive":"https://its.hanifahseptiani45.workers.dev/v1/map/archive/indonesia.pmtiles","updatedAt":"2026-07-26T09:45:50.694Z"},"geometry":{"type":"Point","coordinates":[121.7080020904541,-8.320042434879]}},{"type":"Feature","id":"pmtiles:10/858/535:transportation:4044148380:0","properties":{"class":"ferry","highway":"ferry","kind":"road","verification":"verified","source":"OpenMapTiles/OpenStreetMap national PMTiles","sourceId":"10/858/535:transportation:4044148380:0","sourceLayer":"transportation","archive":"https://its.hanifahseptiani45.workers.dev/v1/map/archive/indonesia.pmtiles","updatedAt":"2026-07-26T09:45:50.694Z"},"geometry":{"type":"LineString","coordinates":[[121.6351318359375,-8.394771345499223],[121.68542861938477,-8.377194356568367],[121.73340797424316,-8.359276898428377],[121.74396514892578,-8.352228573042012],[121.75477981567383,-8.336008449333917],[121.75168991088867,-8.321401269968462],[121.74636840820312,-8.3090866548593],[121.7369270324707,-8.306368894608696]]}},{"type":"Feature","id":"pmtiles:10/858/535:transportation:4044148380:1","properties":{"class":"ferry","highway":"ferry","kind":"road","verification":"verified","source":"OpenMapTiles/OpenStreetMap national PMTiles","sourceId":"10/858/535:transportation:4044148380:1","sourceLayer":"transportation","archive":"https://its.hanifahseptiani45.workers.dev/v1/map/archive/indonesia.pmtiles","updatedAt":"2026-07-26T09:45:50.694Z"},"geometry":{"type":"LineString","coordinates":[[121.7365837097168,-8.306623685431816],[121.7369270324707,-8.306368894608696],[121.78361892700195,-8.31757953426765],[121.81305885314941,-8.325562673104898],[121.9976806640625,-8.393582588709293]]}},{"type":"Feature","id":"pmtiles:10/858/535:transportation:4044148380:2","properties":{"class":"ferry","highway":"ferry","kind":"road","verification":"verified","source":"OpenMapTiles/OpenStreetMap national PMTiles","sourceId":"10/858/535:transportation:4044148380:2","sourceLayer":"transportation","archive":"https://its.hanifahseptiani45.workers.dev/v1/map/archive/indonesia.pmtiles","updatedAt":"2026-07-26T09:45:50.694Z"},"geometry":{"type":"LineString","coordinates":[[121.93828582763672,-8.053790678898523],[121.9976806640625,-8.169862292871628]]}},{"type":"Feature","id":"pmtiles:10/858/535:water:270:0","properties":{"class":"ocean","water":"ocean","kind":"waterway","verification":"verified","source":"OpenMapTiles/OpenStreetMap national PMTiles","sourceId":"10/858/535:water:270:0","sourceLayer":"water","archive":"https://its.hanifahseptiani45.workers.dev/v1/map/archive/indonesia.pmtiles","updatedAt":"2026-07-26T09:45:50.694Z"},"geometry":{"type":"Polygon","coordinates":[[[121.6351318359375,-8.053790678898523],[121.9976806640625,-8.053790678898523],[121.9976806640625,-8.412602260297831],[121.6351318359375,-8.412602260297831],[121.6351318359375,-8.053790678898523]],[[121.74224853515625,-8.324798337068529],[121.74113273620605,-8.324118926005866],[121.73993110656738,-8.321740978004371],[121.7398452758789,-8.321146488748212],[121.74036026000977,-8.319532870505398],[121.73933029174805,-8.314267333180183],[121.73881530761719,-8.313672832586846],[121.73881530761719,-8.311294821200178],[121.73830032348633,-8.309511303197922],[121.73666954040527,-8.308916795395163],[121.73503875732422,-8.307133266581786],[121.73418045043945,-8.305349729662026],[121.73375129699707,-8.303566184637603],[121.7325496673584,-8.302037425310147],[121.73246383666992,-8.301273043414312],[121.73126220703125,-8.299574411652202],[121.73057556152344,-8.299234684418195],[121.72954559326172,-8.29813056887842],[121.72731399536133,-8.29821550095319],[121.7233657836914,-8.297790840395677],[121.72113418579102,-8.29813056887842],[121.71993255615234,-8.297620976044144],[121.71881675720215,-8.29668672079788],[121.71847343444824,-8.296771653184791],[121.7171859741211,-8.296262058587928],[121.7149543762207,-8.29388394173121],[121.7131519317627,-8.293629142643042],[121.71143531799316,-8.293799008720171],[121.71031951904297,-8.293714075690787],[121.70860290527344,-8.293034610795033],[121.70740127563477,-8.292864744387586],[121.70740127563477,-8.29260994463877],[121.70722961425781,-8.292864744387586],[121.70705795288086,-8.292694877906726],[121.70525550842285,-8.294393539411942],[121.7039680480957,-8.29481820364117],[121.70310974121094,-8.295667530722923],[121.70190811157227,-8.295497665453425],[121.70036315917969,-8.294988069204365],[121.6995906829834,-8.295582598097354],[121.69856071472168,-8.295837395918994],[121.69778823852539,-8.295582598097354],[121.69538497924805,-8.296177126090853],[121.6944408416748,-8.297111382548849],[121.69375419616699,-8.297281247120736],[121.69212341308594,-8.298640161051651],[121.69126510620117,-8.30059359159111],[121.69057846069336,-8.301103180568717],[121.68963432312012,-8.301357974809548],[121.68877601623535,-8.301018249118371],[121.68826103210449,-8.301103180568717],[121.68551445007324,-8.304160700546163],[121.68525695800781,-8.304670284894001],[121.6849136352539,-8.306029173253876],[121.6849136352539,-8.307218196709115],[121.68534278869629,-8.307812707085674],[121.68534278869629,-8.308237356803161],[121.6856861114502,-8.308577076246237],[121.68585777282715,-8.31027566904902],[121.68542861938477,-8.310870174792356],[121.68482780456543,-8.311209891955386],[121.6845703125,-8.311040033410649],[121.68233871459961,-8.311634537995403],[121.68208122253418,-8.312059183575627],[121.68105125427246,-8.312398899708754],[121.68070793151855,-8.313248188754017],[121.68113708496094,-8.314012547321994],[121.68062210083008,-8.314097475959784],[121.68027877807617,-8.315965901336554],[121.67830467224121,-8.317834317807367],[121.67778968811035,-8.31893837789859],[121.67701721191406,-8.319278088070064],[121.67633056640625,-8.320042434879],[121.67555809020996,-8.321995758837943],[121.67564392089844,-8.323354587151385],[121.6761589050293,-8.323694293493105],[121.6761589050293,-8.324033999540163],[121.67736053466797,-8.324798337068529],[121.67710304260254,-8.325562673104898],[121.67675971984863,-8.325732525354795],[121.67624473571777,-8.325477746952316],[121.67572975158691,-8.326496859567413],[121.67564392089844,-8.327091340701102],[121.6765022277832,-8.328789853250996],[121.67607307434082,-8.329639106761789],[121.67572975158691,-8.329724032011512],[121.67555809020996,-8.329978807650065],[121.67555809020996,-8.331422533135196],[121.67598724365234,-8.332101931520157],[121.6765022277832,-8.332271780932047],[121.67641639709473,-8.333121026885294],[121.67564392089844,-8.333800422320422],[121.67538642883301,-8.334904437385475],[121.67564392089844,-8.337197381792492],[121.6765022277832,-8.339065696922418],[121.67778968811035,-8.339660158954786],[121.68130874633789,-8.342037998042215],[121.6816520690918,-8.3424626106424],[121.6816520690918,-8.343311834458405],[121.68302536010742,-8.344245978523944],[121.6845703125,-8.346793632802601],[121.68585777282715,-8.347218240233332],[121.68680191040039,-8.347897611162125],[121.68800354003906,-8.348322217392365],[121.69075012207031,-8.350275400103698],[121.69160842895508,-8.35010555851673],[121.69229507446289,-8.350190479319451],[121.69246673583984,-8.350530162345592],[121.69452667236328,-8.351124606930028],[121.69564247131348,-8.351124606930028],[121.6958999633789,-8.350784924421205],[121.6995906829834,-8.35180397106079],[121.70010566711426,-8.352313493382809],[121.70087814331055,-8.352058732304954],[121.70293807983398,-8.352313493382809],[121.70353889465332,-8.35265317456124],[121.70371055603027,-8.3531626957745],[121.70456886291504,-8.353502376213726],[121.70516967773438,-8.353332536031076],[121.70645713806152,-8.353502376213726],[121.70680046081543,-8.353247615912025],[121.70697212219238,-8.353757136349088],[121.70757293701172,-8.353757136349088],[121.70851707458496,-8.3542666561208],[121.70868873596191,-8.354861095013476],[121.70928955078125,-8.354351576018061],[121.70937538146973,-8.354691255422267],[121.71031951904297,-8.35511585426164],[121.7109203338623,-8.354606335598945],[121.7131519317627,-8.355200773974062],[121.71555519104004,-8.354606335598945],[121.71701431274414,-8.35545553300041],[121.7171859741211,-8.354776175227116],[121.71744346618652,-8.354606335598945],[121.71958923339844,-8.355370613343453],[121.72027587890625,-8.355370613343453],[121.72173500061035,-8.354861095013476],[121.72207832336426,-8.354436495896849],[121.72319412231445,-8.354096816270825],[121.72353744506836,-8.354096816270825],[121.72379493713379,-8.354691255422267],[121.72456741333008,-8.354691255422267],[121.72491073608398,-8.354436495896849],[121.72542572021484,-8.354776175227116],[121.7259407043457,-8.354436495896849],[121.72551155090332,-8.353672216322437],[121.72585487365723,-8.353247615912025],[121.72645568847656,-8.352992855444],[121.72842979431152,-8.352738094809652],[121.72903060913086,-8.35154920965033],[121.73057556152344,-8.350869845076133],[121.73349380493164,-8.350869845076133],[121.7343521118164,-8.348746823160852],[121.73581123352051,-8.34772776854075],[121.73606872558594,-8.347133318784117],[121.73632621765137,-8.347048397316442],[121.73718452453613,-8.346963475830293],[121.73709869384766,-8.347473004470146],[121.73735618591309,-8.34772776854075],[121.73778533935547,-8.347218240233332],[121.7380428314209,-8.346369024910231],[121.73881530761719,-8.345689651322175],[121.74018859863281,-8.345265042229528],[121.7406177520752,-8.344076134314548],[121.74078941345215,-8.344161056428462],[121.74078941345215,-8.343991212182132],[121.74104690551758,-8.343906290031285],[121.74070358276367,-8.343651523467955],[121.74121856689453,-8.342972145153524],[121.74164772033691,-8.342122920599166],[121.74302101135254,-8.338216463879363],[121.74276351928711,-8.336433068484126],[121.74293518066406,-8.335838601544722],[121.74448013305664,-8.33447981657541],[121.74482345581055,-8.332356705610337],[121.74439430236816,-8.328959704100598],[121.74516677856445,-8.327600895239968],[121.74508094787598,-8.326921489040743],[121.74284934997559,-8.325477746952316],[121.74224853515625,-8.324798337068529]]]}},{"type":"Feature","id":"pmtiles:10/857/536:mountain_peak:127157047531:0","properties":{"name_int":"Wolo Manunai","ele_ft":2244,"name_de":"Wolo Manunai","name":"Wolo Manunai","rank":1,"class":"peak","ele":684,"name:latin":"Wolo Manunai","name_en":"Wolo Manunai","kind":"poi","verification":"verified","source":"OpenMapTiles/OpenStreetMap national PMTiles","sourceId":"10/857/536:mountain_peak:127157047531:0","sourceLayer":"mountain_peak","archive":"https://its.hanifahseptiani45.workers.dev/v1/map/archive/indonesia.pmtiles","updatedAt":"2026-07-26T09:46:03.446Z"},"geometry":{"type":"Point","coordinates":[121.70680046081543,-8.33447981657541]}},{"type":"Feature","id":"pmtiles:10/857/536:mountain_peak:127157047541:0","properties":{"name_int":"Wolo Waturopala","ele_ft":1519,"name_de":"Wolo Waturopala","name":"Wolo Waturopala","rank":1,"class":"peak","ele":463,"name:latin":"Wolo Waturopala","name_en":"Wolo Waturopala","kind":"poi","verification":"verified","source":"OpenMapTiles/OpenStreetMap national PMTiles","sourceId":"10/857/536:mountain_peak:127157047541:0","sourceLayer":"mountain_peak","archive":"https://its.hanifahseptiani45.workers.dev/v1/map/archive/indonesia.pmtiles","updatedAt":"2026-07-26T09:46:03.446Z"},"geometry":{"type":"Point","coordinates":[121.72765731811523,-8.332781328725247]}},{"type":"Feature","id":"pmtiles:10/857/536:mountain_peak:5482175661:0","properties":{"name_int":"Rokatenda","ele_ft":2871,"name_de":"Gunung Rokatenda","name":"Gunung Rokatenda","rank":2,"name:en":"Rokatenda","class":"volcano","ele":875,"name:latin":"Gunung Rokatenda","name_en":"Rokatenda","kind":"poi","verification":"verified","source":"OpenMapTiles/OpenStreetMap national PMTiles","sourceId":"10/857/536:mountain_peak:5482175661:0","sourceLayer":"mountain_peak","archive":"https://its.hanifahseptiani45.workers.dev/v1/map/archive/indonesia.pmtiles","updatedAt":"2026-07-26T09:46:03.446Z"},"geometry":{"type":"Point","coordinates":[121.71040534973145,-8.333885346666818]}},{"type":"Feature","id":"pmtiles:10/857/536:mountain_peak:10701898451:0","properties":{"name_int":"Rokatenda","ele_ft":2871,"name_de":"Rokatenda","name":"Rokatenda","rank":3,"class":"peak","ele":875,"name:latin":"Rokatenda","name_en":"Rokatenda","kind":"poi","verification":"verified","source":"OpenMapTiles/OpenStreetMap national PMTiles","sourceId":"10/857/536:mountain_peak:10701898451:0","sourceLayer":"mountain_peak","archive":"https://its.hanifahseptiani45.workers.dev/v1/map/archive/indonesia.pmtiles","updatedAt":"2026-07-26T09:46:03.446Z"},"geometry":{"type":"Point","coordinates":[121.71006202697754,-8.328959704100598]}},{"type":"Feature","id":"pmtiles:10/858/536:mountain_peak:127157047531:0","properties":{"name_int":"Wolo Manunai","ele_ft":2244,"name_de":"Wolo Manunai","name":"Wolo Manunai","rank":1,"class":"peak","ele":684,"name:latin":"Wolo Manunai","name_en":"Wolo Manunai","kind":"poi","verification":"verified","source":"OpenMapTiles/OpenStreetMap national PMTiles","sourceId":"10/858/536:mountain_peak:127157047531:0","sourceLayer":"mountain_peak","archive":"https://its.hanifahseptiani45.workers.dev/v1/map/archive/indonesia.pmtiles","updatedAt":"2026-07-26T09:46:03.520Z"},"geometry":{"type":"Point","coordinates":[121.70680046081543,-8.33447981657541]}},{"type":"Feature","id":"pmtiles:10/858/536:mountain_peak:127157047541:0","properties":{"name_int":"Wolo Waturopala","ele_ft":1519,"name_de":"Wolo Waturopala","name":"Wolo Waturopala","rank":1,"class":"peak","ele":463,"name:latin":"Wolo Waturopala","name_en":"Wolo Waturopala","kind":"poi","verification":"verified","source":"OpenMapTiles/OpenStreetMap national PMTiles","sourceId":"10/858/536:mountain_peak:127157047541:0","sourceLayer":"mountain_peak","archive":"https://its.hanifahseptiani45.workers.dev/v1/map/archive/indonesia.pmtiles","updatedAt":"2026-07-26T09:46:03.520Z"},"geometry":{"type":"Point","coordinates":[121.72765731811523,-8.332781328725247]}},{"type":"Feature","id":"pmtiles:10/858/536:mountain_peak:5482175661:0","properties":{"name_int":"Rokatenda","ele_ft":2871,"name_de":"Gunung Rokatenda","name":"Gunung Rokatenda","rank":2,"name:en":"Rokatenda","class":"volcano","ele":875,"name:latin":"Gunung Rokatenda","name_en":"Rokatenda","kind":"poi","verification":"verified","source":"OpenMapTiles/OpenStreetMap national PMTiles","sourceId":"10/858/536:mountain_peak:5482175661:0","sourceLayer":"mountain_peak","archive":"https://its.hanifahseptiani45.workers.dev/v1/map/archive/indonesia.pmtiles","updatedAt":"2026-07-26T09:46:03.520Z"},"geometry":{"type":"Point","coordinates":[121.71040534973145,-8.333885346666818]}},{"type":"Feature","id":"pmtiles:10/858/536:mountain_peak:10701898451:0","properties":{"name_int":"Rokatenda","ele_ft":2871,"name_de":"Rokatenda","name":"Rokatenda","rank":3,"class":"peak","ele":875,"name:latin":"Rokatenda","name_en":"Rokatenda","kind":"poi","verification":"verified","source":"OpenMapTiles/OpenStreetMap national PMTiles","sourceId":"10/858/536:mountain_peak:10701898451:0","sourceLayer":"mountain_peak","archive":"https://its.hanifahseptiani45.workers.dev/v1/map/archive/indonesia.pmtiles","updatedAt":"2026-07-26T09:46:03.520Z"},"geometry":{"type":"Point","coordinates":[121.71006202697754,-8.328959704100598]}},{"type":"Feature","id":"pmtiles:8/214/133:mountain_peak:127157047531:0","properties":{"name_int":"Wolo Manunai","ele_ft":2244,"name_de":"Wolo Manunai","name":"Wolo Manunai","rank":1,"class":"peak","ele":684,"name:latin":"Wolo Manunai","name_en":"Wolo Manunai","kind":"poi","verification":"verified","source":"OpenMapTiles/OpenStreetMap national PMTiles","sourceId":"8/214/133:mountain_peak:127157047531:0","sourceLayer":"mountain_peak","archive":"https://its.hanifahseptiani45.workers.dev/v1/map/archive/indonesia.pmtiles","updatedAt":"2026-07-26T09:35:46.140Z"},"geometry":{"type":"Point","coordinates":[121.7068862915039,-8.33447981657541]}},{"type":"Feature","id":"pmtiles:8/214/133:mountain_peak:127157047541:0","properties":{"name_int":"Wolo Waturopala","ele_ft":1519,"name_de":"Wolo Waturopala","name":"Wolo Waturopala","rank":2,"class":"peak","ele":463,"name:latin":"Wolo Waturopala","name_en":"Wolo Waturopala","kind":"poi","verification":"verified","source":"OpenMapTiles/OpenStreetMap national PMTiles","sourceId":"8/214/133:mountain_peak:127157047541:0","sourceLayer":"mountain_peak","archive":"https://its.hanifahseptiani45.workers.dev/v1/map/archive/indonesia.pmtiles","updatedAt":"2026-07-26T09:35:46.140Z"},"geometry":{"type":"Point","coordinates":[121.72782897949219,-8.332781328725247]}},{"type":"Feature","id":"pmtiles:8/214/133:mountain_peak:5482175661:0","properties":{"name_int":"Rokatenda","ele_ft":2871,"name_de":"Gunung Rokatenda","name":"Gunung Rokatenda","rank":3,"name:en":"Rokatenda","class":"volcano","ele":875,"name:latin":"Gunung Rokatenda","name_en":"Rokatenda","kind":"poi","verification":"verified","source":"OpenMapTiles/OpenStreetMap national PMTiles","sourceId":"8/214/133:mountain_peak:5482175661:0","sourceLayer":"mountain_peak","archive":"https://its.hanifahseptiani45.workers.dev/v1/map/archive/indonesia.pmtiles","updatedAt":"2026-07-26T09:35:46.140Z"},"geometry":{"type":"Point","coordinates":[121.71031951904297,-8.333800422320422]}},{"type":"Feature","id":"pmtiles:8/214/133:mountain_peak:10701898451:0","properties":{"name_int":"Rokatenda","ele_ft":2871,"name_de":"Rokatenda","name":"Rokatenda","rank":4,"class":"peak","ele":875,"name:latin":"Rokatenda","name_en":"Rokatenda","kind":"poi","verification":"verified","source":"OpenMapTiles/OpenStreetMap national PMTiles","sourceId":"8/214/133:mountain_peak:10701898451:0","sourceLayer":"mountain_peak","archive":"https://its.hanifahseptiani45.workers.dev/v1/map/archive/indonesia.pmtiles","updatedAt":"2026-07-26T09:35:46.140Z"},"geometry":{"type":"Point","coordinates":[121.70997619628906,-8.329044629497744]}},{"type":"Feature","id":"pmtiles:8/214/133:mountain_peak:38911862901:0","properties":{"name_int":"Paluweh","name_de":"Paluweh","name":"Paluweh","rank":5,"class":"volcano","name:latin":"Paluweh","name_en":"Paluweh","kind":"poi","verification":"verified","source":"OpenMapTiles/OpenStreetMap national PMTiles","sourceId":"8/214/133:mountain_peak:38911862901:0","sourceLayer":"mountain_peak","archive":"https://its.hanifahseptiani45.workers.dev/v1/map/archive/indonesia.pmtiles","updatedAt":"2026-07-26T09:35:46.140Z"},"geometry":{"type":"Point","coordinates":[121.70791625976562,-8.31987258016143]}},{"type":"Feature","id":"pmtiles:8/214/133:transportation:4044148380:10","properties":{"class":"ferry","highway":"ferry","kind":"road","verification":"verified","source":"OpenMapTiles/OpenStreetMap national PMTiles","sourceId":"8/214/133:transportation:4044148380:10","sourceLayer":"transportation","archive":"https://its.hanifahseptiani45.workers.dev/v1/map/archive/indonesia.pmtiles","updatedAt":"2026-07-26T09:35:46.141Z"},"geometry":{"type":"LineString","coordinates":[[121.53076171875,-8.428904092875385],[121.55410766601562,-8.42007401879276],[121.6241455078125,-8.398677235036658],[121.68525695800781,-8.377279271468495],[121.73332214355469,-8.359276898428377],[121.74396514892578,-8.352143652682727],[121.75495147705078,-8.33617829704933],[121.75151824951172,-8.32157112402325],[121.74636840820312,-8.309001725136426],[121.73641204833984,-8.306623685431816],[121.783447265625,-8.317494606384273],[121.81297302246094,-8.325647599239048],[122.09346771240234,-8.428904092875385]]}},{"type":"Feature","id":"pmtiles:8/214/134:mountain_peak:127157047531:0","properties":{"name_int":"Wolo Manunai","ele_ft":2244,"name_de":"Wolo Manunai","name":"Wolo Manunai","rank":1,"class":"peak","ele":684,"name:latin":"Wolo Manunai","name_en":"Wolo Manunai","kind":"poi","verification":"verified","source":"OpenMapTiles/OpenStreetMap national PMTiles","sourceId":"8/214/134:mountain_peak:127157047531:0","sourceLayer":"mountain_peak","archive":"https://its.hanifahseptiani45.workers.dev/v1/map/archive/indonesia.pmtiles","updatedAt":"2026-07-26T09:35:48.674Z"},"geometry":{"type":"Point","coordinates":[121.7068862915039,-8.33447981657541]}},{"type":"Feature","id":"pmtiles:8/214/134:mountain_peak:127157047541:0","properties":{"name_int":"Wolo Waturopala","ele_ft":1519,"name_de":"Wolo Waturopala","name":"Wolo Waturopala","rank":2,"class":"peak","ele":463,"name:latin":"Wolo Waturopala","name_en":"Wolo Waturopala","kind":"poi","verification":"verified","source":"OpenMapTiles/OpenStreetMap national PMTiles","sourceId":"8/214/134:mountain_peak:127157047541:0","sourceLayer":"mountain_peak","archive":"https://its.hanifahseptiani45.workers.dev/v1/map/archive/indonesia.pmtiles","updatedAt":"2026-07-26T09:35:48.674Z"},"geometry":{"type":"Point","coordinates":[121.72782897949219,-8.332781328725247]}},{"type":"Feature","id":"pmtiles:8/214/134:mountain_peak:5482175661:0","properties":{"name_int":"Rokatenda","ele_ft":2871,"name_de":"Gunung Rokatenda","name":"Gunung Rokatenda","rank":3,"name:en":"Rokatenda","class":"volcano","ele":875,"name:latin":"Gunung Rokatenda","name_en":"Rokatenda","kind":"poi","verification":"verified","source":"OpenMapTiles/OpenStreetMap national PMTiles","sourceId":"8/214/134:mountain_peak:5482175661:0","sourceLayer":"mountain_peak","archive":"https://its.hanifahseptiani45.workers.dev/v1/map/archive/indonesia.pmtiles","updatedAt":"2026-07-26T09:35:48.674Z"},"geometry":{"type":"Point","coordinates":[121.71031951904297,-8.333800422320422]}},{"type":"Feature","id":"pmtiles:8/214/134:mountain_peak:10701898451:0","properties":{"name_int":"Rokatenda","ele_ft":2871,"name_de":"Rokatenda","name":"Rokatenda","rank":4,"class":"peak","ele":875,"name:latin":"Rokatenda","name_en":"Rokatenda","kind":"poi","verification":"verified","source":"OpenMapTiles/OpenStreetMap national PMTiles","sourceId":"8/214/134:mountain_peak:10701898451:0","sourceLayer":"mountain_peak","archive":"https://its.hanifahseptiani45.workers.dev/v1/map/archive/indonesia.pmtiles","updatedAt":"2026-07-26T09:35:48.674Z"},"geometry":{"type":"Point","coordinates":[121.70997619628906,-8.329044629497744]}},{"type":"Feature","id":"pmtiles:8/214/134:mountain_peak:38911862901:0","properties":{"name_int":"Paluweh","name_de":"Paluweh","name":"Paluweh","rank":5,"class":"volcano","name:latin":"Paluweh","name_en":"Paluweh","kind":"poi","verification":"verified","source":"OpenMapTiles/OpenStreetMap national PMTiles","sourceId":"8/214/134:mountain_peak:38911862901:0","sourceLayer":"mountain_peak","archive":"https://its.hanifahseptiani45.workers.dev/v1/map/archive/indonesia.pmtiles","updatedAt":"2026-07-26T09:35:48.675Z"},"geometry":{"type":"Point","coordinates":[121.70791625976562,-8.31987258016143]}}]}