{"type":"FeatureCollection","features":[{"type":"Feature","id":"pmtiles:12/3584/1976:water:140:0","properties":{"class":"ocean","water":"ocean","kind":"waterway","verification":"verified","source":"OpenMapTiles/OpenStreetMap national PMTiles","sourceId":"12/3584/1976:water:140:0","sourceLayer":"water","archive":"https://its.hanifahseptiani45.workers.dev/v1/map/archive/indonesia.pmtiles","updatedAt":"2026-07-26T10:35:50.820Z"},"geometry":{"type":"Polygon","coordinates":[[[134.99862670898438,6.316663493894268],[135.08926391601562,6.316663493894268],[135.08926391601562,6.226568742378319],[134.99862670898438,6.226568742378319],[134.99862670898438,6.316663493894268]]]}},{"type":"Feature","id":"pmtiles:12/3585/1976:water:140:0","properties":{"class":"ocean","water":"ocean","kind":"waterway","verification":"verified","source":"OpenMapTiles/OpenStreetMap national PMTiles","sourceId":"12/3585/1976:water:140:0","sourceLayer":"water","archive":"https://its.hanifahseptiani45.workers.dev/v1/map/archive/indonesia.pmtiles","updatedAt":"2026-07-26T10:35:50.880Z"},"geometry":{"type":"Polygon","coordinates":[[[135.08651733398438,6.316663493894268],[135.17715454101562,6.316663493894268],[135.17715454101562,6.226568742378319],[135.08651733398438,6.226568742378319],[135.08651733398438,6.316663493894268]]]}},{"type":"Feature","id":"pmtiles:12/3586/1976:water:140:0","properties":{"class":"ocean","water":"ocean","kind":"waterway","verification":"verified","source":"OpenMapTiles/OpenStreetMap national PMTiles","sourceId":"12/3586/1976:water:140:0","sourceLayer":"water","archive":"https://its.hanifahseptiani45.workers.dev/v1/map/archive/indonesia.pmtiles","updatedAt":"2026-07-26T10:35:50.945Z"},"geometry":{"type":"Polygon","coordinates":[[[135.17440795898438,6.316663493894268],[135.26504516601562,6.316663493894268],[135.26504516601562,6.226568742378319],[135.17440795898438,6.226568742378319],[135.17440795898438,6.316663493894268]]]}},{"type":"Feature","id":"pmtiles:12/3587/1976:water:140:0","properties":{"class":"ocean","water":"ocean","kind":"waterway","verification":"verified","source":"OpenMapTiles/OpenStreetMap national PMTiles","sourceId":"12/3587/1976:water:140:0","sourceLayer":"water","archive":"https://its.hanifahseptiani45.workers.dev/v1/map/archive/indonesia.pmtiles","updatedAt":"2026-07-26T10:35:51.010Z"},"geometry":{"type":"Polygon","coordinates":[[[135.26229858398438,6.316663493894268],[135.35293579101562,6.316663493894268],[135.35293579101562,6.226568742378319],[135.26229858398438,6.226568742378319],[135.26229858398438,6.316663493894268]]]}},{"type":"Feature","id":"pmtiles:12/3584/1977:water:140:0","properties":{"class":"ocean","water":"ocean","kind":"waterway","verification":"verified","source":"OpenMapTiles/OpenStreetMap national PMTiles","sourceId":"12/3584/1977:water:140:0","sourceLayer":"water","archive":"https://its.hanifahseptiani45.workers.dev/v1/map/archive/indonesia.pmtiles","updatedAt":"2026-07-26T10:36:21.640Z"},"geometry":{"type":"Polygon","coordinates":[[[134.99862670898438,6.22929911460929],[135.08926391601562,6.22929911460929],[135.08926391601562,6.139189368969383],[134.99862670898438,6.139189368969383],[134.99862670898438,6.22929911460929]]]}},{"type":"Feature","id":"pmtiles:12/3585/1977:water:140:0","properties":{"class":"ocean","water":"ocean","kind":"waterway","verification":"verified","source":"OpenMapTiles/OpenStreetMap national PMTiles","sourceId":"12/3585/1977:water:140:0","sourceLayer":"water","archive":"https://its.hanifahseptiani45.workers.dev/v1/map/archive/indonesia.pmtiles","updatedAt":"2026-07-26T10:36:21.697Z"},"geometry":{"type":"Polygon","coordinates":[[[135.08651733398438,6.22929911460929],[135.17715454101562,6.22929911460929],[135.17715454101562,6.139189368969383],[135.08651733398438,6.139189368969383],[135.08651733398438,6.22929911460929]]]}},{"type":"Feature","id":"pmtiles:12/3586/1977:water:140:0","properties":{"class":"ocean","water":"ocean","kind":"waterway","verification":"verified","source":"OpenMapTiles/OpenStreetMap national PMTiles","sourceId":"12/3586/1977:water:140:0","sourceLayer":"water","archive":"https://its.hanifahseptiani45.workers.dev/v1/map/archive/indonesia.pmtiles","updatedAt":"2026-07-26T10:36:21.752Z"},"geometry":{"type":"Polygon","coordinates":[[[135.17440795898438,6.22929911460929],[135.26504516601562,6.22929911460929],[135.26504516601562,6.139189368969383],[135.17440795898438,6.139189368969383],[135.17440795898438,6.22929911460929]]]}},{"type":"Feature","id":"pmtiles:12/3587/1977:water:140:0","properties":{"class":"ocean","water":"ocean","kind":"waterway","verification":"verified","source":"OpenMapTiles/OpenStreetMap national PMTiles","sourceId":"12/3587/1977:water:140:0","sourceLayer":"water","archive":"https://its.hanifahseptiani45.workers.dev/v1/map/archive/indonesia.pmtiles","updatedAt":"2026-07-26T10:36:21.805Z"},"geometry":{"type":"Polygon","coordinates":[[[135.26229858398438,6.22929911460929],[135.35293579101562,6.22929911460929],[135.35293579101562,6.139189368969383],[135.26229858398438,6.139189368969383],[135.26229858398438,6.22929911460929]]]}},{"type":"Feature","id":"pmtiles:12/3584/1978:water:140:0","properties":{"class":"ocean","water":"ocean","kind":"waterway","verification":"verified","source":"OpenMapTiles/OpenStreetMap national PMTiles","sourceId":"12/3584/1978:water:140:0","sourceLayer":"water","archive":"https://its.hanifahseptiani45.workers.dev/v1/map/archive/indonesia.pmtiles","updatedAt":"2026-07-26T10:36:55.327Z"},"geometry":{"type":"Polygon","coordinates":[[[134.99862670898438,6.1419201924305185],[135.08926391601562,6.1419201924305185],[135.08926391601562,6.05179565978203],[134.99862670898438,6.05179565978203],[134.99862670898438,6.1419201924305185]]]}},{"type":"Feature","id":"pmtiles:12/3585/1978:water:140:0","properties":{"class":"ocean","water":"ocean","kind":"waterway","verification":"verified","source":"OpenMapTiles/OpenStreetMap national PMTiles","sourceId":"12/3585/1978:water:140:0","sourceLayer":"water","archive":"https://its.hanifahseptiani45.workers.dev/v1/map/archive/indonesia.pmtiles","updatedAt":"2026-07-26T10:36:55.390Z"},"geometry":{"type":"Polygon","coordinates":[[[135.08651733398438,6.1419201924305185],[135.17715454101562,6.1419201924305185],[135.17715454101562,6.05179565978203],[135.08651733398438,6.05179565978203],[135.08651733398438,6.1419201924305185]]]}},{"type":"Feature","id":"pmtiles:12/3586/1978:water:140:0","properties":{"class":"ocean","water":"ocean","kind":"waterway","verification":"verified","source":"OpenMapTiles/OpenStreetMap national PMTiles","sourceId":"12/3586/1978:water:140:0","sourceLayer":"water","archive":"https://its.hanifahseptiani45.workers.dev/v1/map/archive/indonesia.pmtiles","updatedAt":"2026-07-26T10:36:55.453Z"},"geometry":{"type":"Polygon","coordinates":[[[135.17440795898438,6.1419201924305185],[135.26504516601562,6.1419201924305185],[135.26504516601562,6.05179565978203],[135.17440795898438,6.05179565978203],[135.17440795898438,6.1419201924305185]]]}},{"type":"Feature","id":"pmtiles:12/3587/1978:water:140:0","properties":{"class":"ocean","water":"ocean","kind":"waterway","verification":"verified","source":"OpenMapTiles/OpenStreetMap national PMTiles","sourceId":"12/3587/1978:water:140:0","sourceLayer":"water","archive":"https://its.hanifahseptiani45.workers.dev/v1/map/archive/indonesia.pmtiles","updatedAt":"2026-07-26T10:36:55.511Z"},"geometry":{"type":"Polygon","coordinates":[[[135.26229858398438,6.1419201924305185],[135.35293579101562,6.1419201924305185],[135.35293579101562,6.05179565978203],[135.26229858398438,6.05179565978203],[135.26229858398438,6.1419201924305185]]]}},{"type":"Feature","id":"pmtiles:12/3584/1979:water:140:0","properties":{"class":"ocean","water":"ocean","kind":"waterway","verification":"verified","source":"OpenMapTiles/OpenStreetMap national PMTiles","sourceId":"12/3584/1979:water:140:0","sourceLayer":"water","archive":"https://its.hanifahseptiani45.workers.dev/v1/map/archive/indonesia.pmtiles","updatedAt":"2026-07-26T10:37:28.558Z"},"geometry":{"type":"Polygon","coordinates":[[[134.99862670898438,6.054526928194491],[135.08926391601562,6.054526928194491],[135.08926391601562,5.964387815824367],[134.99862670898438,5.964387815824367],[134.99862670898438,6.054526928194491]]]}},{"type":"Feature","id":"pmtiles:12/3585/1979:water:140:0","properties":{"class":"ocean","water":"ocean","kind":"waterway","verification":"verified","source":"OpenMapTiles/OpenStreetMap national PMTiles","sourceId":"12/3585/1979:water:140:0","sourceLayer":"water","archive":"https://its.hanifahseptiani45.workers.dev/v1/map/archive/indonesia.pmtiles","updatedAt":"2026-07-26T10:37:28.621Z"},"geometry":{"type":"Polygon","coordinates":[[[135.08651733398438,6.054526928194491],[135.17715454101562,6.054526928194491],[135.17715454101562,5.964387815824367],[135.08651733398438,5.964387815824367],[135.08651733398438,6.054526928194491]]]}},{"type":"Feature","id":"pmtiles:12/3586/1979:water:140:0","properties":{"class":"ocean","water":"ocean","kind":"waterway","verification":"verified","source":"OpenMapTiles/OpenStreetMap national PMTiles","sourceId":"12/3586/1979:water:140:0","sourceLayer":"water","archive":"https://its.hanifahseptiani45.workers.dev/v1/map/archive/indonesia.pmtiles","updatedAt":"2026-07-26T10:37:28.687Z"},"geometry":{"type":"Polygon","coordinates":[[[135.17440795898438,6.054526928194491],[135.26504516601562,6.054526928194491],[135.26504516601562,5.964387815824367],[135.17440795898438,5.964387815824367],[135.17440795898438,6.054526928194491]]]}},{"type":"Feature","id":"pmtiles:12/3587/1979:water:140:0","properties":{"class":"ocean","water":"ocean","kind":"waterway","verification":"verified","source":"OpenMapTiles/OpenStreetMap national PMTiles","sourceId":"12/3587/1979:water:140:0","sourceLayer":"water","archive":"https://its.hanifahseptiani45.workers.dev/v1/map/archive/indonesia.pmtiles","updatedAt":"2026-07-26T10:37:28.754Z"},"geometry":{"type":"Polygon","coordinates":[[[135.26229858398438,6.054526928194491],[135.35293579101562,6.054526928194491],[135.35293579101562,5.964387815824367],[135.26229858398438,5.964387815824367],[135.26229858398438,6.054526928194491]]]}},{"type":"Feature","id":"pmtiles:10/896/494:water:140:0","properties":{"class":"ocean","water":"ocean","kind":"waterway","verification":"verified","source":"OpenMapTiles/OpenStreetMap national PMTiles","sourceId":"10/896/494:water:140:0","sourceLayer":"water","archive":"https://its.hanifahseptiani45.workers.dev/v1/map/archive/indonesia.pmtiles","updatedAt":"2026-07-26T09:38:08.446Z"},"geometry":{"type":"Polygon","coordinates":[[[134.9945068359375,6.320758338986863],[135.3570556640625,6.320758338986863],[135.3570556640625,5.960290229693385],[134.9945068359375,5.960290229693385],[134.9945068359375,6.320758338986863]]]}}]}