{"type":"FeatureCollection","features":[{"type":"Feature","id":"pmtiles:10/838/538:water:1710:0","properties":{"class":"ocean","water":"ocean","kind":"waterway","verification":"verified","source":"OpenMapTiles/OpenStreetMap national PMTiles","sourceId":"10/838/538:water:1710:0","sourceLayer":"water","archive":"https://its.hanifahseptiani45.workers.dev/v1/map/archive/indonesia.pmtiles","updatedAt":"2026-07-26T09:46:43.436Z"},"geometry":{"type":"Polygon","coordinates":[[[114.6038818359375,-9.096672703361222],[114.9664306640625,-9.096672703361222],[114.9664306640625,-9.454480416742797],[114.6038818359375,-9.454480416742797],[114.6038818359375,-9.096672703361222]]]}}]}