{"type":"FeatureCollection","features":[{"type":"Feature","id":"pmtiles:12/3452/1980:water:360:0","properties":{"class":"ocean","water":"ocean","kind":"waterway","verification":"verified","source":"OpenMapTiles/OpenStreetMap national PMTiles","sourceId":"12/3452/1980:water:360:0","sourceLayer":"water","archive":"https://its.hanifahseptiani45.workers.dev/v1/map/archive/indonesia.pmtiles","updatedAt":"2026-07-26T10:37:55.008Z"},"geometry":{"type":"Polygon","coordinates":[[[123.39706420898438,5.967119522904156],[123.48770141601562,5.967119522904156],[123.48770141601562,5.87696603826862],[123.39706420898438,5.87696603826862],[123.39706420898438,5.967119522904156]]]}},{"type":"Feature","id":"pmtiles:12/3453/1980:water:360:0","properties":{"class":"ocean","water":"ocean","kind":"waterway","verification":"verified","source":"OpenMapTiles/OpenStreetMap national PMTiles","sourceId":"12/3453/1980:water:360:0","sourceLayer":"water","archive":"https://its.hanifahseptiani45.workers.dev/v1/map/archive/indonesia.pmtiles","updatedAt":"2026-07-26T10:37:55.069Z"},"geometry":{"type":"Polygon","coordinates":[[[123.48495483398438,5.967119522904156],[123.57559204101562,5.967119522904156],[123.57559204101562,5.87696603826862],[123.48495483398438,5.87696603826862],[123.48495483398438,5.967119522904156]]]}},{"type":"Feature","id":"pmtiles:12/3454/1980:water:360:0","properties":{"class":"ocean","water":"ocean","kind":"waterway","verification":"verified","source":"OpenMapTiles/OpenStreetMap national PMTiles","sourceId":"12/3454/1980:water:360:0","sourceLayer":"water","archive":"https://its.hanifahseptiani45.workers.dev/v1/map/archive/indonesia.pmtiles","updatedAt":"2026-07-26T10:37:55.134Z"},"geometry":{"type":"Polygon","coordinates":[[[123.57284545898438,5.967119522904156],[123.66348266601562,5.967119522904156],[123.66348266601562,5.87696603826862],[123.57284545898438,5.87696603826862],[123.57284545898438,5.967119522904156]]]}},{"type":"Feature","id":"pmtiles:12/3455/1980:water:20:0","properties":{"class":"ocean","water":"ocean","kind":"waterway","verification":"verified","source":"OpenMapTiles/OpenStreetMap national PMTiles","sourceId":"12/3455/1980:water:20:0","sourceLayer":"water","archive":"https://its.hanifahseptiani45.workers.dev/v1/map/archive/indonesia.pmtiles","updatedAt":"2026-07-26T10:37:55.202Z"},"geometry":{"type":"Polygon","coordinates":[[[123.66073608398438,5.967119522904156],[123.75137329101562,5.967119522904156],[123.75137329101562,5.87696603826862],[123.66073608398438,5.87696603826862],[123.66073608398438,5.967119522904156]]]}},{"type":"Feature","id":"pmtiles:12/3452/1981:water:360:0","properties":{"class":"ocean","water":"ocean","kind":"waterway","verification":"verified","source":"OpenMapTiles/OpenStreetMap national PMTiles","sourceId":"12/3452/1981:water:360:0","sourceLayer":"water","archive":"https://its.hanifahseptiani45.workers.dev/v1/map/archive/indonesia.pmtiles","updatedAt":"2026-07-26T10:38:30.061Z"},"geometry":{"type":"Polygon","coordinates":[[[123.39706420898438,5.879698177726667],[123.48770141601562,5.879698177726667],[123.48770141601562,5.789530528448793],[123.39706420898438,5.789530528448793],[123.39706420898438,5.879698177726667]]]}},{"type":"Feature","id":"pmtiles:12/3453/1981:water:360:0","properties":{"class":"ocean","water":"ocean","kind":"waterway","verification":"verified","source":"OpenMapTiles/OpenStreetMap national PMTiles","sourceId":"12/3453/1981:water:360:0","sourceLayer":"water","archive":"https://its.hanifahseptiani45.workers.dev/v1/map/archive/indonesia.pmtiles","updatedAt":"2026-07-26T10:38:30.121Z"},"geometry":{"type":"Polygon","coordinates":[[[123.48495483398438,5.879698177726667],[123.57559204101562,5.879698177726667],[123.57559204101562,5.789530528448793],[123.48495483398438,5.789530528448793],[123.48495483398438,5.879698177726667]]]}},{"type":"Feature","id":"pmtiles:12/3454/1981:water:360:0","properties":{"class":"ocean","water":"ocean","kind":"waterway","verification":"verified","source":"OpenMapTiles/OpenStreetMap national PMTiles","sourceId":"12/3454/1981:water:360:0","sourceLayer":"water","archive":"https://its.hanifahseptiani45.workers.dev/v1/map/archive/indonesia.pmtiles","updatedAt":"2026-07-26T10:38:30.187Z"},"geometry":{"type":"Polygon","coordinates":[[[123.57284545898438,5.879698177726667],[123.66348266601562,5.879698177726667],[123.66348266601562,5.789530528448793],[123.57284545898438,5.789530528448793],[123.57284545898438,5.879698177726667]]]}},{"type":"Feature","id":"pmtiles:12/3455/1981:water:20:0","properties":{"class":"ocean","water":"ocean","kind":"waterway","verification":"verified","source":"OpenMapTiles/OpenStreetMap national PMTiles","sourceId":"12/3455/1981:water:20:0","sourceLayer":"water","archive":"https://its.hanifahseptiani45.workers.dev/v1/map/archive/indonesia.pmtiles","updatedAt":"2026-07-26T10:38:30.251Z"},"geometry":{"type":"Polygon","coordinates":[[[123.66073608398438,5.879698177726667],[123.75137329101562,5.879698177726667],[123.75137329101562,5.789530528448793],[123.66073608398438,5.789530528448793],[123.66073608398438,5.879698177726667]]]}},{"type":"Feature","id":"pmtiles:12/3452/1982:water:360:0","properties":{"class":"ocean","water":"ocean","kind":"waterway","verification":"verified","source":"OpenMapTiles/OpenStreetMap national PMTiles","sourceId":"12/3452/1982:water:360:0","sourceLayer":"water","archive":"https://its.hanifahseptiani45.workers.dev/v1/map/archive/indonesia.pmtiles","updatedAt":"2026-07-26T10:39:02.128Z"},"geometry":{"type":"Polygon","coordinates":[[[123.39706420898438,5.792263093990954],[123.48770141601562,5.792263093990954],[123.48770141601562,5.702081487858422],[123.39706420898438,5.702081487858422],[123.39706420898438,5.792263093990954]]]}},{"type":"Feature","id":"pmtiles:12/3453/1982:water:360:0","properties":{"class":"ocean","water":"ocean","kind":"waterway","verification":"verified","source":"OpenMapTiles/OpenStreetMap national PMTiles","sourceId":"12/3453/1982:water:360:0","sourceLayer":"water","archive":"https://its.hanifahseptiani45.workers.dev/v1/map/archive/indonesia.pmtiles","updatedAt":"2026-07-26T10:39:02.194Z"},"geometry":{"type":"Polygon","coordinates":[[[123.48495483398438,5.792263093990954],[123.57559204101562,5.792263093990954],[123.57559204101562,5.702081487858422],[123.48495483398438,5.702081487858422],[123.48495483398438,5.792263093990954]]]}},{"type":"Feature","id":"pmtiles:12/3454/1982:water:360:0","properties":{"class":"ocean","water":"ocean","kind":"waterway","verification":"verified","source":"OpenMapTiles/OpenStreetMap national PMTiles","sourceId":"12/3454/1982:water:360:0","sourceLayer":"water","archive":"https://its.hanifahseptiani45.workers.dev/v1/map/archive/indonesia.pmtiles","updatedAt":"2026-07-26T10:39:02.265Z"},"geometry":{"type":"Polygon","coordinates":[[[123.57284545898438,5.792263093990954],[123.66348266601562,5.792263093990954],[123.66348266601562,5.702081487858422],[123.57284545898438,5.702081487858422],[123.57284545898438,5.792263093990954]]]}},{"type":"Feature","id":"pmtiles:12/3455/1982:water:20:0","properties":{"class":"ocean","water":"ocean","kind":"waterway","verification":"verified","source":"OpenMapTiles/OpenStreetMap national PMTiles","sourceId":"12/3455/1982:water:20:0","sourceLayer":"water","archive":"https://its.hanifahseptiani45.workers.dev/v1/map/archive/indonesia.pmtiles","updatedAt":"2026-07-26T10:39:02.329Z"},"geometry":{"type":"Polygon","coordinates":[[[123.66073608398438,5.792263093990954],[123.75137329101562,5.792263093990954],[123.75137329101562,5.702081487858422],[123.66073608398438,5.702081487858422],[123.66073608398438,5.792263093990954]]]}},{"type":"Feature","id":"pmtiles:12/3452/1983:water:360:0","properties":{"class":"ocean","water":"ocean","kind":"waterway","verification":"verified","source":"OpenMapTiles/OpenStreetMap national PMTiles","sourceId":"12/3452/1983:water:360:0","sourceLayer":"water","archive":"https://its.hanifahseptiani45.workers.dev/v1/map/archive/indonesia.pmtiles","updatedAt":"2026-07-26T10:39:37.657Z"},"geometry":{"type":"Polygon","coordinates":[[[123.39706420898438,5.70481447318565],[123.48770141601562,5.70481447318565],[123.48770141601562,5.61461911814834],[123.39706420898438,5.61461911814834],[123.39706420898438,5.70481447318565]]]}},{"type":"Feature","id":"pmtiles:12/3453/1983:water:360:0","properties":{"class":"ocean","water":"ocean","kind":"waterway","verification":"verified","source":"OpenMapTiles/OpenStreetMap national PMTiles","sourceId":"12/3453/1983:water:360:0","sourceLayer":"water","archive":"https://its.hanifahseptiani45.workers.dev/v1/map/archive/indonesia.pmtiles","updatedAt":"2026-07-26T10:39:37.740Z"},"geometry":{"type":"Polygon","coordinates":[[[123.48495483398438,5.70481447318565],[123.57559204101562,5.70481447318565],[123.57559204101562,5.61461911814834],[123.48495483398438,5.61461911814834],[123.48495483398438,5.70481447318565]]]}},{"type":"Feature","id":"pmtiles:12/3454/1983:water:360:0","properties":{"class":"ocean","water":"ocean","kind":"waterway","verification":"verified","source":"OpenMapTiles/OpenStreetMap national PMTiles","sourceId":"12/3454/1983:water:360:0","sourceLayer":"water","archive":"https://its.hanifahseptiani45.workers.dev/v1/map/archive/indonesia.pmtiles","updatedAt":"2026-07-26T10:39:37.818Z"},"geometry":{"type":"Polygon","coordinates":[[[123.57284545898438,5.70481447318565],[123.66348266601562,5.70481447318565],[123.66348266601562,5.61461911814834],[123.57284545898438,5.61461911814834],[123.57284545898438,5.70481447318565]]]}},{"type":"Feature","id":"pmtiles:12/3455/1983:water:20:0","properties":{"class":"ocean","water":"ocean","kind":"waterway","verification":"verified","source":"OpenMapTiles/OpenStreetMap national PMTiles","sourceId":"12/3455/1983:water:20:0","sourceLayer":"water","archive":"https://its.hanifahseptiani45.workers.dev/v1/map/archive/indonesia.pmtiles","updatedAt":"2026-07-26T10:39:37.888Z"},"geometry":{"type":"Polygon","coordinates":[[[123.66073608398438,5.70481447318565],[123.75137329101562,5.70481447318565],[123.75137329101562,5.61461911814834],[123.66073608398438,5.61461911814834],[123.66073608398438,5.70481447318565]]]}},{"type":"Feature","id":"pmtiles:10/863/495:water:20:0","properties":{"class":"ocean","water":"ocean","kind":"waterway","verification":"verified","source":"OpenMapTiles/OpenStreetMap national PMTiles","sourceId":"10/863/495:water:20:0","sourceLayer":"water","archive":"https://its.hanifahseptiani45.workers.dev/v1/map/archive/indonesia.pmtiles","updatedAt":"2026-07-26T09:38:15.186Z"},"geometry":{"type":"Polygon","coordinates":[[[123.3929443359375,5.971217057997222],[123.7554931640625,5.971217057997222],[123.7554931640625,5.61051899590089],[123.3929443359375,5.61051899590089],[123.3929443359375,5.971217057997222]]]}}]}