{"type":"FeatureCollection","features":[{"type":"Feature","id":"pmtiles:10/885/498:water:80:0","properties":{"class":"ocean","water":"ocean","kind":"waterway","verification":"verified","source":"OpenMapTiles/OpenStreetMap national PMTiles","sourceId":"10/885/498:water:80:0","sourceLayer":"water","archive":"https://its.hanifahseptiani45.workers.dev/v1/map/archive/indonesia.pmtiles","updatedAt":"2026-07-26T09:39:07.572Z"},"geometry":{"type":"Polygon","coordinates":[[[131.1273193359375,4.921305737130211],[131.4898681640625,4.921305737130211],[131.4898681640625,4.559997795432594],[131.1273193359375,4.559997795432594],[131.1273193359375,4.921305737130211]]]}}]}