{"type":"FeatureCollection","features":[{"type":"Feature","id":"pmtiles:10/848/507:landcover:84397823:0","properties":{"subclass":"orchard","class":"farmland","kind":"green","verification":"verified","source":"OpenMapTiles/OpenStreetMap national PMTiles","sourceId":"10/848/507:landcover:84397823:0","sourceLayer":"landcover","archive":"https://its.hanifahseptiani45.workers.dev/v1/map/archive/indonesia.pmtiles","updatedAt":"2026-07-26T09:40:28.025Z"},"geometry":{"type":"Polygon","coordinates":[[[118.2297134399414,1.5159363834516881],[118.23040008544922,1.5198832096681514],[118.22954177856445,1.5240874296591471],[118.2352066040039,1.5249454327312009],[118.23872566223145,1.5277768404410779],[118.24087142944336,1.527948440788478],[118.24138641357422,1.5401320303218853],[118.24310302734375,1.5407326280088967],[118.24653625488281,1.5499989708217186],[118.24902534484863,1.550084770103112],[118.25211524963379,1.5524013493856614],[118.25692176818848,1.5472533919827498],[118.25743675231934,1.5445936090935106],[118.26009750366211,1.5447652080901264],[118.26035499572754,1.5414190251581346],[118.26284408569336,1.5415906244108726],[118.26310157775879,1.5354988424802514],[118.29151153564453,1.5348124434266168],[118.30395698547363,1.524259030300911],[118.30824851989746,1.5234010269553409],[118.32301139831543,1.5167085891477257],[118.3297061920166,1.5104451350115653],[118.33597183227539,1.5070130976862544],[118.34043502807617,1.5089007188852577],[118.34549903869629,1.505640281241071],[118.3476448059082,1.4974033644414533],[118.35897445678711,1.4947435201049615],[118.36369514465332,1.4915688629698707],[118.36798667907715,1.4851337331137557],[118.3670425415039,1.4778405632951745],[118.35708618164062,1.4702041598195734],[118.35665702819824,1.4756955087851935],[118.34798812866211,1.473464649900265],[118.33863258361816,1.476639333024636],[118.33399772644043,1.4676300853389108],[118.3224105834961,1.4665146521435446],[118.3176040649414,1.4738078591049941],[118.30721855163574,1.4769825417396447],[118.30275535583496,1.4835034972388428],[118.29219818115234,1.4915688629698707],[118.28086853027344,1.498432980737718],[118.2703971862793,1.498604583406717],[118.26936721801758,1.499891602995504],[118.26559066772461,1.5010928205954173],[118.26370239257812,1.5040958617068299],[118.25185775756836,1.5087291170257373],[118.2484245300293,1.5107883384461473],[118.24627876281738,1.5107025375925929],[118.24542045593262,1.5124185540198027],[118.24233055114746,1.5131907609694224],[118.23237419128418,1.518424600818804],[118.23143005371094,1.5165369879057522],[118.2297134399414,1.5159363834516881]],[[118.26181411743164,1.506841495677918],[118.26207160949707,1.5079569084904136],[118.2674789428711,1.5076995055843838],[118.2674789428711,1.51730919338749],[118.26413154602051,1.5173949939795364],[118.26258659362793,1.5146493733462876],[118.26250076293945,1.5114747451526682],[118.26155662536621,1.5089007188852577],[118.26181411743164,1.506841495677918]]]}},{"type":"Feature","id":"pmtiles:10/848/507:landuse:6067600500:0","properties":{"class":"residential","kind":"green","verification":"verified","source":"OpenMapTiles/OpenStreetMap national PMTiles","sourceId":"10/848/507:landuse:6067600500:0","sourceLayer":"landuse","archive":"https://its.hanifahseptiani45.workers.dev/v1/map/archive/indonesia.pmtiles","updatedAt":"2026-07-26T09:40:28.026Z"},"geometry":{"type":"Polygon","coordinates":[[[118.26138496398926,1.5235726276518022],[118.26370239257812,1.5235726276518022],[118.26387405395508,1.5197974091748705],[118.26430320739746,1.519368406657307],[118.26138496398926,1.519454207167641],[118.26138496398926,1.5235726276518022]]]}},{"type":"Feature","id":"pmtiles:10/848/507:landuse:6067600500:1","properties":{"class":"residential","kind":"green","verification":"verified","source":"OpenMapTiles/OpenStreetMap national PMTiles","sourceId":"10/848/507:landuse:6067600500:1","sourceLayer":"landuse","archive":"https://its.hanifahseptiani45.workers.dev/v1/map/archive/indonesia.pmtiles","updatedAt":"2026-07-26T09:40:28.026Z"},"geometry":{"type":"Polygon","coordinates":[[[118.30996513366699,1.4343384569578461],[118.31511497497559,1.4339952417523705],[118.31734657287598,1.43270818427348],[118.3183765411377,1.4348532796695537],[118.31846237182617,1.432622380415836],[118.3201789855957,1.4321933610794417],[118.32026481628418,1.429962459235952],[118.31623077392578,1.425929669633902],[118.31502914428711,1.4260154737416286],[118.31485748291016,1.4307346947350226],[118.31357002258301,1.4307346947350226],[118.3132266998291,1.4296192433751855],[118.30970764160156,1.429533439401979],[118.30996513366699,1.4343384569578461]]]}},{"type":"Feature","id":"pmtiles:10/848/507:landuse:6067600500:2","properties":{"class":"residential","kind":"green","verification":"verified","source":"OpenMapTiles/OpenStreetMap national PMTiles","sourceId":"10/848/507:landuse:6067600500:2","sourceLayer":"landuse","archive":"https://its.hanifahseptiani45.workers.dev/v1/map/archive/indonesia.pmtiles","updatedAt":"2026-07-26T09:40:28.026Z"},"geometry":{"type":"Polygon","coordinates":[[[118.34747314453125,1.411257120334767],[118.34773063659668,1.412286775948445],[118.3498764038086,1.41254418978059],[118.35047721862793,1.4139170630703148],[118.3502197265625,1.4144318903446589],[118.35227966308594,1.4184647000387542],[118.35442543029785,1.4177782648419708],[118.35391044616699,1.4162337849051454],[118.35519790649414,1.4152041310420174],[118.35253715515137,1.4127157989861843],[118.35159301757812,1.4130590173593447],[118.35159301757812,1.4123725805623195],[118.35382461547852,1.4116861435625623],[118.35391044616699,1.4102274642652475],[118.34747314453125,1.411257120334767]]]}},{"type":"Feature","id":"pmtiles:10/848/507:landuse:6067600500:3","properties":{"class":"residential","kind":"green","verification":"verified","source":"OpenMapTiles/OpenStreetMap national PMTiles","sourceId":"10/848/507:landuse:6067600500:3","sourceLayer":"landuse","archive":"https://its.hanifahseptiani45.workers.dev/v1/map/archive/indonesia.pmtiles","updatedAt":"2026-07-26T09:40:28.026Z"},"geometry":{"type":"Polygon","coordinates":[[[118.3571720123291,1.4156331535405542],[118.35914611816406,1.4148609129860574],[118.36223602294922,1.414603499410731],[118.36360931396484,1.4151183265327916],[118.36463928222656,1.4124583851730534],[118.3641242980957,1.41177194819862],[118.36163520812988,1.41254418978059],[118.36163520812988,1.413316431105926],[118.36103439331055,1.4137454539534815],[118.35923194885254,1.4137454539534815],[118.35931777954102,1.4116003389233356],[118.35871696472168,1.4115145342809399],[118.3582878112793,1.4137454539534815],[118.3568286895752,1.4145176948792937],[118.3571720123291,1.4156331535405542]]]}},{"type":"Feature","id":"pmtiles:10/848/507:transportation:6203194260:0","properties":{"class":"secondary","highway":"secondary","kind":"road","verification":"verified","source":"OpenMapTiles/OpenStreetMap national PMTiles","sourceId":"10/848/507:transportation:6203194260:0","sourceLayer":"transportation","archive":"https://its.hanifahseptiani45.workers.dev/v1/map/archive/indonesia.pmtiles","updatedAt":"2026-07-26T09:40:28.026Z"},"geometry":{"type":"LineString","coordinates":[[118.1195068359375,1.6118593382954174],[118.1206226348877,1.6115161513605045],[118.12482833862305,1.614347441842881],[118.13263893127441,1.6150338146996148],[118.13375473022461,1.614862221507181],[118.13435554504395,1.6152912044611298],[118.13538551330566,1.6154627976173543],[118.14027786254883,1.615548594190031],[118.14190864562988,1.6159775769990574],[118.14345359802246,1.616921338859953],[118.14474105834961,1.6170929318784175],[118.14705848693848,1.616749745826965],[118.1521224975586,1.616578152779482],[118.15435409545898,1.6158059838863181],[118.15890312194824,1.6159775769990574],[118.1594181060791,1.6157201873245128],[118.16173553466797,1.61331788212334],[118.16388130187988,1.6119451350201075],[118.1660270690918,1.6116877448351943],[118.16765785217285,1.6102291998396083],[118.16971778869629,1.609285434874451],[118.17049026489258,1.6093712317075273],[118.17143440246582,1.6090280443536074],[118.1747817993164,1.6091996380377793],[118.17812919616699,1.6050813856364385],[118.17675590515137,1.6032796476013402],[118.17812919616699,1.6017352994518461],[118.18018913269043,1.5976170320323035],[118.18370819091797,1.5932413638533802],[118.18636894226074,1.588865686379691],[118.18757057189941,1.5877503161283784],[118.19151878356934,1.585262180322644],[118.19572448730469,1.5810580819964315],[118.1964111328125,1.5798569094811938],[118.19666862487793,1.5780551494062678],[118.1975269317627,1.576596580583228],[118.19812774658203,1.5760817913428156],[118.19993019104004,1.5755670019751307],[118.20233345031738,1.5766823787775905],[118.20396423339844,1.5771113696963397],[118.20490837097168,1.576939773339447],[118.20619583129883,1.5760817913428156],[118.20696830749512,1.569561116629501],[118.20550918579102,1.5642416037726576],[118.20550918579102,1.5629546228277462],[118.20585250854492,1.5620966350928995],[118.20954322814941,1.5598658653430135],[118.21168899536133,1.557120299327437],[118.21280479431152,1.5561765101832634],[118.21426391601562,1.555661715926604],[118.21761131286621,1.5553185196856845],[118.21941375732422,1.5542889306281324],[118.22224617004395,1.5536025376441671],[118.22482109069824,1.552487148569611],[118.22696685791016,1.5506853649754504],[118.22799682617188,1.5502563686554396],[118.2293701171875,1.549741572956691],[118.23185920715332,1.5496557736613994],[118.23323249816895,1.5481971851098137],[118.23460578918457,1.5477681882859429],[118.23546409606934,1.5471675925867316],[118.23700904846191,1.5452800049967976],[118.23709487915039,1.5445936090935106],[118.23657989501953,1.5433924157292864],[118.23666572570801,1.542019622482215],[118.2374382019043,1.5411616262530998],[118.23769569396973,1.5403036296783057],[118.23855400085449,1.5389308344401087],[118.23863983154297,1.5366142404722467],[118.23958396911621,1.5349840432106845],[118.23898315429688,1.5306940444813506],[118.23846817016602,1.528978042584896],[118.23649406433105,1.5268330382854174],[118.23512077331543,1.5257176352035913],[118.23434829711914,1.5252886338642497],[118.22962760925293,1.5246880318454856],[118.2290267944336,1.524259030300911],[118.22885513305664,1.5235726276518022],[118.22954177856445,1.5196258081780627],[118.2290267944336,1.5156789814917886],[118.22773933410645,1.5137055654497829],[118.22756767272949,1.5125043548055714],[118.22782516479492,1.511388944326228],[118.22834014892578,1.510959940143124],[118.23966979980469,1.5059834854334468],[118.2418155670166,1.5032378503820638],[118.24353218078613,1.499891602995504],[118.24430465698242,1.4992051926423073],[118.24636459350586,1.4990335900203888],[118.25305938720703,1.499462596549975],[118.25443267822266,1.499290993948236],[118.25700759887695,1.4982613780552896],[118.26189994812012,1.4956015347593876],[118.26387405395508,1.4939713066293194],[118.2663631439209,1.4937997035978583],[118.26730728149414,1.4934564974947477],[118.27194213867188,1.49122565651858],[118.27451705932617,1.4903676401562365],[118.28799247741699,1.4841899124905495],[118.2923698425293,1.4799856157332982],[118.29460144042969,1.47741155255882],[118.29571723937988,1.4765535308376059],[118.29983711242676,1.4713195911730708],[118.30241203308105,1.468917122949918],[118.32026481628418,1.4488392522011395],[118.32189559936523,1.447294793202829],[118.32318305969238,1.4452355129023715],[118.32550048828125,1.443347837653178],[118.32919120788574,1.4394866788558573],[118.33056449890137,1.4371699804377727],[118.34103584289551,1.4158047625177375],[118.34300994873047,1.415375740050962],[118.34395408630371,1.4140886721744579],[118.34670066833496,1.4119435574612282],[118.34815979003906,1.4116003389233356],[118.35073471069336,1.4116003389233356],[118.35193634033203,1.4111713156797379],[118.35476875305176,1.4110855110215113],[118.35614204406738,1.4116003389233356],[118.36060523986816,1.4110855110215113],[118.36206436157227,1.4116003389233356],[118.36369514465332,1.4110855110215113],[118.3655834197998,1.4110855110215113],[118.36661338806152,1.4095410266324677],[118.3710765838623,1.4080823459910476],[118.37227821350098,1.4061088354351625],[118.37408065795898,1.4043927379432262],[118.37682723999023,1.4006173190275177]]}},{"type":"Feature","id":"pmtiles:10/848/507:water:1360:0","properties":{"class":"ocean","water":"ocean","kind":"waterway","verification":"verified","source":"OpenMapTiles/OpenStreetMap national PMTiles","sourceId":"10/848/507:water:1360:0","sourceLayer":"water","archive":"https://its.hanifahseptiani45.workers.dev/v1/map/archive/indonesia.pmtiles","updatedAt":"2026-07-26T09:40:28.026Z"},"geometry":{"type":"Polygon","coordinates":[[[118.12457084655762,1.7630273831138794],[118.12542915344238,1.7630273831138794],[118.4820556640625,1.7630273831138794],[118.4820556640625,1.4531294105569827],[118.47536087036133,1.4600794497893474],[118.47295761108398,1.460594266656699],[118.47244262695312,1.456389925458737],[118.4699535369873,1.460251055424905],[118.47021102905273,1.465828231439275],[118.46626281738281,1.466600454716783],[118.46231460571289,1.4630825465188337],[118.45828056335449,1.4635115600093371],[118.45948219299316,1.459650435643141],[118.4611988067627,1.4561325165589238],[118.46068382263184,1.4520997732938667],[118.46205711364746,1.4508127260553891],[118.46574783325195,1.451155938723943],[118.46866607666016,1.4478954162716633],[118.47021102905273,1.4458361365163341],[118.46694946289062,1.4407737325156802],[118.47201347351074,1.43794221350511],[118.47484588623047,1.4394008752526872],[118.47836494445801,1.4393150716462912],[118.47896575927734,1.4357113172648894],[118.48136901855469,1.431935949439037],[118.47982406616211,1.4300482631931288],[118.47441673278809,1.4306488908035107],[118.47381591796875,1.4286753994935282],[118.4696102142334,1.4282463794191358],[118.46514701843262,1.424814215942476],[118.46609115600586,1.4208672216232259],[118.46789360046387,1.4159763714822304],[118.47029685974121,1.408597174557002],[118.47098350524902,1.4051649819706284],[118.47115516662598,1.403019859042331],[118.47493171691895,1.4006173190275177],[118.40961456298828,1.4006173190275177],[118.40901374816895,1.4014753693158042],[118.40909957885742,1.4019901993378596],[118.40961456298828,1.4024192242697922],[118.41090202331543,1.4024192242697922],[118.41279029846191,1.401561174327341],[118.4135627746582,1.4013895643011267],[118.41982841491699,1.4032772738976433],[118.42008590698242,1.4035346887246334],[118.42034339904785,1.404135323210724],[118.42025756835938,1.4073959077262117],[118.4205150604248,1.407996541218992],[118.42291831970215,1.4101416595722185],[118.42738151550293,1.4121151667111747],[118.4282398223877,1.4127157989861843],[118.42909812927246,1.4136596493903113],[118.42918395996094,1.4147751084640987],[118.4282398223877,1.4156331535405542],[118.4282398223877,1.4160621759597092],[118.42892646789551,1.4171776338777988],[118.43029975891113,1.4232697407089034],[118.4300422668457,1.4243851951480764],[118.42884063720703,1.4262728860456093],[118.42798233032227,1.4268735146429066],[118.42575073242188,1.4273883390300597],[118.42480659484863,1.4285037914733891],[118.4230899810791,1.4288470075008775],[118.41974258422852,1.4288470075008775],[118.41708183288574,1.4278173592646226],[118.41682434082031,1.4279031633019343],[118.41665267944336,1.4282463794191358],[118.41691017150879,1.4290186154953801],[118.41948509216309,1.4304772829308803],[118.42154502868652,1.4306488908035107],[118.42369079589844,1.4314211260715268],[118.42626571655273,1.4313353221656797],[118.42652320861816,1.4315069299741197],[118.42652320861816,1.431935949439037],[118.42497825622559,1.432622380415836],[118.42317581176758,1.43382363413032],[118.42094421386719,1.433909437942944],[118.41948509216309,1.4337378303144703],[118.41596603393555,1.4315927338735293],[118.41004371643066,1.4291044194878282],[118.40892791748047,1.4282463794191358],[118.40609550476074,1.425329040790274],[118.40446472167969,1.4251574325204786],[118.4022331237793,1.4243851951480764],[118.40171813964844,1.4246426076343113],[118.40163230895996,1.4258438655229781],[118.40197563171387,1.4272167309137984],[118.40146064758301,1.4272167309137984],[118.40085983276367,1.4271309268508787],[118.4011173248291,1.4254148449203967],[118.40085983276367,1.4246426076343113],[118.40008735656738,1.424985824237865],[118.39914321899414,1.424985824237865],[118.39425086975098,1.4243851951480764],[118.39279174804688,1.4247284117899852],[118.38961601257324,1.422926523849796],[118.3890151977539,1.4227549154011],[118.3875560760498,1.4230981322857303],[118.3872127532959,1.4236987617109236],[118.38729858398438,1.4240419784550653],[118.38858604431152,1.4246426076343113],[118.38850021362305,1.4254148449203967],[118.38892936706543,1.4267019064882476],[118.38841438293457,1.4283321834404177],[118.38850021362305,1.4296192433751855],[118.38772773742676,1.4301340671471081],[118.38446617126465,1.4294476354255465],[118.3817195892334,1.4273025349735207],[118.38017463684082,1.4264444942322712],[118.37905883789062,1.4264444942322712],[118.37674140930176,1.4254148449203967],[118.37631225585938,1.4254148449203967],[118.37596893310547,1.425672257291538],[118.37665557861328,1.426616102406129],[118.37983131408691,1.4283321834404177],[118.38249206542969,1.4308204986633086],[118.3842945098877,1.4317643416627135],[118.38480949401855,1.4324507726909133],[118.38558197021484,1.4345100645412856],[118.38652610778809,1.4350248872143823],[118.39038848876953,1.435282298507488],[118.3930492401123,1.4359687284807165],[118.39570999145508,1.4355397097715894],[118.39802742004395,1.4358829247453144],[118.39914321899414,1.4361403359418148],[118.40085983276367,1.437513195166602],[118.40206146240234,1.436826765657358],[118.40309143066406,1.436740961954186],[118.40455055236816,1.4370841767475042],[118.40532302856445,1.437513195166602],[118.40798377990723,1.4372557841248295],[118.41347694396973,1.4381996244695046],[118.4150218963623,1.439143464423836],[118.41673851013184,1.4410311431604015],[118.41785430908203,1.443347837653178],[118.41811180114746,1.4454929230420959],[118.42068672180176,1.449010858691537],[118.42103004455566,1.4500404973608028],[118.42111587524414,1.4510701355616646],[118.41802597045898,1.4595646328040743],[118.41699600219727,1.4607658722529493],[118.41630935668945,1.4611090834061287],[118.4157943725586,1.4611090834061287],[118.41193199157715,1.4593072242672491],[118.41107368469238,1.4592214214150943],[118.41055870056152,1.4595646328040743],[118.41055870056152,1.4608516750461575],[118.41107368469238,1.4622245192917092],[118.41279029846191,1.4667720598533691],[118.41433525085449,1.469260332854347],[118.41485023498535,1.4723492196197299],[118.41459274291992,1.4737220568087537],[118.41296195983887,1.4781837718245754],[118.4117603302002,1.4807578341032581],[118.41158866882324,1.4836751010717393],[118.4103012084961,1.4861633551520725],[118.40944290161133,1.4871929767103467],[118.40832710266113,1.4876219855511863],[118.4077262878418,1.4874503820248606],[118.40738296508789,1.4871071749321487],[118.40652465820312,1.4835892991569466],[118.40592384338379,1.482559675920001],[118.4054946899414,1.4824738739619647],[118.40455055236816,1.4838467048913202],[118.40352058410645,1.4841899124905495],[118.40240478515625,1.4835034972388428],[118.40137481689453,1.4813584482050288],[118.40034484863281,1.4808436361277586],[118.39991569519043,1.4808436361277586],[118.3993148803711,1.481530052204178],[118.40025901794434,1.4842757143820506],[118.40025901794434,1.4848763275292072],[118.39974403381348,1.4848763275292072],[118.39879989624023,1.4842757143820506],[118.39828491210938,1.4842757143820506],[118.39776992797852,1.4862491569669203],[118.39485168457031,1.4877077873093612],[118.3941650390625,1.4875361837897003],[118.3938217163086,1.4871929767103467],[118.3927059173584,1.485047931255565],[118.38995933532715,1.4845331200365166],[118.38704109191895,1.4820448641219315],[118.38652610778809,1.4824738739619647],[118.38644027709961,1.4848763275292072],[118.38747024536133,1.4871929767103467],[118.38704109191895,1.4877077873093612],[118.38669776916504,1.4877077873093612],[118.38523864746094,1.4872787784851766],[118.38309288024902,1.4845331200365166],[118.38266372680664,1.4838467048913202],[118.38197708129883,1.481186844192564],[118.38120460510254,1.4811010421813364],[118.37759971618652,1.4827312798260976],[118.37399482727051,1.485562742354702],[118.3736515045166,1.486334958778457],[118.37408065795898,1.4870213731506396],[118.37605476379395,1.4884800029826124],[118.3773422241211,1.4896812268256667],[118.37983131408691,1.4895096234595968],[118.38120460510254,1.48985283017835],[118.38240623474121,1.4908824500137712],[118.38446617126465,1.4909682516449863],[118.3857536315918,1.4920836725464284],[118.38712692260742,1.4924268788638528],[118.38798522949219,1.4929416882395827],[118.38815689086914,1.494400314149317],[118.38789939880371,1.4949151230626825],[118.38618278503418,1.4966311519018376],[118.38601112365723,1.4975749671910847],[118.38592529296875,1.499720000427402],[118.38541030883789,1.5006638143854758],[118.38480949401855,1.5007496156341915],[118.38412284851074,1.5000632055501626],[118.3831787109375,1.4978323712903574],[118.38257789611816,1.4968885561119265],[118.38180541992188,1.496202144817886],[118.38008880615234,1.4952583289378651],[118.37897300720215,1.4952583289378651],[118.37837219238281,1.495429931855341],[118.37777137756348,1.4963737476615364],[118.3762264251709,1.5004922118779263],[118.37562561035156,1.5014360255027839],[118.37390899658203,1.5021224351558402],[118.37013244628906,1.5018650315612092],[118.36918830871582,1.5022082363473004],[118.3681583404541,1.5048680716106588],[118.36747169494629,1.5059834854334468],[118.36506843566895,1.5067556946686693],[118.36189270019531,1.5070988986853706],[118.35725784301758,1.5069272966837701],[118.3527946472168,1.5082143113659612],[118.34524154663086,1.5112173426631443],[118.32807540893555,1.5209128153216085],[118.31949234008789,1.5264040371685894],[118.31399917602539,1.5295786434047898],[118.30953598022461,1.5312946448207327],[118.30730438232422,1.5316378449390982],[118.30618858337402,1.5316378449390982],[118.30533027648926,1.531380444855472],[118.3018970489502,1.529750243608163],[118.3004379272461,1.5298360437047052],[118.30018043518066,1.5301792440565407],[118.30035209655762,1.530951444647414],[118.30292701721191,1.533525444607264],[118.30309867858887,1.534126044152643],[118.30301284790039,1.534898243320356],[118.30241203308105,1.5360136416258285],[118.30129623413086,1.537214839149783],[118.29837799072266,1.5393598330470013],[118.29631805419922,1.5404752290209132],[118.28507423400879,1.545194205521014],[118.28404426574707,1.5454516039379484],[118.28189849853516,1.5454516039379484],[118.28035354614258,1.5448510075832331],[118.27906608581543,1.5439930124962444],[118.27726364135742,1.5441646115413477],[118.27580451965332,1.5452800049967976],[118.2744312286377,1.5474249907643696],[118.27357292175293,1.5482829844641515],[118.26876640319824,1.5499131715368435],[118.26395988464355,1.5518865542087639],[118.26129913330078,1.552487148569611],[118.25786590576172,1.5548895243060628],[118.2568359375,1.5553185196856845],[118.25057029724121,1.5565197062845613],[118.24773788452148,1.5572918973082466],[118.24610710144043,1.558407283842925],[118.24447631835938,1.56123864700767],[118.23606491088867,1.5663007716422328],[118.23280334472656,1.56870313159898],[118.22559356689453,1.5747948176850741],[118.22319030761719,1.577368764205147],[118.22001457214355,1.5801143036500918],[118.21683883666992,1.5836320207592962],[118.2125473022461,1.5878361138613855],[118.21108818054199,1.5886940909956166],[118.20696830749512,1.5904100441948543],[118.20276260375977,1.5933271613580615],[118.19855690002441,1.5958152874388674],[118.19409370422363,1.5977028293544748],[118.19169044494629,1.5990755860220247],[118.18233489990234,1.6055961676406412],[118.18044662475586,1.6071405128752616],[118.17812919616699,1.609285434874451],[118.17684173583984,1.6110871676105347],[118.17383766174316,1.617264524882387],[118.17306518554688,1.6184656755038134],[118.17091941833496,1.6201816037286534],[118.16988945007324,1.621897530499922],[118.16903114318848,1.6219833268003043],[118.16774368286133,1.6234418633500098],[118.16576957702637,1.625157787355306],[118.16482543945312,1.6265305255098212],[118.1631088256836,1.627388486382202],[118.16139221191406,1.6271310981587987],[118.15838813781738,1.6279032627304417],[118.15486907958984,1.6294475909863166],[118.15306663513184,1.6299623668085275],[118.14997673034668,1.6319356729074457],[118.14877510070801,1.63227885637923],[118.14242362976074,1.633651589680511],[118.14019203186035,1.6332226106245855],[118.13778877258301,1.6332226106245855],[118.1345272064209,1.633994772859296],[118.13349723815918,1.6345095475175384],[118.13032150268555,1.6367402361776016],[118.12808990478516,1.6393141046246313],[118.12457084655762,1.6426601286578943],[118.1195068359375,1.6472072805392202],[118.1195068359375,1.7630273831138794],[118.12457084655762,1.7630273831138794]]]}},{"type":"Feature","id":"pmtiles:10/849/507:water:1360:1","properties":{"class":"ocean","water":"ocean","kind":"waterway","verification":"verified","source":"OpenMapTiles/OpenStreetMap national PMTiles","sourceId":"10/849/507:water:1360:1","sourceLayer":"water","archive":"https://its.hanifahseptiani45.workers.dev/v1/map/archive/indonesia.pmtiles","updatedAt":"2026-07-26T09:40:28.319Z"},"geometry":{"type":"Polygon","coordinates":[[[118.4710693359375,1.4284179874585163],[118.4710693359375,1.4384570354048662],[118.47201347351074,1.43794221350511],[118.47484588623047,1.4394008752526872],[118.47836494445801,1.4393150716462912],[118.47896575927734,1.4357113172648894],[118.48136901855469,1.431935949439037],[118.47982406616211,1.4300482631931288],[118.47441673278809,1.4306488908035107],[118.47381591796875,1.4286753994935282],[118.4710693359375,1.4284179874585163]]]}},{"type":"Feature","id":"pmtiles:10/848/508:landuse:6067600500:0","properties":{"class":"residential","kind":"green","verification":"verified","source":"OpenMapTiles/OpenStreetMap national PMTiles","sourceId":"10/848/508:landuse:6067600500:0","sourceLayer":"landuse","archive":"https://its.hanifahseptiani45.workers.dev/v1/map/archive/indonesia.pmtiles","updatedAt":"2026-07-26T09:40:46.596Z"},"geometry":{"type":"Polygon","coordinates":[[[118.34747314453125,1.411257120334767],[118.34755897521973,1.4116003389233356],[118.35382461547852,1.4116003389233356],[118.35391044616699,1.4102274642652475],[118.34747314453125,1.411257120334767]]]}},{"type":"Feature","id":"pmtiles:10/848/508:transportation:7640941330:0","properties":{"class":"secondary","highway":"secondary","kind":"road","verification":"verified","source":"OpenMapTiles/OpenStreetMap national PMTiles","sourceId":"10/848/508:transportation:7640941330:0","sourceLayer":"transportation","archive":"https://its.hanifahseptiani45.workers.dev/v1/map/archive/indonesia.pmtiles","updatedAt":"2026-07-26T09:40:46.596Z"},"geometry":{"type":"LineString","coordinates":[[118.3502197265625,1.4116003389233356],[118.35193634033203,1.4111713156797379],[118.35476875305176,1.4110855110215113],[118.35614204406738,1.4116003389233356],[118.36060523986816,1.4110855110215113],[118.36197853088379,1.4116003389233356]]}},{"type":"Feature","id":"pmtiles:8/212/126:landcover:84397823:0","properties":{"subclass":"orchard","class":"farmland","kind":"green","verification":"verified","source":"OpenMapTiles/OpenStreetMap national PMTiles","sourceId":"8/212/126:landcover:84397823:0","sourceLayer":"landcover","archive":"https://its.hanifahseptiani45.workers.dev/v1/map/archive/indonesia.pmtiles","updatedAt":"2026-07-26T09:35:24.188Z"},"geometry":{"type":"Polygon","coordinates":[[[118.2297134399414,1.5159363834516881],[118.2297134399414,1.5241732299817272],[118.2406997680664,1.527948440788478],[118.24138641357422,1.539960430951652],[118.24653625488281,1.5499131715368435],[118.25202941894531,1.5523155501982018],[118.25752258300781,1.5447652080901264],[118.26026916503906,1.5447652080901264],[118.26026916503906,1.5413332255265715],[118.2626724243164,1.5416764240320617],[118.26301574707031,1.5354988424802514],[118.29151153564453,1.5348124434266168],[118.30387115478516,1.5241732299817272],[118.3230972290039,1.5166227885284371],[118.33614349365234,1.5070130976862544],[118.34026336669922,1.5090723207312493],[118.34541320800781,1.505640281241071],[118.34747314453125,1.4974033644414533],[118.35914611816406,1.4946577186210703],[118.36360931396484,1.4915688629698707],[118.36807250976562,1.485047931255565],[118.3670425415039,1.4778405632951745],[118.35708618164062,1.470289962251158],[118.35674285888672,1.475781311005349],[118.34815979003906,1.4733788475908085],[118.33854675292969,1.476467728647279],[118.3340835571289,1.4675442828051644],[118.3224105834961,1.4665146521435446],[118.3176040649414,1.4737220568087537],[118.30730438232422,1.477154146077254],[118.30284118652344,1.4836751010717393],[118.28086853027344,1.498432980737718],[118.27022552490234,1.498432980737718],[118.26370239257812,1.5042674639312992],[118.23246002197266,1.518338800267614],[118.2297134399414,1.5159363834516881]]]}},{"type":"Feature","id":"pmtiles:8/212/126:landuse:6067600500:0","properties":{"class":"residential","kind":"green","verification":"verified","source":"OpenMapTiles/OpenStreetMap national PMTiles","sourceId":"8/212/126:landuse:6067600500:0","sourceLayer":"landuse","archive":"https://its.hanifahseptiani45.workers.dev/v1/map/archive/indonesia.pmtiles","updatedAt":"2026-07-26T09:35:24.188Z"},"geometry":{"type":"Polygon","coordinates":[[[118.31005096435547,1.4342526531612947],[118.3172607421875,1.4325365765549947],[118.31829071044922,1.434939083443581],[118.32035064697266,1.429790851311978],[118.31520080566406,1.4260154737416286],[118.31485748291016,1.4308204986633086],[118.30970764160156,1.4294476354255465],[118.31005096435547,1.4342526531612947]]]}},{"type":"Feature","id":"pmtiles:8/212/127:water:1160:0","properties":{"class":"ocean","water":"ocean","kind":"waterway","verification":"verified","source":"OpenMapTiles/OpenStreetMap national PMTiles","sourceId":"8/212/127:water:1160:0","sourceLayer":"water","archive":"https://its.hanifahseptiani45.workers.dev/v1/map/archive/indonesia.pmtiles","updatedAt":"2026-07-26T09:35:30.303Z"},"geometry":{"type":"Polygon","coordinates":[[[118.3890151977539,1.4267019064882476],[118.3883285522461,1.4280747713669228],[118.40892791748047,1.4280747713669228],[118.40618133544922,1.425329040790274],[118.40240478515625,1.4242993909796269],[118.40137481689453,1.4273883390300597],[118.40068817138672,1.4270451227847616],[118.40068817138672,1.4246426076343113],[118.39279174804688,1.4246426076343113],[118.38970184326172,1.422926523849796],[118.38764190673828,1.422926523849796],[118.3890151977539,1.4267019064882476]]]}}]}