{"type":"FeatureCollection","features":[{"type":"Feature","id":"pmtiles:12/3516/1980:water:340:0","properties":{"class":"ocean","water":"ocean","kind":"waterway","verification":"verified","source":"OpenMapTiles/OpenStreetMap national PMTiles","sourceId":"12/3516/1980:water:340:0","sourceLayer":"water","archive":"https://its.hanifahseptiani45.workers.dev/v1/map/archive/indonesia.pmtiles","updatedAt":"2026-07-26T10:37:59.158Z"},"geometry":{"type":"Polygon","coordinates":[[[129.02206420898438,5.967119522904156],[129.11270141601562,5.967119522904156],[129.11270141601562,5.87696603826862],[129.02206420898438,5.87696603826862],[129.02206420898438,5.967119522904156]]]}},{"type":"Feature","id":"pmtiles:12/3517/1980:water:340:0","properties":{"class":"ocean","water":"ocean","kind":"waterway","verification":"verified","source":"OpenMapTiles/OpenStreetMap national PMTiles","sourceId":"12/3517/1980:water:340:0","sourceLayer":"water","archive":"https://its.hanifahseptiani45.workers.dev/v1/map/archive/indonesia.pmtiles","updatedAt":"2026-07-26T10:37:59.232Z"},"geometry":{"type":"Polygon","coordinates":[[[129.10995483398438,5.967119522904156],[129.20059204101562,5.967119522904156],[129.20059204101562,5.87696603826862],[129.10995483398438,5.87696603826862],[129.10995483398438,5.967119522904156]]]}},{"type":"Feature","id":"pmtiles:12/3518/1980:water:340:0","properties":{"class":"ocean","water":"ocean","kind":"waterway","verification":"verified","source":"OpenMapTiles/OpenStreetMap national PMTiles","sourceId":"12/3518/1980:water:340:0","sourceLayer":"water","archive":"https://its.hanifahseptiani45.workers.dev/v1/map/archive/indonesia.pmtiles","updatedAt":"2026-07-26T10:37:59.297Z"},"geometry":{"type":"Polygon","coordinates":[[[129.19784545898438,5.967119522904156],[129.28848266601562,5.967119522904156],[129.28848266601562,5.87696603826862],[129.19784545898438,5.87696603826862],[129.19784545898438,5.967119522904156]]]}},{"type":"Feature","id":"pmtiles:12/3519/1980:water:340:0","properties":{"class":"ocean","water":"ocean","kind":"waterway","verification":"verified","source":"OpenMapTiles/OpenStreetMap national PMTiles","sourceId":"12/3519/1980:water:340:0","sourceLayer":"water","archive":"https://its.hanifahseptiani45.workers.dev/v1/map/archive/indonesia.pmtiles","updatedAt":"2026-07-26T10:37:59.356Z"},"geometry":{"type":"Polygon","coordinates":[[[129.28573608398438,5.967119522904156],[129.37637329101562,5.967119522904156],[129.37637329101562,5.87696603826862],[129.28573608398438,5.87696603826862],[129.28573608398438,5.967119522904156]]]}},{"type":"Feature","id":"pmtiles:12/3516/1981:water:340:0","properties":{"class":"ocean","water":"ocean","kind":"waterway","verification":"verified","source":"OpenMapTiles/OpenStreetMap national PMTiles","sourceId":"12/3516/1981:water:340:0","sourceLayer":"water","archive":"https://its.hanifahseptiani45.workers.dev/v1/map/archive/indonesia.pmtiles","updatedAt":"2026-07-26T10:38:34.031Z"},"geometry":{"type":"Polygon","coordinates":[[[129.02206420898438,5.879698177726667],[129.11270141601562,5.879698177726667],[129.11270141601562,5.789530528448793],[129.02206420898438,5.789530528448793],[129.02206420898438,5.879698177726667]]]}},{"type":"Feature","id":"pmtiles:12/3517/1981:water:340:0","properties":{"class":"ocean","water":"ocean","kind":"waterway","verification":"verified","source":"OpenMapTiles/OpenStreetMap national PMTiles","sourceId":"12/3517/1981:water:340:0","sourceLayer":"water","archive":"https://its.hanifahseptiani45.workers.dev/v1/map/archive/indonesia.pmtiles","updatedAt":"2026-07-26T10:38:34.102Z"},"geometry":{"type":"Polygon","coordinates":[[[129.10995483398438,5.879698177726667],[129.20059204101562,5.879698177726667],[129.20059204101562,5.789530528448793],[129.10995483398438,5.789530528448793],[129.10995483398438,5.879698177726667]]]}},{"type":"Feature","id":"pmtiles:12/3518/1981:water:340:0","properties":{"class":"ocean","water":"ocean","kind":"waterway","verification":"verified","source":"OpenMapTiles/OpenStreetMap national PMTiles","sourceId":"12/3518/1981:water:340:0","sourceLayer":"water","archive":"https://its.hanifahseptiani45.workers.dev/v1/map/archive/indonesia.pmtiles","updatedAt":"2026-07-26T10:38:34.158Z"},"geometry":{"type":"Polygon","coordinates":[[[129.19784545898438,5.879698177726667],[129.28848266601562,5.879698177726667],[129.28848266601562,5.789530528448793],[129.19784545898438,5.789530528448793],[129.19784545898438,5.879698177726667]]]}},{"type":"Feature","id":"pmtiles:12/3519/1981:water:340:0","properties":{"class":"ocean","water":"ocean","kind":"waterway","verification":"verified","source":"OpenMapTiles/OpenStreetMap national PMTiles","sourceId":"12/3519/1981:water:340:0","sourceLayer":"water","archive":"https://its.hanifahseptiani45.workers.dev/v1/map/archive/indonesia.pmtiles","updatedAt":"2026-07-26T10:38:34.217Z"},"geometry":{"type":"Polygon","coordinates":[[[129.28573608398438,5.879698177726667],[129.37637329101562,5.879698177726667],[129.37637329101562,5.789530528448793],[129.28573608398438,5.789530528448793],[129.28573608398438,5.879698177726667]]]}},{"type":"Feature","id":"pmtiles:12/3516/1982:water:340:0","properties":{"class":"ocean","water":"ocean","kind":"waterway","verification":"verified","source":"OpenMapTiles/OpenStreetMap national PMTiles","sourceId":"12/3516/1982:water:340:0","sourceLayer":"water","archive":"https://its.hanifahseptiani45.workers.dev/v1/map/archive/indonesia.pmtiles","updatedAt":"2026-07-26T10:39:06.415Z"},"geometry":{"type":"Polygon","coordinates":[[[129.02206420898438,5.792263093990954],[129.11270141601562,5.792263093990954],[129.11270141601562,5.702081487858422],[129.02206420898438,5.702081487858422],[129.02206420898438,5.792263093990954]]]}},{"type":"Feature","id":"pmtiles:12/3517/1982:water:340:0","properties":{"class":"ocean","water":"ocean","kind":"waterway","verification":"verified","source":"OpenMapTiles/OpenStreetMap national PMTiles","sourceId":"12/3517/1982:water:340:0","sourceLayer":"water","archive":"https://its.hanifahseptiani45.workers.dev/v1/map/archive/indonesia.pmtiles","updatedAt":"2026-07-26T10:39:06.486Z"},"geometry":{"type":"Polygon","coordinates":[[[129.10995483398438,5.792263093990954],[129.20059204101562,5.792263093990954],[129.20059204101562,5.702081487858422],[129.10995483398438,5.702081487858422],[129.10995483398438,5.792263093990954]]]}},{"type":"Feature","id":"pmtiles:12/3518/1982:water:340:0","properties":{"class":"ocean","water":"ocean","kind":"waterway","verification":"verified","source":"OpenMapTiles/OpenStreetMap national PMTiles","sourceId":"12/3518/1982:water:340:0","sourceLayer":"water","archive":"https://its.hanifahseptiani45.workers.dev/v1/map/archive/indonesia.pmtiles","updatedAt":"2026-07-26T10:39:06.561Z"},"geometry":{"type":"Polygon","coordinates":[[[129.19784545898438,5.792263093990954],[129.28848266601562,5.792263093990954],[129.28848266601562,5.702081487858422],[129.19784545898438,5.702081487858422],[129.19784545898438,5.792263093990954]]]}},{"type":"Feature","id":"pmtiles:12/3519/1982:water:340:0","properties":{"class":"ocean","water":"ocean","kind":"waterway","verification":"verified","source":"OpenMapTiles/OpenStreetMap national PMTiles","sourceId":"12/3519/1982:water:340:0","sourceLayer":"water","archive":"https://its.hanifahseptiani45.workers.dev/v1/map/archive/indonesia.pmtiles","updatedAt":"2026-07-26T10:39:06.634Z"},"geometry":{"type":"Polygon","coordinates":[[[129.28573608398438,5.792263093990954],[129.37637329101562,5.792263093990954],[129.37637329101562,5.702081487858422],[129.28573608398438,5.702081487858422],[129.28573608398438,5.792263093990954]]]}},{"type":"Feature","id":"pmtiles:12/3516/1983:water:340:0","properties":{"class":"ocean","water":"ocean","kind":"waterway","verification":"verified","source":"OpenMapTiles/OpenStreetMap national PMTiles","sourceId":"12/3516/1983:water:340:0","sourceLayer":"water","archive":"https://its.hanifahseptiani45.workers.dev/v1/map/archive/indonesia.pmtiles","updatedAt":"2026-07-26T10:39:42.675Z"},"geometry":{"type":"Polygon","coordinates":[[[129.02206420898438,5.70481447318565],[129.11270141601562,5.70481447318565],[129.11270141601562,5.61461911814834],[129.02206420898438,5.61461911814834],[129.02206420898438,5.70481447318565]]]}},{"type":"Feature","id":"pmtiles:12/3517/1983:water:340:0","properties":{"class":"ocean","water":"ocean","kind":"waterway","verification":"verified","source":"OpenMapTiles/OpenStreetMap national PMTiles","sourceId":"12/3517/1983:water:340:0","sourceLayer":"water","archive":"https://its.hanifahseptiani45.workers.dev/v1/map/archive/indonesia.pmtiles","updatedAt":"2026-07-26T10:39:42.744Z"},"geometry":{"type":"Polygon","coordinates":[[[129.10995483398438,5.70481447318565],[129.20059204101562,5.70481447318565],[129.20059204101562,5.61461911814834],[129.10995483398438,5.61461911814834],[129.10995483398438,5.70481447318565]]]}},{"type":"Feature","id":"pmtiles:12/3518/1983:water:340:0","properties":{"class":"ocean","water":"ocean","kind":"waterway","verification":"verified","source":"OpenMapTiles/OpenStreetMap national PMTiles","sourceId":"12/3518/1983:water:340:0","sourceLayer":"water","archive":"https://its.hanifahseptiani45.workers.dev/v1/map/archive/indonesia.pmtiles","updatedAt":"2026-07-26T10:39:42.826Z"},"geometry":{"type":"Polygon","coordinates":[[[129.19784545898438,5.70481447318565],[129.28848266601562,5.70481447318565],[129.28848266601562,5.61461911814834],[129.19784545898438,5.61461911814834],[129.19784545898438,5.70481447318565]]]}},{"type":"Feature","id":"pmtiles:12/3519/1983:water:80:0","properties":{"class":"ocean","water":"ocean","kind":"waterway","verification":"verified","source":"OpenMapTiles/OpenStreetMap national PMTiles","sourceId":"12/3519/1983:water:80:0","sourceLayer":"water","archive":"https://its.hanifahseptiani45.workers.dev/v1/map/archive/indonesia.pmtiles","updatedAt":"2026-07-26T10:39:42.913Z"},"geometry":{"type":"Polygon","coordinates":[[[129.28573608398438,5.70481447318565],[129.37637329101562,5.70481447318565],[129.37637329101562,5.61461911814834],[129.28573608398438,5.61461911814834],[129.28573608398438,5.70481447318565]]]}},{"type":"Feature","id":"pmtiles:10/879/495:water:80:0","properties":{"class":"ocean","water":"ocean","kind":"waterway","verification":"verified","source":"OpenMapTiles/OpenStreetMap national PMTiles","sourceId":"10/879/495:water:80:0","sourceLayer":"water","archive":"https://its.hanifahseptiani45.workers.dev/v1/map/archive/indonesia.pmtiles","updatedAt":"2026-07-26T09:38:16.732Z"},"geometry":{"type":"Polygon","coordinates":[[[129.0179443359375,5.971217057997222],[129.3804931640625,5.971217057997222],[129.3804931640625,5.61051899590089],[129.0179443359375,5.61051899590089],[129.0179443359375,5.971217057997222]]]}}]}