{"type":"FeatureCollection","features":[{"type":"Feature","id":"pmtiles:10/843/504:landcover:187660923:0","properties":{"subclass":"wood","class":"wood","kind":"green","verification":"verified","source":"OpenMapTiles/OpenStreetMap national PMTiles","sourceId":"10/843/504:landcover:187660923:0","sourceLayer":"landcover","archive":"https://its.hanifahseptiani45.workers.dev/v1/map/archive/indonesia.pmtiles","updatedAt":"2026-07-26T09:39:55.494Z"},"geometry":{"type":"Polygon","coordinates":[[[116.3616943359375,2.5837433841671924],[116.36332511901855,2.5822000014346145],[116.36650085449219,2.5822000014346145],[116.36950492858887,2.5810853349616423],[116.37087821960449,2.5792847178250895],[116.37465476989746,2.5770553787911155],[116.37954711914062,2.5730254098628507],[116.3810920715332,2.5677950056667243],[116.38040542602539,2.5631647939186166],[116.38203620910645,2.560335211824679],[116.38443946838379,2.559220526253469],[116.39276504516602,2.5575056234821147],[116.39645576477051,2.5580200945543226],[116.40349388122559,2.5623073454595158],[116.41096115112305,2.564022241803272],[116.41679763793945,2.563336283541517],[116.42417907714844,2.5671947939787003],[116.42701148986816,2.5673662830611903],[116.43216133117676,2.568738194892447],[116.43619537353516,2.568395217072762],[116.43885612487793,2.566337348221097],[116.44495010375977,2.563422028344334],[116.44477844238281,2.5641079865601455],[116.44580841064453,2.565565646547512],[116.44778251647949,2.5667660711718128],[116.4481258392334,2.5653084125528096],[116.44709587097168,2.5650511785063657],[116.44752502441406,2.564365220796276],[116.44829750061035,2.5649654338127164],[116.44881248474121,2.566165859000563],[116.44829750061035,2.56659458200879],[116.44872665405273,2.5679664946686387],[116.4507007598877,2.5683094726034454],[116.4521598815918,2.569338405855234],[116.45387649536133,2.5688239393329724],[116.44623756408691,2.5591347811693765],[116.44160270690918,2.554847519656178],[116.43834114074707,2.5525323924856735],[116.4319896697998,2.5439578111138985],[116.42847061157227,2.54224288799179],[116.42606735229492,2.539156020629875],[116.41842842102051,2.5384700491031396],[116.41027450561523,2.5321247952329173],[116.40443801879883,2.5312673261085052],[116.39920234680176,2.52517927902376],[116.39379501342773,2.5165187685370256],[116.39104843139648,2.5068292183229914],[116.39104843139648,2.5040852618529215],[116.3888168334961,2.498940327986702],[116.38864517211914,2.491480138077847],[116.38976097106934,2.488564650068369],[116.39285087585449,2.486506654649858],[116.39533996582031,2.482733654714039],[116.39671325683594,2.47595937780504],[116.39800071716309,2.4730438555581173],[116.39671325683594,2.4717575937058456],[116.3888168334961,2.4702140778378094],[116.37722969055176,2.470385579689534],[116.3660717010498,2.4738156120708794],[116.36332511901855,2.4736441106624056],[116.3616943359375,2.4727866032874033],[116.3616943359375,2.5837433841671924]]]}},{"type":"Feature","id":"pmtiles:10/843/504:landcover:187689143:0","properties":{"subclass":"wood","class":"wood","kind":"green","verification":"verified","source":"OpenMapTiles/OpenStreetMap national PMTiles","sourceId":"10/843/504:landcover:187689143:0","sourceLayer":"landcover","archive":"https://its.hanifahseptiani45.workers.dev/v1/map/archive/indonesia.pmtiles","updatedAt":"2026-07-26T09:39:55.494Z"},"geometry":{"type":"Polygon","coordinates":[[[116.46889686584473,2.5842578446611952],[116.46280288696289,2.5810853349616423],[116.46134376525879,2.5795419490007134],[116.45902633666992,2.575083267929614],[116.4547348022461,2.569852872170216],[116.45310401916504,2.570281593940976],[116.44761085510254,2.5688239393329724],[116.44632339477539,2.5682237281283733],[116.44306182861328,2.56479394440818],[116.43645286560059,2.5689954281967573],[116.43207550048828,2.569338405855234],[116.42692565917969,2.568052239160977],[116.42392158508301,2.5677950056667243],[116.4166259765625,2.5639364970406717],[116.41096115112305,2.564708199697293],[116.40323638916016,2.5629075594412],[116.39619827270508,2.5586203105443843],[116.39276504516602,2.5581915848658667],[116.38469696044922,2.559820741681534],[116.38246536254883,2.560763936786202],[116.38100624084473,2.5632505387329303],[116.38169288635254,2.567880750170559],[116.38014793395996,2.573368386438034],[116.37499809265137,2.577569841991746],[116.37130737304688,2.5797134364222103],[116.36984825134277,2.5815997965322026],[116.36658668518066,2.582800206053463],[116.36358261108398,2.582800206053463],[116.3616943359375,2.5845150748300227],[116.3616943359375,2.816857733037736],[116.67016983032227,2.816857733037736],[116.67025566101074,2.8167720060534833],[116.67016983032227,2.814114466412576],[116.67119979858398,2.8111997385493197],[116.67214393615723,2.810256736799033],[116.67205810546875,2.8089708240936204],[116.66982650756836,2.808027820542989],[116.66459083557129,2.8085421862104454],[116.66184425354004,2.8082850034050324],[116.65901184082031,2.805370260987246],[116.6557502746582,2.803655703229225],[116.65197372436523,2.8042557987304235],[116.64759635925293,2.8039128870531584],[116.63858413696289,2.7969689039787795],[116.63549423217773,2.7939684047378535],[116.63034439086914,2.7902820666018613],[116.6297435760498,2.790367795527075],[116.62725448608398,2.7881388414404],[116.62339210510254,2.790539253358716],[116.61910057067871,2.7877959250521656],[116.6169548034668,2.785738424624469],[116.61455154418945,2.7818806016345263],[116.61506652832031,2.781109035521368],[116.61343574523926,2.776050978508266],[116.61060333251953,2.7715072817124877],[116.60880088806152,2.770221326620913],[116.60674095153809,2.767392220504476],[116.60270690917969,2.7636200685132195],[116.597900390625,2.7535895151683007],[116.58923149108887,2.7431302157528563],[116.58708572387695,2.7427872863523675],[116.58622741699219,2.7432159480876095],[116.57747268676758,2.7354142804785226],[116.57318115234375,2.7290700298326414],[116.56554222106934,2.7203251970430102],[116.56245231628418,2.7148382107437072],[116.55713081359863,2.7097798731749094],[116.55472755432129,2.7043785741324626],[116.55215263366699,2.701206371417541],[116.54837608337402,2.6935759039407543],[116.54537200927734,2.690232200872188],[116.5440845489502,2.6868027523029525],[116.53884887695312,2.6830303477512416],[116.53275489807129,2.676514348846709],[116.52606010437012,2.6711986398682797],[116.52348518371582,2.666997498750078],[116.51970863342285,2.6641681507259563],[116.51558876037598,2.6586809117907535],[116.51069641113281,2.6545654665721656],[116.5048599243164,2.647191926293914],[116.50245666503906,2.645648621609425],[116.49988174438477,2.6478778388701585],[116.49816513061523,2.6479635779154904],[116.4990234375,2.6471061871951918],[116.49885177612305,2.6458201000025667],[116.50142669677734,2.644705490023199],[116.50177001953125,2.6436766183840206],[116.50091171264648,2.6423905276354276],[116.5015983581543,2.641961830423142],[116.49198532104492,2.6299582484743667],[116.4909553527832,2.627128815886593],[116.48941040039062,2.619069184912746],[116.48649215698242,2.612724332548609],[116.48503303527832,2.606465190016962],[116.4781665802002,2.5925749270208627],[116.46889686584473,2.5842578446611952]]]}},{"type":"Feature","id":"pmtiles:10/843/504:landcover:187998873:0","properties":{"subclass":"wood","class":"wood","kind":"green","verification":"verified","source":"OpenMapTiles/OpenStreetMap national PMTiles","sourceId":"10/843/504:landcover:187998873:0","sourceLayer":"landcover","archive":"https://its.hanifahseptiani45.workers.dev/v1/map/archive/indonesia.pmtiles","updatedAt":"2026-07-26T09:39:55.494Z"},"geometry":{"type":"Polygon","coordinates":[[[116.3616943359375,2.454693068753784],[116.3616943359375,2.4716718428713733],[116.36358261108398,2.4727008525194094],[116.36590003967285,2.472872354049855],[116.3770580291748,2.4694423192310495],[116.38890266418457,2.469270817257552],[116.39774322509766,2.4712430886158785],[116.39877319335938,2.46849905810285],[116.40040397644043,2.4677272985000087],[116.40066146850586,2.463268234249199],[116.3972282409668,2.458637651726505],[116.39791488647461,2.4564081062604544],[116.3957691192627,2.4558078433835533],[116.39533996582031,2.455121828336843],[116.39542579650879,2.454693068753784],[116.3616943359375,2.454693068753784]]]}},{"type":"Feature","id":"pmtiles:10/843/504:landcover:187998873:1","properties":{"subclass":"wood","class":"wood","kind":"green","verification":"verified","source":"OpenMapTiles/OpenStreetMap national PMTiles","sourceId":"10/843/504:landcover:187998873:1","sourceLayer":"landcover","archive":"https://its.hanifahseptiani45.workers.dev/v1/map/archive/indonesia.pmtiles","updatedAt":"2026-07-26T09:39:55.494Z"},"geometry":{"type":"Polygon","coordinates":[[[116.50331497192383,2.454693068753784],[116.46984100341797,2.454693068753784],[116.4712142944336,2.455464835904209],[116.47361755371094,2.4581231415648546],[116.47490501403809,2.458294644974117],[116.4755916595459,2.4596666714546416],[116.4785099029541,2.4600954294404005],[116.48048400878906,2.461295951067129],[116.48554801940918,2.4619819629398165],[116.48743629455566,2.4664410314997838],[116.48923873901367,2.4679845517507317],[116.48966789245605,2.4712430886158785],[116.48932456970215,2.4757021261000034],[116.48863792419434,2.4772456355809283],[116.4891529083252,2.4805041496872207],[116.49052619934082,2.4812759018527544],[116.4931869506836,2.481704652861197],[116.49473190307617,2.485048905952752],[116.49696350097656,2.4845344060282315],[116.5001392364502,2.4853061558398224],[116.50177001953125,2.488221651054971],[116.50400161743164,2.489936645229392],[116.50631904602051,2.488907648992509],[116.50897979736328,2.486335154886717],[116.50880813598633,2.483333905424857],[116.51052474975586,2.4805041496872207],[116.51430130004883,2.4794751460993893],[116.52048110961914,2.4797323970713876],[116.52442932128906,2.4817904030461904],[116.52563095092773,2.48341965550415],[116.52588844299316,2.485820655463556],[116.5279483795166,2.4871926534794966],[116.52949333190918,2.489936645229392],[116.5308666229248,2.4896793962455064],[116.53215408325195,2.4904511430464993],[116.53318405151367,2.4897651459123864],[116.53593063354492,2.491908885770272],[116.53833389282227,2.491480138077847],[116.53996467590332,2.492423382816881],[116.54399871826172,2.4915658876275018],[116.5455436706543,2.492509132305088],[116.54614448547363,2.4909656406626652],[116.54674530029297,2.4908798910739307],[116.54743194580078,2.491994635292002],[116.55052185058594,2.490622642274218],[116.55155181884766,2.4908798910739307],[116.55198097229004,2.491480138077847],[116.55172348022461,2.494138371519554],[116.55095100402832,2.495510360871876],[116.55198097229004,2.4967965995893024],[116.55146598815918,2.4985973316782832],[116.55455589294434,2.5011698018066966],[116.55558586120605,2.5010840528836695],[116.55764579772949,2.4994548222813364],[116.55824661254883,2.5000550653701765],[116.55816078186035,2.501341299635925],[116.55730247497559,2.50288477908974],[116.55807495117188,2.503313523059987],[116.55893325805664,2.5027990302788936],[116.55961990356445,2.5012555507241103],[116.56030654907227,2.501341299635925],[116.56022071838379,2.503999513120604],[116.56099319458008,2.505199994862366],[116.56365394592285,2.504857000191251],[116.56502723693848,2.502370286140362],[116.56648635864258,2.501855792989076],[116.56691551208496,2.502970527895016],[116.56682968139648,2.5053714921642154],[116.56811714172363,2.5070864639471893],[116.56974792480469,2.5055429894436116],[116.57172203063965,2.504857000191251],[116.57258033752441,2.5035707693747895],[116.57386779785156,2.504857000191251],[116.5762710571289,2.502713281462391],[116.57936096191406,2.5024560349792893],[116.58124923706055,2.5014270485421406],[116.58193588256836,2.502970527895016],[116.58159255981445,2.506743469770356],[116.58373832702637,2.507515206541811],[116.58828735351562,2.506400475503625],[116.58991813659668,2.5069149668699993],[116.59172058105469,2.5118883729775376],[116.59309387207031,2.512402862184274],[116.59429550170898,2.5105164007688927],[116.59549713134766,2.506743469770356],[116.59506797790527,2.5040852618529215],[116.59558296203613,2.502970527895016],[116.59687042236328,2.5030562766946787],[116.59721374511719,2.502627532640304],[116.59515380859375,2.5001408143604493],[116.59335136413574,2.499797818365721],[116.59446716308594,2.4968823487923686],[116.59515380859375,2.496024856509905],[116.59575462341309,2.4961963550111506],[116.59635543823242,2.4975683422154304],[116.597900390625,2.4979113387926333],[116.60073280334473,2.4951673636680027],[116.60159111022949,2.4933666268799612],[116.60167694091797,2.4901081445240862],[116.60236358642578,2.488564650068369],[116.6059684753418,2.484019905903267],[116.60905838012695,2.4772456355809283],[116.60991668701172,2.4767311326204435],[116.61171913146973,2.478789143262901],[116.61523818969727,2.4769026336294644],[116.61558151245117,2.477845888782184],[116.6140365600586,2.4816189026706326],[116.61566734313965,2.482304904039381],[116.61678314208984,2.4818761532256417],[116.61652565002441,2.47595937780504],[116.61721229553223,2.473129606303914],[116.6184139251709,2.4719290953581776],[116.61927223205566,2.4722720985963633],[116.62116050720215,2.4769026336294644],[116.62545204162598,2.474415866825879],[116.62605285644531,2.4750161213091246],[116.62596702575684,2.476045128362287],[116.62553787231445,2.4769883841256615],[116.62433624267578,2.4776743878952914],[116.6257095336914,2.47956089642895],[116.62656784057617,2.4800753982895856],[116.62862777709961,2.478874893636913],[116.62957191467285,2.479132144725611],[116.63240432739258,2.4822191538877547],[116.6334342956543,2.4848774060001944],[116.63360595703125,2.488650399807767],[116.63429260253906,2.4902796437964554],[116.63686752319336,2.4928521302020954],[116.63686752319336,2.494824366374658],[116.63849830627441,2.4971395963679868],[116.6378116607666,2.500998303955029],[116.63540840148926,2.5020272907285914],[116.63506507873535,2.502713281462391],[116.63695335388184,2.504685502822042],[116.63944244384766,2.5062289783365514],[116.64133071899414,2.5062289783365514],[116.64236068725586,2.505457240806706],[116.64278984069824,2.505800235320578],[116.64236068725586,2.5093159239047083],[116.64321899414062,2.5105164007688927],[116.6447639465332,2.5077724520311477],[116.64579391479492,2.5077724520311477],[116.64759635925293,2.508972930312467],[116.64854049682617,2.5086299366302427],[116.64957046508789,2.5061432297445947],[116.6513729095459,2.505457240806706],[116.65411949157715,2.5082011944009537],[116.65755271911621,2.508372691309532],[116.65884017944336,2.510087659158259],[116.66012763977051,2.5096589174069805],[116.66064262390137,2.5118883729775376],[116.6612434387207,2.511974121192736],[116.66450500488281,2.5100019108192413],[116.66433334350586,2.5078582005163668],[116.66553497314453,2.503742266889958],[116.66656494140625,2.502970527895016],[116.67034149169922,2.502541783812589],[116.67119979858398,2.501684295227122],[116.67128562927246,2.4994548222813364],[116.67231559753418,2.49799708792294],[116.67300224304199,2.4981685861667273],[116.67386054992676,2.500226563345123],[116.67489051818848,2.5000550653701765],[116.67643547058105,2.5012555507241103],[116.67720794677734,2.5008268060809513],[116.67926788330078,2.5021130395899576],[116.68295860290527,2.50091255502079],[116.68390274047852,2.5011698018066966],[116.68416023254395,2.4988545789179994],[116.68347358703613,2.4976540913681333],[116.68278694152832,2.4975683422154304],[116.68304443359375,2.4988545789179994],[116.68210029602051,2.4994548222813364],[116.68167114257812,2.498425833490458],[116.67849540710449,2.497053847181718],[116.67901039123535,2.495853357986263],[116.68038368225098,2.495510360871876],[116.68038368225098,2.494224120896021],[116.68149948120117,2.494138371519554],[116.6814136505127,2.493623875143456],[116.67823791503906,2.491994635292002],[116.67780876159668,2.491222889395388],[116.67677879333496,2.4916516371715716],[116.6759204864502,2.489507896895006],[116.67497634887695,2.4893363975221945],[116.67506217956543,2.4881359012877056],[116.67437553405762,2.4871926534794966],[116.67471885681152,2.485734905540184],[116.6736888885498,2.4845344060282315],[116.67386054992676,2.4835911556460104],[116.6751480102539,2.4829909050520627],[116.67377471923828,2.4824764043259506],[116.67343139648438,2.4815331524744977],[116.67394638061523,2.4805898999500897],[116.67257308959961,2.4815331524744977],[116.67214393615723,2.480675650207388],[116.67128562927246,2.480332649144856],[116.67145729064941,2.4767311326204435],[116.67025566101074,2.476388130535767],[116.6681957244873,2.470557081519104],[116.66665077209473,2.4689278132441217],[116.66647911071777,2.465840773140613],[116.66510581970215,2.4665267826718207],[116.66441917419434,2.465497768242372],[116.66501998901367,2.464811758180659],[116.66399002075195,2.4635254883620092],[116.66484832763672,2.462067714399069],[116.66441917419434,2.4609529449983683],[116.66218757629395,2.460438435729756],[116.66210174560547,2.4588091550696447],[116.66064262390137,2.4558078433835533],[116.66132926940918,2.45520758023693],[116.66064262390137,2.4548645726034977],[116.66064262390137,2.454693068753784],[116.56185150146484,2.454693068753784],[116.55721664428711,2.456493858077991],[116.55378341674805,2.454693068753784],[116.54897689819336,2.454693068753784],[116.5473461151123,2.4548645726034977],[116.54717445373535,2.454693068753784],[116.5114688873291,2.454693068753784],[116.50382995605469,2.4549503245201265],[116.50331497192383,2.454693068753784]]]}},{"type":"Feature","id":"pmtiles:10/843/504:landcover:187998883:0","properties":{"subclass":"wood","class":"wood","kind":"green","verification":"verified","source":"OpenMapTiles/OpenStreetMap national PMTiles","sourceId":"10/843/504:landcover:187998883:0","sourceLayer":"landcover","archive":"https://its.hanifahseptiani45.workers.dev/v1/map/archive/indonesia.pmtiles","updatedAt":"2026-07-26T09:39:55.495Z"},"geometry":{"type":"Polygon","coordinates":[[[116.51138305664062,2.4802468988653175],[116.50958061218262,2.4816189026706326],[116.5088939666748,2.483333905424857],[116.50880813598633,2.4866781543907024],[116.50640487670898,2.488993398709596],[116.50400161743164,2.489936645229392],[116.50177001953125,2.488221651054971],[116.5001392364502,2.4853061558398224],[116.49696350097656,2.4845344060282315],[116.49473190307617,2.485048905952752],[116.4931869506836,2.481704652861197],[116.49052619934082,2.4812759018527544],[116.4891529083252,2.4805041496872207],[116.48855209350586,2.4772456355809283],[116.48923873901367,2.4757021261000034],[116.48958206176758,2.4712430886158785],[116.4891529083252,2.4679845517507317],[116.48743629455566,2.4664410314997838],[116.48563385009766,2.462153465852822],[116.48039817810059,2.4613817025705202],[116.47842407226562,2.4600954294404005],[116.47550582885742,2.4597524230627954],[116.47490501403809,2.458294644974117],[116.47361755371094,2.458208893272243],[116.47112846374512,2.455550587782298],[116.46966934204102,2.454693068753784],[116.3957691192627,2.454693068753784],[116.39559745788574,2.4550360764312416],[116.39825820922852,2.4562366026088682],[116.3975715637207,2.458551900046672],[116.40091896057129,2.463268234249199],[116.40066146850586,2.467813049589111],[116.39834403991699,2.4696138211824064],[116.39877319335938,2.47295810480675],[116.39748573303223,2.47595937780504],[116.39602661132812,2.482905154944959],[116.39345169067383,2.4867639042527685],[116.39036178588867,2.488821899269851],[116.38941764831543,2.4913943885226075],[116.38958930969238,2.498511582587156],[116.39182090759277,2.503742266889958],[116.39182090759277,2.506486224078742],[116.39448165893555,2.515918533002761],[116.3998031616211,2.524407552706606],[116.40478134155273,2.530324109416455],[116.41061782836914,2.5311815791648655],[116.41868591308594,2.5374410911303755],[116.42641067504883,2.5382128096867262],[116.42889976501465,2.54129967930308],[116.43250465393066,2.5430146036788557],[116.43774032592773,2.5501315154596256],[116.4455509185791,2.556819661731538],[116.45979881286621,2.5737113629209603],[116.46340370178223,2.5803136422153727],[116.46735191345215,2.5821142578944745],[116.47052764892578,2.584429331446188],[116.47876739501953,2.5920604699025347],[116.48571968078613,2.6061222224027034],[116.48726463317871,2.612552849606942],[116.49009704589844,2.618811961792815],[116.49172782897949,2.626957334917563],[116.49267196655273,2.629529546979498],[116.50116920471191,2.639475383673826],[116.50803565979004,2.650364268774922],[116.51129722595215,2.6540510349557422],[116.51618957519531,2.6581664818886708],[116.52022361755371,2.6635679851575134],[116.52408599853516,2.6664830723204744],[116.52751922607422,2.6715415895294683],[116.53326988220215,2.6759141893092817],[116.53927803039551,2.6824301914080735],[116.54477119445801,2.686374070554237],[116.54605865478516,2.689889256449092],[116.54906272888184,2.6931472245729537],[116.5528392791748,2.70077769473923],[116.5554141998291,2.7039498985744785],[116.55781745910645,2.7093511995275463],[116.56313896179199,2.714409538889072],[116.56614303588867,2.7198107931372846],[116.57464027404785,2.729755896383068],[116.57652854919434,2.7330994902088293],[116.58339500427246,2.739700917324612],[116.58717155456543,2.7418442299940438],[116.59017562866211,2.7423586244634777],[116.5935230255127,2.7469024326648395],[116.59626960754395,2.7493886600247635],[116.59832954406738,2.752303540676209],[116.6037368774414,2.7630199523179755],[116.60940170288086,2.7686781786676278],[116.61283493041992,2.7731361561559567],[116.61515235900879,2.777251197387372],[116.61661148071289,2.783338002915116],[116.61849975585938,2.785738424624469],[116.6209888458252,2.787881654158582],[116.62304878234863,2.7888246739170057],[116.62450790405273,2.788653215835339],[116.62605285644531,2.7867671752878778],[116.6282844543457,2.7870243628132556],[116.63540840148926,2.7921681015118907],[116.63918495178223,2.7962830762573674],[116.64871215820312,2.8024555113035063],[116.65051460266113,2.8023697832617103],[116.65454864501953,2.8003123083754957],[116.65746688842773,2.8009124055907364],[116.6597843170166,2.803312791376058],[116.66055679321289,2.8025412393390354],[116.6609001159668,2.8006552211075615],[116.6623592376709,2.801426774387636],[116.66364669799805,2.8006552211075615],[116.66399002075195,2.798512014885432],[116.66647911071777,2.798854928144408],[116.66999816894531,2.798340558218328],[116.67008399963379,2.7987691998390574],[116.66810989379883,2.800055123760572],[116.66836738586426,2.8027126953912074],[116.66793823242188,2.803312791376058],[116.66725158691406,2.8027126953912074],[116.6663932800293,2.802884151418283],[116.66562080383301,2.801341046270508],[116.66562080383301,2.800140851971804],[116.66399002075195,2.802798423407893],[116.66630744934082,2.803655703229225],[116.66570663452148,2.8046844381856744],[116.66699409484863,2.806913360819891],[116.67119979858398,2.8070848162310966],[116.67394638061523,2.808885096529579],[116.6736888885498,2.8109425563293513],[116.6718864440918,2.813342921510724],[116.67128562927246,2.8154861005325955],[116.6718864440918,2.816857733037736],[116.67909622192383,2.816857733037736],[116.67978286743164,2.8166005520660633],[116.6814136505127,2.8166862790629352],[116.68167114257812,2.816857733037736],[116.69008255004883,2.816857733037736],[116.69008255004883,2.8166005520660633],[116.69111251831055,2.814543102248493],[116.69342994689941,2.8139430120340734],[116.69583320617676,2.8142859207658546],[116.69995307922363,2.8135143759774763],[116.70252799987793,2.8120570122064237],[116.70536041259766,2.8086279137996826],[116.7092227935791,2.806227538923551],[116.7106819152832,2.8043415266340475],[116.7117977142334,2.8005694929339597],[116.71119689941406,2.8002265801767976],[116.71154022216797,2.797911916440853],[116.7121410369873,2.797140360846484],[116.71342849731445,2.79739754610101],[116.71351432800293,2.7970546324157652],[116.71119689941406,2.7884817577286896],[116.70862197875977,2.7866814461002605],[116.70759201049805,2.784366755675194],[116.70750617980957,2.780508928195502],[116.70870780944824,2.779051523419085],[116.70930862426758,2.779394442351915],[116.71059608459473,2.7761367084686412],[116.70982360839844,2.772278854096811],[116.71025276184082,2.771421551416509],[116.71342849731445,2.767049298091976],[116.7147159576416,2.7668778368485363],[116.71368598937988,2.7657633381617615],[116.71257019042969,2.7655918767323584],[116.7117977142334,2.7648202999933886],[116.71051025390625,2.7651632230504504],[116.71008110046387,2.7644773768372204],[116.7132568359375,2.7639629919171256],[116.71566009521484,2.766449183631437],[116.71626091003418,2.764305915221968],[116.71883583068848,2.760619484504133],[116.71952247619629,2.7591620552509397],[116.71917915344238,2.753846709900145],[116.72003746032715,2.750503174056334],[116.71892166137695,2.7496458556629335],[116.71883583068848,2.7481884129803404],[116.72038078308105,2.7475025569844576],[116.72123908996582,2.744673396837854],[116.72235488891602,2.7432159480876095],[116.72226905822754,2.7403867777964166],[116.72347068786621,2.7399581150475854],[116.7231273651123,2.740815440391742],[116.7238998413086,2.7410726378752344],[116.7242431640625,2.740215312715293],[116.7242431640625,2.6094661526539227],[116.72226905822754,2.6060364804845477],[116.71806335449219,2.6020923459387575],[116.71737670898438,2.602521056813515],[116.71772003173828,2.6033784781255918],[116.71711921691895,2.6036357044054483],[116.71540260314941,2.6033784781255918],[116.71454429626465,2.6043216408950087],[116.71377182006836,2.6032927360206344],[116.71651840209961,2.599091365734907],[116.71746253967285,2.5991771081255024],[116.72063827514648,2.603121251793226],[116.72106742858887,2.602435314650222],[116.72080993652344,2.6005489855827335],[116.71711921691895,2.5920604699025347],[116.71463012695312,2.588459264221285],[116.71445846557617,2.5876018327884225],[116.71523094177246,2.586487171058806],[116.71505928039551,2.5841721012599947],[116.71385765075684,2.5796276927143396],[116.71239852905273,2.578341536402789],[116.71248435974121,2.5778270735141007],[116.71299934387207,2.577912817343318],[116.71196937561035,2.575597731927033],[116.71205520629883,2.573368386438034],[116.71136856079102,2.571910735356383],[116.70896530151367,2.5711390370504716],[116.7074203491211,2.566165859000563],[116.70673370361328,2.565651391200902],[116.70750617980957,2.5639364970406717],[116.70647621154785,2.564022241803272],[116.70621871948242,2.561449896426197],[116.70561790466309,2.5615356413553627],[116.70510292053223,2.5629933042727515],[116.70415878295898,2.5629075594412],[116.70441627502441,2.561964365915074],[116.70381546020508,2.561792876108427],[116.70132637023926,2.563422028344334],[116.70003890991211,2.563336283541517],[116.69960975646973,2.5628218146038932],[116.70003890991211,2.561792876108427],[116.69960975646973,2.559049036079543],[116.69857978820801,2.558277330013027],[116.69720649719238,2.555790718418095],[116.69600486755371,2.556219444898943],[116.69403076171875,2.5554477371302937],[116.69351577758789,2.5545902835099668],[116.69300079345703,2.5556192277856553],[116.69248580932617,2.554847519656178],[116.68888092041016,2.5554477371302937],[116.68853759765625,2.5551047557508753],[116.68973922729492,2.554075811062944],[116.69051170349121,2.5546760288977595],[116.69137001037598,2.553818574762161],[116.69076919555664,2.5529611200542206],[116.69171333312988,2.5523609014182114],[116.69188499450684,2.5517606825019215],[116.69111251831055,2.5510747176830364],[116.69171333312988,2.5500457697686443],[116.6909408569336,2.549874278369586],[116.69008255004883,2.5510747176830364],[116.68973922729492,2.55021726114488],[116.6887092590332,2.5500457697686443],[116.68802261352539,2.550988972054938],[116.68295860290527,2.5494455497718747],[116.68252944946289,2.5495312955028453],[116.68244361877441,2.550560243828727],[116.68081283569336,2.550560243828727],[116.6788387298584,2.546958921089143],[116.67943954467773,2.5465301915205885],[116.67935371398926,2.5451582559425674],[116.6814136505127,2.544815271819857],[116.6814136505127,2.5433575882805],[116.68235778808594,2.543100349837829],[116.6828727722168,2.541985649326861],[116.6854476928711,2.542500126605418],[116.68630599975586,2.5398419917924],[116.68991088867188,2.53812706320322],[116.69197082519531,2.5351259326980795],[116.69188499450684,2.533153757433084],[116.68888092041016,2.527751696769414],[116.6887092590332,2.5256080156685528],[116.6869068145752,2.523121341159694],[116.68604850769043,2.5227783511989657],[116.68596267700195,2.521149147650206],[116.68338775634766,2.5220066234565337],[116.68235778808594,2.5217493807739686],[116.68227195739746,2.5213206428566792],[116.68390274047852,2.520548914249545],[116.6854476928711,2.5203774189413934],[116.6854476928711,2.518233725683345],[116.68484687805176,2.5149753051764066],[116.68355941772461,2.514289320874312],[116.68338775634766,2.5130030993359043],[116.68270111083984,2.512745854876144],[116.68252944946289,2.5099161624746102],[116.6814136505127,2.5069149668699993],[116.6799545288086,2.5088871819003487],[116.6788387298584,2.50794394899593],[116.67901039123535,2.5070864639471893],[116.67815208435059,2.505199994862366],[116.67952537536621,2.5045997541289893],[116.6799545288086,2.502370286140362],[116.67858123779297,2.502198788445696],[116.67720794677734,2.5010840528836695],[116.6759204864502,2.5014270485421406],[116.6748046875,2.5003980612976733],[116.6736888885498,2.5004838102655356],[116.67240142822266,2.498340084388147],[116.67154312133789,2.499540571310817],[116.67145729064941,2.5017700441109127],[116.67051315307617,2.502713281462391],[116.6696548461914,2.50322777427715],[116.66665077209473,2.50322777427715],[116.66579246520996,2.5038280156391153],[116.66467666625977,2.5078582005163668],[116.66467666625977,2.5102591558193836],[116.66132926940918,2.512317113997213],[116.66047096252441,2.5121456176062367],[116.65995597839355,2.5100019108192413],[116.6586685180664,2.5104306524580267],[116.65738105773926,2.5086299366302427],[116.65326118469238,2.508115445938259],[116.65308952331543,2.5072579610018835],[116.65128707885742,2.505800235320578],[116.64982795715332,2.506314726922895],[116.64871215820312,2.5088871819003487],[116.64759635925293,2.5092301755150856],[116.64493560791016,2.508029697469894],[116.64381980895996,2.5106021490741313],[116.64313316345215,2.5108593939561246],[116.64210319519043,2.5094016722887176],[116.64261817932129,2.505885983935002],[116.6407299041748,2.5066577212121075],[116.63935661315918,2.506486224078742],[116.63678169250488,2.504942748867464],[116.63472175598145,2.502713281462391],[116.6352367401123,2.501855792989076],[116.63755416870117,2.50091255502079],[116.63815498352051,2.4971395963679868],[116.63661003112793,2.4949958650325073],[116.63652420043945,2.492937879662364],[116.63403511047363,2.4904511430464993],[116.63334846496582,2.4887361495416087],[116.63309097290039,2.4848774060001944],[116.63223266601562,2.482304904039381],[116.6294002532959,2.4793893957642865],[116.62862777709961,2.479132144725611],[116.62656784057617,2.4804183994188236],[116.62545204162598,2.479818147384279],[116.62399291992188,2.4775886374435316],[116.6253662109375,2.4767311326204435],[116.62579536437988,2.475101871927407],[116.6253662109375,2.4747588694210236],[116.62296295166016,2.476559631589197],[116.6209888458252,2.4771598851013863],[116.61910057067871,2.472529350966809],[116.6184139251709,2.4722720985963633],[116.61746978759766,2.4732153570441966],[116.61686897277832,2.47595937780504],[116.61704063415527,2.482047653567818],[116.61575317382812,2.4826479045902374],[116.61377906799316,2.4817904030461904],[116.61515235900879,2.4771598851013863],[116.61163330078125,2.479132144725611],[116.60991668701172,2.477074134616302],[116.6092300415039,2.4775028869862012],[116.60622596740723,2.484191405967181],[116.60262107849121,2.4887361495416087],[116.6019344329834,2.490193894163056],[116.60184860229492,2.4934523763067205],[116.60099029541016,2.495338862281116],[116.59798622131348,2.4981685861667273],[116.59609794616699,2.4978255896567276],[116.59558296203613,2.4964536027210755],[116.59472465515137,2.497053847181718],[116.59360885620117,2.4997120693530235],[116.5953254699707,2.4998835673728053],[116.59747123718262,2.502713281462391],[116.59704208374023,2.503313523059987],[116.59566879272461,2.503313523059987],[116.5953254699707,2.5041710105796255],[116.59584045410156,2.506743469770356],[116.59455299377441,2.5106878973737565],[116.59326553344727,2.512660106711607],[116.59146308898926,2.511974121192736],[116.58974647521973,2.507172212477357],[116.58828735351562,2.5066577212121075],[116.58365249633789,2.5077724520311477],[116.58133506774902,2.507000715411408],[116.58099174499512,2.5061432297445947],[116.58159255981445,2.502970527895016],[116.58116340637207,2.5017700441109127],[116.57944679260254,2.5027990302788936],[116.57644271850586,2.502970527895016],[116.57378196716309,2.505114246203007],[116.57266616821289,2.5039137643826734],[116.57146453857422,2.5053714921642154],[116.56983375549316,2.505800235320578],[116.56803131103516,2.5074294580341245],[116.56657218933105,2.505457240806706],[116.56631469726562,2.5021130395899576],[116.56519889831543,2.502541783812589],[116.56373977661133,2.505114246203007],[116.5609073638916,2.5055429894436116],[116.56013488769531,2.504942748867464],[116.56004905700684,2.5015985463377177],[116.55816078186035,2.5035707693747895],[116.55738830566406,2.5035707693747895],[116.55695915222168,2.502970527895016],[116.55781745910645,2.5012555507241103],[116.55755996704102,2.499797818365721],[116.55567169189453,2.501341299635925],[116.55455589294434,2.5014270485421406],[116.55120849609375,2.498768829843698],[116.55163764953613,2.4967965995893024],[116.55069351196289,2.495596110158857],[116.55146598815918,2.4940526221375308],[116.55146598815918,2.491051390245815],[116.55052185058594,2.490794141479597],[116.54743194580078,2.4921661343187083],[116.54623031616211,2.491137139823394],[116.54562950134277,2.4926806312647614],[116.54399871826172,2.4917373867100565],[116.54056549072266,2.492594881787724],[116.53833389282227,2.4916516371715716],[116.5363597869873,2.4921661343187083],[116.53335571289062,2.489936645229392],[116.53189659118652,2.490622642274218],[116.53078079223633,2.4898508955736673],[116.52949333190918,2.4900223948795173],[116.52786254882812,2.4872784033081103],[116.52571678161621,2.4859064053813427],[116.52554512023926,2.4835054055778585],[116.52434349060059,2.4818761532256417],[116.5206527709961,2.4799038976915995],[116.51593208312988,2.47956089642895],[116.51138305664062,2.4802468988653175]]]}},{"type":"Feature","id":"pmtiles:10/843/504:landcover:188041473:0","properties":{"subclass":"wood","class":"wood","kind":"green","verification":"verified","source":"OpenMapTiles/OpenStreetMap national PMTiles","sourceId":"10/843/504:landcover:188041473:0","sourceLayer":"landcover","archive":"https://its.hanifahseptiani45.workers.dev/v1/map/archive/indonesia.pmtiles","updatedAt":"2026-07-26T09:39:55.495Z"},"geometry":{"type":"Polygon","coordinates":[[[116.7242431640625,2.816857733037736],[116.7242431640625,2.757361699000967],[116.72355651855469,2.758304743090875],[116.72261238098145,2.758304743090875],[116.72192573547363,2.758219011840879],[116.72123908996582,2.7565901169168114],[116.72089576721191,2.7566758482842175],[116.72003746032715,2.76079094665171],[116.7172908782959,2.7655918767323584],[116.7161750793457,2.768849639650597],[116.7143726348877,2.771078630170507],[116.71188354492188,2.772364584330674],[116.71308517456055,2.77656535817718],[116.71368598937988,2.7770797376221594],[116.71351432800293,2.779051523419085],[116.71299934387207,2.7794801720695688],[116.71222686767578,2.778708604386594],[116.71162605285645,2.778965793670295],[116.71119689941406,2.779565901780984],[116.71136856079102,2.781109035521368],[116.71102523803711,2.7812804947012495],[116.7106819152832,2.780251739248115],[116.70982360839844,2.7825664377557047],[116.71025276184082,2.7839381088009816],[116.71188354492188,2.785738424624469],[116.71428680419922,2.7852240489556834],[116.71454429626465,2.7866814461002605],[116.7132568359375,2.7876244668205743],[116.71385765075684,2.793111117831586],[116.71463012695312,2.793111117831586],[116.71531677246094,2.7948256910181044],[116.71445846557617,2.795340062485721],[116.7147159576416,2.7982548298753613],[116.7136001586914,2.800140851971804],[116.71368598937988,2.801855414879114],[116.71239852905273,2.802798423407893],[116.71085357666016,2.806141811158213],[116.7063045501709,2.809485189345736],[116.70467376708984,2.8118855575254145],[116.70244216918945,2.8135143759774763],[116.69669151306152,2.816429098053405],[116.69488906860352,2.8165148250628818],[116.69282913208008,2.815743281750329],[116.69257164001465,2.816857733037736],[116.7242431640625,2.816857733037736]]]}},{"type":"Feature","id":"pmtiles:10/843/504:landcover:13655116012:0","properties":{"subclass":"orchard","class":"farmland","kind":"green","verification":"verified","source":"OpenMapTiles/OpenStreetMap national PMTiles","sourceId":"10/843/504:landcover:13655116012:0","sourceLayer":"landcover","archive":"https://its.hanifahseptiani45.workers.dev/v1/map/archive/indonesia.pmtiles","updatedAt":"2026-07-26T09:39:55.496Z"},"geometry":{"type":"Polygon","coordinates":[[[116.70424461364746,2.5160900288978922],[116.70621871948242,2.5150610531888162],[116.70613288879395,2.514289320874312],[116.70158386230469,2.507600955043884],[116.69609069824219,2.5094016722887176],[116.69497489929199,2.5104306524580267],[116.69342994689941,2.5106878973737565],[116.69334411621094,2.511631128298177],[116.6927433013916,2.511716876530244],[116.6927433013916,2.512745854876144],[116.69445991516113,2.5149753051764066],[116.69694900512695,2.5161757768370023],[116.69832229614258,2.518919707909845],[116.70046806335449,2.5186624646172504],[116.70072555541992,2.517633490938863],[116.70424461364746,2.5160900288978922]]]}},{"type":"Feature","id":"pmtiles:10/843/504:landcover:13662316590:0","properties":{"subclass":"wood","class":"wood","kind":"green","verification":"verified","source":"OpenMapTiles/OpenStreetMap national PMTiles","sourceId":"10/843/504:landcover:13662316590:0","sourceLayer":"landcover","archive":"https://its.hanifahseptiani45.workers.dev/v1/map/archive/indonesia.pmtiles","updatedAt":"2026-07-26T09:39:55.496Z"},"geometry":{"type":"Polygon","coordinates":[[[116.66682243347168,2.466869787304759],[116.66699409484863,2.4679845517507317],[116.66982650756836,2.4716718428713733],[116.6696548461914,2.4727866032874033],[116.67085647583008,2.4751876225401332],[116.67034149169922,2.4763023800007176],[116.67119979858398,2.4762166294601258],[116.67162895202637,2.4767311326204435],[116.67145729064941,2.4802468988653175],[116.6722297668457,2.4805898999500897],[116.67257308959961,2.4814474022728206],[116.67403221130371,2.4805041496872207],[116.67351722717285,2.4815331524744977],[116.67386054992676,2.4824764043259506],[116.67523384094238,2.482905154944959],[116.67523384094238,2.48341965550415],[116.67394638061523,2.4836769057085917],[116.67386054992676,2.484620156029578],[116.67489051818848,2.485734905540184],[116.67454719543457,2.487106903645298],[116.6751480102539,2.4881359012877056],[116.67506217956543,2.4891648981270578],[116.67600631713867,2.4894221472113713],[116.67686462402344,2.491480138077847],[116.67789459228516,2.491051390245815],[116.67832374572754,2.4918231362429566],[116.68072700500488,2.4927663807362137],[116.68167114257812,2.4937096245534605],[116.68149948120117,2.494395619632158],[116.68046951293945,2.494224120896021],[116.68046951293945,2.495596110158857],[116.67909622192383,2.4959391072508765],[116.6788387298584,2.497396843893256],[116.6817569732666,2.498340084388147],[116.68210029602051,2.4993690732462284],[116.6828727722168,2.498768829843698],[116.68270111083984,2.4974825930571427],[116.68355941772461,2.4975683422154304],[116.68424606323242,2.4988545789179994],[116.68407440185547,2.5010840528836695],[116.68458938598633,2.501855792989076],[116.68424606323242,2.503142025488728],[116.6854476928711,2.5034850206088066],[116.68536186218262,2.504514005430366],[116.68767929077148,2.505800235320578],[116.68853759765625,2.505457240806706],[116.68879508972168,2.5042567593007306],[116.68999671936035,2.5040852618529215],[116.69231414794922,2.5074294580341245],[116.69051170349121,2.512488610365679],[116.69119834899902,2.5130030993359043],[116.69257164001465,2.512745854876144],[116.69342994689941,2.5106878973737565],[116.70141220092773,2.507515206541811],[116.70613288879395,2.514289320874312],[116.70621871948242,2.5150610531888162],[116.70072555541992,2.517633490938863],[116.69978141784668,2.5192626988876157],[116.70089721679688,2.519519942061649],[116.70244216918945,2.5177192387764222],[116.70759201049805,2.5160900288978922],[116.70784950256348,2.5147180611053983],[116.70930862426758,2.513860580502353],[116.71119689941406,2.5152325491967105],[116.71488761901855,2.5150610531888162],[116.72244071960449,2.517376247392278],[116.72321319580078,2.516347272698283],[116.72415733337402,2.517119003794946],[116.7242431640625,2.517119003794946],[116.7242431640625,2.454693068753784],[116.66141510009766,2.454693068753784],[116.66141510009766,2.4548645726034977],[116.66390419006348,2.458380396670478],[116.66338920593262,2.459409416597026],[116.66364669799805,2.4606099388413583],[116.66450500488281,2.460781441930891],[116.66501998901367,2.462067714399069],[116.6641616821289,2.463353985625659],[116.66510581970215,2.464125747765351],[116.66467666625977,2.465412017003999],[116.66501998901367,2.4662695291390833],[116.66647911071777,2.4656692707025485],[116.66682243347168,2.466869787304759]]]}},{"type":"Feature","id":"pmtiles:10/843/504:landuse:5350624300:0","properties":{"class":"residential","kind":"green","verification":"verified","source":"OpenMapTiles/OpenStreetMap national PMTiles","sourceId":"10/843/504:landuse:5350624300:0","sourceLayer":"landuse","archive":"https://its.hanifahseptiani45.workers.dev/v1/map/archive/indonesia.pmtiles","updatedAt":"2026-07-26T09:39:55.496Z"},"geometry":{"type":"Polygon","coordinates":[[[116.48975372314453,2.653450864465981],[116.49009704589844,2.652679216265298],[116.48846626281738,2.651393134860953],[116.48829460144043,2.652764954978039],[116.48975372314453,2.653450864465981]]]}},{"type":"Feature","id":"pmtiles:10/843/504:landuse:5350624300:1","properties":{"class":"residential","kind":"green","verification":"verified","source":"OpenMapTiles/OpenStreetMap national PMTiles","sourceId":"10/843/504:landuse:5350624300:1","sourceLayer":"landuse","archive":"https://its.hanifahseptiani45.workers.dev/v1/map/archive/indonesia.pmtiles","updatedAt":"2026-07-26T09:39:55.496Z"},"geometry":{"type":"Polygon","coordinates":[[[116.6802978515625,2.5044282567260865],[116.68261528015137,2.503313523059987],[116.68381690979004,2.5017700441109127],[116.6832160949707,2.501341299635925],[116.68098449707031,2.5021130395899576],[116.6799545288086,2.503742266889958],[116.6802978515625,2.5044282567260865]]]}},{"type":"Feature","id":"pmtiles:10/843/504:mountain_peak:10701715461:0","properties":{"name_int":"Gunung Yamuk","name_de":"Gunung Yamuk","name":"Gunung Yamuk","rank":1,"class":"peak","name:latin":"Gunung Yamuk","name_en":"Gunung Yamuk","kind":"poi","verification":"verified","source":"OpenMapTiles/OpenStreetMap national PMTiles","sourceId":"10/843/504:mountain_peak:10701715461:0","sourceLayer":"mountain_peak","archive":"https://its.hanifahseptiani45.workers.dev/v1/map/archive/indonesia.pmtiles","updatedAt":"2026-07-26T09:39:55.496Z"},"geometry":{"type":"Point","coordinates":[116.64999961853027,2.7000060763370044]}},{"type":"Feature","id":"pmtiles:10/843/504:water:185258363:0","properties":{"intermittent":0,"class":"river","id":18525836,"water":"river","kind":"waterway","verification":"verified","source":"OpenMapTiles/OpenStreetMap national PMTiles","sourceId":"10/843/504:water:185258363:0","sourceLayer":"water","archive":"https://its.hanifahseptiani45.workers.dev/v1/map/archive/indonesia.pmtiles","updatedAt":"2026-07-26T09:39:55.496Z"},"geometry":{"type":"Polygon","coordinates":[[[116.65386199951172,2.8041700708205326],[116.65489196777344,2.8039128870531584],[116.65446281433105,2.8039128870531584],[116.65420532226562,2.803655703229225],[116.65197372436523,2.8041700708205326],[116.65180206298828,2.8040843429043605],[116.65205955505371,2.8035699752753516],[116.65300369262695,2.8031413354117944],[116.6568660736084,2.802284055213647],[116.65729522705078,2.8023697832617103],[116.65781021118164,2.802798423407893],[116.65849685668945,2.803655703229225],[116.65892601013184,2.804855893923758],[116.65823936462402,2.8047701660578497],[116.65678024291992,2.8038271591181285],[116.65566444396973,2.803484247315211],[116.65523529052734,2.8038271591181285],[116.6557502746582,2.803655703229225],[116.65901184082031,2.805370260987246],[116.66012763977051,2.806913360819891],[116.66184425354004,2.8082850034050324],[116.6623592376709,2.8079420929097267],[116.66278839111328,2.8082850034050324],[116.66459083557129,2.8085421862104454],[116.66630744934082,2.8085421862104454],[116.66733741760254,2.808027820542989],[116.66956901550293,2.808199275790642],[116.66982650756836,2.808027820542989],[116.67145729064941,2.808885096529579],[116.67205810546875,2.8089708240936204],[116.67214393615723,2.8092280067480146],[116.67231559753418,2.809570916865738],[116.67214393615723,2.810256736799033],[116.67119979858398,2.8111997385493197],[116.6707706451416,2.812657103391544],[116.67016983032227,2.814114466412576],[116.6704273223877,2.815914735863956],[116.67025566101074,2.8167720060534833],[116.67025566101074,2.816857733037736],[116.6718864440918,2.816857733037736],[116.67128562927246,2.8154861005325955],[116.67154312133789,2.814371647933058],[116.67197227478027,2.8136858304190326],[116.6718864440918,2.813342921510724],[116.67257308959961,2.813000012501547],[116.67283058166504,2.812142739537478],[116.6736888885498,2.8109425563293513],[116.67394638061523,2.808885096529579],[116.6733455657959,2.8082850034050324],[116.67265892028809,2.808027820542989],[116.67240142822266,2.8076849099721812],[116.67162895202637,2.8071705439272563],[116.66982650756836,2.806656177655924],[116.66484832763672,2.806913360819891],[116.66313171386719,2.8064847221818354],[116.6612434387207,2.8051130774837816],[116.65969848632812,2.8030556074202337],[116.65935516357422,2.802798423407893],[116.65935516357422,2.8023697832617103],[116.6583251953125,2.8019411429585688],[116.65815353393555,2.8015125024984826],[116.65746688842773,2.8009124055907364],[116.65454864501953,2.8003123083754957],[116.65051460266113,2.8023697832617103],[116.64871215820312,2.8024555113035063],[116.64682388305664,2.801426774387636],[116.64596557617188,2.800398036567927],[116.64493560791016,2.7997122108528174],[116.64236068725586,2.798512014885432],[116.63918495178223,2.7962830762573674],[116.63729667663574,2.7940541333940416],[116.63583755493164,2.7929396603752252],[116.63540840148926,2.7921681015118907],[116.63515090942383,2.7921681015118907],[116.63463592529297,2.7916537286548078],[116.6282844543457,2.7870243628132556],[116.62742614746094,2.7867671752878778],[116.62605285644531,2.7867671752878778],[116.62476539611816,2.787967383258774],[116.62450790405273,2.788653215835339],[116.62382125854492,2.78891040294846],[116.62304878234863,2.7888246739170057],[116.6209888458252,2.787881654158582],[116.619873046875,2.7870243628132556],[116.61849975585938,2.785738424624469],[116.61807060241699,2.7849668610370486],[116.61661148071289,2.783338002915116],[116.61618232727051,2.7809375763165605],[116.61566734313965,2.779565901780984],[116.61515235900879,2.777251197387372],[116.6143798828125,2.775708058604579],[116.61369323730469,2.775022218498677],[116.61214828491211,2.771935933099229],[116.60940170288086,2.7686781786676278],[116.60528182983398,2.7648202999933886],[116.6037368774414,2.7630199523179755],[116.60202026367188,2.7602765601347556],[116.6019344329834,2.759676442250253],[116.60116195678711,2.758476205572336],[116.59832954406738,2.752303540676209],[116.59721374511719,2.7511032965650344],[116.59626960754395,2.7493886600247635],[116.5935230255127,2.7469024326648395],[116.59223556518555,2.744673396837854],[116.59017562866211,2.7423586244634777],[116.58931732177734,2.7420156948417684],[116.58717155456543,2.7418442299940438],[116.5857982635498,2.7411583703574536],[116.58442497253418,2.740129580165515],[116.58339500427246,2.739700917324612],[116.58159255981445,2.7377290662800533],[116.58013343811035,2.7368717387266344],[116.57652854919434,2.7330994902088293],[116.57464027404785,2.729755896383068],[116.57232284545898,2.726926694340534],[116.57103538513184,2.7255549576212417],[116.5704345703125,2.72598362551399],[116.57455444335938,2.7309561619043308],[116.57472610473633,2.731727760534696],[116.57661437988281,2.7342997523876704],[116.5788459777832,2.7368717387266344],[116.57961845397949,2.7373861353322724],[116.57987594604492,2.7379005317171305],[116.58116340637207,2.738672125880285],[116.58305168151855,2.7403867777964166],[116.58313751220703,2.7407297078849524],[116.58373832702637,2.7412441028335195],[116.58416748046875,2.7412441028335195],[116.58442497253418,2.7416727651217627],[116.58485412597656,2.7418442299940438],[116.58622741699219,2.7432159480876095],[116.58708572387695,2.7427872863523675],[116.58905982971191,2.7429587510649043],[116.58931732177734,2.7435588773651602],[116.58974647521973,2.7436446096691753],[116.59077644348145,2.7449305934916737],[116.59232139587402,2.746388040150862],[116.59232139587402,2.7468167005945787],[116.59292221069336,2.7478454850316467],[116.59438133239746,2.749131464331171],[116.59626960754395,2.7516176870463624],[116.59652709960938,2.7523892723521755],[116.59721374511719,2.752732198994437],[116.597900390625,2.7535895151683007],[116.597900390625,2.7541896361229163],[116.59841537475586,2.754789756775125],[116.59875869750977,2.756075728582786],[116.59944534301758,2.7566758482842175],[116.59996032714844,2.758133280584701],[116.60107612609863,2.7597621733951456],[116.60090446472168,2.7601908290269392],[116.60270690917969,2.7636200685132195],[116.60287857055664,2.7636200685132195],[116.60433769226074,2.7655918767323584],[116.60674095153809,2.767392220504476],[116.60674095153809,2.767820873380572],[116.60837173461914,2.7691925615420985],[116.60880088806152,2.770221326620913],[116.60965919494629,2.7704785177509734],[116.61043167114258,2.7715930120022563],[116.61060333251953,2.7715072817124877],[116.61086082458496,2.771850202834301],[116.61094665527344,2.772364584330674],[116.61206245422363,2.7739077274779476],[116.61249160766602,2.7751079485336874],[116.61274909973145,2.7751079485336874],[116.61300659179688,2.7754508686115145],[116.61283493041992,2.7756223286131103],[116.61343574523926,2.776050978508266],[116.6132640838623,2.7763938983124348],[116.61420822143555,2.7783656852544993],[116.61506652832031,2.781109035521368],[116.61455154418945,2.7818806016345263],[116.61540985107422,2.7839381088009816],[116.6169548034668,2.785738424624469],[116.61815643310547,2.7867671752878778],[116.61807060241699,2.7869386336443682],[116.61910057067871,2.7877959250521656],[116.62116050720215,2.7891675900053485],[116.62158966064453,2.7891675900053485],[116.62236213684082,2.7900248797887173],[116.62313461303711,2.790196337670409],[116.62364959716797,2.790539253358716],[116.62399291992188,2.789853421882057],[116.62442207336426,2.7900248797887173],[116.6250228881836,2.789681963950386],[116.62622451782227,2.7884817577286896],[116.62639617919922,2.788653215835339],[116.62725448608398,2.7881388414404],[116.62879943847656,2.789596234975164],[116.62922859191895,2.789596234975164],[116.6297435760498,2.790367795527075],[116.63034439086914,2.7902820666018613],[116.63034439086914,2.7906249822651716],[116.63060188293457,2.7906249822651716],[116.63283348083496,2.7923395590808724],[116.63386344909668,2.7928539316376515],[116.63497924804688,2.7940541333940416],[116.63549423217773,2.7939684047378535],[116.63858413696289,2.7969689039787795],[116.64004325866699,2.7980833731706554],[116.64030075073242,2.7979976448088877],[116.6433048248291,2.8005694929339597],[116.64759635925293,2.8039128870531584],[116.6484546661377,2.8040843429043605],[116.6487979888916,2.8043415266340475],[116.64974212646484,2.8040843429043605],[116.6499137878418,2.8042557987304235],[116.65154457092285,2.803998614981893],[116.65197372436523,2.8042557987304235],[116.65300369262695,2.8040843429043605],[116.65386199951172,2.8041700708205326]]]}},{"type":"Feature","id":"pmtiles:10/843/504:water:185258363:2","properties":{"intermittent":0,"class":"river","id":18525836,"water":"river","kind":"waterway","verification":"verified","source":"OpenMapTiles/OpenStreetMap national PMTiles","sourceId":"10/843/504:water:185258363:2","sourceLayer":"water","archive":"https://its.hanifahseptiani45.workers.dev/v1/map/archive/indonesia.pmtiles","updatedAt":"2026-07-26T09:39:55.496Z"},"geometry":{"type":"Polygon","coordinates":[[[116.69008255004883,2.8166005520660633],[116.69008255004883,2.816857733037736],[116.6923999786377,2.816857733037736],[116.69248580932617,2.816086189952344],[116.69282913208008,2.815743281750329],[116.69488906860352,2.8165148250628818],[116.69669151306152,2.816429098053405],[116.69986724853516,2.81514319215394],[116.70244216918945,2.8135143759774763],[116.70467376708984,2.8118855575254145],[116.70536041259766,2.810771101484562],[116.70596122741699,2.8104281917193816],[116.7063045501709,2.809485189345736],[116.70862197875977,2.808113548169956],[116.71085357666016,2.806141811158213],[116.7117977142334,2.8046844381856744],[116.71239852905273,2.802798423407893],[116.71231269836426,2.8021983271592887],[116.71257019042969,2.801341046270508],[116.71299934387207,2.8006552211075615],[116.7117977142334,2.8005694929339597],[116.71128273010254,2.8016839587013607],[116.7106819152832,2.8043415266340475],[116.71008110046387,2.804855893923758],[116.70982360839844,2.805713172237205],[116.7092227935791,2.806227538923551],[116.70802116394043,2.8065704499220345],[116.7066478729248,2.8077706376243157],[116.70639038085938,2.8077706376243157],[116.70536041259766,2.8086279137996826],[116.70364379882812,2.81051391917012],[116.70347213745117,2.8111997385493197],[116.70252799987793,2.8120570122064237],[116.69995307922363,2.8135143759774763],[116.69875144958496,2.8139430120340734],[116.69583320617676,2.8142859207658546],[116.69342994689941,2.8139430120340734],[116.69111251831055,2.814543102248493],[116.69008255004883,2.8166005520660633]]]}},{"type":"Feature","id":"pmtiles:10/843/504:waterway:725923310:0","properties":{"name_int":"Kayan River","name_de":"Sungai Kayan","name":"Sungai Kayan","name:en":"Kayan River","class":"river","name:latin":"Sungai Kayan","name_en":"Kayan River","waterway":"river","kind":"waterway","verification":"verified","source":"OpenMapTiles/OpenStreetMap national PMTiles","sourceId":"10/843/504:waterway:725923310:0","sourceLayer":"waterway","archive":"https://its.hanifahseptiani45.workers.dev/v1/map/archive/indonesia.pmtiles","updatedAt":"2026-07-26T09:39:55.497Z"},"geometry":{"type":"LineString","coordinates":[[116.35843276977539,2.470557081519104],[116.36341094970703,2.473301107778923],[116.36598587036133,2.4734726092317487],[116.37714385986328,2.4700425759639444],[116.3888168334961,2.469871074067939],[116.39688491821289,2.471414590334689],[116.39842987060547,2.47295810480675],[116.39705657958984,2.476045128362287],[116.39568328857422,2.482905154944959],[116.3946533203125,2.483934155862954],[116.39310836791992,2.4866781543907024],[116.39001846313477,2.4887361495416087],[116.38898849487305,2.491480138077847],[116.38916015625,2.4988545789179994],[116.39139175415039,2.503999513120604],[116.39139175415039,2.506743469770356],[116.39413833618164,2.516347272698283],[116.39945983886719,2.5249220369689596],[116.40460968017578,2.530924338299897],[116.41044616699219,2.5317818076512424],[116.41851425170898,2.53812706320322],[116.42623901367188,2.5388130349120246],[116.42864227294922,2.541899903093821],[116.43224716186523,2.5436148266718703],[116.43739700317383,2.550645989485403],[116.4389419555664,2.5523609014182114],[116.4426326751709,2.5554477371302937],[116.44529342651367,2.5573341330788537],[116.45482063293457,2.5691669170375064],[116.45936965942383,2.5741400833948234],[116.4616870880127,2.579113230345783],[116.4631462097168,2.5806566168271132],[116.4671802520752,2.5822857449689565],[116.47035598754883,2.584600818208031],[116.47207260131836,2.586487171058806],[116.4755916595459,2.5890594658791457],[116.47653579711914,2.5905170972930307],[116.47859573364258,2.5921462127701034],[116.48091316223145,2.5964333487383584],[116.48125648498535,2.5978909716550618],[116.48314476013184,2.6009776969821985],[116.48348808288574,2.602521056813515],[116.4854621887207,2.6062937062215212],[116.48700714111328,2.6110952436574593],[116.48709297180176,2.61263859108071],[116.48992538452148,2.618897702838666],[116.49147033691406,2.626957334917563],[116.49250030517578,2.629615287290264],[116.50099754333496,2.6395611232997425],[116.50322914123535,2.6433336609813693],[116.5059757232666,2.647191926293914],[116.50786399841309,2.650535746515331],[116.5111255645752,2.654222512185001],[116.51601791381836,2.658337958546525],[116.51902198791504,2.662624867244844],[116.52005195617676,2.663739461064054],[116.5239143371582,2.6665688100736844],[116.5264892578125,2.670855690111324],[116.52880668640137,2.6729133872162407],[116.53155326843262,2.674713869353056],[116.5330982208252,2.676085663492813],[116.53919219970703,2.6826016646790265],[116.54245376586914,2.684745078536835],[116.54459953308105,2.6864598069160195],[116.54580116271973,2.6899749925639185],[116.54665946960449,2.6911752975383223],[116.54760360717773,2.691861185564477],[116.5488052368164,2.6932329604586016],[116.55258178710938,2.700863430086983],[116.55515670776367,2.704121368815862],[116.55755996704102,2.7094369342691635],[116.56288146972656,2.7145810076491728],[116.56597137451172,2.7199822611302267],[116.56906127929688,2.723411615867704],[116.57773017883301,2.7349856159507624],[116.58536911010742,2.7416727651217627],[116.59008979797363,2.7432159480876095],[116.59395217895508,2.7480169490183073],[116.59807205200195,2.7524750040220027],[116.60150527954102,2.759676442250253],[116.60356521606445,2.7631056832215677],[116.6100025177002,2.770221326620913],[116.61395072937012,2.776050978508266],[116.61643981933594,2.783338002915116],[116.62004470825195,2.787967383258774],[116.62253379821777,2.7893390480120246],[116.6239070892334,2.7895105059937038],[116.62579536437988,2.7877101959394963],[116.62725448608398,2.7875387376953995],[116.62837028503418,2.787967383258774],[116.6297435760498,2.7888246739170057],[116.6366958618164,2.7943113193250895],[116.63944244384766,2.7972260892709215],[116.64236068725586,2.798854928144408],[116.6458797454834,2.8016839587013607],[116.64742469787598,2.802626967368255],[116.64948463439941,2.8030556074202337],[116.65111541748047,2.8030556074202337],[116.65446281433105,2.8019411429585688],[116.65609359741211,2.801855414879114],[116.65746688842773,2.8021983271592887],[116.65823936462402,2.8027126953912074],[116.66004180908203,2.8052845331590532],[116.66141510009766,2.8067419053835323],[116.6634750366211,2.807427726978048],[116.66519165039062,2.8076849099721812],[116.66974067687988,2.8076849099721812],[116.67145729064941,2.808199275790642],[116.67257308959961,2.8092280067480146],[116.67283058166504,2.811028283742303],[116.67180061340332,2.8122284668622513],[116.6707706451416,2.8152289192580753],[116.67094230651855,2.8166862790629352],[116.67171478271484,2.8183150908041767]]}},{"type":"Feature","id":"pmtiles:10/843/504:waterway:725923310:1","properties":{"name_int":"Kayan River","name_de":"Sungai Kayan","name":"Sungai Kayan","name:en":"Kayan River","class":"river","name:latin":"Sungai Kayan","name_en":"Kayan River","waterway":"river","kind":"waterway","verification":"verified","source":"OpenMapTiles/OpenStreetMap national PMTiles","sourceId":"10/843/504:waterway:725923310:1","sourceLayer":"waterway","archive":"https://its.hanifahseptiani45.workers.dev/v1/map/archive/indonesia.pmtiles","updatedAt":"2026-07-26T09:39:55.497Z"},"geometry":{"type":"LineString","coordinates":[[116.6916275024414,2.8183150908041767],[116.69214248657227,2.8152289192580753],[116.69660568237305,2.815400373447389],[116.69806480407715,2.8152289192580753],[116.70407295227051,2.8115426480877517],[116.7048454284668,2.809913826882749],[116.70707702636719,2.8086279137996826],[116.7103385925293,2.8054559888091717],[116.71402931213379,2.797654731299133],[116.71274185180664,2.788310299597029],[116.70913696289062,2.7841952969442048],[116.70948028564453,2.779565901780984],[116.71171188354492,2.775793788589837],[116.71102523803711,2.773393346652554],[116.71171188354492,2.7711643604913263],[116.71540260314941,2.7686781786676278],[116.71669006347656,2.7649917615343185],[116.7198657989502,2.7598479045338706],[116.72029495239258,2.755389877124898],[116.71969413757324,2.754103904576482],[116.72038078308105,2.752132077305731],[116.7213249206543,2.745616450964519],[116.72304153442383,2.7439018065443577],[116.72441482543945,2.7431302157528563]]}},{"type":"Feature","id":"pmtiles:10/843/504:waterway:725923350:0","properties":{"name":"Sungai Pangean","name_int":"Sungai Pangean","class":"river","name:latin":"Sungai Pangean","name_de":"Sungai Pangean","name_en":"Sungai Pangean","waterway":"river","kind":"waterway","verification":"verified","source":"OpenMapTiles/OpenStreetMap national PMTiles","sourceId":"10/843/504:waterway:725923350:0","sourceLayer":"waterway","archive":"https://its.hanifahseptiani45.workers.dev/v1/map/archive/indonesia.pmtiles","updatedAt":"2026-07-26T09:39:55.497Z"},"geometry":{"type":"LineString","coordinates":[[116.55189514160156,2.4913943885226075],[116.55155181884766,2.492594881787724],[116.55163764953613,2.494138371519554],[116.55095100402832,2.494910115706375],[116.55086517333984,2.495596110158857],[116.55180931091309,2.4967965995893024],[116.55129432678223,2.49799708792294],[116.5513801574707,2.498683080763797],[116.55301094055176,2.4998835673728053],[116.55378341674805,2.50091255502079],[116.55455589294434,2.5012555507241103],[116.55558586120605,2.5011698018066966],[116.55695915222168,2.499797818365721],[116.55764579772949,2.499626320334727],[116.55816078186035,2.5000550653701765],[116.5579891204834,2.5012555507241103],[116.55713081359863,2.502970527895016],[116.55747413635254,2.5034850206088066],[116.55807495117188,2.5034850206088066],[116.5591049194336,2.50288477908974],[116.55970573425293,2.5014270485421406],[116.56022071838379,2.5014270485421406],[116.56039237976074,2.501855792989076],[116.56013488769531,2.503999513120604],[116.56030654907227,2.504857000191251],[116.56099319458008,2.5053714921642154],[116.56253814697266,2.504857000191251],[116.56365394592285,2.505028497538035],[116.56425476074219,2.504514005430366],[116.56511306762695,2.5024560349792893],[116.56554222106934,2.5019415418616546],[116.5664005279541,2.5019415418616546],[116.56674385070801,2.502370286140362],[116.56682968139648,2.502970527895016],[116.56665802001953,2.5053714921642154],[116.56803131103516,2.5072579610018835],[116.56863212585449,2.507000715411408],[116.56914710998535,2.5061432297445947],[116.56983375549316,2.50562873807489],[116.57180786132812,2.504942748867464],[116.57258033752441,2.503742266889958],[116.57309532165527,2.5039137643826734],[116.57378196716309,2.504942748867464],[116.57438278198242,2.504771251509453],[116.57541275024414,2.5034850206088066],[116.57635688781738,2.5027990302788936],[116.57936096191406,2.502627532640304],[116.58124923706055,2.5015985463377177],[116.58167839050293,2.5019415418616546],[116.5817642211914,2.502970527895016],[116.58116340637207,2.5061432297445947],[116.5814208984375,2.5068292183229914],[116.58365249633789,2.507600955043884],[116.58476829528809,2.507515206541811],[116.58648490905762,2.5068292183229914],[116.58828735351562,2.506486224078742],[116.5898323059082,2.507000715411408],[116.5912914276123,2.510344904141519],[116.59163475036621,2.5118883729775376],[116.59214973449707,2.512402862184274],[116.59317970275879,2.512488610365679],[116.59446716308594,2.5106021490741313],[116.59566879272461,2.506743469770356],[116.59515380859375,2.5040852618529215],[116.59558296203613,2.503142025488728],[116.59609794616699,2.503313523059987],[116.59695625305176,2.503142025488728],[116.59729957580566,2.502627532640304],[116.59712791442871,2.5021130395899576],[116.59523963928223,2.5000550653701765],[116.59369468688965,2.5000550653701765],[116.59343719482422,2.499797818365721],[116.5935230255127,2.498940327986702],[116.59455299377441,2.4969680979898357],[116.59515380859375,2.4961963550111506],[116.59566879272461,2.496282104253396],[116.59626960754395,2.4976540913681333],[116.59712791442871,2.498082837047633],[116.597900390625,2.49799708792294],[116.60090446472168,2.495253112977352],[116.60176277160645,2.4933666268799612],[116.60184860229492,2.4901081445240862],[116.60244941711426,2.488650399807767],[116.60614013671875,2.4841056559380092],[116.60794258117676,2.480761400459116],[116.60862922668457,2.4779316392172888],[116.60914421081543,2.4773313860548853],[116.60991668701172,2.4769026336294644],[116.61068916320801,2.4774171365233286],[116.61163330078125,2.4789606440053547],[116.61360740661621,2.4779316392172888],[116.61455154418945,2.477074134616302],[116.61523818969727,2.4769883841256615],[116.6154956817627,2.4772456355809283],[116.61540985107422,2.477845888782184],[116.61377906799316,2.4811901516343937],[116.61395072937012,2.481704652861197],[116.6147232055664,2.482304904039381],[116.61566734313965,2.4824764043259506],[116.6169548034668,2.481961903399508],[116.61712646484375,2.4811901516343937],[116.61661148071289,2.4786176424982216],[116.61669731140137,2.47595937780504],[116.6172981262207,2.473129606303914],[116.61772727966309,2.4724436001822028],[116.6184139251709,2.472100596988355],[116.61918640136719,2.472357849392054],[116.62030220031738,2.474587368134536],[116.62064552307129,2.4761308789139775],[116.62107467651367,2.4769883841256615],[116.62287712097168,2.476388130535767],[116.62442207336426,2.4749303706853],[116.62545204162598,2.474587368134536],[116.62588119506836,2.475101871927407],[116.62579536437988,2.476045128362287],[116.62545204162598,2.476816883127725],[116.62416458129883,2.4775886374435316],[116.62562370300293,2.479646646752954],[116.62656784057617,2.4802468988653175],[116.62862777709961,2.4789606440053547],[116.62948608398438,2.479217895077383],[116.63034439086914,2.4805041496872207],[116.63128852844238,2.4809329009459162],[116.6323184967041,2.482304904039381],[116.63326263427734,2.4848774060001944],[116.63352012634277,2.488650399807767],[116.63412094116211,2.4903653934242698],[116.6366958618164,2.4928521302020954],[116.63678169250488,2.494910115706375],[116.63755416870117,2.495510360871876],[116.63832664489746,2.4971395963679868],[116.63789749145508,2.5003980612976733],[116.63763999938965,2.500998303955029],[116.63712501525879,2.5014270485421406],[116.63532257080078,2.5019415418616546],[116.6348934173584,2.502713281462391],[116.63686752319336,2.504771251509453],[116.63944244384766,2.506400475503625],[116.64064407348633,2.506486224078742],[116.64133071899414,2.506314726922895],[116.64236068725586,2.5055429894436116],[116.64270401000977,2.505800235320578],[116.64270401000977,2.507343709520839],[116.6421890258789,2.5093159239047083],[116.64253234863281,2.510087659158259],[116.64321899414062,2.5106878973737565],[116.64373397827148,2.5104306524580267],[116.64416313171387,2.508972930312467],[116.64484977722168,2.5078582005163668],[116.64579391479492,2.5078582005163668],[116.64665222167969,2.5088014334826028],[116.64759635925293,2.509058678718958],[116.64862632751465,2.5087156850592294],[116.64931297302246,2.5074294580341245],[116.64965629577637,2.5062289783365514],[116.65051460266113,2.5057144867005263],[116.6513729095459,2.50562873807489],[116.6531753540039,2.507172212477357],[116.65334701538086,2.50794394899593],[116.65411949157715,2.508372691309532],[116.65592193603516,2.5082011944009537],[116.65746688842773,2.508458439755401],[116.6583251953125,2.5091444271198213],[116.65875434875488,2.5102591558193836],[116.66004180908203,2.509744665768494],[116.66055679321289,2.511974121192736],[116.66132926940918,2.5121456176062367],[116.6634750366211,2.5106021490741313],[116.66459083557129,2.510173407491635],[116.66484832763672,2.5095731690398537],[116.66450500488281,2.5088014334826028],[116.66450500488281,2.5078582005163668],[116.66553497314453,2.505199994862366],[116.66562080383301,2.503742266889958],[116.66665077209473,2.5030562766946787],[116.66862487792969,2.50288477908974],[116.66956901550293,2.5030562766946787],[116.6704273223877,2.502627532640304],[116.67128562927246,2.501684295227122],[116.67137145996094,2.499540571310817],[116.6718864440918,2.4985973316782832],[116.67240142822266,2.4981685861667273],[116.67291641235352,2.498254335280251],[116.67377471923828,2.5003123123241977],[116.67437553405762,2.5003980612976733],[116.67489051818848,2.5001408143604493],[116.67600631713867,2.501341299635925],[116.67643547058105,2.5014270485421406],[116.67720794677734,2.50091255502079],[116.67866706848145,2.5020272907285914],[116.67926788330078,2.502198788445696],[116.67986869812012,2.502198788445696],[116.68295860290527,2.5010840528836695],[116.68407440185547,2.5014270485421406],[116.68441772460938,2.5017700441109127],[116.68407440185547,2.502198788445696],[116.68270111083984,2.5033992718371962],[116.68055534362793,2.5045997541289893],[116.68046951293945,2.505028497538035],[116.6806411743164,2.5053714921642154],[116.68132781982422,2.50562873807489],[116.68210029602051,2.505457240806706],[116.68373107910156,2.5057144867005263],[116.6843318939209,2.5062289783365514],[116.68450355529785,2.5105164007688927],[116.68364524841309,2.511288135313549],[116.68330192565918,2.511974121192736],[116.68373107910156,2.512745854876144],[116.68450355529785,2.5130030993359043],[116.68501853942871,2.513603336211574],[116.6854476928711,2.5174619952467907],[116.68716430664062,2.519091203410028],[116.68742179870605,2.5219208759013156],[116.68802261352539,2.5232070886357434],[116.6916275024414,2.5244933000978023],[116.69197082519531,2.524407552706606],[116.6923999786377,2.52517927902376],[116.69214248657227,2.525865257587512],[116.69051170349121,2.5265512357889577],[116.68922424316406,2.5274944552242005],[116.68965339660645,2.5284376739740253],[116.69119834899902,2.5295523861580023],[116.69231414794922,2.5298953743295556],[116.69463157653809,2.536669372113394],[116.69445991516113,2.53812706320322],[116.69480323791504,2.5389845277823326],[116.69883728027344,2.541985649326861],[116.69960975646973,2.5442150493855564],[116.69978141784668,2.5497027869476483],[116.70089721679688,2.551246208922052],[116.70158386230469,2.552789629043957],[116.7037296295166,2.5532183565266706],[116.70561790466309,2.5575056234821147],[116.70681953430176,2.558534565420146],[116.70802116394043,2.56067819180538],[116.70896530151367,2.5627360697608594],[116.70913696289062,2.5686524504461516],[116.70948028564453,2.570110105249938],[116.71042442321777,2.5707960598758177],[116.71205520629883,2.5711390370504716],[116.71231269836426,2.5730254098628507],[116.7121410369873,2.575511987941894],[116.7161750793457,2.5842578446611952],[116.71651840209961,2.584429331446188],[116.71823501586914,2.583657640731232],[116.7184066772461,2.5840863578530104],[116.71780586242676,2.586058454748084],[116.7161750793457,2.5870016304403833],[116.7158317565918,2.587773319121382],[116.7161750793457,2.5882020348523156],[116.71892166137695,2.588802236632006],[116.71943664550781,2.589402438127422],[116.71926498413086,2.591203040907317],[116.71969413757324,2.5920604699025347],[116.72072410583496,2.5930036411263444],[116.7213249206543,2.5940325543867573],[116.72149658203125,2.59488998146432],[116.72123908996582,2.596947804077516],[116.72149658203125,2.597633744203762],[116.72329902648926,2.5989198809362364],[116.72321319580078,2.59952007762962],[116.72149658203125,2.600120274037579],[116.72158241271973,2.6013206659968517],[116.72252655029297,2.6021780881253704],[116.72295570373535,2.6029497675424693],[116.72295570373535,2.6034642202247227],[116.72398567199707,2.6046646089997267],[116.72527313232422,2.6053505449289673]]}},{"type":"Feature","id":"pmtiles:10/843/504:waterway:725927532:0","properties":{"name_int":"Bahau River","name_de":"Sungai Bahau","name":"Sungai Bahau","name:id":"Sungai Bahau","name:en":"Bahau River","class":"river","name:latin":"Sungai Bahau","name_en":"Bahau River","waterway":"river","kind":"waterway","verification":"verified","source":"OpenMapTiles/OpenStreetMap national PMTiles","sourceId":"10/843/504:waterway:725927532:0","sourceLayer":"waterway","archive":"https://its.hanifahseptiani45.workers.dev/v1/map/archive/indonesia.pmtiles","updatedAt":"2026-07-26T09:39:55.497Z"},"geometry":{"type":"LineString","coordinates":[[116.356201171875,2.588887979720184],[116.36341094970703,2.5823714884975004],[116.36650085449219,2.5823714884975004],[116.36959075927734,2.5811710785712023],[116.37096405029297,2.5793704615560813],[116.37474060058594,2.57714112267233],[116.37971878051758,2.5731111540152938],[116.38126373291016,2.5677950056667243],[116.38057708740234,2.5631647939186166],[116.38212203979492,2.560420956828466],[116.38452529907227,2.559392016404459],[116.39276504516602,2.5576771138624395],[116.39636993408203,2.5581915848658667],[116.40340805053711,2.5624788351972967],[116.41096115112305,2.5641937313112635],[116.41671180725098,2.563507773141424],[116.42005920410156,2.564879689113326],[116.42409324645996,2.5673662830611903],[116.42701148986816,2.5675377721206587],[116.42984390258789,2.568137983647574],[116.43216133117676,2.5689096837677425],[116.4334487915039,2.5689954281967573],[116.43628120422363,2.5685667059941153],[116.4389419555664,2.5665088374186382],[116.44306182861328,2.5642794760566403],[116.44400596618652,2.564708199697293],[116.44546508789062,2.5668518157446982],[116.44658088684082,2.567880750170559],[116.44778251647949,2.568395217072762],[116.45018577575684,2.568738194892447],[116.45310401916504,2.5697671277987837],[116.45482063293457,2.5691669170375064]]}},{"type":"Feature","id":"pmtiles:10/843/504:waterway:7959627062:0","properties":{"name":"Sungai Pangean/Pengian","name_int":"Sungai Pangean/Pengian","class":"river","name:latin":"Sungai Pangean/Pengian","name_de":"Sungai Pangean/Pengian","name_en":"Sungai Pangean/Pengian","waterway":"river","kind":"waterway","verification":"verified","source":"OpenMapTiles/OpenStreetMap national PMTiles","sourceId":"10/843/504:waterway:7959627062:0","sourceLayer":"waterway","archive":"https://its.hanifahseptiani45.workers.dev/v1/map/archive/indonesia.pmtiles","updatedAt":"2026-07-26T09:39:55.497Z"},"geometry":{"type":"LineString","coordinates":[[116.6609001159668,2.453492541189604],[116.66072845458984,2.4547788206813976],[116.66158676147461,2.455293332131518],[116.66167259216309,2.456322354437404],[116.66210174560547,2.456836865293056],[116.66253089904785,2.458380396670478],[116.66227340698242,2.460438435729756],[116.66450500488281,2.4608671934673794],[116.6649341583252,2.462067714399069],[116.66407585144043,2.4634397369966052],[116.66501998901367,2.464211499086602],[116.66510581970215,2.464811758180659],[116.66459083557129,2.465412017003999],[116.6649341583252,2.465497768242372],[116.66510581970215,2.4664410314997838],[116.66647911071777,2.465755021924352],[116.66665077209473,2.4689278132441217],[116.66828155517578,2.470557081519104],[116.66871070861816,2.4716718428713733],[116.66871070861816,2.4727866032874033],[116.66922569274902,2.4739871134571843],[116.67008399963379,2.4751876225401332],[116.67025566101074,2.476388130535767],[116.67119979858398,2.4763023800007176],[116.67154312133789,2.4767311326204435],[116.67162895202637,2.4775028869862012],[116.67119979858398,2.4794751460993893],[116.67137145996094,2.4802468988653175],[116.6722297668457,2.4805898999500897],[116.67257308959961,2.4814474022728206],[116.67351722717285,2.4805898999500897],[116.67394638061523,2.4805041496872207],[116.67403221130371,2.4810186511809604],[116.67343139648438,2.4815331524744977],[116.67377471923828,2.4824764043259506],[116.67403221130371,2.482733654714039],[116.67523384094238,2.4829909050520627],[116.6751480102539,2.483333905424857],[116.67386054992676,2.4835911556460104],[116.67377471923828,2.4845344060282315],[116.6748046875,2.485734905540184],[116.6744613647461,2.487106903645298],[116.6751480102539,2.4881359012877056],[116.67497634887695,2.4892506478274186],[116.67600631713867,2.4894221472113713],[116.67634963989258,2.491137139823394],[116.67686462402344,2.4915658876275018],[116.67729377746582,2.4916516371715716],[116.67746543884277,2.491137139823394],[116.67780876159668,2.491137139823394],[116.67823791503906,2.491908885770272],[116.68072700500488,2.4928521302020954],[116.68158531188965,2.493795373957866],[116.68149948120117,2.494309870266875],[116.68081283569336,2.4940526221375308],[116.68038368225098,2.494224120896021],[116.6806411743164,2.495338862281116],[116.68046951293945,2.495596110158857],[116.67943954467773,2.4956818594402534],[116.67901039123535,2.4959391072508765],[116.67858123779297,2.497053847181718],[116.67875289916992,2.4974825930571427],[116.6817569732666,2.498340084388147],[116.68158531188965,2.4990260770498196],[116.68210029602051,2.4994548222813364],[116.68295860290527,2.4988545789179994],[116.68295860290527,2.498340084388147],[116.68270111083984,2.49799708792294],[116.68278694152832,2.4975683422154304],[116.68295860290527,2.497396843893256],[116.68355941772461,2.4975683422154304],[116.68424606323242,2.4988545789179994],[116.68407440185547,2.5014270485421406]]}},{"type":"Feature","id":"pmtiles:10/844/504:landcover:187998883:0","properties":{"subclass":"wood","class":"wood","kind":"green","verification":"verified","source":"OpenMapTiles/OpenStreetMap national PMTiles","sourceId":"10/844/504:landcover:187998883:0","sourceLayer":"landcover","archive":"https://its.hanifahseptiani45.workers.dev/v1/map/archive/indonesia.pmtiles","updatedAt":"2026-07-26T09:39:55.570Z"},"geometry":{"type":"Polygon","coordinates":[[[116.7132568359375,2.796025890758443],[116.7132568359375,2.79739754610101],[116.71342849731445,2.79739754610101],[116.71351432800293,2.7970546324157652],[116.7132568359375,2.796025890758443]]]}},{"type":"Feature","id":"pmtiles:10/844/504:landcover:187998883:1","properties":{"subclass":"wood","class":"wood","kind":"green","verification":"verified","source":"OpenMapTiles/OpenStreetMap national PMTiles","sourceId":"10/844/504:landcover:187998883:1","sourceLayer":"landcover","archive":"https://its.hanifahseptiani45.workers.dev/v1/map/archive/indonesia.pmtiles","updatedAt":"2026-07-26T09:39:55.570Z"},"geometry":{"type":"Polygon","coordinates":[[[116.7132568359375,2.765677607450158],[116.7132568359375,2.767306489910638],[116.71342849731445,2.767049298091976],[116.7147159576416,2.7668778368485363],[116.71368598937988,2.7657633381617615],[116.7132568359375,2.765677607450158]]]}},{"type":"Feature","id":"pmtiles:10/844/504:mountain_peak:10701715461:0","properties":{"name_int":"Gunung Yamuk","name_de":"Gunung Yamuk","name":"Gunung Yamuk","rank":1,"class":"peak","name:latin":"Gunung Yamuk","name_en":"Gunung Yamuk","kind":"poi","verification":"verified","source":"OpenMapTiles/OpenStreetMap national PMTiles","sourceId":"10/844/504:mountain_peak:10701715461:0","sourceLayer":"mountain_peak","archive":"https://its.hanifahseptiani45.workers.dev/v1/map/archive/indonesia.pmtiles","updatedAt":"2026-07-26T09:39:55.571Z"},"geometry":{"type":"Point","coordinates":[116.64999961853027,2.7000060763370044]}},{"type":"Feature","id":"pmtiles:10/844/504:waterway:725677280:0","properties":{"name_int":"Kayan River","name_de":"Sungai Kayan","name":"Sungai Kayan","name:en":"Kayan River","class":"river","name:latin":"Sungai Kayan","name_en":"Kayan River","waterway":"river","kind":"waterway","verification":"verified","source":"OpenMapTiles/OpenStreetMap national PMTiles","sourceId":"10/844/504:waterway:725677280:0","sourceLayer":"waterway","archive":"https://its.hanifahseptiani45.workers.dev/v1/map/archive/indonesia.pmtiles","updatedAt":"2026-07-26T09:39:55.571Z"},"geometry":{"type":"LineString","coordinates":[[116.7103385925293,2.8054559888091717],[116.71402931213379,2.797654731299133],[116.71274185180664,2.788310299597029]]}},{"type":"Feature","id":"pmtiles:8/210/125:landcover:187529440:4","properties":{"subclass":"wood","class":"wood","kind":"green","verification":"verified","source":"OpenMapTiles/OpenStreetMap national PMTiles","sourceId":"8/210/125:landcover:187529440:4","sourceLayer":"landcover","archive":"https://its.hanifahseptiani45.workers.dev/v1/map/archive/indonesia.pmtiles","updatedAt":"2026-07-26T09:35:21.436Z"},"geometry":{"type":"Polygon","coordinates":[[[116.63154602050781,2.7894247770059906],[116.64871215820312,2.8024555113035063],[116.65454864501953,2.800398036567927],[116.65969848632812,2.803484247315211],[116.663818359375,2.798340558218328],[116.66999816894531,2.798340558218328],[116.66793823242188,2.8031413354117944],[116.66553497314453,2.800055123760572],[116.663818359375,2.802798423407893],[116.66690826416016,2.806913360819891],[116.67411804199219,2.8089708240936204],[116.67137145996094,2.8154861005325955],[116.67240142822266,2.8178864563563764],[116.68132781982422,2.8165148250628818],[116.68647766113281,2.820629714093883],[116.68682098388672,2.8233729653602353],[116.6909408569336,2.8247445885647267],[116.6912841796875,2.8144573750939372],[116.69986724853516,2.813428648747248],[116.71051025390625,2.8045129824224233],[116.71154022216797,2.7979976448088877],[116.7136001586914,2.7969689039787795],[116.71085357666016,2.7894247770059906],[116.63154602050781,2.7894247770059906]]]}},{"type":"Feature","id":"pmtiles:8/210/125:mountain_peak:10701715461:0","properties":{"name_int":"Gunung Yamuk","name_de":"Gunung Yamuk","name":"Gunung Yamuk","rank":2,"class":"peak","name:latin":"Gunung Yamuk","name_en":"Gunung Yamuk","kind":"poi","verification":"verified","source":"OpenMapTiles/OpenStreetMap national PMTiles","sourceId":"8/210/125:mountain_peak:10701715461:0","sourceLayer":"mountain_peak","archive":"https://its.hanifahseptiani45.workers.dev/v1/map/archive/indonesia.pmtiles","updatedAt":"2026-07-26T09:35:21.436Z"},"geometry":{"type":"Point","coordinates":[116.65008544921875,2.6999203409287276]}},{"type":"Feature","id":"pmtiles:8/210/125:water:185258363:0","properties":{"intermittent":0,"class":"river","id":18525836,"water":"river","kind":"waterway","verification":"verified","source":"OpenMapTiles/OpenStreetMap national PMTiles","sourceId":"8/210/125:water:185258363:0","sourceLayer":"water","archive":"https://its.hanifahseptiani45.workers.dev/v1/map/archive/indonesia.pmtiles","updatedAt":"2026-07-26T09:35:21.438Z"},"geometry":{"type":"Polygon","coordinates":[[[116.63154602050781,2.7894247770059906],[116.62879943847656,2.7894247770059906],[116.6476821899414,2.8038271591181285],[116.65592193603516,2.8038271591181285],[116.65901184082031,2.805198805324565],[116.66175842285156,2.8082850034050324],[116.6696548461914,2.8079420929097267],[116.67205810546875,2.8093137342868886],[116.66999816894531,2.814114466412576],[116.67102813720703,2.819258086033642],[116.67411804199219,2.820629714093883],[116.67961120605469,2.8182293639272444],[116.68167114257812,2.8182293639272444],[116.68304443359375,2.821658434077449],[116.68716430664062,2.8264591152919536],[116.68956756591797,2.827487830112517],[116.69265747070312,2.8250874941127364],[116.69368743896484,2.8199439002659403],[116.69231414794922,2.8185722713970875],[116.69265747070312,2.8158290088102973],[116.69677734375,2.8165148250628818],[116.7026138305664,2.813428648747248],[116.71085357666016,2.806227538923551],[116.7129135131836,2.8007409492748963],[116.71188354492188,2.8007409492748963],[116.70982360839844,2.805541716624802],[116.70536041259766,2.8086279137996826],[116.7026138305664,2.8120570122064237],[116.69883728027344,2.814114466412576],[116.6912841796875,2.8144573750939372],[116.68991088867188,2.8189151787658915],[116.6912841796875,2.823030059306049],[116.6909408569336,2.8247445885647267],[116.68956756591797,2.8250874941127364],[116.68682098388672,2.8233729653602353],[116.68647766113281,2.820629714093883],[116.68132781982422,2.8165148250628818],[116.67274475097656,2.8182293639272444],[116.67137145996094,2.8154861005325955],[116.67411804199219,2.8089708240936204],[116.67171478271484,2.807256271617149],[116.66313171386719,2.8065704499220345],[116.65763854980469,2.8007409492748963],[116.65454864501953,2.800398036567927],[116.64871215820312,2.8024555113035063],[116.63909912109375,2.7962830762573674],[116.63532257080078,2.7921681015118907],[116.63154602050781,2.7894247770059906]]]}},{"type":"Feature","id":"pmtiles:8/210/125:waterway:725923312:0","properties":{"name_int":"Sungai Kayan","name_de":"Sungai Kayan","name":"Sungai Kayan","class":"river","name:latin":"Sungai Kayan","name_en":"Sungai Kayan","waterway":"river","kind":"waterway","verification":"verified","source":"OpenMapTiles/OpenStreetMap national PMTiles","sourceId":"8/210/125:waterway:725923312:0","sourceLayer":"waterway","archive":"https://its.hanifahseptiani45.workers.dev/v1/map/archive/indonesia.pmtiles","updatedAt":"2026-07-26T09:35:21.438Z"},"geometry":{"type":"LineString","coordinates":[[116.63017272949219,2.7894247770059906],[116.6473388671875,2.802798423407893],[116.65111541748047,2.8031413354117944],[116.65592193603516,2.8017696867933637],[116.6583251953125,2.802798423407893],[116.66141510009766,2.806913360819891],[116.67137145996094,2.8082850034050324],[116.67274475097656,2.8093137342868886],[116.67274475097656,2.811028283742303],[116.67068481445312,2.81514319215394],[116.67274475097656,2.819258086033642],[116.67892456054688,2.8175435486844975],[116.68304443359375,2.8185722713970875],[116.68716430664062,2.8254303995594796],[116.68991088867188,2.826116210149081],[116.6912841796875,2.8254303995594796],[116.69197082519531,2.8233729653602353],[116.6912841796875,2.821658434077449],[116.69231414794922,2.81514319215394],[116.69815063476562,2.81514319215394],[116.70398712158203,2.8113711933311407],[116.71051025390625,2.805541716624802],[116.71394348144531,2.797654731299133],[116.7129135131836,2.7894247770059906]]}},{"type":"Feature","id":"pmtiles:8/211/125:landcover:187549240:7","properties":{"subclass":"wood","class":"wood","kind":"green","verification":"verified","source":"OpenMapTiles/OpenStreetMap national PMTiles","sourceId":"8/211/125:landcover:187549240:7","sourceLayer":"landcover","archive":"https://its.hanifahseptiani45.workers.dev/v1/map/archive/indonesia.pmtiles","updatedAt":"2026-07-26T09:35:21.501Z"},"geometry":{"type":"Polygon","coordinates":[[[116.69677734375,2.8137715576303464],[116.69986724853516,2.813428648747248],[116.71051025390625,2.8045129824224233],[116.71154022216797,2.7979976448088877],[116.7136001586914,2.7969689039787795],[116.71085357666016,2.7894247770059906],[116.69677734375,2.7894247770059906],[116.69677734375,2.8137715576303464]]]}},{"type":"Feature","id":"pmtiles:8/211/125:mountain_peak:10701715461:0","properties":{"name_int":"Gunung Yamuk","name_de":"Gunung Yamuk","name":"Gunung Yamuk","rank":2,"class":"peak","name:latin":"Gunung Yamuk","name_en":"Gunung Yamuk","kind":"poi","verification":"verified","source":"OpenMapTiles/OpenStreetMap national PMTiles","sourceId":"8/211/125:mountain_peak:10701715461:0","sourceLayer":"mountain_peak","archive":"https://its.hanifahseptiani45.workers.dev/v1/map/archive/indonesia.pmtiles","updatedAt":"2026-07-26T09:35:21.501Z"},"geometry":{"type":"Point","coordinates":[116.65008544921875,2.6999203409287276]}},{"type":"Feature","id":"pmtiles:8/211/125:waterway:725677280:0","properties":{"name_int":"Sungai Kayan","name_de":"Sungai Kayan","name":"Sungai Kayan","class":"river","name:latin":"Sungai Kayan","name_en":"Sungai Kayan","waterway":"river","kind":"waterway","verification":"verified","source":"OpenMapTiles/OpenStreetMap national PMTiles","sourceId":"8/211/125:waterway:725677280:0","sourceLayer":"waterway","archive":"https://its.hanifahseptiani45.workers.dev/v1/map/archive/indonesia.pmtiles","updatedAt":"2026-07-26T09:35:21.514Z"},"geometry":{"type":"LineString","coordinates":[[116.69677734375,2.81514319215394],[116.69815063476562,2.81514319215394],[116.70398712158203,2.8113711933311407],[116.71051025390625,2.805541716624802],[116.71394348144531,2.797654731299133],[116.7129135131836,2.7894247770059906]]}},{"type":"Feature","id":"pmtiles:8/210/126:landcover:187652300:2","properties":{"subclass":"wood","class":"wood","kind":"green","verification":"verified","source":"OpenMapTiles/OpenStreetMap national PMTiles","sourceId":"8/210/126:landcover:187652300:2","sourceLayer":"landcover","archive":"https://its.hanifahseptiani45.workers.dev/v1/map/archive/indonesia.pmtiles","updatedAt":"2026-07-26T09:35:24.048Z"},"geometry":{"type":"Polygon","coordinates":[[[116.68888092041016,2.8305739690996177],[116.68476104736328,2.8333171968553046],[116.74072265625,2.8333171968553046],[116.74072265625,2.7324993586692443],[116.73660278320312,2.735585746246727],[116.73660278320312,2.737643333552313],[116.73282623291016,2.7369574715095695],[116.72355651855469,2.745187790090128],[116.72115325927734,2.754789756775125],[116.7245864868164,2.756847311000456],[116.72252655029297,2.758219011840879],[116.72080993652344,2.756847311000456],[116.71634674072266,2.768849639650597],[116.71188354492188,2.772278854096811],[116.7136001586914,2.779137253161622],[116.71154022216797,2.778794334154057],[116.70982360839844,2.7825664377557047],[116.71463012695312,2.7866814461002605],[116.7136001586914,2.8017696867933637],[116.7026138305664,2.813428648747248],[116.69677734375,2.8165148250628818],[116.69265747070312,2.8158290088102973],[116.69265747070312,2.8250874941127364],[116.68888092041016,2.8305739690996177]]]}},{"type":"Feature","id":"pmtiles:8/210/126:mountain_peak:10701715461:0","properties":{"name_int":"Gunung Yamuk","name_de":"Gunung Yamuk","name":"Gunung Yamuk","rank":2,"class":"peak","name:latin":"Gunung Yamuk","name_en":"Gunung Yamuk","kind":"poi","verification":"verified","source":"OpenMapTiles/OpenStreetMap national PMTiles","sourceId":"8/210/126:mountain_peak:10701715461:0","sourceLayer":"mountain_peak","archive":"https://its.hanifahseptiani45.workers.dev/v1/map/archive/indonesia.pmtiles","updatedAt":"2026-07-26T09:35:24.049Z"},"geometry":{"type":"Point","coordinates":[116.65008544921875,2.6999203409287276]}},{"type":"Feature","id":"pmtiles:8/210/126:water:185258363:0","properties":{"intermittent":0,"class":"river","id":18525836,"water":"river","kind":"waterway","verification":"verified","source":"OpenMapTiles/OpenStreetMap national PMTiles","sourceId":"8/210/126:water:185258363:0","sourceLayer":"water","archive":"https://its.hanifahseptiani45.workers.dev/v1/map/archive/indonesia.pmtiles","updatedAt":"2026-07-26T09:35:24.050Z"},"geometry":{"type":"Polygon","coordinates":[[[116.67205810546875,2.8093137342868886],[116.66999816894531,2.814114466412576],[116.67102813720703,2.819258086033642],[116.67411804199219,2.820629714093883],[116.67961120605469,2.8182293639272444],[116.68167114257812,2.8182293639272444],[116.68304443359375,2.821658434077449],[116.68716430664062,2.8264591152919536],[116.68956756591797,2.827487830112517],[116.69265747070312,2.8250874941127364],[116.69368743896484,2.8199439002659403],[116.69231414794922,2.8185722713970875],[116.69265747070312,2.8158290088102973],[116.69677734375,2.8165148250628818],[116.7026138305664,2.813428648747248],[116.71085357666016,2.806227538923551],[116.7129135131836,2.8007409492748963],[116.71188354492188,2.8007409492748963],[116.70982360839844,2.805541716624802],[116.70536041259766,2.8086279137996826],[116.7026138305664,2.8120570122064237],[116.69883728027344,2.814114466412576],[116.6912841796875,2.8144573750939372],[116.68991088867188,2.8189151787658915],[116.6912841796875,2.823030059306049],[116.6909408569336,2.8247445885647267],[116.68956756591797,2.8250874941127364],[116.68682098388672,2.8233729653602353],[116.68647766113281,2.820629714093883],[116.68132781982422,2.8165148250628818],[116.67274475097656,2.8182293639272444],[116.67137145996094,2.8154861005325955],[116.67411804199219,2.8089708240936204],[116.67171478271484,2.807256271617149],[116.66313171386719,2.8065704499220345],[116.65763854980469,2.8007409492748963],[116.65454864501953,2.800398036567927],[116.64871215820312,2.8024555113035063],[116.63909912109375,2.7962830762573674],[116.63532257080078,2.7921681015118907],[116.62811279296875,2.7870243628132556],[116.62605285644531,2.7866814461002605],[116.62364959716797,2.7887389448792987],[116.619873046875,2.7870243628132556],[116.61678314208984,2.783252273477899],[116.61506652832031,2.7770797376221594],[116.61197662353516,2.771935933099229],[116.6037368774414,2.7630199523179755],[116.59618377685547,2.749302928133062],[116.59034729003906,2.7424443568535537],[116.58588409423828,2.7410726378752344],[116.58004760742188,2.7369574715095695],[116.57215118408203,2.7270124278335572],[116.57112121582031,2.725640691212007],[116.5704345703125,2.72598362551399],[116.57970428466797,2.7379862644264676],[116.58622741699219,2.7431302157528563],[116.58897399902344,2.7431302157528563],[116.5924072265625,2.7465595043468056],[116.597900390625,2.7537609783290407],[116.60270690917969,2.763705799373483],[116.61094665527344,2.771935933099229],[116.61334991455078,2.776050978508266],[116.61540985107422,2.7839381088009816],[116.61918640136719,2.7877101959394963],[116.62364959716797,2.790453524446022],[116.62708282470703,2.7880531123526993],[116.6476821899414,2.8038271591181285],[116.65592193603516,2.8038271591181285],[116.65901184082031,2.805198805324565],[116.66175842285156,2.8082850034050324],[116.6696548461914,2.8079420929097267],[116.67205810546875,2.8093137342868886]]]}},{"type":"Feature","id":"pmtiles:8/211/126:mountain_peak:10701715461:0","properties":{"name_int":"Gunung Yamuk","name_de":"Gunung Yamuk","name":"Gunung Yamuk","rank":2,"class":"peak","name:latin":"Gunung Yamuk","name_en":"Gunung Yamuk","kind":"poi","verification":"verified","source":"OpenMapTiles/OpenStreetMap national PMTiles","sourceId":"8/211/126:mountain_peak:10701715461:0","sourceLayer":"mountain_peak","archive":"https://its.hanifahseptiani45.workers.dev/v1/map/archive/indonesia.pmtiles","updatedAt":"2026-07-26T09:35:24.126Z"},"geometry":{"type":"Point","coordinates":[116.65008544921875,2.6999203409287276]}}]}