{"type":"FeatureCollection","features":[{"type":"Feature","id":"pmtiles:10/898/511:water:380:0","properties":{"class":"ocean","water":"ocean","kind":"waterway","verification":"verified","source":"OpenMapTiles/OpenStreetMap national PMTiles","sourceId":"10/898/511:water:380:0","sourceLayer":"water","archive":"https://its.hanifahseptiani45.workers.dev/v1/map/archive/indonesia.pmtiles","updatedAt":"2026-07-26T09:41:19.013Z"},"geometry":{"type":"Polygon","coordinates":[[[135.6976318359375,0.3570533530247104],[136.0601806640625,0.3570533530247104],[136.0601806640625,-0.005493164054087174],[135.6976318359375,-0.005493164054087174],[135.6976318359375,0.3570533530247104]]]}}]}