{"type":"FeatureCollection","features":[{"type":"Feature","id":"pmtiles:10/836/509:landcover:139442823:0","properties":{"subclass":"bare_rock","class":"rock","kind":"green","verification":"verified","source":"OpenMapTiles/OpenStreetMap national PMTiles","sourceId":"10/836/509:landcover:139442823:0","sourceLayer":"landcover","archive":"https://its.hanifahseptiani45.workers.dev/v1/map/archive/indonesia.pmtiles","updatedAt":"2026-07-26T09:40:54.762Z"},"geometry":{"type":"Polygon","coordinates":[[[114.2633056640625,0.9351696572152264],[114.26081657409668,0.934568922371497],[114.25995826721191,0.9348263801742434],[114.26124572753906,0.9362853073664752],[114.26176071166992,0.9382591490717829],[114.26304817199707,0.9394606173908073],[114.26236152648926,0.9416919146010656],[114.26313400268555,0.9416919146010656],[114.2633056640625,0.9418635527889023],[114.2633056640625,0.9351696572152264]]]}},{"type":"Feature","id":"pmtiles:10/836/509:landcover:187778643:2","properties":{"subclass":"wood","class":"wood","kind":"green","verification":"verified","source":"OpenMapTiles/OpenStreetMap national PMTiles","sourceId":"10/836/509:landcover:187778643:2","sourceLayer":"landcover","archive":"https://its.hanifahseptiani45.workers.dev/v1/map/archive/indonesia.pmtiles","updatedAt":"2026-07-26T09:40:54.762Z"},"geometry":{"type":"Polygon","coordinates":[[[114.26081657409668,0.7949383317066463],[114.2633056640625,0.7960540231143654],[114.2633056640625,0.7916770781725972],[114.26201820373535,0.7913337881774964],[114.26201820373535,0.7922778355955984],[114.26313400268555,0.7932218827985906],[114.26321983337402,0.7942517522289592],[114.26270484924316,0.7948525092781722],[114.26081657409668,0.7949383317066463]]]}},{"type":"Feature","id":"pmtiles:10/836/509:landcover:187778643:3","properties":{"subclass":"wood","class":"wood","kind":"green","verification":"verified","source":"OpenMapTiles/OpenStreetMap national PMTiles","sourceId":"10/836/509:landcover:187778643:3","sourceLayer":"landcover","archive":"https://its.hanifahseptiani45.workers.dev/v1/map/archive/indonesia.pmtiles","updatedAt":"2026-07-26T09:40:54.762Z"},"geometry":{"type":"Polygon","coordinates":[[[114.26287651062012,0.7900464504430147],[114.2633056640625,0.7903039180218343],[114.2633056640625,0.789016579968191],[114.26158905029297,0.7879867092384387],[114.25918579101562,0.7885874671951001],[114.25909996032715,0.7894456926970292],[114.26287651062012,0.7900464504430147]]]}},{"type":"Feature","id":"pmtiles:10/836/509:landcover:187778643:4","properties":{"subclass":"wood","class":"wood","kind":"green","verification":"verified","source":"OpenMapTiles/OpenStreetMap national PMTiles","sourceId":"10/836/509:landcover:187778643:4","sourceLayer":"landcover","archive":"https://its.hanifahseptiani45.workers.dev/v1/map/archive/indonesia.pmtiles","updatedAt":"2026-07-26T09:40:54.762Z"},"geometry":{"type":"Polygon","coordinates":[[[114.2618465423584,0.7858411444007771],[114.2633056640625,0.7859269670154561],[114.2633056640625,0.7780312791074522],[114.26193237304688,0.7782029246544226],[114.26021575927734,0.77923279778949],[114.26244735717773,0.7807776070198997],[114.26150321960449,0.7830089971281069],[114.2618465423584,0.7858411444007771]]]}},{"type":"Feature","id":"pmtiles:10/837/509:landcover:139442823:0","properties":{"subclass":"bare_rock","class":"rock","kind":"green","verification":"verified","source":"OpenMapTiles/OpenStreetMap national PMTiles","sourceId":"10/837/509:landcover:139442823:0","sourceLayer":"landcover","archive":"https://its.hanifahseptiani45.workers.dev/v1/map/archive/indonesia.pmtiles","updatedAt":"2026-07-26T09:40:54.822Z"},"geometry":{"type":"Polygon","coordinates":[[[114.26467895507812,0.9433224770439779],[114.26579475402832,0.9428933817383012],[114.26682472229004,0.9398897131189443],[114.2676830291748,0.9395464365406525],[114.26691055297852,0.9381733298903612],[114.26708221435547,0.9372293187556409],[114.26596641540527,0.9371434995489523],[114.26527976989746,0.9356845727137397],[114.26081657409668,0.934568922371497],[114.25995826721191,0.9348263801742434],[114.26124572753906,0.9362853073664752],[114.26176071166992,0.9382591490717829],[114.26304817199707,0.9394606173908073],[114.26236152648926,0.9416919146010656],[114.26313400268555,0.9416919146010656],[114.26467895507812,0.9433224770439779]]]}},{"type":"Feature","id":"pmtiles:10/837/509:landcover:187778643:0","properties":{"subclass":"wood","class":"wood","kind":"green","verification":"verified","source":"OpenMapTiles/OpenStreetMap national PMTiles","sourceId":"10/837/509:landcover:187778643:0","sourceLayer":"landcover","archive":"https://its.hanifahseptiani45.workers.dev/v1/map/archive/indonesia.pmtiles","updatedAt":"2026-07-26T09:40:54.822Z"},"geometry":{"type":"Polygon","coordinates":[[[114.26965713500977,0.7787178612533978],[114.26897048950195,0.7789753295293167],[114.26888465881348,0.7778596335535184],[114.26716804504395,0.7781171018818185],[114.26699638366699,0.7759715319996445],[114.26836967468262,0.775628240717424],[114.26742553710938,0.7746841895477985],[114.26794052124023,0.7730535552141049],[114.26630973815918,0.7719378576775568],[114.26639556884766,0.7734826695732124],[114.26570892333984,0.7731393780893825],[114.26502227783203,0.7768297600832597],[114.26382064819336,0.7779454563313664],[114.26193237304688,0.7782029246544226],[114.26021575927734,0.77923279778949],[114.26244735717773,0.7807776070198997],[114.26150321960449,0.7830089971281069],[114.2618465423584,0.7858411444007771],[114.26424980163574,0.786012789628387],[114.2673397064209,0.7883299995100117],[114.26527976989746,0.79013227297105],[114.26158905029297,0.7879867092384387],[114.25918579101562,0.7885874671951001],[114.25909996032715,0.7894456926970292],[114.26287651062012,0.7900464504430147],[114.26467895507812,0.7913337881774964],[114.26407814025879,0.7919345456502498],[114.26201820373535,0.7913337881774964],[114.26201820373535,0.7922778355955984],[114.26313400268555,0.7932218827985906],[114.26321983337402,0.7942517522289592],[114.26270484924316,0.7948525092781722],[114.26081657409668,0.7949383317066463],[114.26339149475098,0.796139845517871],[114.26356315612793,0.7967406022922034],[114.26064491271973,0.7970838918382128],[114.25918579101562,0.798285405023833],[114.2581558227539,0.798285405023833],[114.25832748413086,0.7976846484748563],[114.25987243652344,0.7967406022922034],[114.26004409790039,0.7956249110701776],[114.25764083862305,0.7947666868479217],[114.2574691772461,0.7934793501802204],[114.2589282989502,0.7925353030359332],[114.26004409790039,0.793307705260915],[114.25995826721191,0.7911621431693021],[114.25875663757324,0.7900464504430147],[114.25609588623047,0.790389740544569],[114.25300598144531,0.7916770781725972],[114.2523193359375,0.7921920131119293],[114.2523193359375,1.0601201709472292],[114.6148681640625,1.0601201709472292],[114.6148681640625,0.8332149541586915],[114.61469650268555,0.8331291325448547],[114.61212158203125,0.8323567379361663],[114.6027660369873,0.8321850946692422],[114.59366798400879,0.8328716676921033],[114.5925521850586,0.8333865973807804],[114.59100723266602,0.8332149541586915],[114.58868980407715,0.8320992730329664],[114.58834648132324,0.8336440621998804],[114.58714485168457,0.8342448133789304],[114.58783149719238,0.8356179585865817],[114.58757400512695,0.836561995638462],[114.58517074584961,0.8375918539814649],[114.57993507385254,0.8382784260598015],[114.57856178283691,0.8375918539814649],[114.57212448120117,0.8367336387144064],[114.56997871398926,0.8345880997258064],[114.56637382507324,0.8327858460707915],[114.56276893615723,0.8276365453790078],[114.56156730651855,0.8234312781863053],[114.56233978271484,0.8202558694061679],[114.56199645996094,0.8157073064961651],[114.56045150756836,0.8122744254223875],[114.55907821655273,0.811759493009518],[114.5573616027832,0.8122744254223875],[114.55143928527832,0.8181961434441831],[114.54955101013184,0.8180244995662491],[114.54663276672363,0.8164797043346255],[114.54568862915039,0.8147632644922993],[114.54534530639648,0.8119311371544313],[114.54225540161133,0.8066959874634705],[114.5405387878418,0.8047220768127232],[114.54148292541504,0.8020615870334495],[114.5408821105957,0.8013750087448983],[114.53590393066406,0.8020615870334495],[114.53547477722168,0.8106438058900522],[114.53384399414062,0.8144199764360138],[114.52903747558594,0.8164797043346255],[114.52620506286621,0.8169088141807777],[114.52517509460449,0.816565526307528],[114.52354431152344,0.8144199764360138],[114.52345848083496,0.8109012721756841],[114.52174186706543,0.8078116756687308],[114.51066970825195,0.7987145167907812],[114.50852394104004,0.796139845517871],[114.50345993041992,0.7938226399974724],[114.49968338012695,0.79013227297105],[114.49882507324219,0.7867851930652989],[114.4998550415039,0.7837814011197821],[114.50157165527344,0.7819791249178394],[114.50448989868164,0.7808634297383037],[114.50397491455078,0.7797477342626138],[114.49994087219238,0.7774305196381022],[114.49710845947266,0.7768297600832597],[114.4870662689209,0.7807776070198997],[114.48183059692383,0.7801768479421298],[114.47736740112305,0.7785462157274026],[114.47487831115723,0.7787178612533978],[114.47050094604492,0.7727102636956005],[114.47050094604492,0.7713370973442863],[114.4720458984375,0.7697064617266562],[114.47230339050293,0.7687624092419441],[114.47101593017578,0.7663593656123311],[114.46904182434082,0.7660160735550932],[114.46475028991699,0.7694489928879165],[114.46157455444336,0.7707363369261913],[114.46037292480469,0.7702213993575384],[114.45290565490723,0.763441382250079],[114.45127487182617,0.7610383356409756],[114.4504165649414,0.7540008343141977],[114.44827079772949,0.7515119591652564],[114.44912910461426,0.7504820793781874],[114.44869995117188,0.748593965805668],[114.44286346435547,0.7439595017760183],[114.44131851196289,0.7439595017760183],[114.4390869140625,0.7458476173403739],[114.43668365478516,0.7464483812138241],[114.42981719970703,0.7434445610272462],[114.42938804626465,0.7420713854036904],[114.43127632141113,0.7405265623177257],[114.43170547485352,0.739496679961249],[114.43084716796875,0.7358920898341381],[114.42973136901855,0.7352055009078242],[114.42346572875977,0.7339181463864719],[114.4200325012207,0.7343472646014391],[114.41891670227051,0.7356346189991569],[114.41170692443848,0.7383809738054481],[114.40707206726074,0.7382951502434167],[114.40518379211426,0.7371794437860757],[114.40303802490234,0.7370077966139803],[114.39763069152832,0.7403549152749349],[114.39213752746582,0.7382093266797085],[114.38990592956543,0.7386384444816656],[114.38612937927246,0.7419855619130686],[114.38424110412598,0.7444744424646785],[114.38312530517578,0.7467058514201597],[114.3841552734375,0.7488514358862091],[114.38278198242188,0.7512544892412478],[114.38115119934082,0.7512544892412478],[114.38055038452148,0.7509111959856369],[114.38055038452148,0.7502246093935128],[114.37917709350586,0.7500529627286596],[114.3772029876709,0.7535717180105905],[114.37565803527832,0.7542583040760604],[114.3757438659668,0.7552881829711566],[114.37419891357422,0.7556314758819695],[114.37368392944336,0.7545157738227033],[114.36956405639648,0.7564038848321104],[114.37033653259277,0.7564038848321104],[114.36999320983887,0.7577770559594654],[114.36690330505371,0.7573479400288932],[114.36432838439941,0.7588927571799644],[114.35840606689453,0.7578628791404896],[114.35471534729004,0.7553740062014072],[114.34982299804688,0.7578628791404896],[114.34767723083496,0.7575195864062181],[114.34484481811523,0.7581203486733159],[114.34106826782227,0.756833000856119],[114.33900833129883,0.7576054095923439],[114.33746337890625,0.7574337632184154],[114.33531761169434,0.7558889455472979],[114.32991027832031,0.7498813160570705],[114.32896614074707,0.7497954927187465],[114.32819366455078,0.7508253726675065],[114.32853698730469,0.7527993085575844],[114.32767868041992,0.753142601664706],[114.32673454284668,0.7528851318368908],[114.32767868041992,0.7515119591652564],[114.3263053894043,0.7501387860619246],[114.32561874389648,0.7473066151763419],[114.32656288146973,0.7450752065254704],[114.32458877563477,0.7434445610272462],[114.32003974914551,0.7433587375632698],[114.3171215057373,0.7442169721278731],[114.31222915649414,0.7466200280197341],[114.31137084960938,0.7495380226936845],[114.31171417236328,0.7524560154234337],[114.31068420410156,0.7559747687656682],[114.30974006652832,0.7570046472538365],[114.30785179138184,0.7582061718475472],[114.30364608764648,0.7581203486733159],[114.30150032043457,0.7588927571799644],[114.3021011352539,0.7615532743129023],[114.30484771728516,0.7656727814703572],[114.3046760559082,0.7673034186278329],[114.30270195007324,0.7689340551637969],[114.30381774902344,0.7687624092419441],[114.30484771728516,0.7696206387821434],[114.30330276489258,0.7717662118766953],[114.30167198181152,0.7711654515191952],[114.30227279663086,0.7723669721493422],[114.30089950561523,0.7758857091816935],[114.2977237701416,0.7762290004430099],[114.29686546325684,0.7784603929617901],[114.2962646484375,0.7781171018818185],[114.29652214050293,0.7766581144804832],[114.29471969604492,0.7763148232540118],[114.29429054260254,0.7747700123901069],[114.29360389709473,0.7743408981612419],[114.29317474365234,0.7782029246544226],[114.29274559020996,0.7785462157274026],[114.29180145263672,0.7777738107739225],[114.29068565368652,0.7743408981612419],[114.29025650024414,0.7742550753102364],[114.2911148071289,0.7780312791074522],[114.28811073303223,0.779576088778569],[114.28708076477051,0.7794044432875324],[114.28699493408203,0.7799193797396811],[114.2911148071289,0.7788036840137949],[114.29171562194824,0.7800052024755644],[114.29025650024414,0.7801768479421298],[114.28991317749023,0.7818074795249004],[114.28871154785156,0.7811208978829569],[114.28725242614746,0.782064947611687],[114.28656578063965,0.7809492524549313],[114.28536415100098,0.780691784299762],[114.28459167480469,0.7824082383695128],[114.2794418334961,0.7825798837378812],[114.27987098693848,0.783523933138369],[114.28201675415039,0.7840388690853644],[114.28175926208496,0.7848112728870689],[114.28081512451172,0.7848112728870689],[114.28107261657715,0.7860986122395417],[114.28304672241211,0.7864419026665388],[114.28390502929688,0.7857553217843218],[114.28459167480469,0.7872143060240262],[114.2856216430664,0.7871284834358221],[114.28587913513184,0.7877292415162174],[114.2849349975586,0.7878150640920438],[114.28364753723145,0.7899606279131746],[114.28098678588867,0.7878150640920438],[114.2801284790039,0.7889307574171056],[114.27841186523438,0.789016579968191],[114.2783260345459,0.7881583543777566],[114.27746772766113,0.7882441769447723],[114.27618026733398,0.7911621431693021],[114.27918434143066,0.7923636580774911],[114.28141593933105,0.7953674438222436],[114.28141593933105,0.7978562932121065],[114.27987098693848,0.7985428720893708],[114.27806854248047,0.7979421155780244],[114.27678108215332,0.7987145167907812],[114.27480697631836,0.7962256679195576],[114.27266120910645,0.7975988261035809],[114.2713737487793,0.7973413589789544],[114.27128791809082,0.7968264246813845],[114.27274703979492,0.796139845517871],[114.27266120910645,0.7948525092781722],[114.27377700805664,0.7917629006669245],[114.27248954772949,0.7903039180218343],[114.2717170715332,0.7904755630655274],[114.27180290222168,0.7909904981540024],[114.27042961120605,0.7904755630655274],[114.27008628845215,0.7879867092384387],[114.27068710327148,0.7873001286104682],[114.2772102355957,0.7860986122395417],[114.27884101867676,0.786356080062447],[114.27875518798828,0.7848112728870689],[114.27729606628418,0.7849829181569703],[114.27600860595703,0.783523933138369],[114.27626609802246,0.7832664651411534],[114.27738189697266,0.7840388690853644],[114.27678108215332,0.7825798837378812],[114.27935600280762,0.780091025209714],[114.28407669067383,0.7802626706727835],[114.28347587585449,0.780091025209714],[114.28373336791992,0.779318620539371],[114.28442001342773,0.7791469750378468],[114.28356170654297,0.7760573548158476],[114.2841625213623,0.7746841895477985],[114.28055763244629,0.7754565950658758],[114.28167343139648,0.7754565950658758],[114.28218841552734,0.7763148232540118],[114.28133010864258,0.7767439372827454],[114.28158760070801,0.7772588740597257],[114.2812442779541,0.7775163424246756],[114.28030014038086,0.7776021652095011],[114.27987098693848,0.7768297600832597],[114.27969932556152,0.7788036840137949],[114.27927017211914,0.7788036840137949],[114.27858352661133,0.7771730512679085],[114.27446365356445,0.7782887474252931],[114.27386283874512,0.7775163424246756],[114.27085876464844,0.7777738107739225],[114.26974296569824,0.776572291676473],[114.2691421508789,0.7772588740597257],[114.27042961120605,0.7785462157274026],[114.26965713500977,0.7787178612533978]]]}},{"type":"Feature","id":"pmtiles:10/837/509:landcover:187814973:0","properties":{"subclass":"wood","class":"wood","kind":"green","verification":"verified","source":"OpenMapTiles/OpenStreetMap national PMTiles","sourceId":"10/837/509:landcover:187814973:0","sourceLayer":"landcover","archive":"https://its.hanifahseptiani45.workers.dev/v1/map/archive/indonesia.pmtiles","updatedAt":"2026-07-26T09:40:54.823Z"},"geometry":{"type":"Polygon","coordinates":[[[114.2523193359375,0.790647208102115],[114.25661087036133,0.7867851930652989],[114.2566967010498,0.784725450249482],[114.25875663757324,0.781635834124927],[114.25841331481934,0.7804343161288188],[114.25909996032715,0.7791469750378468],[114.2644214630127,0.7760573548158476],[114.26416397094727,0.7739976067468604],[114.26502227783203,0.7721953263658179],[114.26776885986328,0.7691057010787432],[114.27008628845215,0.7679900025082844],[114.27128791809082,0.7678183565485028],[114.27257537841797,0.7690198781221369],[114.27180290222168,0.7721095034714551],[114.27051544189453,0.7743408981612419],[114.27120208740234,0.7755424178925239],[114.27403450012207,0.7735684924398356],[114.2812442779541,0.7709938056871835],[114.28519248962402,0.7725386179259317],[114.28605079650879,0.7775163424246756],[114.28733825683594,0.7782887474252931],[114.28905487060547,0.7752849494073786],[114.28905487060547,0.7704788681496382],[114.29360389709473,0.7699639305498778],[114.29944038391113,0.7745125438579805],[114.30047035217285,0.7747700123901069],[114.30081367492676,0.7743408981612419],[114.29986953735352,0.7723669721493422],[114.30098533630371,0.770393045220672],[114.30107116699219,0.7691057010787432],[114.30416107177734,0.7663593656123311],[114.30055618286133,0.7607808662819338],[114.30047035217285,0.7582919950200449],[114.30184364318848,0.7571762936447612],[114.30707931518555,0.7572621168376799],[114.30948257446289,0.7562322384106324],[114.31094169616699,0.7521127222622539],[114.31111335754395,0.7464483812138241],[114.31772232055664,0.742929620218419],[114.32373046875,0.7424146793495794],[114.32561874389648,0.743187090630343],[114.32879447937012,0.7455901470838029],[114.32905197143555,0.7476499087144219],[114.32862281799316,0.7478215554733936],[114.32862281799316,0.748593965805668],[114.32905197143555,0.7491089059516156],[114.33111190795898,0.7496238460370535],[114.33540344238281,0.7548590667945234],[114.33797836303711,0.7567471776547023],[114.34106826782227,0.7558031223272081],[114.34493064880371,0.7573479400288932],[114.34819221496582,0.7565755312468099],[114.35016632080078,0.7570904704501515],[114.35497283935547,0.7539150110568613],[114.35857772827148,0.7567471776547023],[114.36407089233398,0.7576912327767502],[114.36561584472656,0.7573479400288932],[114.3720531463623,0.7539150110568613],[114.37677383422852,0.7527134852765869],[114.37797546386719,0.7497954927187465],[114.38183784484863,0.7478215554733936],[114.38312530517578,0.7448177362237374],[114.38698768615723,0.7391533857893222],[114.3899917602539,0.7374369145318269],[114.39239501953125,0.7370936202008522],[114.39488410949707,0.7385526209245796],[114.39840316772461,0.739325032878611],[114.40114974975586,0.7365786786547801],[114.40226554870605,0.7362353842576823],[114.4057846069336,0.7358920898341381],[114.41007614135742,0.7376085616873951],[114.41728591918945,0.7353771481492828],[114.4211483001709,0.7331457334957463],[114.42981719970703,0.7340897936773985],[114.43110466003418,0.7347763827752374],[114.43239212036133,0.7375227381104423],[114.43273544311523,0.7394108564207613],[114.4324779510498,0.7405265623177257],[114.43058967590332,0.7418997384207557],[114.43093299865723,0.742929620218419],[114.43479537963867,0.7448177362237374],[114.43745613098145,0.7452468533849412],[114.4390869140625,0.7448177362237374],[114.44080352783203,0.7431012671613644],[114.44320678710938,0.743015443690723],[114.44766998291016,0.7452468533849412],[114.45067405700684,0.7493663760019018],[114.45196151733398,0.7564038848321104],[114.45290565490723,0.7542583040760604],[114.45376396179199,0.7546015970681879],[114.4526481628418,0.7565755312468099],[114.45256233215332,0.7588069340193755],[114.45316314697266,0.7601801043844745],[114.45427894592285,0.7607808662819338],[114.4559097290039,0.759150226651542],[114.45539474487305,0.7575195864062181],[114.45754051208496,0.7600942812494367],[114.46063041687012,0.7599226349742594],[114.4610595703125,0.7608666894033291],[114.45951461791992,0.7618965667266906],[114.45925712585449,0.7624973283849954],[114.45977210998535,0.7627547976414775],[114.46037292480469,0.762411505296086],[114.46294784545898,0.7630122668825408],[114.46320533752441,0.7638704975747856],[114.46449279785156,0.763441382250079],[114.46578025817871,0.7655869584448851],[114.46672439575195,0.7660160735550932],[114.46826934814453,0.7650720202559285],[114.4717025756836,0.7656727814703572],[114.47299003601074,0.7686765862784455],[114.47256088256836,0.7745983667037706],[114.47453498840332,0.7769155828820402],[114.47676658630371,0.7771730512679085],[114.47977066040039,0.7786320384912813],[114.48225975036621,0.77923279778949],[114.48723793029785,0.779576088778569],[114.48972702026367,0.7788895067724297],[114.49298858642578,0.7769155828820402],[114.49625015258789,0.7757140635406046],[114.49899673461914,0.7761431776303027],[114.50371742248535,0.7780312791074522],[114.50543403625488,0.7796619115214725],[114.50569152832031,0.7805201388542287],[114.5046615600586,0.781635834124927],[114.50457572937012,0.7831806424718764],[114.50577735900879,0.7839530464319182],[114.50431823730469,0.7852403860486135],[114.50457572937012,0.7860986122395417],[114.50835227966309,0.7852403860486135],[114.50955390930176,0.786356080062447],[114.51101303100586,0.7854978539244115],[114.51221466064453,0.7856694991661186],[114.51410293579102,0.7898748053816007],[114.51367378234863,0.7911621431693021],[114.51393127441406,0.7929644154009452],[114.51539039611816,0.7955390886559854],[114.51933860778809,0.7992294508519677],[114.52199935913086,0.7987145167907812],[114.52251434326172,0.7971697142202459],[114.52337265014648,0.7969980694543892],[114.52165603637695,0.7951957989813678],[114.52208518981934,0.793393527721463],[114.52328681945801,0.7920203681392479],[114.52380180358887,0.7920203681392479],[114.52423095703125,0.7941659297862174],[114.52629089355469,0.7947666868479217],[114.5266342163086,0.7964831351139168],[114.52852249145508,0.7966547799012318],[114.53126907348633,0.7993152731892366],[114.53229904174805,0.7990578061720726],[114.5335865020752,0.7974271813556157],[114.53367233276367,0.7958823783020534],[114.53607559204102,0.7977704708443838],[114.53521728515625,0.7994869178583599],[114.53581809997559,0.8000018518226995],[114.53736305236816,0.7974271813556157],[114.5394229888916,0.7975130037304865],[114.54062461853027,0.7983712273807981],[114.54242706298828,0.8018041201887343],[114.54594612121582,0.8054944767464463],[114.54646110534668,0.8136475782025343],[114.54774856567383,0.8159647724588126],[114.54912185668945,0.8153640185203699],[114.55083847045898,0.8127893577696597],[114.55418586730957,0.8124460695454445],[114.55813407897949,0.8106438058900522],[114.5602798461914,0.8112445605310512],[114.56182479858398,0.8127035357163521],[114.5628547668457,0.8147632644922993],[114.5654296875,0.8290955145889143],[114.56697463989258,0.8315843431761891],[114.56877708435059,0.8331291325448547],[114.57478523254395,0.8329574893115534],[114.576416015625,0.8338157054032393],[114.57942008972168,0.837076924843771],[114.58113670349121,0.8374202109430797],[114.58662986755371,0.8354463154618657],[114.58517074584961,0.8318418081129835],[114.58585739135742,0.8305544832611673],[114.58800315856934,0.8296962664602887],[114.58903312683105,0.8314985215268536],[114.59366798400879,0.8321850946692422],[114.59641456604004,0.831155234910895],[114.60988998413086,0.8302111965631553],[114.6148681640625,0.8320134513948432],[114.6148681640625,0.6976145987557061],[114.2523193359375,0.6976145987557061],[114.2523193359375,0.790647208102115]]]}},{"type":"Feature","id":"pmtiles:10/837/509:landuse:10420077290:0","properties":{"class":"residential","kind":"green","verification":"verified","source":"OpenMapTiles/OpenStreetMap national PMTiles","sourceId":"10/837/509:landuse:10420077290:0","sourceLayer":"landuse","archive":"https://its.hanifahseptiani45.workers.dev/v1/map/archive/indonesia.pmtiles","updatedAt":"2026-07-26T09:40:54.823Z"},"geometry":{"type":"Polygon","coordinates":[[[114.2702579498291,0.7763148232540118],[114.2699146270752,0.7766581144804832],[114.27085876464844,0.7777738107739225],[114.27386283874512,0.7775163424246756],[114.27446365356445,0.7782887474252931],[114.27523612976074,0.7782029246544226],[114.27497863769531,0.776572291676473],[114.27592277526855,0.7768297600832597],[114.2754077911377,0.7763148232540118],[114.27669525146484,0.7751133037419038],[114.27729606628418,0.7753707722374941],[114.27712440490723,0.7744267210104852],[114.27815437316895,0.7739976067468604],[114.27858352661133,0.7746841895477985],[114.28004264831543,0.7744267210104852],[114.28055763244629,0.7754565950658758],[114.2841625213623,0.7746841895477985],[114.28433418273926,0.7742550753102364],[114.28373336791992,0.7734826695732124],[114.27841186523438,0.7729677323370652],[114.27609443664551,0.7736543153047108],[114.2717170715332,0.776572291676473],[114.2702579498291,0.7763148232540118]]]}},{"type":"Feature","id":"pmtiles:10/837/509:landuse:10420077290:1","properties":{"class":"residential","kind":"green","verification":"verified","source":"OpenMapTiles/OpenStreetMap national PMTiles","sourceId":"10/837/509:landuse:10420077290:1","sourceLayer":"landuse","archive":"https://its.hanifahseptiani45.workers.dev/v1/map/archive/indonesia.pmtiles","updatedAt":"2026-07-26T09:40:54.823Z"},"geometry":{"type":"Polygon","coordinates":[[[114.27523612976074,0.7731393780893825],[114.27412033081055,0.7713370973442863],[114.27446365356445,0.768247471435032],[114.27248954772949,0.7675608875959199],[114.27257537841797,0.7693631699382166],[114.27051544189453,0.7750274809065729],[114.27094459533691,0.7754565950658758],[114.27197456359863,0.7753707722374941],[114.27386283874512,0.7736543153047108],[114.27523612976074,0.7731393780893825]]]}},{"type":"Feature","id":"pmtiles:10/837/509:water:124015063:0","properties":{"intermittent":0,"class":"river","id":12401506,"water":"river","kind":"waterway","verification":"verified","source":"OpenMapTiles/OpenStreetMap national PMTiles","sourceId":"10/837/509:water:124015063:0","sourceLayer":"water","archive":"https://its.hanifahseptiani45.workers.dev/v1/map/archive/indonesia.pmtiles","updatedAt":"2026-07-26T09:40:54.823Z"},"geometry":{"type":"Polygon","coordinates":[[[114.44766998291016,0.7452468533849412],[114.44621086120605,0.7466200280197341],[114.4489574432373,0.749023082598157],[114.44912910461426,0.7504820793781874],[114.44827079772949,0.7515119591652564],[114.4504165649414,0.7540008343141977],[114.45024490356445,0.7552881829711566],[114.45101737976074,0.7565755312468099],[114.45110321044922,0.7604375737793418],[114.45127487182617,0.7610383356409756],[114.45290565490723,0.763441382250079],[114.45676803588867,0.7666168346372046],[114.46037292480469,0.7702213993575384],[114.46157455444336,0.7707363369261913],[114.46380615234375,0.7698781076105377],[114.46526527404785,0.7691057010787432],[114.46861267089844,0.7661877195871512],[114.46955680847168,0.7659302505364849],[114.47041511535645,0.7661018965719961],[114.47101593017578,0.7663593656123311],[114.47178840637207,0.7673034186278329],[114.47230339050293,0.7687624092419441],[114.4720458984375,0.7697064617266562],[114.47110176086426,0.770393045220672],[114.47050094604492,0.7713370973442863],[114.47050094604492,0.7727102636956005],[114.47393417358398,0.7781171018818185],[114.47530746459961,0.7788895067724297],[114.47771072387695,0.7786320384912813],[114.48019981384277,0.7796619115214725],[114.48234558105469,0.7803484934016751],[114.4870662689209,0.7807776070198997],[114.48826789855957,0.7804343161288188],[114.49384689331055,0.7777738107739225],[114.4965934753418,0.7769155828820402],[114.49848175048828,0.777001405679087],[114.49994087219238,0.7774305196381022],[114.50397491455078,0.7797477342626138],[114.50457572937012,0.780691784299762],[114.50423240661621,0.781035075169811],[114.50157165527344,0.7819791249178394],[114.50011253356934,0.7833522878086399],[114.49891090393066,0.786356080062447],[114.4991683959961,0.7883299995100117],[114.49994087219238,0.7883299995100117],[114.4998550415039,0.7870426608458416],[114.50105667114258,0.7840388690853644],[114.50560569763184,0.7809492524549313],[114.50569152832031,0.7800052024755644],[114.50543403625488,0.7796619115214725],[114.50414657592773,0.7782887474252931],[114.49736595153809,0.775628240717424],[114.49625015258789,0.7757140635406046],[114.49358940124512,0.7766581144804832],[114.48972702026367,0.7788895067724297],[114.48723793029785,0.779576088778569],[114.48225975036621,0.77923279778949],[114.47977066040039,0.7786320384912813],[114.47676658630371,0.7771730512679085],[114.47453498840332,0.7769155828820402],[114.4735050201416,0.7759715319996445],[114.47256088256836,0.7745983667037706],[114.47307586669922,0.771079628604042],[114.47290420532227,0.7678183565485028],[114.4720458984375,0.7660160735550932],[114.47110176086426,0.7653294893581233],[114.46869850158691,0.7650720202559285],[114.46792602539062,0.7652436663257873],[114.46578025817871,0.7667884806451895],[114.46303367614746,0.7693631699382166],[114.46200370788574,0.7696206387821434],[114.4607162475586,0.7691915240336158],[114.45985794067383,0.768504940346233],[114.45771217346191,0.7659302505364849],[114.4541072845459,0.763355559179999],[114.45273399353027,0.7618107436258157],[114.45213317871094,0.7600084581127078],[114.45187568664551,0.7550307132702585],[114.45093154907227,0.7500529627286596],[114.44990158081055,0.7479932022256435],[114.44766998291016,0.7452468533849412]]]}},{"type":"Feature","id":"pmtiles:10/837/509:water:124130863:0","properties":{"intermittent":0,"class":"river","id":12413086,"water":"river","kind":"waterway","verification":"verified","source":"OpenMapTiles/OpenStreetMap national PMTiles","sourceId":"10/837/509:water:124130863:0","sourceLayer":"water","archive":"https://its.hanifahseptiani45.workers.dev/v1/map/archive/indonesia.pmtiles","updatedAt":"2026-07-26T09:40:54.823Z"},"geometry":{"type":"Polygon","coordinates":[[[114.49994087219238,0.7883299995100117],[114.4991683959961,0.7883299995100117],[114.49968338012695,0.79013227297105],[114.50114250183105,0.7913337881774964],[114.50277328491211,0.793393527721463],[114.50380325317383,0.7940801073416992],[114.5061206817627,0.7947666868479217],[114.50826644897461,0.7958823783020534],[114.51066970825195,0.7987145167907812],[114.51410293579102,0.8016324756166],[114.51659202575684,0.8031772765066023],[114.51865196228027,0.8053228323293808],[114.52174186706543,0.8078116756687308],[114.5226001739502,0.809013185701076],[114.52345848083496,0.8109012721756841],[114.52345848083496,0.8136475782025343],[114.52380180358887,0.814934908509457],[114.52474594116211,0.8161364164247402],[114.52560424804688,0.8167371702478192],[114.5269775390625,0.8169088141807777],[114.53075408935547,0.8160505944426859],[114.53384399414062,0.8144199764360138],[114.53444480895996,0.8137334002357761],[114.53487396240234,0.8127893577696597],[114.53547477722168,0.8106438058900522],[114.5353889465332,0.8074683870228085],[114.53590393066406,0.8020615870334495],[114.54010963439941,0.8012891864507452],[114.5408821105957,0.8013750087448983],[114.54148292541504,0.8020615870334495],[114.5405387878418,0.8042071434422979],[114.5405387878418,0.8047220768127232],[114.54225540161133,0.8066959874634705],[114.54319953918457,0.8085840750160571],[114.54534530639648,0.8119311371544313],[114.54568862915039,0.8147632644922993],[114.54663276672363,0.8164797043346255],[114.54955101013184,0.8180244995662491],[114.55101013183594,0.8181961434441831],[114.5518684387207,0.8180244995662491],[114.55264091491699,0.817337923981114],[114.55513000488281,0.8140766883505108],[114.55641746520996,0.8133042900512919],[114.55718994140625,0.8123602474848326],[114.55830574035645,0.8118453150828913],[114.5595932006836,0.811759493009518],[114.56045150756836,0.8122744254223875],[114.56165313720703,0.8145916204678088],[114.56233978271484,0.8178528556809681],[114.56233978271484,0.8202558694061679],[114.56379890441895,0.8199984037188415],[114.56302642822266,0.8151923745214873],[114.56233978271484,0.8133901120918381],[114.5602798461914,0.8112445605310512],[114.55873489379883,0.8106438058900522],[114.5573616027832,0.8108154500822877],[114.55573081970215,0.8119311371544313],[114.55418586730957,0.8124460695454445],[114.55083847045898,0.8127893577696597],[114.54989433288574,0.8139908663245734],[114.54912185668945,0.8153640185203699],[114.54852104187012,0.8159647724588126],[114.54774856567383,0.8159647724588126],[114.54680442810059,0.8146774424809564],[114.54646110534668,0.8136475782025343],[114.54654693603516,0.8106438058900522],[114.54611778259277,0.8079833199808348],[114.54594612121582,0.8054944767464463],[114.54371452331543,0.8027481652067934],[114.54242706298828,0.8018041201887343],[114.54062461853027,0.7983712273807981],[114.5394229888916,0.7975130037304865],[114.53882217407227,0.7974271813556157],[114.53770637512207,0.7973413589789544],[114.53710556030273,0.7976846484748563],[114.53470230102539,0.8018899424721013],[114.53418731689453,0.8071250983478819],[114.53453063964844,0.8094422963407055],[114.53418731689453,0.8109012721756841],[114.53367233276367,0.8121027812920687],[114.5328140258789,0.8132184680089125],[114.53066825866699,0.8151923745214873],[114.52998161315918,0.8153640185203699],[114.52946662902832,0.8152781965218452],[114.52637672424316,0.8125318916042374],[114.52508926391602,0.8109870942672615],[114.52242851257324,0.8067818096439652],[114.51942443847656,0.8045504323631292],[114.51873779296875,0.8036922100069148],[114.51504707336426,0.7975130037304865],[114.51272964477539,0.795109976558237],[114.51024055480957,0.7942517522289592],[114.5075798034668,0.7944233971090853],[114.50491905212402,0.793307705260915],[114.50114250183105,0.7904755630655274],[114.50037002563477,0.7895315152374849],[114.49994087219238,0.7883299995100117]],[[114.5101547241211,0.7968264246813845],[114.50989723205566,0.7962256679195576],[114.5101547241211,0.7960540231143654],[114.51255798339844,0.7962256679195576],[114.51436042785645,0.7984570497359869],[114.51496124267578,0.8000018518226995],[114.51290130615234,0.799658562520321],[114.51075553894043,0.7980279379421518],[114.5101547241211,0.7968264246813845]],[[114.54328536987305,0.8042929656752165],[114.54319953918457,0.8036063877613628],[114.54328536987305,0.803434743264873],[114.54414367675781,0.8039496767327137],[114.54543113708496,0.8056661211562925],[114.54620361328125,0.811158738444945],[114.54362869262695,0.8067818096439652],[114.54328536987305,0.8042929656752165]],[[114.52706336975098,0.816565526307528],[114.52577590942383,0.816393882359904],[114.52466011047363,0.8154498405170756],[114.52397346496582,0.8142483323969287],[114.52380180358887,0.8131326459647141],[114.52397346496582,0.8126177136612114],[114.52474594116211,0.8127035357163521],[114.52637672424316,0.8144199764360138],[114.52860832214355,0.8157073064961651],[114.52886581420898,0.8161364164247402],[114.52706336975098,0.816565526307528]],[[114.55092430114746,0.8168229922152221],[114.54937934875488,0.8164797043346255],[114.55118179321289,0.8142483323969287],[114.55204010009766,0.8136475782025343],[114.55470085144043,0.8128751798211624],[114.55272674560547,0.8157073064961651],[114.5515251159668,0.8167371702478192],[114.55092430114746,0.8168229922152221]]]}},{"type":"Feature","id":"pmtiles:10/837/509:water:124133733:0","properties":{"intermittent":0,"class":"river","id":12413373,"water":"river","kind":"waterway","verification":"verified","source":"OpenMapTiles/OpenStreetMap national PMTiles","sourceId":"10/837/509:water:124133733:0","sourceLayer":"water","archive":"https://its.hanifahseptiani45.workers.dev/v1/map/archive/indonesia.pmtiles","updatedAt":"2026-07-26T09:40:54.823Z"},"geometry":{"type":"Polygon","coordinates":[[[114.56379890441895,0.8199984037188415],[114.56233978271484,0.8202558694061679],[114.56156730651855,0.8237745654706572],[114.56276893615723,0.8276365453790078],[114.56603050231934,0.8323567379361663],[114.56774711608887,0.8338157054032393],[114.56997871398926,0.8345880997258064],[114.57118034362793,0.8346739213078394],[114.57375526428223,0.834073170194273],[114.57478523254395,0.8341589917875467],[114.576416015625,0.8353604938966868],[114.57873344421387,0.8377634970123182],[114.57993507385254,0.8382784260598015],[114.58439826965332,0.8378493185249312],[114.58757400512695,0.836561995638462],[114.58783149719238,0.8356179585865817],[114.58714485168457,0.8342448133789304],[114.58834648132324,0.8336440621998804],[114.58843231201172,0.8322709163036279],[114.58868980407715,0.8320992730329664],[114.59100723266602,0.8332149541586915],[114.5925521850586,0.8333865973807804],[114.59366798400879,0.8328716676921033],[114.59701538085938,0.8328716676921033],[114.59916114807129,0.8324425595668146],[114.6027660369873,0.8321850946692422],[114.60963249206543,0.8321850946692422],[114.61212158203125,0.8323567379361663],[114.61400985717773,0.8328716676921033],[114.6148681640625,0.8332149541586915],[114.6148681640625,0.8319276297548441],[114.61306571960449,0.831155234910895],[114.60988998413086,0.8302111965631553],[114.60834503173828,0.8300395532029796],[114.59795951843262,0.8313268782226118],[114.59641456604004,0.831155234910895],[114.59529876708984,0.8318418081129835],[114.59366798400879,0.8321850946692422],[114.58903312683105,0.8314985215268536],[114.5885181427002,0.8308977699293365],[114.58843231201172,0.8298679098353574],[114.58800315856934,0.8296962664602887],[114.5870590209961,0.8298679098353574],[114.58585739135742,0.8305544832611673],[114.58525657653809,0.8313268782226118],[114.58517074584961,0.8318418081129835],[114.58525657653809,0.8327000244475897],[114.58671569824219,0.8349313860427117],[114.58662986755371,0.8354463154618657],[114.5822525024414,0.837248567897177],[114.58019256591797,0.8373343894210734],[114.57942008972168,0.837076924843771],[114.576416015625,0.8338157054032393],[114.57538604736328,0.8331291325448547],[114.57401275634766,0.8328716676921033],[114.57006454467773,0.8333865973807804],[114.56877708435059,0.8331291325448547],[114.56774711608887,0.8324425595668146],[114.56620216369629,0.8305544832611673],[114.56525802612305,0.8286664060535145],[114.56448554992676,0.8254910014486256],[114.5643138885498,0.8215431975942238],[114.56379890441895,0.8199984037188415]]]}},{"type":"Feature","id":"pmtiles:10/837/509:water:187778653:0","properties":{"intermittent":0,"class":"lake","id":18777865,"water":"lake","kind":"waterway","verification":"verified","source":"OpenMapTiles/OpenStreetMap national PMTiles","sourceId":"10/837/509:water:187778653:0","sourceLayer":"water","archive":"https://its.hanifahseptiani45.workers.dev/v1/map/archive/indonesia.pmtiles","updatedAt":"2026-07-26T09:40:54.824Z"},"geometry":{"type":"Polygon","coordinates":[[[114.37763214111328,0.7500529627286596],[114.37737464904785,0.7521127222622539],[114.3760871887207,0.753142601664706],[114.3728256225586,0.7536575412746913],[114.36922073364258,0.7556314758819695],[114.36810493469238,0.7556314758819695],[114.36561584472656,0.7573479400288932],[114.36407089233398,0.7576912327767502],[114.36132431030273,0.7573479400288932],[114.35857772827148,0.7567471776547023],[114.35797691345215,0.7564897080403057],[114.35540199279785,0.754086657569843],[114.35497283935547,0.7539150110568613],[114.35222625732422,0.7554598294299666],[114.35016632080078,0.7570904704501515],[114.34965133666992,0.7571762936447612],[114.34819221496582,0.7565755312468099],[114.34613227844238,0.7569188240558304],[114.34493064880371,0.7573479400288932],[114.34372901916504,0.7566613544516088],[114.34106826782227,0.7558031223272081],[114.33995246887207,0.7560605919823473],[114.33866500854492,0.7567471776547023],[114.33797836303711,0.7567471776547023],[114.33660507202148,0.7560605919823473],[114.33540344238281,0.7548590667945234],[114.33111190795898,0.7496238460370535],[114.32999610900879,0.7491089059516156],[114.32930946350098,0.7489372592430215],[114.32905197143555,0.7491089059516156],[114.32896614074707,0.7486797891675252],[114.32862281799316,0.748593965805668],[114.32862281799316,0.7478215554733936],[114.32905197143555,0.7476499087144219],[114.32879447937012,0.7471349683972477],[114.32879447937012,0.7455901470838029],[114.32656288146973,0.7442169721278731],[114.32561874389648,0.743187090630343],[114.32373046875,0.7424146793495794],[114.3185806274414,0.7427579732687946],[114.31437492370605,0.7444744424646785],[114.31111335754395,0.7464483812138241],[114.31068420410156,0.7487656125277056],[114.31094169616699,0.7521127222622539],[114.30948257446289,0.7562322384106324],[114.30845260620117,0.7569188240558304],[114.30707931518555,0.7572621168376799],[114.30330276489258,0.7570046472538365],[114.30184364318848,0.7571762936447612],[114.30081367492676,0.7577770559594654],[114.30047035217285,0.7582919950200449],[114.3002986907959,0.759493519256452],[114.30055618286133,0.7607808662819338],[114.30089950561523,0.761467451205192],[114.3014144897461,0.7618965667266906],[114.30218696594238,0.7636988514500445],[114.30398941040039,0.7655869584448851],[114.30416107177734,0.7663593656123311],[114.30330276489258,0.7675608875959199],[114.30192947387695,0.768247471435032],[114.30107116699219,0.7691057010787432],[114.30081367492676,0.7698781076105377],[114.30098533630371,0.770393045220672],[114.29986953735352,0.7723669721493422],[114.29995536804199,0.7730535552141049],[114.30081367492676,0.7743408981612419],[114.30047035217285,0.7747700123901069],[114.30004119873047,0.7747700123901069],[114.29944038391113,0.7745125438579805],[114.29686546325684,0.7725386179259317],[114.29446220397949,0.7702213993575384],[114.29360389709473,0.7699639305498778],[114.29205894470215,0.770393045220672],[114.28905487060547,0.7704788681496382],[114.28879737854004,0.7711654515191952],[114.28905487060547,0.7752849494073786],[114.2881965637207,0.7776021652095011],[114.28733825683594,0.7782887474252931],[114.28656578063965,0.7781171018818185],[114.28605079650879,0.7775163424246756],[114.28519248962402,0.7725386179259317],[114.28407669067383,0.7717662118766953],[114.2812442779541,0.7709938056871835],[114.28021430969238,0.771079628604042],[114.27927017211914,0.7716803889736781],[114.27643775939941,0.7725386179259317],[114.27403450012207,0.7735684924398356],[114.27197456359863,0.7753707722374941],[114.27120208740234,0.7755424178925239],[114.27051544189453,0.7750274809065729],[114.27051544189453,0.7743408981612419],[114.27180290222168,0.7721095034714551],[114.27257537841797,0.7693631699382166],[114.27248954772949,0.768590763313199],[114.27223205566406,0.768247471435032],[114.27094459533691,0.767732533566047],[114.26819801330566,0.7687624092419441],[114.2684555053711,0.7689340551637969],[114.27000045776367,0.7683332944071566],[114.26871299743652,0.7695348158358968],[114.26905632019043,0.7699639305498778],[114.26965713500977,0.7691915240336158],[114.27068710327148,0.7691057010787432],[114.27145957946777,0.7696206387821434],[114.27103042602539,0.7707363369261913],[114.27008628845215,0.7721953263658179],[114.26957130432129,0.7743408981612419],[114.26974296569824,0.7754565950658758],[114.2702579498291,0.7763148232540118],[114.27068710327148,0.776572291676473],[114.2717170715332,0.776572291676473],[114.2739486694336,0.7753707722374941],[114.27583694458008,0.773825961029246],[114.27738189697266,0.7732252009629548],[114.27918434143066,0.7728819094583201],[114.28227424621582,0.7736543153047108],[114.28373336791992,0.7734826695732124],[114.28433418273926,0.7743408981612419],[114.28364753723145,0.775628240717424],[114.28356170654297,0.7760573548158476],[114.28390502929688,0.777001405679087],[114.2863941192627,0.7790611522844557],[114.28742408752441,0.7794902660339176],[114.28811073303223,0.779576088778569],[114.29025650024414,0.7787178612533978],[114.29120063781738,0.7777738107739225],[114.28991317749023,0.7726244408116258],[114.28991317749023,0.7721095034714551],[114.29034233093262,0.7714229202542242],[114.29120063781738,0.7711654515191952],[114.29343223571777,0.7713370973442863],[114.2948055267334,0.7717662118766953],[114.29669380187988,0.7739117838889342],[114.29875373840332,0.775628240717424],[114.29961204528809,0.7760573548158476],[114.30055618286133,0.7760573548158476],[114.30124282836914,0.7753707722374941],[114.30227279663086,0.7723669721493422],[114.3021011352539,0.7718520347779787],[114.30167198181152,0.7712512744326006],[114.30192947387695,0.7703072222899721],[114.30270195007324,0.7689340551637969],[114.3046760559082,0.7673034186278329],[114.30484771728516,0.7658444275161713],[114.30398941040039,0.764042143692663],[114.30295944213867,0.7631839130347089],[114.3021011352539,0.7615532743129023],[114.30150032043457,0.760265927517807],[114.30150032043457,0.7588927571799644],[114.30167198181152,0.7585494645273627],[114.30416107177734,0.7581203486733159],[114.30785179138184,0.7582061718475472],[114.30913925170898,0.7576054095923439],[114.31068420410156,0.7559747687656682],[114.31102752685547,0.7549448900332436],[114.31119918823242,0.7535717180105905],[114.31171417236328,0.7524560154234337],[114.31145668029785,0.7491089059516156],[114.31222915649414,0.7466200280197341],[114.3171215057373,0.7442169721278731],[114.32003974914551,0.7433587375632698],[114.32458877563477,0.7434445610272462],[114.32759284973145,0.7456759705043368],[114.3277645111084,0.7460192641697319],[114.32750701904297,0.7481648489711858],[114.32845115661621,0.7494521993486245],[114.32870864868164,0.7497954927187465],[114.33016777038574,0.7499671393937035],[114.33076858520508,0.7504820793781874],[114.33531761169434,0.7558889455472979],[114.33746337890625,0.7574337632184154],[114.33900833129883,0.7576054095923439],[114.34106826782227,0.756833000856119],[114.34484481811523,0.7581203486733159],[114.34767723083496,0.7575195864062181],[114.34982299804688,0.7578628791404896],[114.35050964355469,0.7577770559594654],[114.35385704040527,0.7554598294299666],[114.35471534729004,0.7553740062014072],[114.3552303314209,0.7554598294299666],[114.35840606689453,0.7578628791404896],[114.36381340026855,0.7588927571799644],[114.36492919921875,0.7587211108570671],[114.36690330505371,0.7573479400288932],[114.36956405639648,0.7564038848321104],[114.37368392944336,0.7545157738227033],[114.37565803527832,0.7542583040760604],[114.37685966491699,0.7539150110568613],[114.3772029876709,0.7535717180105905],[114.37814712524414,0.7521127222622539],[114.37857627868652,0.7504820793781874],[114.37917709350586,0.7500529627286596],[114.38252449035645,0.7488514358862091],[114.38278198242188,0.7475640853324137],[114.38424110412598,0.7444744424646785],[114.38612937927246,0.7419855619130686],[114.38767433166504,0.7409556798956629],[114.38844680786133,0.7397541505727929],[114.38939094543457,0.7388959151429617],[114.39153671264648,0.7382093266797085],[114.39265251159668,0.7383809738054481],[114.39763069152832,0.7403549152749349],[114.39926147460938,0.739668327037279],[114.40200805664062,0.7374369145318269],[114.40303802490234,0.7370077966139803],[114.40449714660645,0.7370077966139803],[114.40518379211426,0.7371794437860757],[114.40707206726074,0.7382951502434167],[114.40801620483398,0.7382093266797085],[114.40956115722656,0.7385526209245796],[114.41007614135742,0.7385526209245796],[114.4105052947998,0.7382093266797085],[114.41170692443848,0.7383809738054481],[114.41891670227051,0.7356346189991569],[114.4200325012207,0.7343472646014391],[114.42131996154785,0.7343472646014391],[114.42346572875977,0.7339181463864719],[114.42423820495605,0.7343472646014391],[114.42895889282227,0.7350338536597434],[114.43058967590332,0.7356346189991569],[114.43153381347656,0.7382951502434167],[114.43161964416504,0.7398399741066584],[114.43119049072266,0.7406123858366414],[114.42964553833008,0.7416422679338979],[114.42930221557617,0.7425005028318878],[114.42938804626465,0.743015443690723],[114.42981719970703,0.7434445610272462],[114.43419456481934,0.7456759705043368],[114.43625450134277,0.7463625578083537],[114.4379711151123,0.7461909109923823],[114.4390869140625,0.7458476173403739],[114.44088935852051,0.7441311486789317],[114.44209098815918,0.7437878548664401],[114.44286346435547,0.7439595017760183],[114.44406509399414,0.744560265906955],[114.44621086120605,0.7466200280197341],[114.44766998291016,0.7452468533849412],[114.44578170776367,0.7440453252283135],[114.44320678710938,0.743015443690723],[114.44243431091309,0.742929620218419],[114.4405460357666,0.7432729140976448],[114.4394302368164,0.744560265906955],[114.4379711151123,0.7452468533849412],[114.4361686706543,0.7451610299560372],[114.43402290344238,0.744560265906955],[114.43093299865723,0.742929620218419],[114.43058967590332,0.7424146793495794],[114.43076133728027,0.7416422679338979],[114.4324779510498,0.7405265623177257],[114.43273544311523,0.7394108564207613],[114.43239212036133,0.7375227381104423],[114.43084716796875,0.7345189118759095],[114.42913055419922,0.7339181463864719],[114.42200660705566,0.7330599098330026],[114.42028999328613,0.7334032044741292],[114.41728591918945,0.7353771481492828],[114.41556930541992,0.7356346189991569],[114.41222190856934,0.7371794437860757],[114.41041946411133,0.7376085616873951],[114.40810203552246,0.7371794437860757],[114.4057846069336,0.7358920898341381],[114.40226554870605,0.7362353842576823],[114.40114974975586,0.7365786786547801],[114.39926147460938,0.7388100915908495],[114.39840316772461,0.739325032878611],[114.39711570739746,0.7392392093347979],[114.39488410949707,0.7385526209245796],[114.39239501953125,0.7370936202008522],[114.39102172851562,0.7370936202008522],[114.3899917602539,0.7374369145318269],[114.38698768615723,0.7391533857893222],[114.38312530517578,0.7448177362237374],[114.38183784484863,0.7478215554733936],[114.38097953796387,0.7483364957100207],[114.3790054321289,0.7488514358862091],[114.37763214111328,0.7500529627286596]]]}},{"type":"Feature","id":"pmtiles:10/837/509:water:187778673:0","properties":{"intermittent":0,"class":"lake","id":18777867,"water":"lake","kind":"waterway","verification":"verified","source":"OpenMapTiles/OpenStreetMap national PMTiles","sourceId":"10/837/509:water:187778673:0","sourceLayer":"water","archive":"https://its.hanifahseptiani45.workers.dev/v1/map/archive/indonesia.pmtiles","updatedAt":"2026-07-26T09:40:54.824Z"},"geometry":{"type":"Polygon","coordinates":[[[114.26819801330566,0.7687624092419441],[114.26502227783203,0.7721953263658179],[114.2647647857666,0.7733110238347791],[114.26416397094727,0.7739976067468604],[114.26459312438965,0.7754565950658758],[114.2644214630127,0.7760573548158476],[114.26347732543945,0.7768297600832597],[114.26107406616211,0.7776021652095011],[114.25952911376953,0.7786320384912813],[114.25909996032715,0.7791469750378468],[114.25841331481934,0.7804343161288188],[114.25875663757324,0.781635834124927],[114.2566967010498,0.784725450249482],[114.25661087036133,0.7867851930652989],[114.25592422485352,0.7870426608458416],[114.25532341003418,0.7877292415162174],[114.25437927246094,0.7884158220734747],[114.2523193359375,0.790647208102115],[114.2523193359375,0.7922778355955984],[114.25326347351074,0.7914196106789433],[114.25652503967285,0.7877292415162174],[114.25798416137695,0.7870426608458416],[114.25789833068848,0.7866993704682699],[114.25738334655762,0.7862702574565787],[114.25729751586914,0.7851545634198231],[114.25918579101562,0.782064947611687],[114.25935745239258,0.7812925433039482],[114.2592716217041,0.7803484934016751],[114.26081657409668,0.7788036840137949],[114.26193237304688,0.7782029246544226],[114.26382064819336,0.7779454563313664],[114.26502227783203,0.7768297600832597],[114.26527976989746,0.7762290004430099],[114.26570892333984,0.7731393780893825],[114.26613807678223,0.7721095034714551],[114.26656723022461,0.771594566068913],[114.26905632019043,0.7699639305498778],[114.26819801330566,0.7687624092419441]]]}},{"type":"Feature","id":"pmtiles:10/837/509:waterway:9137478582:0","properties":{"name":"Sungai Mahakam","name_int":"Sungai Mahakam","class":"river","name:latin":"Sungai Mahakam","name_de":"Sungai Mahakam","name_en":"Sungai Mahakam","waterway":"river","kind":"waterway","verification":"verified","source":"OpenMapTiles/OpenStreetMap national PMTiles","sourceId":"10/837/509:waterway:9137478582:0","sourceLayer":"waterway","archive":"https://its.hanifahseptiani45.workers.dev/v1/map/archive/indonesia.pmtiles","updatedAt":"2026-07-26T09:40:54.824Z"},"geometry":{"type":"LineString","coordinates":[[114.24983024597168,0.7938226399974724],[114.25704002380371,0.7867851930652989],[114.25712585449219,0.7848970955228936],[114.25901412963867,0.781635834124927],[114.2589282989502,0.7806059615778622],[114.25935745239258,0.77923279778949],[114.26124572753906,0.7780312791074522],[114.26347732543945,0.7773446968497808],[114.2647647857666,0.7764864688707149],[114.26536560058594,0.7729677323370652],[114.26596641540527,0.771594566068913],[114.26716804504395,0.7704788681496382],[114.26905632019043,0.7696206387821434],[114.27000045776367,0.768590763313199],[114.27085876464844,0.768247471435032],[114.27214622497559,0.7691915240336158],[114.27163124084473,0.7719378576775568],[114.27034378051758,0.7735684924398356],[114.27008628845215,0.7743408981612419],[114.27042961120605,0.7757140635406046],[114.27103042602539,0.7760573548158476],[114.27214622497559,0.775799886362023],[114.27291870117188,0.7752849494073786],[114.27334785461426,0.7745125438579805],[114.27454948425293,0.7737401381678382],[114.27549362182617,0.7735684924398356],[114.27772521972656,0.7725386179259317],[114.2801284790039,0.7726244408116258],[114.28390502929688,0.7731393780893825],[114.28484916687012,0.7734826695732124],[114.2856216430664,0.7775163424246756],[114.28613662719727,0.7783745701944156],[114.28716659545898,0.7789753295293167],[114.28845405578613,0.7783745701944156],[114.28914070129395,0.7768297600832597],[114.28974151611328,0.7745125438579805],[114.28939819335938,0.7722811492584469],[114.28948402404785,0.7711654515191952],[114.29017066955566,0.7707363369261913],[114.29386138916016,0.7705646910768991],[114.29489135742188,0.7709938056871835],[114.29935455322266,0.7753707722374941],[114.3002986907959,0.7754565950658758],[114.30098533630371,0.7748558352306674],[114.30115699768066,0.7739976067468604],[114.30038452148438,0.7731393780893825],[114.30021286010742,0.7725386179259317],[114.30038452148438,0.7719378576775568],[114.30192947387695,0.7690198781221369],[114.30441856384277,0.7669601266462962],[114.30450439453125,0.7665310116306472],[114.30407524108887,0.764986197218434],[114.30304527282715,0.7638704975747856],[114.30115699768066,0.7603517506494342],[114.30089950561523,0.7589785803388622],[114.30107116699219,0.7582919950200449],[114.30158615112305,0.7578628791404896],[114.30270195007324,0.7575195864062181],[114.30768013000488,0.7576912327767502],[114.30905342102051,0.7571762936447612],[114.31068420410156,0.7547732435540979],[114.31119918823242,0.7523701921356718],[114.3112850189209,0.7476499087144219],[114.31188583374023,0.7464483812138241],[114.31626319885254,0.7441311486789317],[114.31832313537598,0.7432729140976448],[114.31978225708008,0.742929620218419],[114.32141304016113,0.7428437967444381],[114.32458877563477,0.743015443690723],[114.3281078338623,0.7458476173403739],[114.32827949523926,0.7461909109923823],[114.3281078338623,0.7479932022256435],[114.32845115661621,0.7489372592430215],[114.33162689208984,0.7506537260262292],[114.33626174926758,0.7563180616222098],[114.33797836303711,0.7571762936447612],[114.34123992919922,0.7563180616222098],[114.34484481811523,0.7576054095923439],[114.34767723083496,0.7570904704501515],[114.35033798217773,0.7573479400288932],[114.35385704040527,0.7549448900332436],[114.35480117797852,0.7547732435540979],[114.35548782348633,0.7549448900332436],[114.35771942138672,0.7567471776547023],[114.35874938964844,0.7572621168376799],[114.36261177062988,0.7581203486733159],[114.36432838439941,0.7582919950200449],[114.37239646911621,0.7543441273266467],[114.37685966491699,0.7533142482081416],[114.37780380249023,0.7518552523736588],[114.37823295593262,0.7502246093935128],[114.37857627868652,0.7497096693787313],[114.38209533691406,0.7482506723414417],[114.38372611999512,0.744560265906955],[114.38458442687988,0.743187090630343],[114.38595771789551,0.7413847974320333],[114.38776016235352,0.740011621169387],[114.38870429992676,0.7388959151429617],[114.38973426818848,0.7381235031143376],[114.39119338989258,0.7376085616873951],[114.39196586608887,0.7376085616873951],[114.39737319946289,0.7398399741066584],[114.39857482910156,0.7395825035000883],[114.39960479736328,0.738981738693397],[114.40200805664062,0.7368361494352627],[114.40286636352539,0.7365786786547801],[114.4050121307373,0.7365786786547801],[114.40801620483398,0.7380376795473182],[114.4112777709961,0.7379518559786362],[114.41299438476562,0.7375227381104423],[114.42140579223633,0.7335748517848231],[114.42998886108398,0.734604735510672],[114.43058967590332,0.7349480300332232],[114.43144798278809,0.7363212078594188],[114.43222045898438,0.7383809738054481],[114.4321346282959,0.7398399741066584],[114.43179130554199,0.7403549152749349],[114.43016052246094,0.7416422679338979],[114.42981719970703,0.7425005028318878],[114.43050384521484,0.7432729140976448],[114.43625450134277,0.7458476173403739],[114.43754196166992,0.7459334407558913],[114.43934440612793,0.7451610299560372],[114.44080352783203,0.7437020314091285],[114.44174766540527,0.7433587375632698],[114.44260597229004,0.7433587375632698],[114.44380760192871,0.7437020314091285],[114.44844245910645,0.7467058514201597],[114.44964408874512,0.7483364957100207],[114.45050239562988,0.7500529627286596],[114.4511890411377,0.7530567783904729],[114.45067405700684,0.7551165365055823],[114.4515323638916,0.7570046472538365],[114.45170402526855,0.7608666894033291],[114.45359230041504,0.763441382250079],[114.45693969726562,0.7661877195871512],[114.46028709411621,0.7695348158358968],[114.46157455444336,0.7700497534874984],[114.46303367614746,0.7697922846694638],[114.46414947509766,0.7691915240336158],[114.4676685333252,0.7661018965719961],[114.46852684020996,0.7655869584448851],[114.46955680847168,0.7655011354176935],[114.47110176086426,0.7658444275161713],[114.47221755981445,0.7668743036466026],[114.47264671325684,0.768590763313199],[114.47230339050293,0.7699639305498778],[114.47101593017578,0.7709938056871835],[114.47075843811035,0.7721953263658179],[114.4709300994873,0.7728819094583201],[114.47384834289551,0.777001405679087],[114.47702407836914,0.7776879879925929],[114.47951316833496,0.7790611522844557],[114.48131561279297,0.779576088778569],[114.48637962341309,0.7800052024755644],[114.48869705200195,0.7797477342626138],[114.49419021606445,0.777001405679087],[114.4965934753418,0.7762290004430099],[114.49736595153809,0.7762290004430099],[114.50037002563477,0.7772588740597257],[114.50431823730469,0.7791469750378468],[114.5050048828125,0.780091025209714],[114.50483322143555,0.7809492524549313],[114.50122833251953,0.7830948198008656],[114.49994087219238,0.7848112728870689],[114.49959754943848,0.7860986122395417],[114.49951171875,0.7883299995100117],[114.50019836425781,0.7897889828482221],[114.50277328491211,0.7925353030359332],[114.50509071350098,0.7939942848954047],[114.50860977172852,0.795024154133344],[114.50963973999023,0.795024154133344],[114.51075553894043,0.7946808644158807],[114.51238632202148,0.7954532662400027],[114.51315879821777,0.7960540231143654],[114.5148754119873,0.798199582665049],[114.51547622680664,0.7993152731892366],[114.5159912109375,0.8011175418570389],[114.51848030090332,0.804464610135625],[114.52199935913086,0.8071250983478819],[114.52611923217773,0.8134759341305511],[114.52920913696289,0.8157073064961651],[114.53032493591309,0.8157073064961651],[114.5310115814209,0.8154498405170756],[114.53289985656738,0.8141625103746293],[114.53384399414062,0.8131326459647141],[114.53461647033691,0.8118453150828913],[114.53495979309082,0.8104721616905266],[114.5350456237793,0.8045504323631292],[114.53547477722168,0.8015466533278328],[114.53659057617188,0.8005167857224222],[114.53882217407227,0.800345141096372],[114.54079627990723,0.8007742526480399],[114.54182624816895,0.8015466533278328],[114.54191207885742,0.8020615870334495],[114.54105377197266,0.8046362545888286],[114.54414367675781,0.8085840750160571],[114.54534530639648,0.8106438058900522],[114.54586029052734,0.8121027812920687],[114.54620361328125,0.8145057984528421],[114.54654693603516,0.8154498405170756],[114.54706192016602,0.8160505944426859],[114.5504093170166,0.8176812117883401],[114.55169677734375,0.8174237459356704],[114.55246925354004,0.8168229922152221],[114.55564498901367,0.8127035357163521],[114.55658912658691,0.8118453150828913],[114.55770492553711,0.8112445605310512],[114.55933570861816,0.8112445605310512],[114.56079483032227,0.8121027812920687],[114.56199645996094,0.8141625103746293],[114.5628547668457,0.817337923981114],[114.56302642822266,0.8201700475122351],[114.56233978271484,0.8224872380019264],[114.56233978271484,0.8251477143122656],[114.56302642822266,0.827035793195364],[114.56560134887695,0.8308119482650795],[114.56748962402344,0.8329574893115534],[114.56912040710449,0.8337298838024907],[114.57066535949707,0.8339015270021264],[114.5738410949707,0.8334724189890039],[114.57547187805176,0.8339015270021264],[114.57650184631348,0.8345880997258064],[114.57881927490234,0.837076924843771],[114.57993507385254,0.8376776754978295],[114.5815658569336,0.8376776754978295],[114.58396911621094,0.837248567897177],[114.58602905273438,0.836561995638462],[114.58697319030762,0.8358754232596084],[114.58714485168457,0.8350172076172555],[114.5862865447998,0.833043310929142],[114.58602905273438,0.8318418081129835],[114.58645820617676,0.8306403049309949],[114.5870590209961,0.8303828399158846],[114.58800315856934,0.8306403049309949],[114.58877563476562,0.8316701648236631],[114.59083557128906,0.8324425595668146],[114.59238052368164,0.8327000244475897],[114.60336685180664,0.8314126998756706],[114.61237907409668,0.831755986469247],[114.61478233337402,0.8325283811956155],[114.61572647094727,0.833043310929142]]}},{"type":"Feature","id":"pmtiles:10/837/509:waterway:11601269822:0","properties":{"name":"Sungai Melaseh","name_int":"Sungai Melaseh","class":"river","name:latin":"Sungai Melaseh","name_de":"Sungai Melaseh","name_en":"Sungai Melaseh","waterway":"river","kind":"waterway","verification":"verified","source":"OpenMapTiles/OpenStreetMap national PMTiles","sourceId":"10/837/509:waterway:11601269822:0","sourceLayer":"waterway","archive":"https://its.hanifahseptiani45.workers.dev/v1/map/archive/indonesia.pmtiles","updatedAt":"2026-07-26T09:40:54.824Z"},"geometry":{"type":"LineString","coordinates":[[114.52268600463867,1.029912794048144],[114.52217102050781,1.028968808863027],[114.52174186706543,1.0269092038535064],[114.52199935913086,1.0251928653317037],[114.52251434326172,1.0240772447990594],[114.52199935913086,1.0211594661866457],[114.52122688293457,1.0197863929815583],[114.52088356018066,1.0182416849257407],[114.52096939086914,1.0173835134636988],[114.52139854431152,1.0166111589527134],[114.52079772949219,1.0155813526506847],[114.51985359191895,1.0148089977088262],[114.5185661315918,1.0146373632522483],[114.51813697814941,1.0140366425825391],[114.51830863952637,1.0104323162254758],[114.51985359191895,1.008286881970534],[114.51993942260742,1.0061414463016973],[114.52045440673828,1.0045967317463607],[114.52105522155762,1.003652739158511],[114.52105522155762,1.0029661989234597],[114.52054023742676,1.0027945638422011],[114.51968193054199,1.0017647531656735],[114.51942443847656,1.0006491245675306],[114.52096939086914,0.9999625837031374],[114.52096939086914,0.998589501543691],[114.51959609985352,0.9952426113787283],[114.52079772949219,0.9930971671781919],[114.52079772949219,0.9920673534670925],[114.5203685760498,0.9910375394354958],[114.5203685760498,0.9898360893272837],[114.52096939086914,0.9881197312748924],[114.52071189880371,0.9867466441944117],[114.52088356018066,0.9852877385504399],[114.521484375,0.984086286363862],[114.52208518981934,0.9834855601082637],[114.52311515808105,0.9832281059656225],[114.5240592956543,0.9824557434185834],[114.52423095703125,0.9819408349546705],[114.52345848083496,0.9812542902127745],[114.52354431152344,0.9806535634480298],[114.52397346496582,0.9799670184420393],[114.52345848083496,0.9685531871762407],[114.5226001739502,0.9668368182364162],[114.52354431152344,0.964691355841623],[114.52423095703125,0.9641764446654548],[114.52483177185059,0.9615160690155591],[114.52534675598145,0.96108697597451],[114.5269775390625,0.960400426996685],[114.52766418457031,0.9605720642540803],[114.52877998352051,0.9603146083647545],[114.53083992004395,0.9580833231789541],[114.53109741210938,0.9575684110065055],[114.53118324279785,0.956452767700938],[114.53289985656738,0.9553371240326953],[114.53418731689453,0.955165486513124],[114.53513145446777,0.9539640236360896],[114.53590393066406,0.9525051038643255],[114.53744888305664,0.9508745457415273],[114.53882217407227,0.9501879947224836],[114.5394229888916,0.9488148922751662],[114.54208374023438,0.9474417892828768],[114.54259872436523,0.9468410565525716],[114.5431137084961,0.9432366579870717],[114.54414367675781,0.942550105455652],[114.54431533813477,0.9420351909682694],[114.54483032226562,0.9417777336960427],[114.54646110534668,0.942292648221482],[114.5478343963623,0.9423784673016655],[114.54877853393555,0.9408337235352064],[114.55264091491699,0.9416060955039853],[114.55693244934082,0.9405762661742614],[114.55796241760254,0.9406620852966938],[114.55821990966797,0.942121010054791],[114.56045150756836,0.9416919146010656],[114.56088066101074,0.9423784673016655],[114.56362724304199,0.942979200803677],[114.5639705657959,0.9426359245294975],[114.56388473510742,0.9417777336960427],[114.56328392028809,0.9405762661742614],[114.56354141235352,0.9392031599286383],[114.56448554992676,0.9392031599286383],[114.5665454864502,0.9404904470497399],[114.56817626953125,0.9406620852966938],[114.57255363464355,0.9420351909682694],[114.57418441772461,0.9422068291391952],[114.57598686218262,0.9414344573034867],[114.57916259765625,0.9406620852966938],[114.5789909362793,0.9389457024474979],[114.57821846008301,0.9360278496707508],[114.57590103149414,0.9301063174630428],[114.576416015625,0.9285615682940005],[114.57701683044434,0.9237556776785709],[114.57984924316406,0.921610188696107],[114.58070755004883,0.9214385495216533],[114.58182334899902,0.9216960082802501],[114.58783149719238,0.919378878783462],[114.59006309509277,0.9172333871677267],[114.59212303161621,0.9162035507351192],[114.59306716918945,0.9167184689884351],[114.59615707397461,0.9196363376907613],[114.59813117980957,0.9200654358283344],[114.59933280944824,0.9199796162049552],[114.60070610046387,0.9191214198575892],[114.6024227142334,0.9171475674763343],[114.6035385131836,0.9168901083897651],[114.60491180419922,0.9175766659127618],[114.60594177246094,0.917748305272923],[114.60671424865723,0.9168901083897651],[114.6090316772461,0.9156028126793814],[114.61152076721191,0.9136289583592543],[114.61323738098145,0.912770760490389],[114.61804389953613,0.9151737140064995]]}},{"type":"Feature","id":"pmtiles:8/209/127:water:124130863:0","properties":{"intermittent":0,"class":"river","id":12413086,"water":"river","kind":"waterway","verification":"verified","source":"OpenMapTiles/OpenStreetMap national PMTiles","sourceId":"8/209/127:water:124130863:0","sourceLayer":"water","archive":"https://its.hanifahseptiani45.workers.dev/v1/map/archive/indonesia.pmtiles","updatedAt":"2026-07-26T09:35:30.078Z"},"geometry":{"type":"Polygon","coordinates":[[[114.4998550415039,0.7882441769447723],[114.4991683959961,0.7882441769447723],[114.49951171875,0.7903039180218343],[114.50294494628906,0.793393527721463],[114.50809478759766,0.7957965558932187],[114.5218276977539,0.8078116756687308],[114.52354431152344,0.8109012721756841],[114.52388763427734,0.8150207305153003],[114.52560424804688,0.8167371702478192],[114.53075408935547,0.8160505944426859],[114.53384399414062,0.8143341544173808],[114.53556060791016,0.8105579837911989],[114.53590393066406,0.8019757647536778],[114.54002380371094,0.8012891864507452],[114.54139709472656,0.8019757647536778],[114.54036712646484,0.8047220768127232],[114.54517364501953,0.8119311371544313],[114.54654693603516,0.816393882359904],[114.54963684082031,0.8181103215061256],[114.55169677734375,0.8181103215061256],[114.55718994140625,0.8122744254223875],[114.5595932006836,0.8119311371544313],[114.56165313720703,0.8146774424809564],[114.56233978271484,0.8201700475122351],[114.56371307373047,0.8201700475122351],[114.56233978271484,0.8133042900512919],[114.55856323242188,0.8105579837911989],[114.5541000366211,0.8126177136612114],[114.55101013183594,0.8126177136612114],[114.5492935180664,0.8153640185203699],[114.54792022705078,0.8160505944426859],[114.54654693603516,0.8136475782025343],[114.54586029052734,0.8054086545388373],[114.54242706298828,0.8016324756166],[114.54071044921875,0.7985428720893708],[114.53899383544922,0.7975130037304865],[114.53693389892578,0.7975130037304865],[114.53487396240234,0.8019757647536778],[114.53453063964844,0.8095281184631915],[114.53350067138672,0.8122744254223875],[114.53075408935547,0.8150207305153003],[114.52938079833984,0.8153640185203699],[114.52491760253906,0.8109012721756841],[114.52251434326172,0.8067818096439652],[114.51873779296875,0.8036922100069148],[114.51496124267578,0.7975130037304865],[114.51255798339844,0.795109976558237],[114.5050048828125,0.793393527721463],[114.50122833251953,0.7903039180218343],[114.4998550415039,0.7882441769447723]]]}},{"type":"Feature","id":"pmtiles:8/209/127:water:124133733:0","properties":{"intermittent":0,"class":"river","id":12413373,"water":"river","kind":"waterway","verification":"verified","source":"OpenMapTiles/OpenStreetMap national PMTiles","sourceId":"8/209/127:water:124133733:0","sourceLayer":"water","archive":"https://its.hanifahseptiani45.workers.dev/v1/map/archive/indonesia.pmtiles","updatedAt":"2026-07-26T09:35:30.078Z"},"geometry":{"type":"Polygon","coordinates":[[[114.56371307373047,0.8201700475122351],[114.56233978271484,0.8201700475122351],[114.56165313720703,0.8236029218321903],[114.56268310546875,0.8277223671121163],[114.56611633300781,0.8321850946692422],[114.56989288330078,0.8345880997258064],[114.57469940185547,0.8342448133789304],[114.57984924316406,0.838364247561131],[114.58431243896484,0.8376776754978295],[114.58740234375,0.836647817177365],[114.5870590209961,0.8342448133789304],[114.58843231201172,0.8335582405953659],[114.58877563476562,0.8321850946692422],[114.5925521850586,0.8332149541586915],[114.60285186767578,0.8321850946692422],[114.61212158203125,0.8325283811956155],[114.61555480957031,0.8335582405953659],[114.61933135986328,0.836647817177365],[114.62379455566406,0.8356179585865817],[114.6310043334961,0.8318418081129835],[114.63409423828125,0.8318418081129835],[114.63478088378906,0.8314985215268536],[114.6310043334961,0.8304686615894497],[114.620361328125,0.8356179585865817],[114.61864471435547,0.8349313860427117],[114.61589813232422,0.8321850946692422],[114.6097183227539,0.8301253748840196],[114.59632873535156,0.831155234910895],[114.59358215332031,0.8321850946692422],[114.58911895751953,0.8314985215268536],[114.58808898925781,0.829782088148761],[114.58602905273438,0.8304686615894497],[114.58499908447266,0.8318418081129835],[114.58671569824219,0.8356179585865817],[114.58019256591797,0.8373343894210734],[114.57538604736328,0.8332149541586915],[114.56989288330078,0.8335582405953659],[114.56783294677734,0.8325283811956155],[114.5650863647461,0.828752227764312],[114.56371307373047,0.8201700475122351]]]}},{"type":"Feature","id":"pmtiles:8/209/127:water:187778653:0","properties":{"intermittent":0,"class":"lake","id":18777865,"water":"lake","kind":"waterway","verification":"verified","source":"OpenMapTiles/OpenStreetMap national PMTiles","sourceId":"8/209/127:water:187778653:0","sourceLayer":"water","archive":"https://its.hanifahseptiani45.workers.dev/v1/map/archive/indonesia.pmtiles","updatedAt":"2026-07-26T09:35:30.078Z"},"geometry":{"type":"Polygon","coordinates":[[[114.27085876464844,0.7676467105818432],[114.26982879638672,0.7683332944071566],[114.26948547363281,0.7690198781221369],[114.27154541015625,0.7697064617266562],[114.26948547363281,0.7741692524575257],[114.27085876464844,0.776572291676473],[114.27738189697266,0.7731393780893825],[114.28390502929688,0.7734826695732124],[114.28424835205078,0.7741692524575257],[114.28390502929688,0.7769155828820402],[114.28802490234375,0.7796619115214725],[114.2911148071289,0.7776021652095011],[114.29008483886719,0.772452795038518],[114.2911148071289,0.771079628604042],[114.29489135742188,0.7717662118766953],[114.29866790771484,0.7755424178925239],[114.30038452148438,0.7762290004430099],[114.3021011352539,0.772452795038518],[114.3017578125,0.770393045220672],[114.30484771728516,0.7673034186278329],[114.30484771728516,0.7659302505364849],[114.3021011352539,0.761467451205192],[114.3017578125,0.7587211108570671],[114.30931091308594,0.7576912327767502],[114.31102752685547,0.7549448900332436],[114.31205749511719,0.7467058514201597],[114.31995391845703,0.7432729140976448],[114.32476043701172,0.7436162079501827],[114.32750701904297,0.7456759705043368],[114.32750701904297,0.7480790255992531],[114.32853698730469,0.7494521993486245],[114.33059692382812,0.7504820793781874],[114.33746337890625,0.7573479400288932],[114.34089660644531,0.7570046472538365],[114.34501647949219,0.7580345254974219],[114.34982299804688,0.7580345254974219],[114.35462951660156,0.7552881829711566],[114.35840606689453,0.7580345254974219],[114.36389923095703,0.7587211108570671],[114.37694549560547,0.7539150110568613],[114.378662109375,0.7504820793781874],[114.38243865966797,0.7487656125277056],[114.38621520996094,0.7418997384207557],[114.3893051147461,0.7388100915908495],[114.39170837402344,0.7381235031143376],[114.39754486083984,0.7405265623177257],[114.40303802490234,0.7370936202008522],[114.40715789794922,0.7384667973658594],[114.41162109375,0.7384667973658594],[114.41883087158203,0.7357204426124611],[114.42020416259766,0.7343472646014391],[114.42363739013672,0.7340039700327594],[114.43050384521484,0.7357204426124611],[114.43153381347656,0.7398399741066584],[114.42947387695312,0.7415564444349343],[114.42947387695312,0.742929620218419],[114.43428039550781,0.7456759705043368],[114.43805694580078,0.7460192641697319],[114.44217681884766,0.7439595017760183],[114.44629669189453,0.7467058514201597],[114.44766998291016,0.7453326768121684],[114.44252014160156,0.742929620218419],[114.44046020507812,0.7432729140976448],[114.43805694580078,0.7453326768121684],[114.4339370727539,0.7446460893475546],[114.43050384521484,0.7425863263125194],[114.43256378173828,0.739496679961249],[114.43084716796875,0.7346905591437718],[114.42192077636719,0.7329740861686105],[114.41059112548828,0.7374369145318269],[114.4057846069336,0.7360637370492071],[114.40235137939453,0.7364070314595352],[114.39823150634766,0.7391533857893222],[114.39239501953125,0.7370936202008522],[114.3899917602539,0.7374369145318269],[114.38690185546875,0.7391533857893222],[114.38175201416016,0.7477357320947391],[114.37763214111328,0.7501387860619246],[114.37728881835938,0.752198545555089],[114.37625885009766,0.7532284249372623],[114.3728256225586,0.7535717180105905],[114.36389923095703,0.7576912327767502],[114.35840606689453,0.7566613544516088],[114.35497283935547,0.7539150110568613],[114.35016632080078,0.7570046472538365],[114.34810638427734,0.7566613544516088],[114.34501647949219,0.7573479400288932],[114.34123992919922,0.7556314758819695],[114.33780670166016,0.7566613544516088],[114.33094024658203,0.7494521993486245],[114.3288803100586,0.7491089059516156],[114.3288803100586,0.7456759705043368],[114.32544708251953,0.7432729140976448],[114.32373046875,0.7425863263125194],[114.3185806274414,0.7425863263125194],[114.31102752685547,0.7463625578083537],[114.31102752685547,0.752198545555089],[114.30931091308594,0.7563180616222098],[114.3069076538086,0.7573479400288932],[114.3017578125,0.7570046472538365],[114.30038452148438,0.7583778181908514],[114.30038452148438,0.7607808662819338],[114.30416107177734,0.7662735426006151],[114.30107116699219,0.7690198781221369],[114.30004119873047,0.772452795038518],[114.30038452148438,0.7748558352306674],[114.29351806640625,0.7700497534874984],[114.28905487060547,0.770393045220672],[114.28905487060547,0.7751991265755009],[114.28733825683594,0.7782887474252931],[114.28596496582031,0.7776021652095011],[114.2852783203125,0.772452795038518],[114.28115844726562,0.771079628604042],[114.2739486694336,0.7734826695732124],[114.27120208740234,0.7755424178925239],[114.27051544189453,0.7741692524575257],[114.27257537841797,0.7686765862784455],[114.27085876464844,0.7676467105818432]]]}}]}