{"type":"FeatureCollection","features":[{"type":"Feature","id":"pmtiles:12/3508/1976:water:340:0","properties":{"class":"ocean","water":"ocean","kind":"waterway","verification":"verified","source":"OpenMapTiles/OpenStreetMap national PMTiles","sourceId":"12/3508/1976:water:340:0","sourceLayer":"water","archive":"https://its.hanifahseptiani45.workers.dev/v1/map/archive/indonesia.pmtiles","updatedAt":"2026-07-26T10:35:46.095Z"},"geometry":{"type":"Polygon","coordinates":[[[128.31893920898438,6.316663493894268],[128.40957641601562,6.316663493894268],[128.40957641601562,6.226568742378319],[128.31893920898438,6.226568742378319],[128.31893920898438,6.316663493894268]]]}},{"type":"Feature","id":"pmtiles:12/3509/1976:water:340:0","properties":{"class":"ocean","water":"ocean","kind":"waterway","verification":"verified","source":"OpenMapTiles/OpenStreetMap national PMTiles","sourceId":"12/3509/1976:water:340:0","sourceLayer":"water","archive":"https://its.hanifahseptiani45.workers.dev/v1/map/archive/indonesia.pmtiles","updatedAt":"2026-07-26T10:35:46.145Z"},"geometry":{"type":"Polygon","coordinates":[[[128.40682983398438,6.316663493894268],[128.49746704101562,6.316663493894268],[128.49746704101562,6.226568742378319],[128.40682983398438,6.226568742378319],[128.40682983398438,6.316663493894268]]]}},{"type":"Feature","id":"pmtiles:12/3510/1976:water:340:0","properties":{"class":"ocean","water":"ocean","kind":"waterway","verification":"verified","source":"OpenMapTiles/OpenStreetMap national PMTiles","sourceId":"12/3510/1976:water:340:0","sourceLayer":"water","archive":"https://its.hanifahseptiani45.workers.dev/v1/map/archive/indonesia.pmtiles","updatedAt":"2026-07-26T10:35:46.197Z"},"geometry":{"type":"Polygon","coordinates":[[[128.49472045898438,6.316663493894268],[128.58535766601562,6.316663493894268],[128.58535766601562,6.226568742378319],[128.49472045898438,6.226568742378319],[128.49472045898438,6.316663493894268]]]}},{"type":"Feature","id":"pmtiles:12/3511/1976:water:340:0","properties":{"class":"ocean","water":"ocean","kind":"waterway","verification":"verified","source":"OpenMapTiles/OpenStreetMap national PMTiles","sourceId":"12/3511/1976:water:340:0","sourceLayer":"water","archive":"https://its.hanifahseptiani45.workers.dev/v1/map/archive/indonesia.pmtiles","updatedAt":"2026-07-26T10:35:46.264Z"},"geometry":{"type":"Polygon","coordinates":[[[128.58261108398438,6.316663493894268],[128.67324829101562,6.316663493894268],[128.67324829101562,6.226568742378319],[128.58261108398438,6.226568742378319],[128.58261108398438,6.316663493894268]]]}},{"type":"Feature","id":"pmtiles:12/3508/1977:water:340:0","properties":{"class":"ocean","water":"ocean","kind":"waterway","verification":"verified","source":"OpenMapTiles/OpenStreetMap national PMTiles","sourceId":"12/3508/1977:water:340:0","sourceLayer":"water","archive":"https://its.hanifahseptiani45.workers.dev/v1/map/archive/indonesia.pmtiles","updatedAt":"2026-07-26T10:36:16.838Z"},"geometry":{"type":"Polygon","coordinates":[[[128.31893920898438,6.22929911460929],[128.40957641601562,6.22929911460929],[128.40957641601562,6.139189368969383],[128.31893920898438,6.139189368969383],[128.31893920898438,6.22929911460929]]]}},{"type":"Feature","id":"pmtiles:12/3509/1977:water:340:0","properties":{"class":"ocean","water":"ocean","kind":"waterway","verification":"verified","source":"OpenMapTiles/OpenStreetMap national PMTiles","sourceId":"12/3509/1977:water:340:0","sourceLayer":"water","archive":"https://its.hanifahseptiani45.workers.dev/v1/map/archive/indonesia.pmtiles","updatedAt":"2026-07-26T10:36:16.911Z"},"geometry":{"type":"Polygon","coordinates":[[[128.40682983398438,6.22929911460929],[128.49746704101562,6.22929911460929],[128.49746704101562,6.139189368969383],[128.40682983398438,6.139189368969383],[128.40682983398438,6.22929911460929]]]}},{"type":"Feature","id":"pmtiles:12/3510/1977:water:340:0","properties":{"class":"ocean","water":"ocean","kind":"waterway","verification":"verified","source":"OpenMapTiles/OpenStreetMap national PMTiles","sourceId":"12/3510/1977:water:340:0","sourceLayer":"water","archive":"https://its.hanifahseptiani45.workers.dev/v1/map/archive/indonesia.pmtiles","updatedAt":"2026-07-26T10:36:16.972Z"},"geometry":{"type":"Polygon","coordinates":[[[128.49472045898438,6.22929911460929],[128.58535766601562,6.22929911460929],[128.58535766601562,6.139189368969383],[128.49472045898438,6.139189368969383],[128.49472045898438,6.22929911460929]]]}},{"type":"Feature","id":"pmtiles:12/3511/1977:water:340:0","properties":{"class":"ocean","water":"ocean","kind":"waterway","verification":"verified","source":"OpenMapTiles/OpenStreetMap national PMTiles","sourceId":"12/3511/1977:water:340:0","sourceLayer":"water","archive":"https://its.hanifahseptiani45.workers.dev/v1/map/archive/indonesia.pmtiles","updatedAt":"2026-07-26T10:36:17.040Z"},"geometry":{"type":"Polygon","coordinates":[[[128.58261108398438,6.22929911460929],[128.67324829101562,6.22929911460929],[128.67324829101562,6.139189368969383],[128.58261108398438,6.139189368969383],[128.58261108398438,6.22929911460929]]]}},{"type":"Feature","id":"pmtiles:12/3508/1978:water:340:0","properties":{"class":"ocean","water":"ocean","kind":"waterway","verification":"verified","source":"OpenMapTiles/OpenStreetMap national PMTiles","sourceId":"12/3508/1978:water:340:0","sourceLayer":"water","archive":"https://its.hanifahseptiani45.workers.dev/v1/map/archive/indonesia.pmtiles","updatedAt":"2026-07-26T10:36:48.390Z"},"geometry":{"type":"Polygon","coordinates":[[[128.31893920898438,6.1419201924305185],[128.40957641601562,6.1419201924305185],[128.40957641601562,6.05179565978203],[128.31893920898438,6.05179565978203],[128.31893920898438,6.1419201924305185]]]}},{"type":"Feature","id":"pmtiles:12/3509/1978:water:340:0","properties":{"class":"ocean","water":"ocean","kind":"waterway","verification":"verified","source":"OpenMapTiles/OpenStreetMap national PMTiles","sourceId":"12/3509/1978:water:340:0","sourceLayer":"water","archive":"https://its.hanifahseptiani45.workers.dev/v1/map/archive/indonesia.pmtiles","updatedAt":"2026-07-26T10:36:48.578Z"},"geometry":{"type":"Polygon","coordinates":[[[128.40682983398438,6.1419201924305185],[128.49746704101562,6.1419201924305185],[128.49746704101562,6.05179565978203],[128.40682983398438,6.05179565978203],[128.40682983398438,6.1419201924305185]]]}},{"type":"Feature","id":"pmtiles:12/3510/1978:water:340:0","properties":{"class":"ocean","water":"ocean","kind":"waterway","verification":"verified","source":"OpenMapTiles/OpenStreetMap national PMTiles","sourceId":"12/3510/1978:water:340:0","sourceLayer":"water","archive":"https://its.hanifahseptiani45.workers.dev/v1/map/archive/indonesia.pmtiles","updatedAt":"2026-07-26T10:36:48.718Z"},"geometry":{"type":"Polygon","coordinates":[[[128.49472045898438,6.1419201924305185],[128.58535766601562,6.1419201924305185],[128.58535766601562,6.05179565978203],[128.49472045898438,6.05179565978203],[128.49472045898438,6.1419201924305185]]]}},{"type":"Feature","id":"pmtiles:12/3511/1978:water:340:0","properties":{"class":"ocean","water":"ocean","kind":"waterway","verification":"verified","source":"OpenMapTiles/OpenStreetMap national PMTiles","sourceId":"12/3511/1978:water:340:0","sourceLayer":"water","archive":"https://its.hanifahseptiani45.workers.dev/v1/map/archive/indonesia.pmtiles","updatedAt":"2026-07-26T10:36:48.910Z"},"geometry":{"type":"Polygon","coordinates":[[[128.58261108398438,6.1419201924305185],[128.67324829101562,6.1419201924305185],[128.67324829101562,6.05179565978203],[128.58261108398438,6.05179565978203],[128.58261108398438,6.1419201924305185]]]}},{"type":"Feature","id":"pmtiles:12/3508/1979:water:340:0","properties":{"class":"ocean","water":"ocean","kind":"waterway","verification":"verified","source":"OpenMapTiles/OpenStreetMap national PMTiles","sourceId":"12/3508/1979:water:340:0","sourceLayer":"water","archive":"https://its.hanifahseptiani45.workers.dev/v1/map/archive/indonesia.pmtiles","updatedAt":"2026-07-26T10:37:23.426Z"},"geometry":{"type":"Polygon","coordinates":[[[128.31893920898438,6.054526928194491],[128.40957641601562,6.054526928194491],[128.40957641601562,5.964387815824367],[128.31893920898438,5.964387815824367],[128.31893920898438,6.054526928194491]]]}},{"type":"Feature","id":"pmtiles:12/3509/1979:water:340:0","properties":{"class":"ocean","water":"ocean","kind":"waterway","verification":"verified","source":"OpenMapTiles/OpenStreetMap national PMTiles","sourceId":"12/3509/1979:water:340:0","sourceLayer":"water","archive":"https://its.hanifahseptiani45.workers.dev/v1/map/archive/indonesia.pmtiles","updatedAt":"2026-07-26T10:37:23.491Z"},"geometry":{"type":"Polygon","coordinates":[[[128.40682983398438,6.054526928194491],[128.49746704101562,6.054526928194491],[128.49746704101562,5.964387815824367],[128.40682983398438,5.964387815824367],[128.40682983398438,6.054526928194491]]]}},{"type":"Feature","id":"pmtiles:12/3510/1979:water:340:0","properties":{"class":"ocean","water":"ocean","kind":"waterway","verification":"verified","source":"OpenMapTiles/OpenStreetMap national PMTiles","sourceId":"12/3510/1979:water:340:0","sourceLayer":"water","archive":"https://its.hanifahseptiani45.workers.dev/v1/map/archive/indonesia.pmtiles","updatedAt":"2026-07-26T10:37:23.579Z"},"geometry":{"type":"Polygon","coordinates":[[[128.49472045898438,6.054526928194491],[128.58535766601562,6.054526928194491],[128.58535766601562,5.964387815824367],[128.49472045898438,5.964387815824367],[128.49472045898438,6.054526928194491]]]}},{"type":"Feature","id":"pmtiles:12/3511/1979:water:340:0","properties":{"class":"ocean","water":"ocean","kind":"waterway","verification":"verified","source":"OpenMapTiles/OpenStreetMap national PMTiles","sourceId":"12/3511/1979:water:340:0","sourceLayer":"water","archive":"https://its.hanifahseptiani45.workers.dev/v1/map/archive/indonesia.pmtiles","updatedAt":"2026-07-26T10:37:23.646Z"},"geometry":{"type":"Polygon","coordinates":[[[128.58261108398438,6.054526928194491],[128.67324829101562,6.054526928194491],[128.67324829101562,5.964387815824367],[128.58261108398438,5.964387815824367],[128.58261108398438,6.054526928194491]]]}},{"type":"Feature","id":"pmtiles:10/877/494:water:340:0","properties":{"class":"ocean","water":"ocean","kind":"waterway","verification":"verified","source":"OpenMapTiles/OpenStreetMap national PMTiles","sourceId":"10/877/494:water:340:0","sourceLayer":"water","archive":"https://its.hanifahseptiani45.workers.dev/v1/map/archive/indonesia.pmtiles","updatedAt":"2026-07-26T09:38:07.234Z"},"geometry":{"type":"Polygon","coordinates":[[[128.3148193359375,6.320758338986863],[128.6773681640625,6.320758338986863],[128.6773681640625,5.960290229693385],[128.3148193359375,5.960290229693385],[128.3148193359375,6.320758338986863]]]}}]}