{"type":"FeatureCollection","features":[{"type":"Feature","id":"pmtiles:10/871/504:water:720:0","properties":{"class":"ocean","water":"ocean","kind":"waterway","verification":"verified","source":"OpenMapTiles/OpenStreetMap national PMTiles","sourceId":"10/871/504:water:720:0","sourceLayer":"water","archive":"https://its.hanifahseptiani45.workers.dev/v1/map/archive/indonesia.pmtiles","updatedAt":"2026-07-26T09:39:57.519Z"},"geometry":{"type":"Polygon","coordinates":[[[126.2054443359375,2.816857733037736],[126.5679931640625,2.816857733037736],[126.5679931640625,2.454693068753784],[126.2054443359375,2.454693068753784],[126.2054443359375,2.816857733037736]]]}}]}