{"type":"FeatureCollection","features":[{"type":"Feature","id":"pmtiles:10/844/506:landcover:188285423:1","properties":{"subclass":"wood","class":"wood","kind":"green","verification":"verified","source":"OpenMapTiles/OpenStreetMap national PMTiles","sourceId":"10/844/506:landcover:188285423:1","sourceLayer":"landcover","archive":"https://its.hanifahseptiani45.workers.dev/v1/map/archive/indonesia.pmtiles","updatedAt":"2026-07-26T09:40:14.634Z"},"geometry":{"type":"Polygon","coordinates":[[[116.98980331420898,1.7520462233579792],[116.98448181152344,1.7520462233579792],[116.98422431945801,1.7554778427162034],[116.98508262634277,1.755992585076939],[116.98748588562012,1.7541051957281297],[116.99143409729004,1.7529041287874207],[116.98980331420898,1.7520462233579792]]]}},{"type":"Feature","id":"pmtiles:10/844/506:waterway:7959781462:1","properties":{"name":"Sungai Langgi","name_int":"Sungai Langgi","class":"river","name:latin":"Sungai Langgi","name_de":"Sungai Langgi","name_en":"Sungai Langgi","waterway":"river","kind":"waterway","verification":"verified","source":"OpenMapTiles/OpenStreetMap national PMTiles","sourceId":"10/844/506:waterway:7959781462:1","sourceLayer":"waterway","archive":"https://its.hanifahseptiani45.workers.dev/v1/map/archive/indonesia.pmtiles","updatedAt":"2026-07-26T09:40:14.634Z"},"geometry":{"type":"LineString","coordinates":[[116.98439598083496,1.7515314799117192],[116.98413848876953,1.7523893855769188],[116.98431015014648,1.753161500339587],[116.98405265808105,1.7554778427162034],[116.98473930358887,1.7562499562041438],[116.98516845703125,1.7561641658323452],[116.98688507080078,1.7551346810636375],[116.9875717163086,1.7541909861943878],[116.99074745178223,1.7535904528479307],[116.99151992797852,1.752989919308746],[116.99151992797852,1.7526467571998552],[116.99109077453613,1.7523035950280814],[116.98808670043945,1.7508451550967266]]}},{"type":"Feature","id":"pmtiles:10/843/507:landcover:188285423:0","properties":{"subclass":"wood","class":"wood","kind":"green","verification":"verified","source":"OpenMapTiles/OpenStreetMap national PMTiles","sourceId":"10/843/507:landcover:188285423:0","sourceLayer":"landcover","archive":"https://its.hanifahseptiani45.workers.dev/v1/map/archive/indonesia.pmtiles","updatedAt":"2026-07-26T09:40:27.341Z"},"geometry":{"type":"Polygon","coordinates":[[[116.7242431640625,1.7301695026767163],[116.7242431640625,1.7221050790785597],[116.72209739685059,1.723220373740915],[116.72106742858887,1.7261372951534497],[116.72329902648926,1.7282820874550993],[116.7242431640625,1.7301695026767163]]]}},{"type":"Feature","id":"pmtiles:10/843/507:landcover:188285423:1","properties":{"subclass":"wood","class":"wood","kind":"green","verification":"verified","source":"OpenMapTiles/OpenStreetMap national PMTiles","sourceId":"10/843/507:landcover:188285423:1","sourceLayer":"landcover","archive":"https://its.hanifahseptiani45.workers.dev/v1/map/archive/indonesia.pmtiles","updatedAt":"2026-07-26T09:40:27.341Z"},"geometry":{"type":"Polygon","coordinates":[[[116.72415733337402,1.7081209445886572],[116.7242431640625,1.7082925296793974],[116.7242431640625,1.7080351520375388],[116.72415733337402,1.7081209445886572]]]}},{"type":"Feature","id":"pmtiles:10/844/507:landcover:188078653:0","properties":{"subclass":"wood","class":"wood","kind":"green","verification":"verified","source":"OpenMapTiles/OpenStreetMap national PMTiles","sourceId":"10/844/507:landcover:188078653:0","sourceLayer":"landcover","archive":"https://its.hanifahseptiani45.workers.dev/v1/map/archive/indonesia.pmtiles","updatedAt":"2026-07-26T09:40:27.416Z"},"geometry":{"type":"Polygon","coordinates":[[[116.7132568359375,1.7630273831138794],[116.73600196838379,1.7630273831138794],[116.7363452911377,1.7619121120249446],[116.73608779907227,1.7613115811619906],[116.73299789428711,1.7602820992323558],[116.73334121704102,1.7581373433868066],[116.73102378845215,1.7568504886964007],[116.73050880432129,1.7548773097828843],[116.7293930053711,1.7548773097828843],[116.7286205291748,1.755392052308963],[116.72604560852051,1.753847824305737],[116.72767639160156,1.7532472908491314],[116.72801971435547,1.7525609666627986],[116.72733306884766,1.7511025269317884],[116.72501564025879,1.750759364477176],[116.72475814819336,1.7499872487245653],[116.72484397888184,1.7481856440658419],[116.72698974609375,1.7441534749956276],[116.72810554504395,1.7436387293855802],[116.72999382019043,1.7445824295630956],[116.73153877258301,1.7438103112712326],[116.73025131225586,1.7418371186420671],[116.72853469848633,1.7408934170887704],[116.72810554504395,1.7387486390747426],[116.72578811645508,1.7376333535440835],[116.72527313232422,1.7366896498883335],[116.72638893127441,1.7349738238524424],[116.72304153442383,1.728367879096794],[116.72080993652344,1.7261372951534497],[116.72183990478516,1.7230487899891926],[116.72578811645508,1.7211613677005886],[116.72510147094727,1.7185876070238066],[116.7253589630127,1.7179870623665607],[116.72638893127441,1.7173007253842343],[116.72793388366699,1.7178154781440895],[116.72819137573242,1.7173007253842343],[116.72741889953613,1.7156706740635315],[116.72767639160156,1.7147269595060237],[116.7238998413086,1.7082067371359528],[116.72527313232422,1.7065766780825697],[116.72098159790039,1.7044318614337612],[116.72063827514648,1.7034881413512295],[116.72252655029297,1.7026302136023048],[116.72123908996582,1.7018580783017825],[116.71935081481934,1.7026302136023048],[116.71926498413086,1.7004853925597985],[116.7161750793457,1.7016864926374637],[116.71420097351074,1.7005711854472736],[116.7132568359375,1.7016006997995703],[116.7132568359375,1.7630273831138794]]]}},{"type":"Feature","id":"pmtiles:10/844/507:landcover:188078653:4","properties":{"subclass":"wood","class":"wood","kind":"green","verification":"verified","source":"OpenMapTiles/OpenStreetMap national PMTiles","sourceId":"10/844/507:landcover:188078653:4","sourceLayer":"landcover","archive":"https://its.hanifahseptiani45.workers.dev/v1/map/archive/indonesia.pmtiles","updatedAt":"2026-07-26T09:40:27.416Z"},"geometry":{"type":"Polygon","coordinates":[[[116.9179630279541,1.7627700129218908],[116.91727638244629,1.7630273831138794],[117.05211639404297,1.7630273831138794],[117.05160140991211,1.761054210732894],[117.0523738861084,1.7596815678441686],[117.0534896850586,1.7590810362626286],[117.05941200256348,1.7623410625228217],[117.0596694946289,1.7630273831138794],[117.06130027770996,1.7630273831138794],[117.06121444702148,1.7599389384627813],[117.05812454223633,1.7583947142184542],[117.05469131469727,1.7583947142184542],[117.0541763305664,1.757794182222753],[117.05469131469727,1.7562499562041438],[117.05829620361328,1.7565931176519456],[117.05941200256348,1.7580515531016943],[117.06155776977539,1.7587378752720753],[117.06473350524902,1.7588236655256395],[117.06705093383789,1.7605394697680623],[117.06808090209961,1.7600247286610937],[117.07134246826172,1.7605394697680623],[117.07108497619629,1.7595957776300821],[117.07365989685059,1.7595957776300821],[117.0758056640625,1.7586520850145888],[117.0758056640625,1.7583947142184542],[117.07511901855469,1.7570220693730363],[117.07537651062012,1.7548773097828843],[117.0758056640625,1.7545341480201273],[117.0758056640625,1.7535046623541177],[117.07563400268555,1.7533330813547252],[117.07563400268555,1.7525609666627986],[117.0758056640625,1.7523893855769188],[117.0758056640625,1.7405502527704328],[117.0754623413086,1.7405502527704328],[117.07477569580078,1.7398639239463876],[117.07460403442383,1.738577056728289],[117.0754623413086,1.7368612324062411],[117.0758056640625,1.7366896498883335],[117.0758056640625,1.7250220022001912],[117.07529067993164,1.7251077939890536],[117.07520484924316,1.7227914143326615],[117.0758056640625,1.722448246736505],[117.0758056640625,1.7201318638464755],[117.07426071166992,1.7201318638464755],[117.07331657409668,1.7208181998109637],[117.07365989685059,1.721933495226395],[117.07254409790039,1.7221050790785597],[117.07211494445801,1.721247159663335],[117.07262992858887,1.7203034478607435],[117.06859588623047,1.7153275051873749],[117.06730842590332,1.715584881850262],[117.06851005554199,1.716185427262289],[117.06825256347656,1.716700180322519],[117.06713676452637,1.7167859724857237],[117.06550598144531,1.7157564662729499],[117.06584930419922,1.716700180322519],[117.06550598144531,1.7171291411001448],[117.0648193359375,1.7171291411001448],[117.06413269042969,1.7163570116311035],[117.06318855285645,1.7173865175205094],[117.06155776977539,1.7178154781440895],[117.06061363220215,1.7178154781440895],[117.06001281738281,1.7167859724857237],[117.05795288085938,1.716700180322519],[117.0567512512207,1.7156706740635315],[117.0552921295166,1.7167859724857237],[117.05357551574707,1.7154990896331554],[117.05469131469727,1.7134400752686787],[117.05331802368164,1.7113810586907334],[117.0523738861084,1.711037889046068],[117.05134391784668,1.713182698317425],[117.05117225646973,1.7156706740635315],[117.05039978027344,1.716442803809727],[117.04842567443848,1.716442803809727],[117.04662322998047,1.7150701284898844],[117.04567909240723,1.7150701284898844],[117.04482078552246,1.7173865175205094],[117.04216003417969,1.7166143881554348],[117.04147338867188,1.7171291411001448],[117.04276084899902,1.7188449832476635],[117.04730987548828,1.7187591911769005],[117.05031394958496,1.7199602798167746],[117.05031394958496,1.7207324078289048],[117.04713821411133,1.722619830542314],[117.04559326171875,1.7282820874550993],[117.04662322998047,1.7284536707346092],[117.0479965209961,1.7266520455266061],[117.04919815063477,1.7265662538074338],[117.0494556427002,1.730255294233089],[117.04876899719238,1.7308558350190566],[117.04439163208008,1.7290542120908015],[117.04001426696777,1.7281105041600853],[117.0388126373291,1.7262230868919914],[117.03907012939453,1.722190870998844],[117.03778266906738,1.7203034478607435],[117.03434944152832,1.719188151492176],[117.03263282775879,1.7192739435436835],[117.03108787536621,1.722190870998844],[117.02971458435059,1.722276662915263],[117.0292854309082,1.716700180322519],[117.02859878540039,1.7173865175205094],[117.02765464782715,1.7207324078289048],[117.02662467956543,1.7208181998109637],[117.02653884887695,1.7195313196750135],[117.0252513885498,1.7191023594368318],[117.02181816101074,1.7193597355913113],[117.02138900756836,1.7201318638464755],[117.02181816101074,1.722362454827831],[117.02044486999512,1.723649333052549],[117.01847076416016,1.7243356677501112],[117.01761245727539,1.7239067085931197],[117.01821327209473,1.7228772062220372],[117.01786994934082,1.722276662915263],[117.0164966583252,1.722190870998844],[117.01520919799805,1.7261372951534497],[117.015380859375,1.7280247125067518],[117.01469421386719,1.7288826288655628],[117.01357841491699,1.7288826288655628],[117.0128059387207,1.728196295809525],[117.01349258422852,1.7257941281605724],[117.01332092285156,1.7230487899891926],[117.0110034942627,1.724078292267535],[117.00834274291992,1.722190870998844],[117.00619697570801,1.7250220022001912],[117.00422286987305,1.7242498759264464],[117.00139045715332,1.7264804620843677],[117.00018882751465,1.7262230868919914],[116.99967384338379,1.7242498759264464],[116.99838638305664,1.7239925004322743],[116.9974422454834,1.725965711664756],[116.99735641479492,1.7273383791406474],[116.9945240020752,1.7263088786266678],[116.9930648803711,1.7243356677501112],[116.99289321899414,1.722276662915263],[116.99349403381348,1.720560823853205],[116.99589729309082,1.7189307753145755],[116.99589729309082,1.7178154781440895],[116.99512481689453,1.7173865175205094],[116.99409484863281,1.7179870623665607],[116.99151992797852,1.7220192871544242],[116.98988914489746,1.7211613677005886],[116.9882583618164,1.722190870998844],[116.98748588562012,1.722190870998844],[116.98722839355469,1.7206466158429947],[116.98568344116211,1.7203034478607435],[116.98542594909668,1.7207324078289048],[116.98920249938965,1.7251077939890536],[116.98971748352051,1.7324858733362447],[116.99057579040527,1.7337727447011702],[116.99109077453613,1.732142707491235],[116.99203491210938,1.732571664787784],[116.99521064758301,1.7366038586235106],[116.99649810791016,1.7372901886328833],[116.9937515258789,1.738319683179384],[116.99383735656738,1.7423518647446485],[116.99529647827148,1.7434671474842816],[116.99426651000977,1.745783501831582],[116.99641227722168,1.7462982468546215],[116.99589729309082,1.7488719698540933],[116.99117660522461,1.7492151326540863],[116.99014663696289,1.7487003884305494],[116.98834419250488,1.749644086065814],[116.98817253112793,1.7508451550967266],[116.99109077453613,1.7522178044753218],[116.99160575866699,1.752989919308746],[116.9908332824707,1.753676243337793],[116.98765754699707,1.7542767766567238],[116.98516845703125,1.7562499562041438],[116.98396682739258,1.7555636331195075],[116.98396682739258,1.7509309457123265],[116.98104858398438,1.7516172704959132],[116.98259353637695,1.755735213914278],[116.98225021362305,1.7565931176519456],[116.97873115539551,1.755992585076939],[116.97718620300293,1.7551346810636375],[116.97649955749512,1.75393361478379],[116.97443962097168,1.7565931176519456],[116.97169303894043,1.7565931176519456],[116.96903228759766,1.7593384069641047],[116.96808815002441,1.7590810362626286],[116.9662857055664,1.7561641658323452],[116.96688652038574,1.7543625671151233],[116.96662902832031,1.7535904528479307],[116.96044921875,1.7573652306789995],[116.9601058959961,1.7587378752720753],[116.95770263671875,1.7567646983521996],[116.95675849914551,1.7568504886964007],[116.95444107055664,1.755392052308963],[116.95246696472168,1.7570220693730363],[116.95152282714844,1.7554778427162034],[116.94860458374023,1.7534188718563968],[116.94757461547852,1.7547057289093715],[116.94534301757812,1.7543625671151233],[116.94208145141602,1.7556494235188609],[116.94148063659668,1.7552204714826871],[116.93933486938477,1.7553062618978004],[116.9381332397461,1.7545341480201273],[116.93487167358398,1.7563357465719918],[116.92431449890137,1.7530757098261347],[116.92156791687012,1.7533330813547252],[116.91856384277344,1.752475176121834],[116.91856384277344,1.7618263219135173],[116.9179630279541,1.7627700129218908]]]}},{"type":"Feature","id":"pmtiles:10/844/507:landcover:188140813:0","properties":{"subclass":"wood","class":"wood","kind":"green","verification":"verified","source":"OpenMapTiles/OpenStreetMap national PMTiles","sourceId":"10/844/507:landcover:188140813:0","sourceLayer":"landcover","archive":"https://its.hanifahseptiani45.workers.dev/v1/map/archive/indonesia.pmtiles","updatedAt":"2026-07-26T09:40:27.416Z"},"geometry":{"type":"Polygon","coordinates":[[[116.7132568359375,1.6713155909875042],[116.71737670898438,1.6728598855296326],[116.72235488891602,1.6726882973071895],[116.72604560852051,1.6739752086096757],[116.7268180847168,1.6755195010575505],[116.72947883605957,1.6768064105007454],[116.73299789428711,1.6803239586595566],[116.73428535461426,1.680667133750731],[116.73540115356445,1.6798091959097547],[116.73728942871094,1.6798949897108173],[116.73952102661133,1.6774927618578488],[116.7403793334961,1.6786938761532895],[116.74192428588867,1.6789512576920487],[116.74252510070801,1.680238164877352],[116.74467086791992,1.6808387212737017],[116.74647331237793,1.6798949897108173],[116.7473316192627,1.680238164877352],[116.74776077270508,1.681696658662318],[116.75050735473633,1.6815250712147645],[116.7520523071289,1.680495546212697],[116.75505638122559,1.6828119767036185],[116.76218032836914,1.6827261830307663],[116.7623519897461,1.685214198010243],[116.76183700561523,1.687187449009869],[116.75969123840332,1.6907049784343542],[116.75763130187988,1.6919060845835077],[116.7601203918457,1.6937077424125562],[116.76175117492676,1.6934503628252031],[116.76346778869629,1.6909623583860451],[116.76535606384277,1.6905333917809315],[116.7667293548584,1.690790771755374],[116.76999092102051,1.6901902184285973],[116.76999092102051,1.6910481516956963],[116.7707633972168,1.6915629114738948],[116.77282333374023,1.690790771755374],[116.7733383178711,1.6917344980362827],[116.7751407623291,1.6913055316018557],[116.7788314819336,1.6924208441340767],[116.7817497253418,1.6919060845835077],[116.78441047668457,1.6903618051123601],[116.78552627563477,1.688474350757403],[116.78715705871582,1.6878737967145412],[116.78810119628906,1.6883027639069468],[116.78895950317383,1.687616416353677],[116.7905044555664,1.6879595901606024],[116.79428100585938,1.6859005464109202],[116.7945384979248,1.6819540398053618],[116.79917335510254,1.681782452380432],[116.80020332336426,1.68255459567375],[116.8008041381836,1.6840988813432887],[116.80397987365723,1.6843562621692456],[116.8051815032959,1.685214198010243],[116.80535316467285,1.684270468564364],[116.8080997467041,1.681353483752119],[116.81076049804688,1.6812676900151473],[116.81333541870117,1.6818682460947798],[116.81977272033691,1.6795518144840003],[116.8220043182373,1.6798091959097547],[116.82354927062988,1.6815250712147645],[116.82706832885742,1.6822114209144559],[116.82887077331543,1.6845278493676688],[116.83281898498535,1.687616416353677],[116.83427810668945,1.6912197383035874],[116.83616638183594,1.6919918778514216],[116.84045791625977,1.6925924306205502],[116.84268951416016,1.6912197383035874],[116.84337615966797,1.6885601441769467],[116.84268951416016,1.684270468564364],[116.8436336517334,1.6816108649404242],[116.84698104858398,1.6803239586595566],[116.84878349304199,1.6778359374460905],[116.85161590576172,1.676120058902967],[116.85238838195801,1.6728598855296326],[116.85333251953125,1.6720019442673504],[116.85556411743164,1.6728598855296326],[116.85813903808594,1.6777501435546753],[116.86131477355957,1.6807529275141064],[116.86354637145996,1.680581339983604],[116.86526298522949,1.6791228453657254],[116.86981201171875,1.6787796700033084],[116.87041282653809,1.6771495862093957],[116.8777084350586,1.671229796810664],[116.87959671020508,1.6702002663961366],[116.88148498535156,1.6704576490503626],[116.88337326049805,1.66925652970896],[116.88483238220215,1.6695139124867637],[116.88586235046387,1.6689991468974625],[116.88689231872559,1.671487179329958],[116.88981056213379,1.6720019442673504],[116.8886947631836,1.67500473704348],[116.88989639282227,1.6753479130678954],[116.88972473144531,1.6767206165641824],[116.89109802246094,1.6768064105007454],[116.89427375793457,1.67500473704348],[116.8956470489502,1.673117267835167],[116.89538955688477,1.671916150120481],[116.89719200134277,1.671487179329958],[116.89805030822754,1.6702002663961366],[116.89796447753906,1.669084941171704],[116.89521789550781,1.6605054952493816],[116.8919563293457,1.6589611910226552],[116.89109802246094,1.657845859442432],[116.8901538848877,1.6587896015896888],[116.8893814086914,1.6575884751423473],[116.88843727111816,1.6580174489572244],[116.88689231872559,1.6566447324225209],[116.88697814941406,1.6551862200622054],[116.88955307006836,1.6535561167428767],[116.89135551452637,1.653127141962571],[116.89204216003418,1.6520976021117377],[116.89152717590332,1.6508964716113752],[116.8904972076416,1.651239651828405],[116.88895225524902,1.6505532913351146],[116.88895225524902,1.6472930757580855],[116.88809394836426,1.6460919423579696],[116.88835144042969,1.6449766035527915],[116.88740730285645,1.641802174311323],[116.88835144042969,1.6406010376075528],[116.88963890075684,1.640944219596534],[116.88998222351074,1.6400004689851784],[116.89109802246094,1.639828877917111],[116.8934154510498,1.6412874015266254],[116.89547538757324,1.6410300150845814],[116.89676284790039,1.6419737652101105],[116.89779281616211,1.6412874015266254],[116.89908027648926,1.6413731969999503],[116.89985275268555,1.6400004689851784],[116.90028190612793,1.6407726286094118],[116.90105438232422,1.6400862645136982],[116.90225601196289,1.641115810568948],[116.90268516540527,1.6406010376075528],[116.90414428710938,1.6413731969999503],[116.90568923950195,1.640944219596534],[116.90732002258301,1.641630583397827],[116.90852165222168,1.6433464918698917],[116.91092491149902,1.6414589924695946],[116.9066333770752,1.6369976231710694],[116.90603256225586,1.6311635098818158],[116.90749168395996,1.629361795003149],[116.90508842468262,1.626273137176966],[116.90594673156738,1.6227554933399944],[116.90242767333984,1.618808861264995],[116.90088272094727,1.6110871676105347],[116.9014835357666,1.609285434874451],[116.90414428710938,1.6067115282049684],[116.9113540649414,1.6048239945857148],[116.91470146179199,1.6032796476013402],[116.91607475280762,1.6034512417682691],[116.91839218139648,1.604909791606218],[116.92216873168945,1.60542457365365],[116.92474365234375,1.6083416694725656],[116.92611694335938,1.6086848569419487],[116.92706108093262,1.6082558725961889],[116.92791938781738,1.6070547159484079],[116.92577362060547,1.604909791606218],[116.92517280578613,1.6014779079803958],[116.92646026611328,1.5988181942167756],[116.92543029785156,1.5942709336737977],[116.92706108093262,1.5927265787501739],[116.92628860473633,1.5900668536691143],[116.9278335571289,1.5878361138613855],[116.92585945129395,1.5830314353337087],[116.92585945129395,1.579513717206396],[116.92723274230957,1.5762533877704215],[116.92989349365234,1.574108431409286],[116.93229675292969,1.5703333028559854],[116.93770408630371,1.5657859798644438],[116.93899154663086,1.5603806585722708],[116.94233894348145,1.5552327206167433],[116.9468879699707,1.5518007550004285],[116.95263862609863,1.5464811972937156],[116.96310997009277,1.5394456327580315],[116.96783065795898,1.5373006389470731],[116.97332382202148,1.5365284406473876],[116.97452545166016,1.5359278417768394],[116.97813034057617,1.530951444647414],[116.98019027709961,1.527090438914442],[116.98448181152344,1.5222856220953247],[116.98448181152344,1.5203122120834394],[116.98173522949219,1.5113031434963773],[116.97735786437988,1.5016076279362522],[116.97589874267578,1.4916546645743267],[116.97967529296875,1.485562742354702],[116.98053359985352,1.4814442502062661],[116.98225021362305,1.479899813675587],[116.98199272155762,1.4772399482410776],[116.97898864746094,1.474322672812903],[116.97864532470703,1.471834405455823],[116.98370933532715,1.4669436649768102],[116.98465347290039,1.4617097027979753],[116.98765754699707,1.4581059840392356],[116.98765754699707,1.4571621519817626],[116.98611259460449,1.4546738655714933],[116.98619842529297,1.4514991513403999],[116.98817253112793,1.4473805965081112],[116.98731422424316,1.4442916754737638],[116.99006080627441,1.4437768548929313],[116.99100494384766,1.4445490857204675],[116.99460983276367,1.443948461766169],[116.99495315551758,1.4424898029308508],[116.99435234069824,1.4424039994408133],[116.99418067932129,1.441545964362561],[116.99538230895996,1.440516321841855],[116.99572563171387,1.43794221350511],[116.99443817138672,1.4369983730539957],[116.99538230895996,1.434939083443581],[116.99392318725586,1.4339952417523705],[116.99563980102539,1.4333088111869756],[116.99821472167969,1.4333088111869756],[116.9985580444336,1.4321075572025137],[116.99727058410645,1.4314211260715268],[116.99709892272949,1.4307346947350226],[116.99941635131836,1.4304772829308803],[117.00027465820312,1.4294476354255465],[117.0018196105957,1.4288470075008775],[117.00362205505371,1.426616102406129],[117.00593948364258,1.4257580614088425],[117.00654029846191,1.4241277826331071],[117.0058536529541,1.422325894223519],[117.00654029846191,1.4171776338777988],[117.00817108154297,1.413573844823972],[117.00851440429688,1.4107422923569715],[117.01220512390137,1.409283612468002],[117.01297760009766,1.4067952740787462],[117.01769828796387,1.406023030590518],[117.01992988586426,1.408597174557002],[117.02241897583008,1.4094552219141434],[117.02336311340332,1.4106564876829282],[117.02713966369629,1.4116861435625623],[117.02851295471191,1.4138312585134827],[117.02808380126953,1.415547349047202],[117.02962875366211,1.4174350471672312],[117.02997207641602,1.419322743748367],[117.03160285949707,1.4207814173239228],[117.0322036743164,1.4218968729661583],[117.03409194946289,1.421811068705125],[117.03495025634766,1.4222400899784162],[117.03658103942871,1.4209530259193315],[117.03924179077148,1.421124634501993],[117.04344749450684,1.4189795263027207],[117.04276084899902,1.4158905670015827],[117.04361915588379,1.414603499410731],[117.04911231994629,1.415375740050962],[117.05185890197754,1.4149467175047903],[117.05331802368164,1.4154615445506664],[117.05572128295898,1.4176066560109604],[117.05881118774414,1.4174350471672312],[117.0607852935791,1.4145176948792937],[117.06275939941406,1.4139170630703148],[117.06310272216797,1.4127157989861843],[117.0644760131836,1.412029362087793],[117.06361770629883,1.4109139016955652],[117.06147193908691,1.4106564876829282],[117.05812454223633,1.4076533220992218],[117.05546379089355,1.4062804451149873],[117.05709457397461,1.4019043943420542],[117.05692291259766,1.4006173190275177],[116.7132568359375,1.4006173190275177],[116.7132568359375,1.6713155909875042]]]}},{"type":"Feature","id":"pmtiles:10/844/507:landcover:188154643:0","properties":{"subclass":"wood","class":"wood","kind":"green","verification":"verified","source":"OpenMapTiles/OpenStreetMap national PMTiles","sourceId":"10/844/507:landcover:188154643:0","sourceLayer":"landcover","archive":"https://its.hanifahseptiani45.workers.dev/v1/map/archive/indonesia.pmtiles","updatedAt":"2026-07-26T09:40:27.417Z"},"geometry":{"type":"Polygon","coordinates":[[[117.07571983337402,1.7190165673776363],[117.0758056640625,1.7190165673776363],[117.0758056640625,1.701171735552876],[117.07529067993164,1.7004853925597985],[117.0758056640625,1.7004853925597985],[117.0758056640625,1.697997397164471],[117.07357406616211,1.6979116041626554],[117.07426071166992,1.7005711854472736],[117.07391738891602,1.7040886905481614],[117.0732307434082,1.7044318614337612],[117.0706558227539,1.7041744832752954],[117.06979751586914,1.7052039957027176],[117.06954002380371,1.7083783222190334],[117.06859588623047,1.7097510023318279],[117.06258773803711,1.7117242282739937],[117.06164360046387,1.7125821519633746],[117.06172943115234,1.713182698317425],[117.06473350524902,1.7141264136362366],[117.06799507141113,1.7136116598836253],[117.0714282989502,1.7173865175205094],[117.07228660583496,1.7193597355913113],[117.07314491271973,1.7197886957716406],[117.07571983337402,1.7190165673776363]]]}},{"type":"Feature","id":"pmtiles:10/844/507:landcover:188285423:0","properties":{"subclass":"wood","class":"wood","kind":"green","verification":"verified","source":"OpenMapTiles/OpenStreetMap national PMTiles","sourceId":"10/844/507:landcover:188285423:0","sourceLayer":"landcover","archive":"https://its.hanifahseptiani45.workers.dev/v1/map/archive/indonesia.pmtiles","updatedAt":"2026-07-26T09:40:27.417Z"},"geometry":{"type":"Polygon","coordinates":[[[116.72801971435547,1.7513598987315362],[116.72801971435547,1.7533330813547252],[116.72630310058594,1.753847824305737],[116.72853469848633,1.7551346810636375],[116.72930717468262,1.7546199384667318],[116.73068046569824,1.7547057289093715],[116.73128128051758,1.7566789080040337],[116.73316955566406,1.7574510209956173],[116.73368453979492,1.7581373433868066],[116.73316955566406,1.7601105188554556],[116.73625946044922,1.761054210732894],[116.7366886138916,1.7617405317981394],[116.73625946044922,1.7630273831138794],[116.86826705932617,1.7630273831138794],[116.86809539794922,1.7629415930538386],[116.86835289001465,1.762169482335537],[116.87015533447266,1.7615689515555317],[116.87152862548828,1.761654741678825],[116.87170028686523,1.7630273831138794],[116.89393043518066,1.7630273831138794],[116.89590454101562,1.7601963090458668],[116.8985652923584,1.7600247286610937],[116.89976692199707,1.7606252599387346],[116.89925193786621,1.7625984327741122],[116.89942359924316,1.7630273831138794],[116.90285682678223,1.7630273831138794],[116.90362930297852,1.761483161428302],[116.90474510192871,1.761054210732894],[116.90526008605957,1.7620836922359615],[116.90500259399414,1.7630273831138794],[116.91658973693848,1.7630273831138794],[116.91779136657715,1.762512642694304],[116.91839218139648,1.7617405317981394],[116.91847801208496,1.7547915193481174],[116.91804885864258,1.753762033823719],[116.91856384277344,1.7522178044753218],[116.92156791687012,1.753161500339587],[116.92440032958984,1.7529041287874207],[116.93487167358398,1.7560783754566103],[116.93804740905762,1.7542767766567238],[116.93942070007324,1.7550488906406656],[116.9425106048584,1.7553062618978004],[116.94354057312012,1.7544483575696006],[116.94534301757812,1.7541051957281297],[116.94740295410156,1.7544483575696006],[116.94860458374023,1.753161500339587],[116.95178031921387,1.7553062618978004],[116.95255279541016,1.7567646983521996],[116.95358276367188,1.7554778427162034],[116.95452690124512,1.7551346810636375],[116.95684432983398,1.7565931176519456],[116.95770263671875,1.7565073272958927],[116.9601058959961,1.7583947142184542],[116.96019172668457,1.7571078597054282],[116.96208000183105,1.7564215369359175],[116.96276664733887,1.7554778427162034],[116.96671485900879,1.7533330813547252],[116.96714401245117,1.7543625671151233],[116.96654319763184,1.7560783754566103],[116.96825981140137,1.758909455775239],[116.96903228759766,1.7590810362626286],[116.97160720825195,1.7563357465719918],[116.97426795959473,1.7564215369359175],[116.9765853881836,1.7535904528479307],[116.97744369506836,1.7549631002137431],[116.97881698608398,1.755735213914278],[116.9820785522461,1.7564215369359175],[116.98233604431152,1.755735213914278],[116.98079109191895,1.7515314799117192],[116.98156356811523,1.7509309457123265],[116.98396682739258,1.7506735738537031],[116.98456764221191,1.7515314799117192],[116.98422431945801,1.7554778427162034],[116.98508262634277,1.755992585076939],[116.98748588562012,1.7541051957281297],[116.99143409729004,1.7529041287874207],[116.9879150390625,1.7509309457123265],[116.98817253112793,1.749472504712898],[116.99006080627441,1.7484430162658384],[116.99134826660156,1.7489577605599607],[116.99563980102539,1.7487003884305494],[116.99615478515625,1.7464698284976379],[116.99392318725586,1.7458692926785488],[116.99503898620605,1.7433813565277632],[116.99357986450195,1.742437655748077],[116.99349403381348,1.7381481007939357],[116.9959831237793,1.7372901886328833],[116.9937515258789,1.7354027805073855],[116.99186325073242,1.7327432476791813],[116.99126243591309,1.7324858733362447],[116.99066162109375,1.7342017016284217],[116.98945999145508,1.7324858733362447],[116.98894500732422,1.7251935857740364],[116.98525428771973,1.7211613677005886],[116.98439598083496,1.7209897837634855],[116.9849967956543,1.719188151492176],[116.98336601257324,1.719188151492176],[116.98293685913086,1.7174723096529334],[116.9838809967041,1.7184160228552798],[116.98431015014648,1.7182444386713485],[116.9835376739502,1.7159280506802332],[116.98147773742676,1.7152417129587292],[116.98173522949219,1.7146411672504485],[116.98328018188477,1.7139548290674043],[116.98328018188477,1.712238982533691],[116.98061943054199,1.7112952662853331],[116.98104858398438,1.7103515495725503],[116.98190689086914,1.7109520966253058],[116.98233604431152,1.7105231344639407],[116.98113441467285,1.7091504549032237],[116.97898864746094,1.7093220399020055],[116.97916030883789,1.7087214923392224],[116.98027610778809,1.7085499072867947],[116.97941780090332,1.7081209445886572],[116.97967529296875,1.7068340559197281],[116.97847366333008,1.705718751709938],[116.97976112365723,1.7041744832752954],[116.97752952575684,1.7029733847477075],[116.97667121887207,1.7005711854472736],[116.97710037231445,1.7000564280651531],[116.97649955749512,1.6993700846754791],[116.97564125061035,1.69919849878994],[116.97512626647949,1.7000564280651531],[116.97461128234863,1.7000564280651531],[116.97461128234863,1.6985121550953721],[116.97349548339844,1.697825811157017],[116.97478294372559,1.6965389156158324],[116.97323799133301,1.6961099502451447],[116.97349548339844,1.6952520192185005],[116.97229385375977,1.6946514672736157],[116.97195053100586,1.6931929832036872],[116.97100639343262,1.6939651219657037],[116.9703197479248,1.6926782238581097],[116.96860313415527,1.6924208441340767],[116.96877479553223,1.6905333917809315],[116.96791648864746,1.689332284782438],[116.96800231933594,1.688045383602855],[116.96568489074707,1.6875306228924813],[116.96474075317383,1.6862437205205225],[116.96508407592773,1.6849568172976177],[116.96388244628906,1.685299991573558],[116.96319580078125,1.6848710237191966],[116.96293830871582,1.683412532307841],[116.96199417114258,1.683240945011221],[116.96165084838867,1.6819540398053618],[116.96070671081543,1.6816108649404242],[116.96105003356934,1.6803239586595566],[116.95984840393066,1.6791228453657254],[116.95993423461914,1.6780075252176516],[116.9593334197998,1.6780075252176516],[116.95890426635742,1.6769779983625739],[116.95804595947266,1.6772353801271436],[116.95770263671875,1.676120058902967],[116.95744514465332,1.6773211740411256],[116.95675849914551,1.6772353801271436],[116.9564151763916,1.6743183848143701],[116.95710182189941,1.673203061929513],[116.9564151763916,1.6717445618155153],[116.95469856262207,1.672087738410454],[116.95426940917969,1.6708008258701739],[116.9534969329834,1.671916150120481],[116.95289611816406,1.6716587676574193],[116.95272445678711,1.6698570894714067],[116.95332527160645,1.6678838209917615],[116.95143699645996,1.6683127925687984],[116.94748878479004,1.6669400831931114],[116.94714546203613,1.6659963449420871],[116.9480037689209,1.6652241951276778],[116.94697380065918,1.6643662505346697],[116.94611549377441,1.662221387419379],[116.94371223449707,1.6629077438699227],[116.94293975830078,1.6620497982694644],[116.94182395935059,1.6618782091046285],[116.94027900695801,1.6638514835996574],[116.93839073181152,1.6647094284166712],[116.93641662597656,1.6632509220057017],[116.93598747253418,1.6611060576784098],[116.93487167358398,1.6595617539207979],[116.93452835083008,1.6568163220413936],[116.93384170532227,1.657502680368225],[116.9318675994873,1.6569879116454018],[116.93083763122559,1.6551862200622054],[116.92955017089844,1.6569021168452451],[116.92886352539062,1.6567305272338189],[116.92826271057129,1.6554436046743604],[116.92826271057129,1.6535561167428767],[116.92697525024414,1.6524407821213174],[116.92774772644043,1.6517544220428562],[116.92706108093262,1.6510680617273152],[116.927490234375,1.6502101109995948],[116.92963600158691,1.6500385208096446],[116.92997932434082,1.649352159901781],[116.92963600158691,1.648665798757179],[116.9278335571289,1.6483226180961026],[116.92920684814453,1.646778304389528],[116.92877769470215,1.6448050129120304],[116.92740440368652,1.6448908082342513],[116.92740440368652,1.6466067139037932],[116.92611694335938,1.6461777376248392],[116.92534446716309,1.646692509148508],[116.92379951477051,1.64463342225649],[116.92302703857422,1.6451481941788018],[116.92319869995117,1.6463493281475081],[116.92191123962402,1.6483226180961026],[116.91976547241211,1.6448050129120304],[116.91933631896973,1.6488373890655055],[116.91693305969238,1.649952725709113],[116.91770553588867,1.6509822666711926],[116.91736221313477,1.6513254468734289],[116.9153881072998,1.6501243159064813],[116.91564559936523,1.6487515939131896],[116.91324234008789,1.6466067139037932],[116.91367149353027,1.6454055800901273],[116.91272735595703,1.6438612641240837],[116.91281318664551,1.6425743332398213],[116.91178321838379,1.6417163788564153],[116.91023826599121,1.6417163788564153],[116.90852165222168,1.6433464918698917],[116.90732002258301,1.641630583397827],[116.90568923950195,1.640944219596534],[116.90414428710938,1.6413731969999503],[116.90268516540527,1.6406010376075528],[116.90225601196289,1.641115810568948],[116.90105438232422,1.6400862645136982],[116.90028190612793,1.6407726286094118],[116.89985275268555,1.6400004689851784],[116.89908027648926,1.6413731969999503],[116.89779281616211,1.6412874015266254],[116.89676284790039,1.6419737652101105],[116.89547538757324,1.6410300150845814],[116.89375877380371,1.6413731969999503],[116.8916130065918,1.6400004689851784],[116.89032554626465,1.639828877917111],[116.88963890075684,1.640944219596534],[116.88835144042969,1.6406010376075528],[116.88740730285645,1.6420595606539763],[116.88835144042969,1.6449766035527915],[116.88809394836426,1.6460919423579696],[116.88895225524902,1.6472930757580855],[116.88895225524902,1.6505532913351146],[116.8904972076416,1.651239651828405],[116.89152717590332,1.6508964716113752],[116.89204216003418,1.6520976021117377],[116.89135551452637,1.653127141962571],[116.88955307006836,1.6535561167428767],[116.88697814941406,1.6551862200622054],[116.88672065734863,1.656301553140196],[116.88843727111816,1.6580174489572244],[116.8893814086914,1.6575884751423473],[116.89023971557617,1.6588753963080336],[116.89109802246094,1.657845859442432],[116.8919563293457,1.6589611910226552],[116.89530372619629,1.6607628791698943],[116.89702033996582,1.6652241951276778],[116.89805030822754,1.6702002663961366],[116.89719200134277,1.671487179329958],[116.89547538757324,1.6717445618155153],[116.8956470489502,1.673117267835167],[116.89427375793457,1.67500473704348],[116.89109802246094,1.6768064105007454],[116.88972473144531,1.6767206165641824],[116.88989639282227,1.6753479130678954],[116.8886947631836,1.67500473704348],[116.88981056213379,1.6720019442673504],[116.88689231872559,1.671487179329958],[116.88586235046387,1.6689991468974625],[116.88483238220215,1.6695139124867637],[116.88337326049805,1.66925652970896],[116.88148498535156,1.6704576490503626],[116.87959671020508,1.6702002663961366],[116.8777084350586,1.671229796810664],[116.87041282653809,1.6771495862093957],[116.86981201171875,1.6787796700033084],[116.86526298522949,1.6791228453657254],[116.86354637145996,1.680581339983604],[116.86131477355957,1.6807529275141064],[116.85813903808594,1.6777501435546753],[116.85556411743164,1.6728598855296326],[116.85333251953125,1.6720019442673504],[116.85238838195801,1.6728598855296326],[116.85161590576172,1.676120058902967],[116.84878349304199,1.6778359374460905],[116.84698104858398,1.6803239586595566],[116.8436336517334,1.6816108649404242],[116.84268951416016,1.684270468564364],[116.84337615966797,1.6885601441769467],[116.84268951416016,1.6912197383035874],[116.84045791625977,1.6925924306205502],[116.83616638183594,1.6919918778514216],[116.83427810668945,1.6912197383035874],[116.83281898498535,1.687616416353677],[116.82887077331543,1.6845278493676688],[116.82706832885742,1.6822114209144559],[116.82354927062988,1.6815250712147645],[116.8220043182373,1.6798091959097547],[116.81977272033691,1.6795518144840003],[116.81333541870117,1.6818682460947798],[116.81076049804688,1.6812676900151473],[116.8080997467041,1.681353483752119],[116.80535316467285,1.684270468564364],[116.8051815032959,1.685214198010243],[116.80397987365723,1.6843562621692456],[116.8008041381836,1.6840988813432887],[116.80020332336426,1.68255459567375],[116.79917335510254,1.681782452380432],[116.7945384979248,1.6819540398053618],[116.79428100585938,1.6859005464109202],[116.7905044555664,1.6879595901606024],[116.78895950317383,1.687616416353677],[116.78810119628906,1.6883027639069468],[116.78715705871582,1.6878737967145412],[116.78552627563477,1.688474350757403],[116.78441047668457,1.6903618051123601],[116.7817497253418,1.6919060845835077],[116.7788314819336,1.6924208441340767],[116.7751407623291,1.6913055316018557],[116.7733383178711,1.6917344980362827],[116.77282333374023,1.690790771755374],[116.7707633972168,1.6915629114738948],[116.76999092102051,1.6910481516956963],[116.76999092102051,1.6901902184285973],[116.7667293548584,1.690790771755374],[116.76535606384277,1.6905333917809315],[116.76346778869629,1.6909623583860451],[116.76175117492676,1.6934503628252031],[116.7601203918457,1.6937077424125562],[116.75763130187988,1.6919060845835077],[116.75969123840332,1.6907049784343542],[116.76183700561523,1.687187449009869],[116.7623519897461,1.685214198010243],[116.76218032836914,1.6827261830307663],[116.75505638122559,1.6828119767036185],[116.7520523071289,1.680495546212697],[116.75050735473633,1.6815250712147645],[116.74776077270508,1.681696658662318],[116.7473316192627,1.680238164877352],[116.74647331237793,1.6798949897108173],[116.74467086791992,1.6808387212737017],[116.74252510070801,1.680238164877352],[116.74192428588867,1.6789512576920487],[116.7403793334961,1.6786938761532895],[116.73952102661133,1.6774927618578488],[116.73728942871094,1.6798949897108173],[116.73540115356445,1.6798091959097547],[116.73428535461426,1.680667133750731],[116.73299789428711,1.6803239586595566],[116.72947883605957,1.6768064105007454],[116.7268180847168,1.6755195010575505],[116.72638893127441,1.6740610026664768],[116.72235488891602,1.6726882973071895],[116.71737670898438,1.6728598855296326],[116.71368598937988,1.6715729734955573],[116.7132568359375,1.671229796810664],[116.7132568359375,1.7013433212630105],[116.71420097351074,1.7003138067733659],[116.7161750793457,1.7014291141123437],[116.71935081481934,1.700228013874451],[116.71969413757324,1.7006569783309544],[116.71943664550781,1.702372835203164],[116.72123908996582,1.7016006997995703],[116.7227840423584,1.7025444208064044],[116.72286987304688,1.7030591775245085],[116.72089576721191,1.7036597268551787],[116.72115325927734,1.7042602759986067],[116.72553062438965,1.7064908854625287],[116.72553062438965,1.7070914337224394],[116.72415733337402,1.7081209445886572],[116.72784805297852,1.714555374991022],[116.72767639160156,1.7156706740635315],[116.72844886779785,1.7173007253842343],[116.72793388366699,1.7180728544720125],[116.72638893127441,1.717558101781492],[116.72553062438965,1.7181586465736132],[116.72604560852051,1.721247159663335],[116.72209739685059,1.723220373740915],[116.72106742858887,1.7261372951534497],[116.72329902648926,1.7282820874550993],[116.72664642333984,1.7348880325097866],[116.72553062438965,1.7366896498883335],[116.7282772064209,1.738577056728289],[116.72879219055176,1.7406360438558863],[116.73050880432129,1.741665536576619],[116.73179626464844,1.7432955655673368],[116.73171043395996,1.7443250568343558],[116.73068046569824,1.7447540113627156],[116.72741889953613,1.7439818931412674],[116.72510147094727,1.7482714348030868],[116.72527313232422,1.750587783226294],[116.72673225402832,1.750587783226294],[116.72801971435547,1.7513598987315362]]]}},{"type":"Feature","id":"pmtiles:10/844/507:landcover:13679279002:0","properties":{"subclass":"orchard","class":"farmland","kind":"green","verification":"verified","source":"OpenMapTiles/OpenStreetMap national PMTiles","sourceId":"10/844/507:landcover:13679279002:0","sourceLayer":"landcover","archive":"https://its.hanifahseptiani45.workers.dev/v1/map/archive/indonesia.pmtiles","updatedAt":"2026-07-26T09:40:27.417Z"},"geometry":{"type":"Polygon","coordinates":[[[116.99280738830566,1.6466067139037932],[116.99357986450195,1.6460919423579696],[116.99220657348633,1.6448050129120304],[116.99246406555176,1.6436038780135789],[116.99057579040527,1.6437754687576103],[116.98928833007812,1.642745924072301],[116.98911666870117,1.6432606964813061],[116.98997497558594,1.643432287254825],[116.98997497558594,1.6440328548459888],[116.98782920837402,1.6436038780135789],[116.98945999145508,1.6443760362455606],[116.98877334594727,1.6457487612536],[116.98731422424316,1.6448050129120304],[116.98740005493164,1.6441186502014205],[116.98697090148926,1.6447192175861005],[116.98748588562012,1.6455771706792461],[116.98654174804688,1.6448050129120304],[116.9867992401123,1.6460919423579696],[116.9875717163086,1.6459203518131602],[116.98843002319336,1.646778304389528],[116.98688507080078,1.6463493281475081],[116.98585510253906,1.646778304389528],[116.9864559173584,1.648665798757179],[116.98611259460449,1.6501243159064813],[116.98705673217773,1.651497036952307],[116.98662757873535,1.6492663647716483],[116.98765754699707,1.6489231842141265],[116.98808670043945,1.6522691921239385],[116.98971748352051,1.6508106765478772],[116.99014663696289,1.6511538567797146],[116.98988914489746,1.6527839620715952],[116.98894500732422,1.6534703217942308],[116.9879150390625,1.65304134699538],[116.98654174804688,1.6541566812795025],[116.98628425598145,1.6532129369260389],[116.98473930358887,1.6524407821213174],[116.98379516601562,1.6527839620715952],[116.98319435119629,1.6520118071000667],[116.9809627532959,1.651239651828405],[116.9813060760498,1.6526981670895964],[116.98396682739258,1.6538992965003558],[116.98379516601562,1.6545856558372378],[116.98225021362305,1.6551862200622054],[116.98190689086914,1.662221387419379],[116.98216438293457,1.6636798945914677],[116.98293685913086,1.6640230725929257],[116.98293685913086,1.6659963449420871],[116.98190689086914,1.666082139347239],[116.98156356811523,1.6671974662739615],[116.98079109191895,1.6671974662739615],[116.98147773742676,1.6689133526194837],[116.98285102844238,1.668484381173414],[116.98310852050781,1.6759484709659205],[116.98491096496582,1.6759484709659205],[116.98508262634277,1.6770637922878677],[116.98594093322754,1.6771495862093957],[116.98637008666992,1.6780075252176516],[116.98594093322754,1.6789512576920487],[116.99237823486328,1.6787796700033084],[116.99254989624023,1.6816108649404242],[117.00224876403809,1.6819540398053618],[117.00173377990723,1.683584119589355],[117.00199127197266,1.6909623583860451],[117.00413703918457,1.6920776711155412],[117.00508117675781,1.6909623583860451],[117.00885772705078,1.6899328383745598],[117.00851440429688,1.6845278493676688],[117.00997352600098,1.6823830083016418],[117.0095443725586,1.6810961025298639],[117.01048851013184,1.6800665773016163],[117.00980186462402,1.6787796700033084],[117.01005935668945,1.6772353801271436],[117.00885772705078,1.676120058902967],[117.00722694396973,1.6728598855296326],[117.00525283813477,1.6720019442673504],[117.00456619262695,1.6705434432609252],[117.00250625610352,1.668484381173414],[117.0032787322998,1.6673690549758646],[117.00465202331543,1.6678838209917615],[117.00602531433105,1.6675406436627895],[117.00654029846191,1.666768494453848],[117.00662612915039,1.6653099895664667],[117.00765609741211,1.6637656890974313],[117.00542449951172,1.6617924145166398],[117.00765609741211,1.6605054952493816],[117.00808525085449,1.6588753963080336],[117.00739860534668,1.6582748332015171],[117.00602531433105,1.6582748332015171],[117.00448036193848,1.6570737064418353],[117.00087547302246,1.6567305272338189],[116.99975967407227,1.6555293995376559],[117.0000171661377,1.6532129369260389],[117.00121879577637,1.6527839620715952],[117.00121879577637,1.6516686270163774],[116.99701309204102,1.6503817011747657],[116.99984550476074,1.6498669306048726],[117.00070381164551,1.6491805696378208],[116.99872970581055,1.646692509148508],[116.99761390686035,1.646778304389528],[116.99752807617188,1.6477220517969329],[116.99606895446777,1.6477220517969329],[116.99589729309082,1.6470356900904193],[116.99280738830566,1.6466067139037932]]]}},{"type":"Feature","id":"pmtiles:10/844/507:transportation:6181250910:0","properties":{"class":"trunk","highway":"trunk","kind":"road","verification":"verified","source":"OpenMapTiles/OpenStreetMap national PMTiles","sourceId":"10/844/507:transportation:6181250910:0","sourceLayer":"transportation","archive":"https://its.hanifahseptiani45.workers.dev/v1/map/archive/indonesia.pmtiles","updatedAt":"2026-07-26T09:40:27.418Z"},"geometry":{"type":"LineString","coordinates":[[117.0758056640625,1.680667133750731],[117.07451820373535,1.680238164877352],[117.07271575927734,1.6800665773016163],[117.07237243652344,1.6794660206678742],[117.07228660583496,1.677921731333754],[117.07159996032715,1.6771495862093957],[117.06851005554199,1.6765490286797728],[117.06730842590332,1.6760342649363196],[117.06542015075684,1.675776883013853],[117.06490516662598,1.67500473704348],[117.06473350524902,1.673632032344912],[117.06353187561035,1.672087738410454],[117.06181526184082,1.6729456796352338],[117.06087112426758,1.6741467967195263],[117.05992698669434,1.6741467967195263],[117.05803871154785,1.672087738410454],[117.05752372741699,1.669084941171704],[117.05426216125488,1.668226998260863],[117.05443382263184,1.6671974662739615],[117.0538330078125,1.666253728146316],[117.05460548400879,1.6638514835996574],[117.05400466918945,1.6623929765544005],[117.05434799194336,1.6601623166365727],[117.05409049987793,1.6595617539207979],[117.05443382263184,1.6581032437090215],[117.05434799194336,1.6562157583103385],[117.05503463745117,1.6549288354166407],[117.05477714538574,1.6542424761984762],[117.05477714538574,1.6515828319861896],[117.05142974853516,1.6483226180961026],[117.05014228820801,1.6484942084340162],[117.0479965209961,1.649952725709113],[117.04713821411133,1.6502101109995948],[117.04602241516113,1.649952725709113],[117.04379081726074,1.649952725709113],[117.04241752624512,1.6490947745002842],[117.04233169555664,1.6488373890655055],[117.04344749450684,1.6468640996268533],[117.04482078552246,1.6451481941788018],[117.04464912414551,1.643689673387442],[117.04490661621094,1.6428317194829987],[117.04464912414551,1.6400862645136982],[117.04361915588379,1.6385419444377476],[117.0413875579834,1.6370834188282117],[117.04070091247559,1.6341663644267044],[117.03898429870605,1.632536243944628],[117.03915596008301,1.6314208975899476],[117.03743934631348,1.6306487343667442],[117.03666687011719,1.6287612230187136],[117.0358943939209,1.6280748548172994],[117.03495025634766,1.6267021177134922],[117.03495025634766,1.6260157488112839],[117.03563690185547,1.624643010306741],[117.03563690185547,1.6222407156796095],[117.03606605529785,1.6215543452620267],[117.03632354736328,1.6200100109715407],[117.03726768493652,1.6179508967531575],[117.03778266906738,1.6175219143611201],[117.03915596008301,1.6175219143611201],[117.04035758972168,1.616578152779482],[117.04113006591797,1.614604831691338],[117.04130172729492,1.6130604921120266],[117.0425033569336,1.6106581837702265],[117.0425033569336,1.6091138411974981],[117.0417308807373,1.606883122083886],[117.04207420349121,1.6055103706489433],[117.04155921936035,1.6040518212392527],[117.04276084899902,1.6014779079803958],[117.0425033569336,1.6007057333721235],[117.04130172729492,1.5997619640115346],[117.04044342041016,1.5986465996620183],[117.04010009765625,1.5965874638865785],[117.04018592834473,1.5957294900378969],[117.04113006591797,1.5943567311356048],[117.04078674316406,1.593584553850718],[117.04104423522949,1.5916970081579933],[117.0425033569336,1.5898094607373565],[117.04327583312988,1.5896378654316834],[117.04413414001465,1.5900668536691143],[117.04473495483398,1.5890372817495404],[117.0457649230957,1.5890372817495404],[117.04662322998047,1.588350900184679],[117.0454216003418,1.5841468081284233],[117.0439624786377,1.5831172332622998],[117.04387664794922,1.5825166476875836],[117.04464912414551,1.581487072012024],[117.04473495483398,1.5805432938606998],[117.04507827758789,1.5798569094811938],[117.04679489135742,1.578398341921897],[117.04782485961914,1.5767681769684145],[117.04894065856934,1.5759959931236978],[117.04919815063477,1.5755670019751307],[117.04911231994629,1.5752238089926607],[117.04782485961914,1.5740226331089104],[117.04773902893066,1.573250448246796],[117.04696655273438,1.5723924647314362],[117.04679489135742,1.571277085634236],[117.04645156860352,1.5706764966428608],[117.04524993896484,1.5701617059414303],[117.04473495483398,1.5690463256534173],[117.04507827758789,1.5675877505333062],[117.04636573791504,1.5662149730213883],[117.04550743103027,1.564842194610165],[117.04533576965332,1.5632978178235533],[117.04439163208008,1.5615818422838004],[117.04464912414551,1.5608096528337256],[117.04627990722656,1.5587504795809224],[117.04507827758789,1.5553185196856845],[117.04507827758789,1.5548895243060628],[117.04593658447266,1.5540315332852828],[117.04524993896484,1.5525729477500931],[117.04533576965332,1.5508569634790916],[117.04636573791504,1.5496557736613994],[117.04748153686523,1.5471675925867316],[117.04679489135742,1.545537403403344],[117.04636573791504,1.5452800049967976],[117.04533576965332,1.545194205521014],[117.04464912414551,1.5445078095900016],[117.04456329345703,1.5439072129684916],[117.04499244689941,1.5428776183654378],[117.04670906066895,1.5413332255265715],[117.04816818237305,1.5393598330470013],[117.04928398132324,1.5387592349731847],[117.05005645751953,1.5387592349731847],[117.05074310302734,1.5383302362454572],[117.05168724060059,1.5385018357468994],[117.05228805541992,1.5379870372011908],[117.05254554748535,1.5366142404722467],[117.0523738861084,1.5350698430975598],[117.05082893371582,1.5343834439061936],[117.05065727233887,1.533611244552631],[117.05245971679688,1.5291496428363018],[117.05477714538574,1.5254602344102466],[117.05666542053223,1.5246880318454856],[117.05881118774414,1.5252028335861212],[117.05941200256348,1.5250312330195896],[117.05975532531738,1.5244306309289897],[117.05975532531738,1.523486827305291],[117.05924034118652,1.5228004244101356],[117.05941200256348,1.522199821697555],[117.06121444702148,1.521427617964136],[117.06258773803711,1.5203980125562566],[117.0633602142334,1.5203122120834394],[117.0644760131836,1.5195400076745642],[117.06653594970703,1.5160221840981762],[117.0673942565918,1.5162795860172622],[117.06808090209961,1.5161937853809775],[117.06833839416504,1.5158505828017894],[117.06833839416504,1.51499257611583],[117.07039833068848,1.5146493733462876],[117.07262992858887,1.5119895500401555],[117.0758056640625,1.5116463467953878]]}},{"type":"Feature","id":"pmtiles:10/844/507:transportation:6181250910:1","properties":{"class":"trunk","highway":"trunk","kind":"road","verification":"verified","source":"OpenMapTiles/OpenStreetMap national PMTiles","sourceId":"10/844/507:transportation:6181250910:1","sourceLayer":"transportation","archive":"https://its.hanifahseptiani45.workers.dev/v1/map/archive/indonesia.pmtiles","updatedAt":"2026-07-26T09:40:27.418Z"},"geometry":{"type":"LineString","coordinates":[[117.0758056640625,1.5028088445932468],[117.07563400268555,1.502379838720131],[117.07254409790039,1.502379838720131],[117.07220077514648,1.5009212181215474],[117.07082748413086,1.4999774042745173],[117.0688533782959,1.4990335900203888],[117.06730842590332,1.4966311519018376],[117.06670761108398,1.4952583289378651],[117.06576347351074,1.4944861156432552],[117.06430435180664,1.492255275711841],[117.06027030944824,1.4916546645743267],[117.0578670501709,1.4894238217715525],[117.05769538879395,1.4886516064288315],[117.05881118774414,1.4873645802566813],[117.05975532531738,1.4867639677860751],[117.06001281738281,1.4860775533338568],[117.06001281738281,1.4851337331137557],[117.06104278564453,1.4841041105957373],[117.0637035369873,1.4842757143820506],[117.06430435180664,1.4854769405131805],[117.06533432006836,1.4854769405131805],[117.06696510314941,1.4844473181550342],[117.06842422485352,1.4828170817741437],[117.0703125,1.4823022700359445],[117.07348823547363,1.4804146259720312],[117.07451820373535,1.4790417929159503],[117.0746898651123,1.4769825417396447],[117.0758056640625,1.475952915435684]]}},{"type":"Feature","id":"pmtiles:10/844/507:transportation_name:3849365300:0","properties":{"name":"Jalan Trans Kalimantan","name_int":"Jalan Trans Kalimantan","class":"trunk","name:latin":"Jalan Trans Kalimantan","name_de":"Jalan Trans Kalimantan","name_en":"Jalan Trans Kalimantan","highway":"trunk","kind":"road","verification":"verified","source":"OpenMapTiles/OpenStreetMap national PMTiles","sourceId":"10/844/507:transportation_name:3849365300:0","sourceLayer":"transportation_name","archive":"https://its.hanifahseptiani45.workers.dev/v1/map/archive/indonesia.pmtiles","updatedAt":"2026-07-26T09:40:27.418Z"},"geometry":{"type":"LineString","coordinates":[[117.08198547363281,1.6997990493226212],[117.08009719848633,1.6996274634751956],[117.07966804504395,1.69919849878994],[117.07932472229004,1.6968820878438748],[117.07932472229004,1.6937935356007472],[117.07829475402832,1.693364569621835],[117.07743644714355,1.6908765650725996],[117.07597732543945,1.6890749046147135],[117.07657814025879,1.6855573722408224],[117.07597732543945,1.6807529275141064],[117.07451820373535,1.680238164877352],[117.07271575927734,1.6800665773016163],[117.07237243652344,1.6794660206678742],[117.07228660583496,1.677921731333754],[117.07159996032715,1.6771495862093957],[117.06851005554199,1.6765490286797728],[117.06730842590332,1.6760342649363196],[117.06542015075684,1.675776883013853],[117.06490516662598,1.67500473704348],[117.06473350524902,1.673632032344912],[117.06353187561035,1.672087738410454],[117.06181526184082,1.6729456796352338],[117.06087112426758,1.6741467967195263],[117.05992698669434,1.6741467967195263],[117.05803871154785,1.672087738410454],[117.05752372741699,1.669084941171704],[117.05426216125488,1.668226998260863],[117.05443382263184,1.6671974662739615],[117.0538330078125,1.666253728146316],[117.05460548400879,1.6638514835996574],[117.05400466918945,1.6623929765544005],[117.05434799194336,1.6601623166365727],[117.05409049987793,1.6595617539207979],[117.05443382263184,1.6581032437090215],[117.05434799194336,1.6562157583103385],[117.05503463745117,1.6549288354166407],[117.05477714538574,1.6542424761984762],[117.05477714538574,1.6515828319861896],[117.05142974853516,1.6483226180961026],[117.05014228820801,1.6484942084340162],[117.0479965209961,1.649952725709113],[117.04713821411133,1.6502101109995948],[117.04602241516113,1.649952725709113],[117.04379081726074,1.649952725709113],[117.04241752624512,1.6490947745002842],[117.04233169555664,1.6488373890655055],[117.04344749450684,1.6468640996268533],[117.04482078552246,1.6451481941788018],[117.04464912414551,1.643689673387442],[117.04490661621094,1.6428317194829987],[117.04464912414551,1.6400862645136982],[117.04361915588379,1.6385419444377476],[117.0413875579834,1.6370834188282117],[117.04070091247559,1.6341663644267044],[117.03898429870605,1.632536243944628],[117.03915596008301,1.6314208975899476],[117.03743934631348,1.6306487343667442],[117.03666687011719,1.6287612230187136],[117.0358943939209,1.6280748548172994],[117.03495025634766,1.6267021177134922],[117.03495025634766,1.6260157488112839],[117.03563690185547,1.624643010306741],[117.03563690185547,1.6222407156796095],[117.03606605529785,1.6215543452620267],[117.03632354736328,1.6200100109715407],[117.03726768493652,1.6179508967531575],[117.03778266906738,1.6175219143611201],[117.03915596008301,1.6175219143611201],[117.04035758972168,1.616578152779482],[117.04113006591797,1.614604831691338],[117.04130172729492,1.6130604921120266],[117.0425033569336,1.6106581837702265],[117.0425033569336,1.6091138411974981],[117.0417308807373,1.606883122083886],[117.04207420349121,1.6055103706489433],[117.04155921936035,1.6040518212392527],[117.04276084899902,1.6014779079803958],[117.0425033569336,1.6007057333721235],[117.04130172729492,1.5997619640115346],[117.04044342041016,1.5986465996620183],[117.04010009765625,1.5965874638865785],[117.04018592834473,1.5957294900378969],[117.04113006591797,1.5943567311356048],[117.04078674316406,1.593584553850718],[117.04104423522949,1.5916970081579933],[117.0425033569336,1.5898094607373565],[117.04327583312988,1.5896378654316834],[117.04413414001465,1.5900668536691143],[117.04473495483398,1.5890372817495404],[117.0457649230957,1.5890372817495404],[117.04662322998047,1.588350900184679],[117.0454216003418,1.5841468081284233],[117.0439624786377,1.5831172332622998],[117.04387664794922,1.5825166476875836],[117.04464912414551,1.581487072012024],[117.04473495483398,1.5805432938606998],[117.04507827758789,1.5798569094811938],[117.04679489135742,1.578398341921897],[117.04782485961914,1.5767681769684145],[117.04894065856934,1.5759959931236978],[117.04919815063477,1.5755670019751307],[117.04911231994629,1.5752238089926607],[117.04782485961914,1.5740226331089104],[117.04773902893066,1.573250448246796],[117.04696655273438,1.5723924647314362],[117.04679489135742,1.571277085634236],[117.04645156860352,1.5706764966428608],[117.04524993896484,1.5701617059414303],[117.04473495483398,1.5690463256534173],[117.04507827758789,1.5675877505333062],[117.04636573791504,1.5662149730213883],[117.04550743103027,1.564842194610165],[117.04533576965332,1.5632978178235533],[117.04439163208008,1.5615818422838004],[117.04464912414551,1.5608096528337256],[117.04627990722656,1.5587504795809224],[117.04507827758789,1.5553185196856845],[117.04507827758789,1.5548895243060628],[117.04593658447266,1.5540315332852828],[117.04524993896484,1.5525729477500931],[117.04533576965332,1.5508569634790916],[117.04636573791504,1.5496557736613994],[117.04748153686523,1.5471675925867316],[117.04679489135742,1.545537403403344],[117.04636573791504,1.5452800049967976],[117.04533576965332,1.545194205521014],[117.04464912414551,1.5445078095900016],[117.04456329345703,1.5439072129684916],[117.04499244689941,1.5428776183654378],[117.04670906066895,1.5413332255265715],[117.04816818237305,1.5393598330470013],[117.04928398132324,1.5387592349731847],[117.05005645751953,1.5387592349731847],[117.05074310302734,1.5383302362454572],[117.05168724060059,1.5385018357468994],[117.05228805541992,1.5379870372011908],[117.05254554748535,1.5366142404722467],[117.0523738861084,1.5350698430975598],[117.05082893371582,1.5343834439061936],[117.05065727233887,1.533611244552631],[117.05245971679688,1.5291496428363018],[117.05477714538574,1.5254602344102466],[117.05666542053223,1.5246880318454856],[117.05881118774414,1.5252028335861212],[117.05941200256348,1.5250312330195896],[117.05975532531738,1.5244306309289897],[117.05975532531738,1.523486827305291],[117.05924034118652,1.5228004244101356],[117.05941200256348,1.522199821697555],[117.06121444702148,1.521427617964136],[117.06258773803711,1.5203980125562566],[117.0633602142334,1.5203122120834394],[117.0644760131836,1.5195400076745642],[117.06653594970703,1.5160221840981762],[117.0673942565918,1.5162795860172622],[117.06808090209961,1.5161937853809775],[117.06833839416504,1.5158505828017894],[117.06833839416504,1.51499257611583],[117.07039833068848,1.5146493733462876],[117.07262992858887,1.5119895500401555],[117.0758056640625,1.5116463467953878],[117.07709312438965,1.5104451350115653],[117.0787239074707,1.5101877324000696],[117.07923889160156,1.5094155243826037],[117.08035469055176,1.509243922563698],[117.081298828125,1.5081285104108275],[117.08044052124023,1.5069272966837701],[117.08035469055176,1.503924259468846],[117.07932472229004,1.5034952538149184],[117.07898139953613,1.5035810549524484],[117.07846641540527,1.5043532650384606],[117.07674980163574,1.5044390661422824],[117.07606315612793,1.5035810549524484],[117.07563400268555,1.502379838720131],[117.07254409790039,1.502379838720131],[117.07220077514648,1.5009212181215474],[117.07082748413086,1.4999774042745173],[117.0688533782959,1.4990335900203888],[117.06730842590332,1.4966311519018376],[117.06670761108398,1.4952583289378651],[117.06576347351074,1.4944861156432552],[117.06430435180664,1.492255275711841],[117.06027030944824,1.4916546645743267],[117.0578670501709,1.4894238217715525],[117.05769538879395,1.4886516064288315],[117.05881118774414,1.4873645802566813],[117.05975532531738,1.4867639677860751],[117.06001281738281,1.4860775533338568],[117.06001281738281,1.4851337331137557],[117.06104278564453,1.4841041105957373],[117.0637035369873,1.4842757143820506],[117.06430435180664,1.4854769405131805],[117.06533432006836,1.4854769405131805],[117.06696510314941,1.4844473181550342],[117.06842422485352,1.4828170817741437],[117.0703125,1.4823022700359445],[117.07348823547363,1.4804146259720312],[117.07451820373535,1.4790417929159503],[117.0746898651123,1.4769825417396447],[117.07563400268555,1.4762961242566632],[117.0761489868164,1.4752664976348484],[117.07717895507812,1.4747516841452324],[117.08035469055176,1.474923288655006],[117.08284378051758,1.472778231332157]]}},{"type":"Feature","id":"pmtiles:10/844/507:waterway:6156979372:1","properties":{"name_int":"Kelay River","name_de":"Sungai Kelay","name":"Sungai Kelay","name:en":"Kelay River","class":"river","name:latin":"Sungai Kelay","name_en":"Kelay River","waterway":"river","kind":"waterway","verification":"verified","source":"OpenMapTiles/OpenStreetMap national PMTiles","sourceId":"10/844/507:waterway:6156979372:1","sourceLayer":"waterway","archive":"https://its.hanifahseptiani45.workers.dev/v1/map/archive/indonesia.pmtiles","updatedAt":"2026-07-26T09:40:27.419Z"},"geometry":{"type":"LineString","coordinates":[[117.07666397094727,1.7199602798167746],[117.0758056640625,1.7193597355913113],[117.07348823547363,1.7201318638464755],[117.07202911376953,1.7195313196750135],[117.07039833068848,1.7170433489523305],[117.06825256347656,1.7143837904606585],[117.06679344177246,1.714212205914876],[117.06507682800293,1.7147269595060237],[117.06112861633301,1.7133542829554358],[117.0607852935791,1.7127537366551877],[117.06087112426758,1.7123247748968993],[117.06250190734863,1.7111236814629933],[117.06748008728027,1.7095794173714154],[117.06851005554199,1.7090646623980916],[117.06911087036133,1.7080351520375388],[117.06893920898438,1.7068340559197281],[117.0691967010498,1.7052897883801563],[117.06979751586914,1.7040886905481614],[117.07099914550781,1.7035739341051226],[117.07305908203125,1.7040886905481614],[117.07348823547363,1.7036597268551787],[117.07374572753906,1.702372835203164],[117.07340240478516,1.7016006997995703],[117.07365989685059,1.699884842240607],[117.07297325134277,1.6987695340094149],[117.0728874206543,1.697825811157017],[117.07340240478516,1.6974826390964495],[117.07400321960449,1.6973110530433217],[117.07898139953613,1.6977400181475844]]}},{"type":"Feature","id":"pmtiles:10/844/507:waterway:6181393132:0","properties":{"name":"Sunggai Langgi","name_int":"Sunggai Langgi","class":"river","name:latin":"Sunggai Langgi","name_de":"Sunggai Langgi","name_en":"Sunggai Langgi","waterway":"river","kind":"waterway","verification":"verified","source":"OpenMapTiles/OpenStreetMap national PMTiles","sourceId":"10/844/507:waterway:6181393132:0","sourceLayer":"waterway","archive":"https://its.hanifahseptiani45.workers.dev/v1/map/archive/indonesia.pmtiles","updatedAt":"2026-07-26T09:40:27.419Z"},"geometry":{"type":"LineString","coordinates":[[116.99435234069824,1.7255367528752714],[116.99460983276367,1.7262230868919914],[116.99735641479492,1.7272525874524547],[116.99735641479492,1.725965711664756],[116.99838638305664,1.7239067085931197],[116.99967384338379,1.7241640840989305],[116.99993133544922,1.7245072513858588],[117.0000171661377,1.7257941281605724],[117.00078964233398,1.7263946703574504],[117.00139045715332,1.7263946703574504],[117.00422286987305,1.724078292267535],[117.00465202331543,1.724078292267535],[117.00568199157715,1.7249362104074777],[117.00619697570801,1.7249362104074777],[117.00791358947754,1.722190870998844],[117.00834274291992,1.7221050790785597],[117.00920104980469,1.722448246736505],[117.0110034942627,1.7239925004322743],[117.01229095458984,1.7230487899891926],[117.01340675354004,1.7229629981075476],[117.01375007629395,1.7235635411979473],[117.01357841491699,1.7257941281605724],[117.01289176940918,1.728196295809525],[117.01314926147461,1.7285394623685448],[117.01409339904785,1.7288826288655628],[117.0150375366211,1.7285394623685448],[117.01529502868652,1.7280247125067518],[117.01512336730957,1.7260515034110284],[117.01563835144043,1.7244214595699248],[117.0157241821289,1.7231345818669723],[117.01641082763672,1.7221050790785597],[117.01752662658691,1.721847703294543],[117.0179557800293,1.722190870998844],[117.0182991027832,1.7228772062220372],[117.01761245727539,1.7235635411979473],[117.0179557800293,1.724078292267535],[117.01847076416016,1.7242498759264464],[117.02035903930664,1.7235635411979473],[117.02173233032227,1.722362454827831],[117.02130317687988,1.7201318638464755],[117.02181816101074,1.719188151492176],[117.0252513885498,1.7190165673776363],[117.02662467956543,1.719445527635088],[117.02679634094238,1.7207324078289048],[117.02756881713867,1.7206466158429947],[117.02791213989258,1.7201318638464755],[117.02851295471191,1.7173007253842343],[117.02877044677734,1.71687176464512],[117.02937126159668,1.7166143881554348],[117.02971458435059,1.7172149332441222],[117.02980041503906,1.7203034478607435],[117.02945709228516,1.721847703294543],[117.02971458435059,1.722190870998844],[117.03108787536621,1.7221050790785597],[117.03177452087402,1.7208181998109637],[117.03194618225098,1.7197886957716406],[117.03254699707031,1.719188151492176],[117.0344352722168,1.7191023594368318],[117.03778266906738,1.720217655855535],[117.03838348388672,1.7206466158429947],[117.03915596008301,1.7221050790785597],[117.03932762145996,1.7242498759264464],[117.03889846801758,1.7257083364026897],[117.03924179077148,1.7272525874524547],[117.04010009765625,1.7280247125067518],[117.04447746276855,1.728968420480129],[117.04791069030762,1.7306842519567596],[117.04876899719238,1.7307700434898408],[117.04919815063477,1.7305984604197988],[117.04936981201172,1.730255294233089],[117.0494556427002,1.7270810040644307],[117.04911231994629,1.7266520455266061],[117.04808235168457,1.7267378372419273],[117.0472240447998,1.7281105041600853],[117.04662322998047,1.7285394623685448],[117.04602241516113,1.728625253998615],[117.04550743103027,1.728367879096794],[117.04696655273438,1.7238209167501282],[117.04705238342285,1.7225340386413421],[117.04730987548828,1.722190870998844],[117.05022811889648,1.7206466158429947],[117.05022811889648,1.7199602798167746],[117.04730987548828,1.7188449832476635],[117.04567909240723,1.7187591911769005],[117.04361915588379,1.719188151492176],[117.04276084899902,1.7189307753145755],[117.0413875579834,1.717558101781492],[117.04155921936035,1.7167859724857237],[117.04216003417969,1.7165285959844994],[117.04293251037598,1.7166143881554348],[117.04439163208008,1.7173865175205094],[117.04473495483398,1.7173007253842343],[117.04524993896484,1.7165285959844994],[117.04559326171875,1.7149843362496853],[117.04670906066895,1.7149843362496853],[117.04773902893066,1.7160138428780982],[117.04851150512695,1.716271219448629],[117.0497989654541,1.7165285959844994],[117.05031394958496,1.7163570116311035],[117.05108642578125,1.715584881850262],[117.0512580871582,1.7130969059926713],[117.05160140991211,1.7118100206602094],[117.05203056335449,1.7111236814629933],[117.0523738861084,1.7109520966253058],[117.05340385437012,1.7112952662853331],[117.05469131469727,1.7130111136640522],[117.05520629882812,1.7130969059926713],[117.05666542053223,1.711037889046068],[117.05700874328613,1.7100083797437264],[117.05752372741699,1.7098367948063071],[117.06164360046387,1.7117242282739937]]}},{"type":"Feature","id":"pmtiles:10/844/507:waterway:7959781462:3","properties":{"name":"Sungai Langgi","name_int":"Sungai Langgi","class":"river","name:latin":"Sungai Langgi","name_de":"Sungai Langgi","name_en":"Sungai Langgi","waterway":"river","kind":"waterway","verification":"verified","source":"OpenMapTiles/OpenStreetMap national PMTiles","sourceId":"10/844/507:waterway:7959781462:3","sourceLayer":"waterway","archive":"https://its.hanifahseptiani45.workers.dev/v1/map/archive/indonesia.pmtiles","updatedAt":"2026-07-26T09:40:27.420Z"},"geometry":{"type":"LineString","coordinates":[[116.91564559936523,1.7635421233911046],[116.91787719726562,1.7626842228499697],[116.91847801208496,1.7618263219135173],[116.91882133483887,1.7607110501054706],[116.91864967346191,1.7547915193481174],[116.91822052001953,1.753676243337793],[116.91822052001953,1.7526467571998552],[116.91856384277344,1.7523893855769188],[116.92156791687012,1.7532472908491314],[116.92294120788574,1.7533330813547252],[116.92371368408203,1.7529041287874207],[116.92431449890137,1.752989919308746],[116.9249153137207,1.7535046623541177],[116.9278335571289,1.75393361478379],[116.92843437194824,1.7544483575696006],[116.93212509155273,1.7550488906406656],[116.93341255187988,1.7558210043057727],[116.93487167358398,1.7562499562041438],[116.9359016418457,1.755906794693317],[116.93804740905762,1.7544483575696006],[116.9384765625,1.7544483575696006],[116.93933486938477,1.7552204714826871],[116.94148063659668,1.7550488906406656],[116.94216728210449,1.7555636331195075],[116.94259643554688,1.7554778427162034],[116.9436264038086,1.7546199384667318],[116.94534301757812,1.7542767766567238],[116.94671630859375,1.7546199384667318],[116.94748878479004,1.7545341480201273],[116.94808959960938,1.7535904528479307],[116.94860458374023,1.7532472908491314],[116.9491195678711,1.7534188718563968],[116.95040702819824,1.7547915193481174],[116.95160865783691,1.755392052308963],[116.95246696472168,1.7569362790366938],[116.95289611816406,1.7569362790366938],[116.95366859436035,1.7555636331195075],[116.95418357849121,1.7552204714826871],[116.95675849914551,1.7566789080040337],[116.95770263671875,1.7566789080040337],[116.95881843566895,1.7574510209956173],[116.95924758911133,1.7581373433868066],[116.9601058959961,1.7586520850145888],[116.96036338806152,1.7572794403584169],[116.96216583251953,1.7565073272958927],[116.96293830871582,1.7555636331195075],[116.96551322937012,1.7541051957281297],[116.96602821350098,1.7535904528479307],[116.96662902832031,1.7535046623541177],[116.96688652038574,1.7535904528479307],[116.96697235107422,1.7543625671151233],[116.96637153625488,1.7561641658323452],[116.96817398071289,1.7589952460209162],[116.96903228759766,1.7592526167342157],[116.97169303894043,1.7565073272958927],[116.97220802307129,1.7563357465719918],[116.97392463684082,1.7568504886964007],[116.97564125061035,1.755392052308963],[116.97607040405273,1.7540194052579352],[116.97649955749512,1.753762033823719],[116.97710037231445,1.7544483575696006],[116.9772720336914,1.7550488906406656],[116.97821617126465,1.755392052308963],[116.97830200195312,1.7556494235188609],[116.97881698608398,1.755906794693317],[116.98216438293457,1.7565073272958927],[116.98250770568848,1.755735213914278],[116.98104858398438,1.752475176121834],[116.9809627532959,1.7515314799117192],[116.98156356811523,1.7511025269317884],[116.98250770568848,1.751188317535636],[116.98396682739258,1.7508451550967266],[116.98439598083496,1.7515314799117192],[116.98413848876953,1.7523893855769188],[116.98431015014648,1.753161500339587],[116.98405265808105,1.7554778427162034],[116.98473930358887,1.7562499562041438],[116.98516845703125,1.7561641658323452],[116.98688507080078,1.7551346810636375],[116.9875717163086,1.7541909861943878],[116.99074745178223,1.7535904528479307],[116.99151992797852,1.752989919308746],[116.99151992797852,1.7526467571998552],[116.99109077453613,1.7523035950280814],[116.98808670043945,1.7508451550967266],[116.9882583618164,1.7495582953913242],[116.99014663696289,1.748528806991331],[116.99091911315918,1.7486145977129013],[116.99126243591309,1.7490435512619342],[116.99409484863281,1.7491293419599714],[116.99581146240234,1.7487861791442896],[116.9963264465332,1.746384037678098],[116.99435234069824,1.7461266651959306],[116.99409484863281,1.745783501831582],[116.99512481689453,1.74312398363476],[116.9937515258789,1.7423518647446485],[116.99357986450195,1.7398639239463876],[116.99366569519043,1.7382338919885996],[116.99392318725586,1.7379765183929123],[116.99529647827148,1.7378049359762855],[116.9963264465332,1.7372901886328833],[116.99512481689453,1.7366896498883335],[116.99383735656738,1.7353169891841844],[116.99289321899414,1.7336869533040584],[116.9919490814209,1.7326574562354011],[116.99117660522461,1.7323142904215132],[116.99091911315918,1.7337727447011702],[116.99066162109375,1.7340301188691853],[116.98963165283203,1.7324858733362447],[116.98963165283203,1.7310274180658212],[116.98894500732422,1.7275957541820048],[116.98920249938965,1.7263088786266678],[116.98911666870117,1.7251077939890536],[116.98843002319336,1.724078292267535],[116.98559761047363,1.7213329516222302],[116.9853401184082,1.7206466158429947],[116.98568344116211,1.720217655855535],[116.98722839355469,1.720560823853205],[116.98748588562012,1.7208181998109637],[116.98748588562012,1.7220192871544242],[116.9882583618164,1.7221050790785597],[116.98988914489746,1.7210755757339626],[116.99057579040527,1.721247159663335],[116.99100494384766,1.721847703294543],[116.99143409729004,1.721847703294543],[116.9937515258789,1.7188449832476635],[116.99400901794434,1.7179012702572578],[116.99435234069824,1.717558101781492],[116.99512481689453,1.7173007253842343],[116.99555397033691,1.7174723096529334],[116.99615478515625,1.7181586465736132],[116.9959831237793,1.7190165673776363],[116.99357986450195,1.7206466158429947],[116.99297904968262,1.722276662915263],[116.99315071105957,1.7243356677501112],[116.99435234069824,1.7255367528752714]]}},{"type":"Feature","id":"pmtiles:10/844/507:waterway:12449547542:0","properties":{"name":"Sungai Wahau","name_int":"Sungai Wahau","class":"river","name:latin":"Sungai Wahau","name_de":"Sungai Wahau","name_en":"Sungai Wahau","waterway":"river","kind":"waterway","verification":"verified","source":"OpenMapTiles/OpenStreetMap national PMTiles","sourceId":"10/844/507:waterway:12449547542:0","sourceLayer":"waterway","archive":"https://its.hanifahseptiani45.workers.dev/v1/map/archive/indonesia.pmtiles","updatedAt":"2026-07-26T09:40:27.420Z"},"geometry":{"type":"LineString","coordinates":[[116.71308517456055,1.4593930271161355],[116.71342849731445,1.459736238478925],[116.71385765075684,1.4598220413114404],[116.71445846557617,1.4595646328040743],[116.71497344970703,1.458792407105193],[116.71531677246094,1.4575053636847883],[116.7172908782959,1.456046713585792],[116.71806335449219,1.4549312746378291],[116.71789169311523,1.4537300320770612],[116.71737670898438,1.4524429857670356],[116.71746253967285,1.45132754503868],[116.71900749206543,1.450212103760137],[116.72244071960449,1.4495256780846972],[116.72407150268555,1.448581842441186],[116.72518730163574,1.447294793202829],[116.72475814819336,1.4453213162855292],[116.72492980957031,1.4448922993373543],[116.72887802124023,1.4438626583311702],[116.73042297363281,1.4430904272704623],[116.73042297363281,1.442575606417634],[116.72982215881348,1.4423181959475357],[116.72870635986328,1.440602125403018],[116.72887802124023,1.4398298932362081],[116.73016548156738,1.4393150716462912],[116.7323112487793,1.4395724824557874],[116.73274040222168,1.4392292680366836],[116.73196792602539,1.4381996244695046],[116.73222541809082,1.4371699804377727],[116.73213958740234,1.436311943390038],[116.73248291015625,1.4351964947463358],[116.73316955566406,1.4340810455585427],[116.7323112487793,1.4325365765549947],[116.73205375671387,1.4304772829308803],[116.73076629638672,1.4307346947350226],[116.72965049743652,1.4313353221656797],[116.72759056091309,1.4315927338735293],[116.72690391540527,1.432021753322374],[116.72613143920898,1.432021753322374],[116.72587394714355,1.4317643416627135],[116.72656059265137,1.4308204986633086],[116.72784805297852,1.4303056750454033],[116.72999382019043,1.4288470075008775],[116.73179626464844,1.4255006490472937],[116.73171043395996,1.4250716283807634],[116.73093795776367,1.4242993909796269],[116.72793388366699,1.4230981322857303],[116.72733306884766,1.4226691111719703],[116.72724723815918,1.4222400899784162],[116.72759056091309,1.4216394601734663],[116.72844886779785,1.4212962430719074],[116.73110961914062,1.4216394601734663],[116.7323112487793,1.422325894223519],[116.73325538635254,1.421811068705125],[116.73385620117188,1.4208672216232259],[116.73402786254883,1.4190653306689],[116.73239707946777,1.4159763714822304],[116.73239707946777,1.4152899355480884],[116.73316955566406,1.4148609129860574],[116.73583030700684,1.4147751084640987],[116.73643112182617,1.414346085806855],[116.7366886138916,1.4134880402544638],[116.73617362976074,1.412029362087793],[116.73591613769531,1.4116861435625623],[116.73462867736816,1.4111713156797379],[116.73437118530273,1.4105706830057159],[116.73454284667969,1.4095410266324677],[116.73574447631836,1.4067952740787462],[116.73531532287598,1.4063662499501532],[116.73222541809082,1.404735957542485],[116.73162460327148,1.4039637133733152],[116.73171043395996,1.4035346887246334],[116.73256874084473,1.403019859042331],[116.73437118530273,1.4029340540842696],[116.7348861694336,1.402676639191185],[116.73548698425293,1.4012179542623215],[116.73505783081055,1.4003599038797603]]}},{"type":"Feature","id":"pmtiles:10/845/507:transportation_name:3849365300:1","properties":{"name":"Jalan Trans Kalimantan","name_int":"Jalan Trans Kalimantan","class":"trunk","name:latin":"Jalan Trans Kalimantan","name_de":"Jalan Trans Kalimantan","name_en":"Jalan Trans Kalimantan","highway":"trunk","kind":"road","verification":"verified","source":"OpenMapTiles/OpenStreetMap national PMTiles","sourceId":"10/845/507:transportation_name:3849365300:1","sourceLayer":"transportation_name","archive":"https://its.hanifahseptiani45.workers.dev/v1/map/archive/indonesia.pmtiles","updatedAt":"2026-07-26T09:40:27.614Z"},"geometry":{"type":"LineString","coordinates":[[117.05881118774414,1.5252028335861212],[117.05941200256348,1.5250312330195896],[117.05975532531738,1.5244306309289897],[117.05975532531738,1.523486827305291],[117.05924034118652,1.5228004244101356],[117.05941200256348,1.522199821697555],[117.06121444702148,1.521427617964136],[117.06258773803711,1.5203980125562566],[117.0633602142334,1.5203122120834394],[117.0644760131836,1.5195400076745642],[117.06653594970703,1.5160221840981762],[117.0673942565918,1.5162795860172622],[117.06808090209961,1.5161937853809775],[117.06833839416504,1.5158505828017894],[117.06833839416504,1.51499257611583],[117.07039833068848,1.5146493733462876],[117.07262992858887,1.5119895500401555],[117.0758056640625,1.5116463467953878],[117.07709312438965,1.5104451350115653],[117.0787239074707,1.5101877324000696],[117.07923889160156,1.5094155243826037],[117.08035469055176,1.509243922563698],[117.081298828125,1.5081285104108275],[117.08044052124023,1.5069272966837701],[117.08035469055176,1.503924259468846],[117.07932472229004,1.5034952538149184],[117.07898139953613,1.5035810549524484],[117.07846641540527,1.5043532650384606],[117.07674980163574,1.5044390661422824],[117.07606315612793,1.5035810549524484],[117.07563400268555,1.502379838720131],[117.07254409790039,1.502379838720131],[117.07220077514648,1.5009212181215474],[117.07082748413086,1.4999774042745173],[117.0688533782959,1.4990335900203888],[117.06730842590332,1.4966311519018376],[117.06670761108398,1.4952583289378651],[117.06576347351074,1.4944861156432552],[117.06430435180664,1.492255275711841],[117.06027030944824,1.4916546645743267],[117.0578670501709,1.4894238217715525]]}},{"type":"Feature","id":"pmtiles:8/211/126:landcover:13679279002:0","properties":{"subclass":"orchard","class":"farmland","kind":"green","verification":"verified","source":"OpenMapTiles/OpenStreetMap national PMTiles","sourceId":"8/211/126:landcover:13679279002:0","sourceLayer":"landcover","archive":"https://its.hanifahseptiani45.workers.dev/v1/map/archive/indonesia.pmtiles","updatedAt":"2026-07-26T09:35:24.124Z"},"geometry":{"type":"Polygon","coordinates":[[[116.99272155761719,1.646692509148508],[116.99237823486328,1.6436038780135789],[116.98928833007812,1.6425743332398213],[116.98860168457031,1.6456629659682562],[116.98654174804688,1.6449766035527915],[116.9882583618164,1.646692509148508],[116.98585510253906,1.646692509148508],[116.98619842529297,1.6501243159064813],[116.98722839355469,1.651497036952307],[116.9875717163086,1.6487515939131896],[116.9882583618164,1.6521833971196855],[116.98997497558594,1.6511538567797146],[116.98894500732422,1.6535561167428767],[116.98104858398438,1.6511538567797146],[116.98413848876953,1.6538992965003558],[116.982421875,1.6552720149366422],[116.98310852050781,1.6659105505332121],[116.98070526123047,1.6672832606267889],[116.9827651977539,1.6683127925687984],[116.98310852050781,1.6758626769917555],[116.98585510253906,1.6789512576920487],[116.99237823486328,1.6786080822995189],[116.99272155761719,1.681696658662318],[117.00233459472656,1.6820398335121638],[117.00199127197266,1.6909623583860451],[117.0040512084961,1.6919918778514216],[117.00885772705078,1.6899328383745598],[117.01057434082031,1.6799807835080998],[117.00714111328125,1.672774091420294],[117.00233459472656,1.6686559697630798],[117.00645446777344,1.6669400831931114],[117.00748443603516,1.6638514835996574],[117.00542449951172,1.6617924145166398],[117.00817108154297,1.6590469857335393],[116.99958801269531,1.6556151943972282],[117.00130462646484,1.65184021706564],[116.99684143066406,1.6504674962567947],[117.00061798095703,1.6490947745002842],[116.9989013671875,1.646692509148508],[116.99272155761719,1.646692509148508]]]}},{"type":"Feature","id":"pmtiles:8/211/126:landcover:187998880:4","properties":{"subclass":"wood","class":"wood","kind":"green","verification":"verified","source":"OpenMapTiles/OpenStreetMap national PMTiles","sourceId":"8/211/126:landcover:187998880:4","sourceLayer":"landcover","archive":"https://its.hanifahseptiani45.workers.dev/v1/map/archive/indonesia.pmtiles","updatedAt":"2026-07-26T09:35:24.125Z"},"geometry":{"type":"Polygon","coordinates":[[[116.72801971435547,1.7513598987315362],[116.72630310058594,1.753762033823719],[116.73076629638672,1.7547915193481174],[116.73316955566406,1.7602820992323558],[116.73625946044922,1.7609684205819605],[116.73591613769531,1.765772662946631],[116.74243927001953,1.766115822640728],[116.74175262451172,1.7709200516983685],[116.7458724975586,1.7719495277343356],[116.74484252929688,1.7757242683011754],[116.74758911132812,1.7746947943650326],[116.74724578857422,1.778812686667493],[116.75102233886719,1.7839600391179147],[116.75548553466797,1.7794990011582286],[116.75994873046875,1.782244256566031],[116.76029205322266,1.7849895078809794],[116.76200866699219,1.7839600391179147],[116.75891876220703,1.7908231533069312],[116.76578521728516,1.7887642217446],[116.76509857177734,1.7928820825559626],[116.77024841308594,1.792538927841889],[116.7678451538086,1.7959704720862675],[116.77539825439453,1.7969999341034963],[116.773681640625,1.7994020098863501],[116.77505493164062,1.8007746231992314],[116.78844451904297,1.7990588563966838],[116.78878784179688,1.8007746231992314],[116.79222106933594,1.7994020098863501],[116.79393768310547,1.8014609294680355],[116.79462432861328,1.7994020098863501],[116.79153442382812,1.7959704720862675],[116.79393768310547,1.7928820825559626],[116.79634094238281,1.794597855161129],[116.79634094238281,1.7918526182207728],[116.79943084716797,1.7897936878147647],[116.795654296875,1.7894505325222525],[116.79977416992188,1.7884210662594882],[116.79908752441406,1.7856758200694713],[116.80252075195312,1.7873915994191947],[116.8062973022461,1.7863621320016705],[116.80870056152344,1.7908231533069312],[116.81041717529297,1.7870484436774632],[116.80870056152344,1.7870484436774632],[116.80835723876953,1.7843031954362942],[116.81007385253906,1.7839600391179147],[116.80904388427734,1.7798421583078152],[116.81282043457031,1.7853326640072567],[116.82174682617188,1.791509463313787],[116.82380676269531,1.7880779107102285],[116.82758331298828,1.7897936878147647],[116.82758331298828,1.7870484436774632],[116.83479309082031,1.7856758200694713],[116.83341979980469,1.7843031954362942],[116.83513641357422,1.78327372628911],[116.83822631835938,1.7836168827355152],[116.83650970458984,1.7856758200694713],[116.83822631835938,1.7884210662594882],[116.839599609375,1.7853326640072567],[116.84131622314453,1.7853326640072567],[116.84131622314453,1.7884210662594882],[116.84268951416016,1.7849895078809794],[116.8505859375,1.782244256566031],[116.85848236083984,1.7846463516906539],[116.85710906982422,1.7825874132043538],[116.85882568359375,1.7798421583078152],[116.86397552490234,1.7791558439447783],[116.86397552490234,1.7722926862858372],[116.87084197998047,1.7729790031980457],[116.8670654296875,1.7705768928926204],[116.87118530273438,1.7647431834842138],[116.86809539794922,1.7630273831138794],[116.87015533447266,1.761654741678825],[116.87358856201172,1.765772662946631],[116.87564849853516,1.7640568635259655],[116.8780517578125,1.7678316201603934],[116.88182830810547,1.7654295031891678],[116.88182830810547,1.7678316201603934],[116.88491821289062,1.7681747794740659],[116.89041137695312,1.766115822640728],[116.89590454101562,1.7602820992323558],[116.8996810913086,1.7606252599387346],[116.90174102783203,1.7644000235367514],[116.90483093261719,1.7609684205819605],[116.90448760986328,1.7644000235367514],[116.90723419189453,1.7681747794740659],[116.90757751464844,1.7644000235367514],[116.9106674194336,1.765772662946631],[116.91822052001953,1.761654741678825],[116.91856384277344,1.7520462233579792],[116.93470001220703,1.7561641658323452],[116.94843292236328,1.7530757098261347],[116.95255279541016,1.7568504886964007],[116.9546127319336,1.7551346810636375],[116.9601058959961,1.7585662947531517],[116.96662902832031,1.7534188718563968],[116.96903228759766,1.7592526167342157],[116.9765853881836,1.753762033823719],[116.9820785522461,1.7565073272958927],[116.98070526123047,1.7513598987315362],[116.98413848876953,1.7506735738537031],[116.98516845703125,1.7561641658323452],[116.99134826660156,1.7530757098261347],[116.9882583618164,1.749644086065814],[116.99581146240234,1.7486145977129013],[116.993408203125,1.738319683179384],[116.99615478515625,1.7372901886328833],[116.98928833007812,1.7324858733362447],[116.98894500732422,1.7252793775551538],[116.98139190673828,1.7153275051873749],[116.98345184326172,1.712238982533691],[116.98070526123047,1.7112094738760817],[116.982421875,1.7105231344639407],[116.98104858398438,1.7091504549032237],[116.97898864746094,1.7091504549032237],[116.97967529296875,1.7043460687180954],[116.9765853881836,1.69919849878994],[116.97452545166016,1.699884842240607],[116.97486877441406,1.6964531225493005],[116.97212219238281,1.693364569621835],[116.96868896484375,1.69233505088512],[116.96800231933594,1.6878737967145412],[116.96319580078125,1.684785230136967],[116.9601058959961,1.677921731333754],[116.95667266845703,1.6772353801271436],[116.95701599121094,1.673117267835167],[116.95289611816406,1.6717445618155153],[116.95323944091797,1.6679696153146466],[116.94740295410156,1.6669400831931114],[116.94602966308594,1.6621355928462833],[116.94190979003906,1.6617924145166398],[116.9384765625,1.66488101733529],[116.93435668945312,1.6566447324225209],[116.93092346191406,1.6552720149366422],[116.92886352539062,1.6566447324225209],[116.9271469116211,1.6525265771144433],[116.92989349365234,1.6494379550282048],[116.9278335571289,1.6484084132669068],[116.92886352539062,1.64463342225649],[116.92543029785156,1.646692509148508],[116.92371368408203,1.64463342225649],[116.9219970703125,1.6484084132669068],[116.91959381103516,1.64463342225649],[116.91719055175781,1.6511538567797146],[116.91169738769531,1.6415447879355582],[116.90860748291016,1.6432606964813061],[116.9058609008789,1.640858424104806],[116.8996810913086,1.639828877917111],[116.89693450927734,1.6418879697625641],[116.89041137695312,1.639828877917111],[116.88732147216797,1.6422311515306518],[116.8890380859375,1.6504674962567947],[116.89212799072266,1.6521833971196855],[116.88663482666016,1.656301553140196],[116.89521789550781,1.6607628791698943],[116.89796447753906,1.6703718548360342],[116.8941879272461,1.674833149008748],[116.88972473144531,1.6768922044335426],[116.88972473144531,1.672087738410454],[116.8832015991211,1.669342323971975],[116.8777084350586,1.6710582084457144],[116.86981201171875,1.6786080822995189],[116.8612289428711,1.680667133750731],[116.85333251953125,1.672087738410454],[116.85161590576172,1.6762058528658628],[116.84371948242188,1.681696658662318],[116.84268951416016,1.6913055316018557],[116.84062957763672,1.6926782238581097],[116.8344497680664,1.6913055316018557],[116.82723999023438,1.6823830083016418],[116.81968688964844,1.6796376082963462],[116.80801391601562,1.681353483752119],[116.80526733398438,1.685128404443148],[116.79908752441406,1.681696658662318],[116.79462432861328,1.6820398335121638],[116.79428100585938,1.685814752874066],[116.78535461425781,1.6885601441769467],[116.78192138671875,1.6919918778514216],[116.76544189453125,1.69061918510954],[116.76029205322266,1.6937077424125562],[116.7575454711914,1.6919918778514216],[116.76200866699219,1.687187449009869],[116.76200866699219,1.6827261830307663],[116.75514221191406,1.6827261830307663],[116.7520523071289,1.680667133750731],[116.74758911132812,1.681696658662318],[116.73934936523438,1.6775785557605474],[116.73282623291016,1.6803239586595566],[116.72630310058594,1.6741467967195263],[116.7136001586914,1.6714013851606069],[116.71119689941406,1.6672832606267889],[116.70536041259766,1.6645378394831454],[116.69918060302734,1.6655673728603375],[116.69677734375,1.663165127477356],[116.69677734375,1.6895896649160846],[116.7022705078125,1.6902760117723687],[116.7022705078125,1.6974826390964495],[116.70467376708984,1.7012575284098546],[116.71943664550781,1.700228013874451],[116.71943664550781,1.7022870423958096],[116.72286987304688,1.7026302136023048],[116.72115325927734,1.7043460687180954],[116.72561645507812,1.7064050928386507],[116.7242431640625,1.7081209445886572],[116.72836303710938,1.7173865175205094],[116.72561645507812,1.7180728544720125],[116.72595977783203,1.7211613677005886],[116.72218322753906,1.723220373740915],[116.72115325927734,1.725965711664756],[116.72664642333984,1.7348880325097866],[116.72561645507812,1.7366038586235106],[116.73179626464844,1.7434671474842816],[116.72733306884766,1.7438103112712326],[116.72492980957031,1.7482714348030868],[116.72527313232422,1.7506735738537031],[116.72801971435547,1.7513598987315362]]]}},{"type":"Feature","id":"pmtiles:8/211/126:landcover:188041470:2","properties":{"subclass":"wood","class":"wood","kind":"green","verification":"verified","source":"OpenMapTiles/OpenStreetMap national PMTiles","sourceId":"8/211/126:landcover:188041470:2","sourceLayer":"landcover","archive":"https://its.hanifahseptiani45.workers.dev/v1/map/archive/indonesia.pmtiles","updatedAt":"2026-07-26T09:35:24.126Z"},"geometry":{"type":"Polygon","coordinates":[[[116.69677734375,1.6635083055683566],[116.69849395751953,1.6652241951276778],[116.70433044433594,1.6641946615712584],[116.71119689941406,1.6672832606267889],[116.7132568359375,1.6714013851606069],[116.72595977783203,1.6738036204848044],[116.73282623291016,1.6803239586595566],[116.73934936523438,1.6775785557605474],[116.74758911132812,1.681696658662318],[116.7520523071289,1.680667133750731],[116.75514221191406,1.6827261830307663],[116.76200866699219,1.6827261830307663],[116.76200866699219,1.687187449009869],[116.7575454711914,1.6919918778514216],[116.76029205322266,1.6937077424125562],[116.76544189453125,1.69061918510954],[116.78192138671875,1.6919918778514216],[116.78535461425781,1.6885601441769467],[116.79428100585938,1.685814752874066],[116.79462432861328,1.6820398335121638],[116.79908752441406,1.681696658662318],[116.80526733398438,1.685128404443148],[116.80801391601562,1.681353483752119],[116.81968688964844,1.6796376082963462],[116.82723999023438,1.6823830083016418],[116.8344497680664,1.6913055316018557],[116.84062957763672,1.6926782238581097],[116.84268951416016,1.6913055316018557],[116.84371948242188,1.681696658662318],[116.85161590576172,1.6762058528658628],[116.85333251953125,1.672087738410454],[116.8612289428711,1.680667133750731],[116.86981201171875,1.6786080822995189],[116.8777084350586,1.6710582084457144],[116.8832015991211,1.669342323971975],[116.88972473144531,1.672087738410454],[116.88972473144531,1.6768922044335426],[116.8941879272461,1.674833149008748],[116.89796447753906,1.6689991468974625],[116.89521789550781,1.6604197006017642],[116.88697814941406,1.6566447324225209],[116.89212799072266,1.6521833971196855],[116.8890380859375,1.6504674962567947],[116.88732147216797,1.6418879697625641],[116.89109802246094,1.639828877917111],[116.89693450927734,1.6418879697625641],[116.8996810913086,1.639828877917111],[116.9058609008789,1.640858424104806],[116.90860748291016,1.6432606964813061],[116.9110107421875,1.6415447879355582],[116.90654754638672,1.6370834188282117],[116.90757751464844,1.6291902030258711],[116.9051742553711,1.626101544936816],[116.9058609008789,1.622669697072368],[116.90242767333984,1.6188946576962024],[116.90139770507812,1.609285434874451],[116.91478729248047,1.6034512417682691],[116.9271469116211,1.6082558725961889],[116.92508697509766,1.6013921108160645],[116.9278335571289,1.5876645183918043],[116.92577362060547,1.5828598394658684],[116.9271469116211,1.576339185978938],[116.93778991699219,1.5657001812225388],[116.94225311279297,1.5550611224683877],[116.96319580078125,1.5396172321697037],[116.97452545166016,1.5358420419244254],[116.98448181152344,1.5224572228805897],[116.97589874267578,1.4915688629698707],[116.982421875,1.479899813675587],[116.97864532470703,1.4720060101903414],[116.98379516601562,1.466857862416731],[116.9875717163086,1.4579343782400258],[116.98619842529297,1.45450225951096],[116.98722839355469,1.4442058720517252],[116.99443817138672,1.4438626583311702],[116.99581146240234,1.438028017163134],[116.9937515258789,1.433909437942944],[116.99821472167969,1.4332230073518417],[116.99718475341797,1.4308204986633086],[117.00576782226562,1.425672257291538],[117.00851440429688,1.4105706830057159],[117.01297760009766,1.4067952740787462],[117.01778411865234,1.4061088354351625],[117.02705383300781,1.4116003389233356],[117.03014373779297,1.4194943524520767],[117.03495025634766,1.4222400899784162],[117.04353332519531,1.4191511350318962],[117.04353332519531,1.4146893039390136],[117.0589828491211,1.4174350471672312],[117.0644760131836,1.4119435574612282],[117.05554962158203,1.4064520547821928],[117.05657958984375,1.393066462964569],[117.05280303955078,1.384142692792011],[116.69677734375,1.384142692792011],[116.69677734375,1.6635083055683566]]]}}]}