{"type":"FeatureCollection","features":[{"type":"Feature","id":"pmtiles:10/835/527:transportation:10296809940:0","properties":{"class":"ferry","highway":"ferry","kind":"road","verification":"verified","source":"OpenMapTiles/OpenStreetMap national PMTiles","sourceId":"10/835/527:transportation:10296809940:0","sourceLayer":"transportation","archive":"https://its.hanifahseptiani45.workers.dev/v1/map/archive/indonesia.pmtiles","updatedAt":"2026-07-26T09:44:30.049Z"},"geometry":{"type":"LineString","coordinates":[[113.5491943359375,-5.462553796709912],[113.66352081298828,-5.260537879550753]]}},{"type":"Feature","id":"pmtiles:10/835/527:transportation:10296809940:1","properties":{"class":"ferry","highway":"ferry","kind":"road","verification":"verified","source":"OpenMapTiles/OpenStreetMap national PMTiles","sourceId":"10/835/527:transportation:10296809940:1","sourceLayer":"transportation","archive":"https://its.hanifahseptiani45.workers.dev/v1/map/archive/indonesia.pmtiles","updatedAt":"2026-07-26T09:44:30.049Z"},"geometry":{"type":"LineString","coordinates":[[113.9117431640625,-5.580706825039741],[113.87492179870605,-5.621452591118839]]}},{"type":"Feature","id":"pmtiles:10/835/527:water:1190:0","properties":{"class":"ocean","water":"ocean","kind":"waterway","verification":"verified","source":"OpenMapTiles/OpenStreetMap national PMTiles","sourceId":"10/835/527:water:1190:0","sourceLayer":"water","archive":"https://its.hanifahseptiani45.workers.dev/v1/map/archive/indonesia.pmtiles","updatedAt":"2026-07-26T09:44:30.049Z"},"geometry":{"type":"Polygon","coordinates":[[[113.5491943359375,-5.260537879550753],[113.9117431640625,-5.260537879550753],[113.9117431640625,-5.621452591118839],[113.5491943359375,-5.621452591118839],[113.5491943359375,-5.260537879550753]]]}},{"type":"Feature","id":"pmtiles:8/208/131:transportation:10296809940:0","properties":{"class":"ferry","highway":"ferry","kind":"road","verification":"verified","source":"OpenMapTiles/OpenStreetMap national PMTiles","sourceId":"8/208/131:transportation:10296809940:0","sourceLayer":"transportation","archive":"https://its.hanifahseptiani45.workers.dev/v1/map/archive/indonesia.pmtiles","updatedAt":"2026-07-26T09:35:40.266Z"},"geometry":{"type":"LineString","coordinates":[[113.92822265625,-5.5623404060204535],[113.86024475097656,-5.6378525987708485]]}},{"type":"Feature","id":"pmtiles:8/209/132:transportation:10296809940:0","properties":{"class":"ferry","highway":"ferry","kind":"road","verification":"verified","source":"OpenMapTiles/OpenStreetMap national PMTiles","sourceId":"8/209/132:transportation:10296809940:0","sourceLayer":"transportation","archive":"https://its.hanifahseptiani45.workers.dev/v1/map/archive/indonesia.pmtiles","updatedAt":"2026-07-26T09:35:42.948Z"},"geometry":{"type":"LineString","coordinates":[[113.89972686767578,-5.5941182188847876],[113.88427734375,-5.61120235161097]]}}]}