{"type":"FeatureCollection","features":[{"type":"Feature","id":"pmtiles:10/877/544:water:750:0","properties":{"class":"ocean","water":"ocean","kind":"waterway","verification":"verified","source":"OpenMapTiles/OpenStreetMap national PMTiles","sourceId":"10/877/544:water:750:0","sourceLayer":"water","archive":"https://its.hanifahseptiani45.workers.dev/v1/map/archive/indonesia.pmtiles","updatedAt":"2026-07-26T09:47:42.090Z"},"geometry":{"type":"Polygon","coordinates":[[[128.3148193359375,-11.173012874215061],[128.6773681640625,-11.173012874215061],[128.6773681640625,-11.52846990075463],[128.3148193359375,-11.52846990075463],[128.3148193359375,-11.173012874215061]]]}}]}