{"type":"FeatureCollection","features":[{"type":"Feature","id":"pmtiles:10/811/500:water:1810:0","properties":{"class":"ocean","water":"ocean","kind":"waterway","verification":"verified","source":"OpenMapTiles/OpenStreetMap national PMTiles","sourceId":"10/811/500:water:1810:0","sourceLayer":"water","archive":"https://its.hanifahseptiani45.workers.dev/v1/map/archive/indonesia.pmtiles","updatedAt":"2026-07-26T09:39:19.543Z"},"geometry":{"type":"Polygon","coordinates":[[[105.1116943359375,4.220421429014593],[105.4742431640625,4.220421429014593],[105.4742431640625,3.8587739225726665],[105.1116943359375,3.8587739225726665],[105.1116943359375,4.220421429014593]]]}}]}