{"type":"FeatureCollection","features":[{"type":"Feature","id":"pmtiles:10/899/521:landuse:6922019230:0","properties":{"class":"residential","kind":"green","verification":"verified","source":"OpenMapTiles/OpenStreetMap national PMTiles","sourceId":"10/899/521:landuse:6922019230:0","sourceLayer":"landuse","archive":"https://its.hanifahseptiani45.workers.dev/v1/map/archive/indonesia.pmtiles","updatedAt":"2026-07-26T09:43:37.816Z"},"geometry":{"type":"Polygon","coordinates":[[[136.19004249572754,-3.370256701412842],[136.19081497192383,-3.3701710191664347],[136.19098663330078,-3.37145625206999],[136.18772506713867,-3.3713705699292404],[136.19004249572754,-3.370256701412842]]]}},{"type":"Feature","id":"pmtiles:10/899/521:landuse:6922019230:1","properties":{"class":"residential","kind":"green","verification":"verified","source":"OpenMapTiles/OpenStreetMap national PMTiles","sourceId":"10/899/521:landuse:6922019230:1","sourceLayer":"landuse","archive":"https://its.hanifahseptiani45.workers.dev/v1/map/archive/indonesia.pmtiles","updatedAt":"2026-07-26T09:43:37.816Z"},"geometry":{"type":"Polygon","coordinates":[[[136.239652633667,-3.171711086662242],[136.241455078125,-3.1733393704331547],[136.24085426330566,-3.174110661850321],[136.2393093109131,-3.1724823792945074],[136.239652633667,-3.171711086662242]]]}},{"type":"Feature","id":"pmtiles:10/899/521:waterway:5447092920:0","properties":{"name":"Derewo","name_int":"Derewo","class":"river","name:latin":"Derewo","name_de":"Derewo","name_en":"Derewo","waterway":"river","kind":"waterway","verification":"verified","source":"OpenMapTiles/OpenStreetMap national PMTiles","sourceId":"10/899/521:waterway:5447092920:0","sourceLayer":"waterway","archive":"https://its.hanifahseptiani45.workers.dev/v1/map/archive/indonesia.pmtiles","updatedAt":"2026-07-26T09:43:37.816Z"},"geometry":{"type":"LineString","coordinates":[[136.17596626281738,-3.520874250801924],[136.1769962310791,-3.5185611935089582],[136.1708164215088,-3.512821359876952],[136.16497993469238,-3.5101656040097566],[136.16558074951172,-3.5081095297650933],[136.15742683410645,-3.5018556094789517],[136.15407943725586,-3.4972293949862205],[136.1528778076172,-3.4945735948687258],[136.15150451660156,-3.4937168835494816],[136.15056037902832,-3.491061073490542],[136.1472988128662,-3.4908897306481492],[136.14566802978516,-3.489004957319068],[136.144380569458,-3.4869488366488497],[136.14343643188477,-3.486691821248897],[136.14283561706543,-3.486777493056678],[136.14163398742676,-3.486349133939669],[136.14008903503418,-3.4844643515072278],[136.13837242126465,-3.4830079261326716],[136.13768577575684,-3.4818085153086997],[136.13648414611816,-3.481123137009078],[136.13476753234863,-3.480780447672231],[136.13202095031738,-3.4795810340115594],[136.12953186035156,-3.479324016599918],[136.12807273864746,-3.4768395113408133],[136.12712860107422,-3.4758114382841825],[136.1242961883545,-3.4750403827564043],[136.12249374389648,-3.4739266347705353],[136.1191463470459,-3.472812885470418],[136.11785888671875,-3.4716991348564648],[136.11597061157227,-3.4716991348564648],[136.11485481262207,-3.471185095668531],[136.1107349395752,-3.470842402721175],[136.10824584960938,-3.4710137492103854],[136.1041259765625,-3.4676724870662383],[136.1033535003662,-3.4662160357692073],[136.09923362731934,-3.462703408710908],[136.0952854156494,-3.461418297994129],[136.09322547912598,-3.4597904885834367],[136.09073638916016,-3.4564491868241305],[136.08919143676758,-3.453793271901475],[136.08927726745605,-3.451137349548489],[136.08850479125977,-3.4472819651811193],[136.089448928833,-3.44496872705831],[136.08927726745605,-3.4425698075111484],[136.0898780822754,-3.441627373178548],[136.0902214050293,-3.4401708819218015],[136.0898780822754,-3.438200331384863],[136.08901977539062,-3.4365724822178834],[136.087646484375,-3.4358013948009045],[136.08575820922852,-3.4332310989120742],[136.0855007171631,-3.431517564476181],[136.08464241027832,-3.4308321498413363],[136.08344078063965,-3.4285188718201454],[136.08258247375488,-3.428090486387248],[136.08155250549316,-3.4268910061545057],[136.08129501342773,-3.4243206863072544],[136.07983589172363,-3.421664681883442],[136.0795783996582,-3.420807904692211],[136.07983589172363,-3.418837314246389],[136.07940673828125,-3.41738078827089],[136.0795783996582,-3.416866719751596],[136.07872009277344,-3.4160956164563316],[136.078462600708,-3.415410190784897],[136.078462600708,-3.4146390863196103],[136.07914924621582,-3.413610946069369],[136.0788059234619,-3.4114689836804786],[136.0800075531006,-3.4097554103323375],[136.08043670654297,-3.40829887058554],[136.07975006103516,-3.4069280076329136],[136.07975006103516,-3.4058141800461073],[136.0800075531006,-3.405385784477261],[136.08078002929688,-3.4049573887178184],[136.0818099975586,-3.401787254176398],[136.08206748962402,-3.400245022791154],[136.08172416687012,-3.398788468662559],[136.08198165893555,-3.397246232482402],[136.0832691192627,-3.3952755937773276],[136.0861873626709,-3.3922767880331577],[136.0868740081787,-3.391077263130015],[136.08807563781738,-3.3897920562253603],[136.08927726745605,-3.386707552688506],[136.09150886535645,-3.384565530561389],[136.09288215637207,-3.381566691627569],[136.09442710876465,-3.380367153456774],[136.09631538391113,-3.376768530046178],[136.09837532043457,-3.375226258786853],[136.0993194580078,-3.374198076587021],[136.1019802093506,-3.3728271652950923],[136.10404014587402,-3.372141708924133],[136.10687255859375,-3.3717989805574575],[136.10901832580566,-3.3711135234617444],[136.11056327819824,-3.3715419342031794],[136.11468315124512,-3.37042806588299],[136.11871719360352,-3.367771913204564],[136.12000465393066,-3.3664866754358798],[136.12146377563477,-3.364515974230301],[136.1227512359619,-3.364173243178996],[136.1282444000244,-3.361088658295685],[136.12927436828613,-3.3592893126092918],[136.12996101379395,-3.3572329134777448],[136.1308193206787,-3.356461762687033],[136.13245010375977,-3.3557762948065033],[136.13519668579102,-3.3553478771369782],[136.13880157470703,-3.3541483066632054],[136.14086151123047,-3.3539769393324974],[136.14240646362305,-3.354405357602957],[136.14463806152344,-3.35543356068591],[136.15013122558594,-3.3545767248585463],[136.1509895324707,-3.3550908264451067],[136.15184783935547,-3.355262193580529],[136.1532211303711,-3.354662408475079],[136.1539077758789,-3.354833775685634],[136.15485191345215,-3.355519244227324],[136.1568260192871,-3.3558619783178614],[136.15957260131836,-3.3553478771369782],[136.16283416748047,-3.355519244227324],[136.16437911987305,-3.3556906112876277],[136.16764068603516,-3.357061546687973],[136.16918563842773,-3.3573185968613473],[136.1697006225586,-3.3571472300866105],[136.1729621887207,-3.3541483066632054],[136.17321968078613,-3.3532057859726336],[136.17605209350586,-3.351406425768218],[136.17742538452148,-3.349778430350881],[136.18008613586426,-3.3481504322260065],[136.18206024169922,-3.3461796940331254],[136.18266105651855,-3.345408534530833],[136.1831760406494,-3.34292368311921],[136.18480682373047,-3.3402674556839855],[136.18523597717285,-3.3387251267778737],[136.1850643157959,-3.3382110166042054]]}}]}