{"type":"FeatureCollection","features":[{"type":"Feature","id":"pmtiles:10/878/513:water:1690:0","properties":{"class":"ocean","water":"ocean","kind":"waterway","verification":"verified","source":"OpenMapTiles/OpenStreetMap national PMTiles","sourceId":"10/878/513:water:1690:0","sourceLayer":"water","archive":"https://its.hanifahseptiani45.workers.dev/v1/map/archive/indonesia.pmtiles","updatedAt":"2026-07-26T09:41:50.656Z"},"geometry":{"type":"Polygon","coordinates":[[[128.6663818359375,-0.34606723172845477],[129.0289306640625,-0.34606723172845477],[129.0289306640625,-0.7086000996551007],[128.6663818359375,-0.7086000996551007],[128.6663818359375,-0.34606723172845477]]]}},{"type":"Feature","id":"pmtiles:8/219/128:water:470:0","properties":{"class":"ocean","water":"ocean","kind":"waterway","verification":"verified","source":"OpenMapTiles/OpenStreetMap national PMTiles","sourceId":"8/219/128:water:470:0","sourceLayer":"water","archive":"https://its.hanifahseptiani45.workers.dev/v1/map/archive/indonesia.pmtiles","updatedAt":"2026-07-26T09:35:33.513Z"},"geometry":{"type":"Polygon","coordinates":[[[127.94677734375,0.021972655711437028],[129.32796478271484,0.021972655711437028],[129.33826446533203,0.01544952373856745],[129.34513092041016,0.009613037064269747],[129.34650421142578,0.006523132310121582],[129.35405731201172,0.0027465820301983968],[129.35680389404297,-0.00034332275390625],[129.35646057128906,-0.00034332275390625],[129.3585205078125,-0.0020599365229827526],[129.36229705810547,-0.0030899047836641103],[129.36538696289062,-0.006523132310121582],[129.37225341796875,-0.01853942838741318],[129.3746566772461,-0.02128601025252408],[129.3746566772461,-0.02059936479059843],[129.37774658203125,-0.024375914792017284],[129.3804931640625,-0.02986907823692775],[129.38186645507812,-0.030555723649271727],[129.3804931640625,-0.032615659859587254],[129.3811798095703,-0.03673553215108427],[129.38461303710938,-0.041885372245857866],[129.38186645507812,-0.049095147800741756],[129.38186645507812,-0.051841728766220285],[129.38358306884766,-0.05561827739794012],[129.38495635986328,-0.05733489033347894],[129.3866729736328,-0.05733489033347894],[129.38770294189453,-0.06008147092262561],[129.38735961914062,-0.06282805137371383],[129.3852996826172,-0.06317137392008476],[129.38186645507812,-0.0669479217776825],[129.38152313232422,-0.06935117935483959],[129.38255310058594,-0.0720977592933707],[129.3921661376953,-0.07450101660388952],[129.3962860107422,-0.0720977592933707],[129.39697265625,-0.0720977592933707],[129.39697265625,-1.1943333585999767],[129.39697265625,-1.428074771366937],[129.3753433227539,-1.428074771366937],[129.3746566772461,-1.428074771366937],[127.94677734375,-1.428074771366937],[127.94677734375,-0.5304260779577703],[127.94883728027344,-0.5328292337833034],[127.95089721679688,-0.5331725416819495],[127.95089721679688,-0.5390087730201572],[127.95364379882812,-0.5410686180426438],[127.95364379882812,-0.5445016915246867],[127.95433044433594,-0.547248148903364],[127.95398712158203,-0.5503379119510043],[127.95501708984375,-0.5589205786578617],[127.95639038085938,-0.5602938041720762],[127.95982360839844,-0.5695630679347943],[127.96428680419922,-0.5760858742533657],[127.96463012695312,-0.5781457062804236],[127.9690933227539,-0.580205537560218],[127.97149658203125,-0.5853551124729677],[127.9745864868164,-0.5863850268894168],[127.97630310058594,-0.5905046826571265],[127.97527313232422,-0.5959975522614229],[127.98042297363281,-0.6004605047837259],[127.98076629638672,-0.6028636315575966],[127.9852294921875,-0.6066399714864161],[127.98866271972656,-0.6121328248557774],[127.98900604248047,-0.6172823697808099],[127.99072265625,-0.6224319097193671],[127.99278259277344,-0.6265515380520128],[127.9958724975586,-0.6296412571769139],[127.99346923828125,-0.6371938961998751],[127.99312591552734,-0.6447465241504773],[127.99484252929688,-0.64886613468245],[127.99827575683594,-0.6516125398414232],[127.99827575683594,-0.6529857418598368],[127.9965591430664,-0.6574486458250561],[127.99724578857422,-0.6591651462894532],[128.00067901611328,-0.659508446311392],[128.0020523071289,-0.6612249460656301],[128.001708984375,-0.6646579437921076],[128.0023956298828,-0.667747639706036],[128.00891876220703,-0.6718672312357086],[128.0120086669922,-0.6783899107121556],[128.0181884765625,-0.6825094932250977],[128.01921844482422,-0.6859424759580719],[128.0233383178711,-0.6876589664018269],[128.02642822265625,-0.6910919454361988],[128.03020477294922,-0.6928084340237035],[128.03123474121094,-0.6945249219893839],[128.03329467773438,-0.6955548144696877],[128.0353546142578,-0.698987787778961],[128.04222106933594,-0.7013908676030525],[128.04462432861328,-0.7031073524364757],[128.05252075195312,-0.7065403202086031],[128.05526733398438,-0.7092866926005428],[128.0573272705078,-0.709629989035065],[128.06076049804688,-0.7123763595931223],[128.06556701660156,-0.717525799972691],[128.06900024414062,-0.7178690957923806],[128.07758331298828,-0.7219886436147789],[128.08582305908203,-0.7230185299879963],[128.08788299560547,-0.7247350067573848],[128.09612274169922,-0.7271380731413757],[128.1119155883789,-0.7343472646014391],[128.11500549316406,-0.7336606754377044],[128.11809539794922,-0.7367503258434169],[128.1232452392578,-0.7374369145318269],[128.12564849853516,-0.7367503258434169],[128.13079833984375,-0.739496679961249],[128.13251495361328,-0.7381235031143376],[128.14762115478516,-0.7449893830932126],[128.14865112304688,-0.7473924385633808],[128.15139770507812,-0.7491089059516156],[128.155517578125,-0.7477357320947391],[128.15895080566406,-0.7501387860619246],[128.16238403320312,-0.7508253726674923],[128.1668472290039,-0.7504820793781874],[128.17028045654297,-0.7528851318368908],[128.17302703857422,-0.7535717180105905],[128.17474365234375,-0.7552881829711566],[128.177490234375,-0.7563180616222098],[128.18023681640625,-0.7563180616222098],[128.18195343017578,-0.7583778181908514],[128.18710327148438,-0.7607808662819338],[128.20152282714844,-0.7628406207235372],[128.20392608642578,-0.7652436663257731],[128.20873260498047,-0.7666168346372046],[128.21697235107422,-0.7724527950385038],[128.21937561035156,-0.7721095034714409],[128.22040557861328,-0.7700497534874842],[128.2207489013672,-0.7676467105818432],[128.21937561035156,-0.7659302505364849],[128.2217788696289,-0.7645570820051688],[128.22521209716797,-0.7580345254974077],[128.22486877441406,-0.7552881829711566],[128.22349548339844,-0.7535717180105905],[128.2262420654297,-0.7480790255992389],[128.23104858398438,-0.7497954927187322],[128.23070526123047,-0.7480790255992389],[128.2327651977539,-0.7470491450051782],[128.23619842529297,-0.7501387860619246],[128.2379150390625,-0.7528851318368908],[128.23963165283203,-0.7535717180105905],[128.2386016845703,-0.7546015970681879],[128.23894500732422,-0.7570046472538365],[128.2320785522461,-0.7539150110568613],[128.2276153564453,-0.757347940028879],[128.2262420654297,-0.7604375737793276],[128.22589874267578,-0.7638704975747856],[128.22418212890625,-0.7666168346372046],[128.22486877441406,-0.7690198781221227],[128.23070526123047,-0.7676467105818432],[128.23963165283203,-0.7690198781221227],[128.24134826660156,-0.7659302505364849],[128.23997497558594,-0.7631839130346805],[128.24031829833984,-0.7580345254974077],[128.24237823486328,-0.7590644034960548],[128.2427215576172,-0.7570046472538365],[128.24478149414062,-0.757347940028879],[128.2440948486328,-0.7600942812494367],[128.24581146240234,-0.7614674512051778],[128.24581146240234,-0.757691232776736],[128.24718475341797,-0.757347940028879],[128.2489013671875,-0.7587211108570671],[128.24993133544922,-0.7597509886922467],[128.2492446899414,-0.7607808662819338],[128.25164794921875,-0.7628406207235372],[128.25096130371094,-0.7673034186278329],[128.24993133544922,-0.7676467105818432],[128.25096130371094,-0.7683332944071566],[128.25233459472656,-0.7673034186278329],[128.2537078857422,-0.7693631699382024],[128.2537078857422,-0.771079628604042],[128.25233459472656,-0.7724527950385038],[128.25130462646484,-0.77142292025421],[128.24787139892578,-0.7703930452206578],[128.24512481689453,-0.772796086577813],[128.24134826660156,-0.7700497534874842],[128.23997497558594,-0.7721095034714409],[128.24237823486328,-0.7741692524575257],[128.24134826660156,-0.7748558352306532],[128.23963165283203,-0.7745125438579947],[128.24169158935547,-0.7782887474252931],[128.24031829833984,-0.7786320384912813],[128.23928833007812,-0.7817216568257948],[128.23894500732422,-0.7806917842997478],[128.2379150390625,-0.7810350751697968],[128.23619842529297,-0.7800052024755644],[128.23448181152344,-0.7806917842997478],[128.2430648803711,-0.7854978539243973],[128.24512481689453,-0.7851545634198374],[128.2485580444336,-0.787214306024012],[128.24787139892578,-0.7892740476108031],[128.2492446899414,-0.7906472081021008],[128.2485580444336,-0.7930502378685986],[128.25199127197266,-0.7954532662400027],[128.25576782226562,-0.7968264246813845],[128.25885772705078,-0.8030056319920789],[128.2605743408203,-0.804378787906316],[128.2605743408203,-0.806781809643951],[128.26160430908203,-0.8081549642856771],[128.26297760009766,-0.8081549642856771],[128.26400756835938,-0.8105579837911989],[128.2650375366211,-0.8109012721756841],[128.2657241821289,-0.8126177136611972],[128.2650375366211,-0.8143341544173808],[128.26709747314453,-0.8167371702478192],[128.26744079589844,-0.8191401846415118],[128.26950073242188,-0.820856622612169],[128.2715606689453,-0.8211999101179401],[128.2708740234375,-0.8222297724583285],[128.27190399169922,-0.8229163472043268],[128.2708740234375,-0.8239462091017629],[128.2712173461914,-0.8249760707329443],[128.27362060546875,-0.8273790801685834],[128.27499389648438,-0.8256626450056785],[128.27739715576172,-0.8266925061924582],[128.27945709228516,-0.8260059320976012],[128.28083038330078,-0.8277223671121021],[128.2811737060547,-0.8311552349108808],[128.28323364257812,-0.832185094669228],[128.28323364257812,-0.8332149541586915],[128.2822036743164,-0.8335582405953659],[128.28323364257812,-0.8363045310104553],[128.2811737060547,-0.839050819504024],[128.27877044677734,-0.8387075335476339],[128.26709747314453,-0.8290955145889001],[128.2646942138672,-0.8290955145889001],[128.26126098632812,-0.8249760707329443],[128.25645446777344,-0.8232596345330307],[128.25542449951172,-0.8222297724583285],[128.2489013671875,-0.8205133350769245],[128.24649810791016,-0.8218864850410341],[128.24203491210938,-0.8218864850410341],[128.24066162109375,-0.8260059320976012],[128.24134826660156,-0.8263492191598516],[128.25061798095703,-0.8239462091017629],[128.2492446899414,-0.827035793195364],[128.24066162109375,-0.8294388013837022],[128.23963165283203,-0.8290955145889001],[128.24134826660156,-0.8273790801685834],[128.24031829833984,-0.8266925061924582],[128.2382583618164,-0.8263492191598516],[128.23654174804688,-0.8284089409099664],[128.23482513427734,-0.827035793195364],[128.2317352294922,-0.8273790801685834],[128.2262420654297,-0.8325283811956012],[128.22555541992188,-0.8363045310104553],[128.2269287109375,-0.8400806771924465],[128.22898864746094,-0.8407672488339415],[128.22795867919922,-0.8414538203547153],[128.22967529296875,-0.8459165322899622],[128.2327651977539,-0.8483195289002623],[128.243408203125,-0.8562150786616343],[128.24752807617188,-0.8572449317827591],[128.25714111328125,-0.8634240446813095],[128.2598876953125,-0.8634240446813095],[128.26160430908203,-0.8661703138612609],[128.26332092285156,-0.8661703138612609],[128.2660675048828,-0.8685732977614151],[128.2705307006836,-0.8661703138612609],[128.2708740234375,-0.8672001642910061],[128.2770538330078,-0.8696031475368642],[128.28048706054688,-0.8747523921929314],[128.28598022460938,-0.8788717828324195],[128.29113006591797,-0.8809314764497174],[128.30005645751953,-0.8812747586086402],[128.30005645751953,-0.8805881942591469],[128.30692291259766,-0.8788717828324195],[128.3089828491211,-0.8754389576141222],[128.31172943115234,-0.87440910943522],[128.31207275390625,-0.872006129253009],[128.31138610839844,-0.8713195632047501],[128.31344604492188,-0.8675434477053301],[128.31275939941406,-0.8630807608941922],[128.3155059814453,-0.8620509093470048],[128.31653594970703,-0.8637673284374188],[128.32134246826172,-0.8658270303224782],[128.32271575927734,-0.8678867310885323],[128.3261489868164,-0.8706329970313362],[128.32855224609375,-0.8750956749192227],[128.33370208740234,-0.8771553706168902],[128.3361053466797,-0.8788717828324195],[128.3374786376953,-0.8788717828324195],[128.33782196044922,-0.8802449120369857],[128.34228515625,-0.881618040735944],[128.34640502929688,-0.8864239871892465],[128.35189819335938,-0.8891702395072372],[128.353271484375,-0.8884836766190176],[128.35430145263672,-0.8819613228316001],[128.3584213256836,-0.881618040735944],[128.36185455322266,-0.8781852180407697],[128.3697509765625,-0.8805881942591469],[128.37215423583984,-0.8778419355976439],[128.37352752685547,-0.8785285004523615],[128.37936401367188,-0.8778419355976439],[128.3810806274414,-0.8799016297832054],[128.39378356933594,-0.8819613228316001],[128.39515686035156,-0.8826478869278844],[128.39584350585938,-0.884021014740128],[128.3979034423828,-0.884021014740128],[128.39859008789062,-0.8853941420446034],[128.40030670166016,-0.8853941420446034],[128.4027099609375,-0.8881403951270528],[128.40579986572266,-0.8895135209034635],[128.40923309326172,-0.8922597709227063],[128.40991973876953,-0.8939761761440792],[128.41129302978516,-0.8946627380080656],[128.4130096435547,-0.8936328951639467],[128.41541290283203,-0.8953492997435717],[128.41781616210938,-0.8950060188918911],[128.4198760986328,-0.8960358613505264],[128.42021942138672,-0.8967224228288018],[128.419189453125,-0.8987821064906285],[128.42330932617188,-0.9008417889908884],[128.43875885009766,-0.9035880305130775],[128.441162109375,-0.905647710292655],[128.44390869140625,-0.9070208294956075],[128.44940185546875,-0.9131998594504296],[128.4518051147461,-0.9142296967454939],[128.45489501953125,-0.9125133010897741],[128.4569549560547,-0.9090805073229831],[128.45661163330078,-0.905647710292655],[128.45558166503906,-0.9029014703269098],[128.45111846923828,-0.8977522648047511],[128.4408187866211,-0.8895135209034635],[128.43223571777344,-0.8799016297832054],[128.42914581298828,-0.8778419355976439],[128.42365264892578,-0.8774986531230269],[128.41747283935547,-0.8757822402775872],[128.39515686035156,-0.8620509093470048],[128.3869171142578,-0.8579315003763099],[128.37730407714844,-0.8500359541370699],[128.3635711669922,-0.836647817177365],[128.35601806640625,-0.827035793195364],[128.353271484375,-0.8263492191598516],[128.3536148071289,-0.8239462091017629],[128.3477783203125,-0.8167371702478192],[128.34503173828125,-0.8146774424809706],[128.331298828125,-0.8081549642856771],[128.3251190185547,-0.8026623429414315],[128.31859588623047,-0.7944233971090711],[128.31069946289062,-0.7899606279131746],[128.3089828491211,-0.7899606279131746],[128.30760955810547,-0.7861844348489342],[128.30692291259766,-0.7776021652095011],[128.3041763305664,-0.77142292025421],[128.2986831665039,-0.7642137898036907],[128.29456329345703,-0.7624973283849954],[128.28563690185547,-0.7532284249372481],[128.26675415039062,-0.7425863263125194],[128.25645446777344,-0.7333173808163167],[128.25439453125,-0.7322874967942425],[128.25233459472656,-0.7329740861685963],[128.24649810791016,-0.7288545483470159],[128.24237823486328,-0.7243917114554961],[128.23963165283203,-0.7237051207737011],[128.23894500732422,-0.7216453481051843],[128.23448181152344,-0.720958757008276],[128.23345184326172,-0.7188989830967358],[128.2331085205078,-0.7154660245140718],[128.22795867919922,-0.7116897671068045],[128.2262420654297,-0.7123763595931223],[128.2265853881836,-0.709629989035065],[128.2217788696289,-0.7068836168465111],[128.21834564208984,-0.7017341646201487],[128.2162857055664,-0.7007042734933151],[128.21491241455078,-0.6983011933174765],[128.21285247802734,-0.6965847067252326],[128.2097625732422,-0.6904053498274294],[128.20907592773438,-0.6797631052738637],[128.20770263671875,-0.6780466120108031],[128.20323944091797,-0.6756435204204223],[128.19843292236328,-0.6698074359037491],[128.1936264038086,-0.6598517463096414],[128.19225311279297,-0.653329042305856],[128.18984985351562,-0.6519558403811487],[128.1877899169922,-0.648522833932617],[128.1881332397461,-0.6457764270967914],[128.18675994873047,-0.6426867176331683],[128.18710327148438,-0.6399403076517274],[128.18538665771484,-0.6361639915276243],[128.18641662597656,-0.6330742762788475],[128.18504333496094,-0.6310144650896348],[128.18572998046875,-0.6289546530848469],[128.17955017089844,-0.6227752122036208],[128.16444396972656,-0.6018337202126958],[128.15380096435547,-0.5850118076254347],[128.1496810913086,-0.5753992634120948],[128.13594818115234,-0.5551442068406232],[128.12633514404297,-0.5390087730201572],[128.12358856201172,-0.5366056196135958],[128.12152862548828,-0.5366056196135958],[128.12049865722656,-0.5359190041809967],[128.11019897460938,-0.5180669762071517],[128.10813903808594,-0.5173803587311028],[128.10504913330078,-0.5118874162561156],[128.10264587402344,-0.5122307252991618],[128.10161590576172,-0.5108574890167432],[128.0847930908203,-0.4778997320132703],[128.0834197998047,-0.4737800010455686],[128.08273315429688,-0.46691377733324657],[128.07964324951172,-0.4579876764970834],[128.07071685791016,-0.4466583786867915],[128.06522369384766,-0.4367023146640605],[128.06385040283203,-0.4325825601596591],[128.06453704833984,-0.4264029242162337],[128.05973052978516,-0.4243430444625744],[128.0559539794922,-0.4178200883035714],[128.05355072021484,-0.4178200883035714],[128.0518341064453,-0.41919334268465036],[128.04943084716797,-0.41747677467074595],[128.03569793701172,-0.3749057719531521],[128.03157806396484,-0.36735282982513695],[128.0178451538086,-0.3278714405377201],[128.01544189453125,-0.32272168223053654],[128.0123519897461,-0.32169173025491204],[128.0078887939453,-0.3165419688241684],[128.00342559814453,-0.3072723918326261],[128.0020523071289,-0.2997193972152701],[127.98831939697266,-0.27912029489721135],[127.98351287841797,-0.2671041350463952],[127.9800796508789,-0.25131145003128097],[127.97836303710938,-0.24925153316124238],[127.97767639160156,-0.2465049768338332],[127.97733306884766,-0.23208554696830674],[127.97183990478516,-0.2125162973844681],[127.97115325927734,-0.2001567584137689],[127.9690933227539,-0.1929470230094239],[127.9684066772461,-0.1761242953820954],[127.96669006347656,-0.17234776255187967],[127.96463012695312,-0.16239144518050352],[127.95707702636719,-0.14900190724542028],[127.95330047607422,-0.1397322223257902],[127.94918060302734,-0.12290945163140066],[127.94780731201172,-0.12153616374038734],[127.94677734375,-0.11432640118542281],[127.94677734375,-0.00034332275390625],[127.94677734375,0.00034332275390625],[127.94677734375,0.021972655711437028]],[[129.39697265625,-1.1943333585999767],[129.39285278320312,-1.1919306203815125],[129.39285278320312,-1.1936468621803016],[129.39044952392578,-1.1933036139061812],[129.38907623291016,-1.1926171172294744],[129.38941955566406,-1.1912441233624236],[129.38186645507812,-1.1878116357033548],[129.38426971435547,-1.1919306203815125],[129.38804626464844,-1.1939901104115762],[129.3863296508789,-1.1936468621803016],[129.385986328125,-1.1939901104115762],[129.3907928466797,-1.196392846829724],[129.38804626464844,-1.1957063509247945],[129.3866729736328,-1.1960495988987248],[129.3866729736328,-1.1967360947177923],[129.39525604248047,-1.1974225903650222],[129.39697265625,-1.1943333585999767]],[[129.37774658203125,-1.1751113943885656],[129.37946319580078,-1.1720221377459126],[129.3801498413086,-1.1699626314237719],[129.37671661376953,-1.1757978954010326],[129.37637329101562,-1.1830061458204426],[129.37705993652344,-1.1843791437806033],[129.38152313232422,-1.187468386702733],[129.38186645507812,-1.1867818885736483],[129.3808364868164,-1.1854088918043857],[129.3801498413086,-1.1833493953742078],[129.3798065185547,-1.1843791437806033],[129.37911987304688,-1.1840358943543094],[129.37774658203125,-1.1826628962242154],[129.37808990478516,-1.1799168979271144],[129.38255310058594,-1.1737383918575546],[129.38461303710938,-1.1757978954010326],[129.38461303710938,-1.1737383918575546],[129.38152313232422,-1.1716788867973236],[129.37843322753906,-1.1764843962446747],[129.37774658203125,-1.1751113943885656]],[[129.35955047607422,-1.1854088918043857],[129.36504364013672,-1.1830061458204426],[129.36847686767578,-1.1795736479492547],[129.3691635131836,-1.1823196465855403],[129.37225341796875,-1.183692644885511],[129.37156677246094,-1.1847223931643924],[129.3698501586914,-1.1840358943543094],[129.37053680419922,-1.1857521410605472],[129.37156677246094,-1.1867818885736483],[129.37362670898438,-1.1864386394451998],[129.37294006347656,-1.168932877695596],[129.36710357666016,-1.1661868659084433],[129.36298370361328,-1.162754347407784],[129.36298370361328,-1.1617245910431393],[129.35577392578125,-1.1610380865915175],[129.35405731201172,-1.162754347407784],[129.3523406982422,-1.162411095327954],[129.35302734375,-1.1679031235897668],[129.35405731201172,-1.1685896263689273],[129.35405731201172,-1.1757978954010326],[129.3523406982422,-1.1785438977616849],[129.34959411621094,-1.1802601478626116],[129.35508728027344,-1.1847223931643924],[129.35508728027344,-1.1840358943543094],[129.35955047607422,-1.1854088918043857]],[[129.3526840209961,-1.1603515819731882],[129.34341430664062,-1.1562325507679532],[129.342041015625,-1.1552027920319858],[129.33311462402344,-1.1545162860006428],[129.3204116821289,-1.1555460449854422],[129.3149185180664,-1.1572623091303882],[129.31114196777344,-1.159665077188265],[129.30564880371094,-1.1668733691066393],[129.30599212646484,-1.1713356358066846],[129.3035888671875,-1.1709923847739958],[129.30255889892578,-1.1696193802230255],[129.30118560791016,-1.1706491336992713],[129.30015563964844,-1.1723653886524374],[129.30049896240234,-1.1771708969193924],[129.30221557617188,-1.179230397929075],[129.30667877197266,-1.1802601478626116],[129.30908203125,-1.1806033977557462],[129.31079864501953,-1.179230397929075],[129.31182861328125,-1.1771708969193924],[129.3097686767578,-1.1754546449159022],[129.31011199951172,-1.1778573974251003],[129.3083953857422,-1.1771708969193924],[129.30633544921875,-1.1785438977616849],[129.30599212646484,-1.1775141471933779],[129.30496215820312,-1.1771708969193924],[129.30633544921875,-1.1733951411194425],[129.31011199951172,-1.1747681438190511],[129.31045532226562,-1.1733951411194425],[129.31182861328125,-1.1730518903392095],[129.31251525878906,-1.1737383918575546],[129.31354522705078,-1.1727086395168698],[129.3149185180664,-1.1733951411194425],[129.31594848632812,-1.1727086395168698],[129.31320190429688,-1.1706491336992713],[129.31285858154297,-1.1716788867973236],[129.31148529052734,-1.1720221377459126],[129.31148529052734,-1.1696193802230255],[129.30908203125,-1.1685896263689273],[129.3094253540039,-1.1668733691066393],[129.31800842285156,-1.1716788867973236],[129.32418823242188,-1.1737383918575546],[129.32453155517578,-1.1716788867973236],[129.32796478271484,-1.1679031235897668],[129.32899475097656,-1.168932877695596],[129.33242797851562,-1.168932877695596],[129.33414459228516,-1.1679031235897668],[129.33826446533203,-1.1696193802230255],[129.33963775634766,-1.1685896263689273],[129.33963775634766,-1.1672166206429182],[129.3413543701172,-1.1672166206429182],[129.3427276611328,-1.1648138590098256],[129.34581756591797,-1.162411095327954],[129.35131072998047,-1.1637841033967788],[129.35165405273438,-1.162067843206401],[129.3526840209961,-1.1617245910431393],[129.3526840209961,-1.1603515819731882]],[[128.9197540283203,-1.3985579970541409],[128.92627716064453,-1.393066462964569],[128.92833709716797,-1.3913503559342502],[128.9300537109375,-1.3875749160752662],[128.9303970336914,-1.3855155827021406],[128.92833709716797,-1.3810536875891586],[128.9242172241211,-1.3786511252106806],[128.92181396484375,-1.3789943485561622],[128.9194107055664,-1.3807104645408401],[128.91769409179688,-1.3800240182955577],[128.91700744628906,-1.3789943485561622],[128.91529083251953,-1.379337571852119],[128.91357421875,-1.3827698020869974],[128.91185760498047,-1.3844859153440865],[128.91082763671875,-1.3875749160752662],[128.91048431396484,-1.3903206911167274],[128.91254425048828,-1.3944393476889019],[128.91632080078125,-1.3982147765494943],[128.9197540283203,-1.3985579970541409]],[[128.5953140258789,-0.6282680489024699],[128.5942840576172,-0.629297955142178],[128.59394073486328,-0.6303278611785288],[128.59291076660156,-0.6299845591890261],[128.58158111572266,-0.6334175780642397],[128.5788345336914,-0.6351340866497992],[128.5781478881836,-0.6368505946653187],[128.5832977294922,-0.6361639915276243],[128.58570098876953,-0.636507293107897],[128.58673095703125,-0.6371938961998751],[128.58570098876953,-0.6378804992003495],[128.58638763427734,-0.6392537049263751],[128.58844757080078,-0.6389104035292661],[128.5894775390625,-0.6409702115674207],[128.5901641845703,-0.6399403076517274],[128.59222412109375,-0.6395970063005336],[128.5942840576172,-0.636507293107897],[128.59291076660156,-0.6344474832838927],[128.59119415283203,-0.6341041815667836],[128.59153747558594,-0.6330742762788475],[128.59291076660156,-0.6330742762788475],[128.59394073486328,-0.6337608798268803],[128.59394073486328,-0.6351340866497992],[128.5953140258789,-0.6354773882985683],[128.5953140258789,-0.6368505946653187],[128.59840393066406,-0.6382238006662391],[128.59874725341797,-0.6399403076517274],[128.59771728515625,-0.6402836089799564],[128.59737396240234,-0.6426867176331683],[128.59806060791016,-0.6437166209958178],[128.6001205444336,-0.6440599220704968],[128.5997772216797,-0.6378804992003495],[128.6008071899414,-0.6378804992003495],[128.60183715820312,-0.6447465241504773],[128.60286712646484,-0.6437166209958178],[128.60286712646484,-0.6413135128266418],[128.60355377197266,-0.6454331261378599],[128.6008071899414,-0.6471496307005822],[128.6004638671875,-0.64886613468245],[128.59806060791016,-0.6509259386917847],[128.59840393066406,-0.6474929315434679],[128.5997772216797,-0.6457764270967914],[128.59806060791016,-0.6454331261378599],[128.59703063964844,-0.6464630289451065],[128.59600067138672,-0.6444032231220405],[128.59668731689453,-0.6437166209958178],[128.5953140258789,-0.643373319898032],[128.59291076660156,-0.6474929315434679],[128.59291076660156,-0.6516125398414232],[128.59359741210938,-0.653329042305856],[128.5956573486328,-0.6540156431275221],[128.6008071899414,-0.6526424413903555],[128.60355377197266,-0.6505826380819286],[128.6063003540039,-0.6468063298344475],[128.6066436767578,-0.6440599220704968],[128.6056137084961,-0.6399403076517274],[128.6008071899414,-0.6323876726398936],[128.59771728515625,-0.6317010689101181],[128.59703063964844,-0.6310144650896348],[128.59737396240234,-0.6289546530848469],[128.5953140258789,-0.6282680489024699]],[[128.49472045898438,-0.5984006809937483],[128.4967803955078,-0.6021770240159583],[128.5022735595703,-0.6086997921560453],[128.5077667236328,-0.6093863988712087],[128.51119995117188,-0.6111029152760494],[128.51051330566406,-0.6128194311323938],[128.51119995117188,-0.6124761280050848],[128.5118865966797,-0.6138493403822736],[128.51085662841797,-0.6152225524068484],[128.5118865966797,-0.6165957640779993],[128.51154327392578,-0.6183122781687729],[128.5132598876953,-0.6189988836497662],[128.51428985595703,-0.6183122781687729],[128.51566314697266,-0.6162524611933833],[128.51428985595703,-0.6141926434215037],[128.51531982421875,-0.6090430955245694],[128.51051330566406,-0.6021770240159583],[128.50811004638672,-0.603893542707695],[128.50811004638672,-0.5973707688085597],[128.507080078125,-0.5970274647039133],[128.50467681884766,-0.5984006809937483],[128.4967803955078,-0.5939377267990409],[128.49437713623047,-0.5956542480711136],[128.49231719970703,-0.5949676396263612],[128.49437713623047,-0.5977140728917618],[128.4957504272461,-0.596684160577837],[128.49472045898438,-0.5984006809937483]],[[128.47583770751953,-0.5908479871669385],[128.4796142578125,-0.5918779005690027],[128.48751068115234,-0.5922212049938764],[128.48682403564453,-0.5911912916555195],[128.48716735839844,-0.5887881597903828],[128.48613739013672,-0.5874149411164069],[128.4789276123047,-0.583295283072971],[128.47755432128906,-0.583295283072971],[128.4748077392578,-0.5867283316528074],[128.4748077392578,-0.5894747690005886],[128.47583770751953,-0.5908479871669385]],[[128.41163635253906,-1.1023413497866272],[128.41232299804688,-1.1030278681356123],[128.41197967529297,-1.1009683126139436],[128.41163635253906,-1.1023413497866272]],[[128.41232299804688,-1.1030278681356123],[128.4140396118164,-1.1040576453620758],[128.41575622558594,-1.1037143863262031],[128.41678619384766,-1.1019980905527973],[128.4195327758789,-1.1040576453620758],[128.42227935791016,-1.1033711272506963],[128.42090606689453,-1.1030278681356123],[128.42159271240234,-1.1019980905527973],[128.4243392944336,-1.1030278681356123],[128.43017578125,-1.1081767506977371],[128.4308624267578,-1.1116093341026243],[128.43120574951172,-1.1116093341026243],[128.43189239501953,-1.1098930428982072],[128.43223571777344,-1.1109228177404873],[128.43154907226562,-1.111952592223858],[128.42880249023438,-1.1116093341026243],[128.42571258544922,-1.1126391083465421],[128.4246826171875,-1.1136688822310106],[128.4250259399414,-1.1150419135172172],[128.42708587646484,-1.1174447167266237],[128.42777252197266,-1.1160716865616536],[128.43120574951172,-1.1143553979541139],[128.42742919921875,-1.117101459245518],[128.4294891357422,-1.1174447167266237],[128.43223571777344,-1.1191610035302233],[128.43326568603516,-1.1201907751304105],[128.43704223632812,-1.120877289329485],[128.43944549560547,-1.1229368309606969],[128.44802856445312,-1.1246531145449694],[128.45043182373047,-1.1298019592360617],[128.45317840576172,-1.1304884711730097],[128.45386505126953,-1.1243098579088269],[128.44768524169922,-1.1215638033676356],[128.4408187866211,-1.1201907751304105],[128.43738555908203,-1.1184744889292233],[128.4349822998047,-1.115728428920221],[128.43257904052734,-1.1092065261374557],[128.42090606689453,-1.0958194175910592],[128.41781616210938,-1.0937598571013893],[128.41575622558594,-1.0941031172812217],[128.4130096435547,-1.0923868159895278],[128.41197967529297,-1.0889542104666816],[128.40065002441406,-1.08380529485693],[128.39481353759766,-1.0827755106832058],[128.38520050048828,-1.0793428942462242],[128.37730407714844,-1.077969846585873],[128.3700942993164,-1.073507437417959],[128.36528778076172,-1.0731641749041785],[128.3587646484375,-1.0745372247280471],[128.3525848388672,-1.077626584574034],[128.34365844726562,-1.0892974711950814],[128.34400177001953,-1.0917002951982795],[128.34571838378906,-1.093073336623931],[128.34537506103516,-1.0951328975850458],[128.35498809814453,-1.0934165968822782],[128.3580780029297,-1.0937598571013893],[128.35773468017578,-1.0954761576077203],[128.35636138916016,-1.0961626775350481],[128.35739135742188,-1.0992520152589549],[128.35601806640625,-1.1037143863262031],[128.3580780029297,-1.1057739399467152],[128.36116790771484,-1.1040576453620758],[128.36116790771484,-1.1064604575028056],[128.36185455322266,-1.1074902335390249],[128.36116790771484,-1.1092065261374557],[128.36219787597656,-1.1102363012188192],[128.36048126220703,-1.1122958503051592],[128.36048126220703,-1.1153851712387421],[128.3594512939453,-1.1184744889292233],[128.36597442626953,-1.121907060326322],[128.3690643310547,-1.1225935741228596],[128.37661743164062,-1.120534032250049],[128.3803939819336,-1.1160716865616536],[128.3803939819336,-1.1146986557556602],[128.37833404541016,-1.1146986557556602],[128.37833404541016,-1.1129823663479783],[128.37970733642578,-1.1129823663479783],[128.37970733642578,-1.111952592223858],[128.38211059570312,-1.1126391083465421],[128.38382720947266,-1.1092065261374557],[128.38726043701172,-1.107833492138269],[128.3869171142578,-1.106117198744613],[128.38829040527344,-1.1071469749000187],[128.39412689208984,-1.106117198744613],[128.3975601196289,-1.1019980905527973],[128.3975601196289,-1.1009683126139436],[128.4030532836914,-1.0992520152589549],[128.40476989746094,-1.0995952748089195],[128.4075164794922,-1.1016548312793901],[128.4088897705078,-1.0999385343194064],[128.41266632080078,-1.0992520152589549],[128.4133529663086,-1.1009683126139436],[128.41541290283203,-1.10131157196642],[128.41506958007812,-1.1030278681356123],[128.41232299804688,-1.1030278681356123]],[[128.43292236328125,-0.5699063737152983],[128.4294891357422,-0.5719662079681598],[128.42021942138672,-0.5688764563124806],[128.41815948486328,-0.5692197621338551],[128.41712951660156,-0.570592985214887],[128.4185028076172,-0.5719662079681598],[128.42021942138672,-0.5712795966325359],[128.419189453125,-0.5729961248175215],[128.42193603515625,-0.5747126524881736],[128.42330932617188,-0.5771157903601392],[128.4246826171875,-0.5767724850119151],[128.4253692626953,-0.5784890115456705],[128.4253692626953,-0.5774590956876295],[128.42674255371094,-0.5760858742533657],[128.42742919921875,-0.5767724850119151],[128.42708587646484,-0.5778024009944005],[128.4298324584961,-0.5788323167901694],[128.42742919921875,-0.5874149411164069],[128.42365264892578,-0.5905046826571265],[128.4250259399414,-0.5911912916555195],[128.4294891357422,-0.5908479871669385],[128.43429565429688,-0.5877582458165591],[128.43910217285156,-0.5808921478202933],[128.441162109375,-0.5743693469952547],[128.4408187866211,-0.5712795966325359],[128.43772888183594,-0.5692197621338551],[128.43292236328125,-0.5699063737152983]],[[128.42159271240234,-1.1562325507679532],[128.4246826171875,-1.1558892978974455],[128.43429565429688,-1.1562325507679532],[128.4353256225586,-1.154859539037048],[128.43463897705078,-1.1517702602185835],[128.43326568603516,-1.1493674854885398],[128.42639923095703,-1.1455916925441727],[128.4239959716797,-1.1503972463349186],[128.42159271240234,-1.1521135135861726],[128.4185028076172,-1.1534865266428511],[128.41712951660156,-1.1521135135861726],[128.41506958007812,-1.1534865266428511],[128.41060638427734,-1.152800020197276],[128.40923309326172,-1.1555460449854422],[128.40991973876953,-1.1572623091303882],[128.41644287109375,-1.1603515819731882],[128.42159271240234,-1.1562325507679532]],[[128.42056274414062,-0.5939377267990409],[128.41609954833984,-0.5970274647039133],[128.41506958007812,-0.5973707688085597],[128.4133529663086,-0.596684160577837],[128.41266632080078,-0.5887881597903828],[128.41094970703125,-0.584325197867372],[128.41232299804688,-0.5925645093974907],[128.4088897705078,-0.6001172008725462],[128.40957641601562,-0.6035502390126766],[128.41232299804688,-0.6035502390126766],[128.41266632080078,-0.6025203277976061],[128.4133529663086,-0.6035502390126766],[128.4133529663086,-0.6018337202126958],[128.4185028076172,-0.5990872890098018],[128.42056274414062,-0.5939377267990409]],[[128.36666107177734,-0.9887204566941818],[128.36631774902344,-0.9876906416231748],[128.3646011352539,-0.9856310105241732],[128.36288452148438,-0.9859742824625357],[128.36151123046875,-0.9828848337445351],[128.36185455322266,-0.9749895629463055],[128.3580780029297,-0.974646289881818],[128.36013793945312,-0.9787655643429787],[128.35670471191406,-0.9821982891965462],[128.35567474365234,-0.9808251996775397],[128.35567474365234,-0.9773924734170549],[128.35739135742188,-0.9753328359757916],[128.35636138916016,-0.9736164704784471],[128.35430145263672,-0.9767059277435095],[128.35224151611328,-0.9753328359757916],[128.34949493408203,-0.9821982891965462],[128.34983825683594,-0.9767059277435095],[128.35086822509766,-0.9749895629463055],[128.35224151611328,-0.9743030167823292],[128.3529281616211,-0.9719001041073199],[128.3536148071289,-0.9715568307283746],[128.35155487060547,-0.9712135573145559],[128.35189819335938,-0.9705270103823409],[128.34983825683594,-0.9698404633107316],[128.3474349975586,-0.9701837368639445],[128.3419418334961,-0.9804819272097234],[128.3429718017578,-0.9739597436478817],[128.34606170654297,-0.9694971897227163],[128.34537506103516,-0.966407725865821],[128.3429718017578,-0.9657211779601198],[128.34365844726562,-0.967094273632739],[128.3429718017578,-0.9674375474641295],[128.33988189697266,-0.9643480817328225],[128.3374786376953,-0.9650346299157633],[128.33885192871094,-0.960228789730678],[128.33850860595703,-0.9595422405804754],[128.33576202392578,-0.9626317106698679],[128.33267211914062,-0.9640048075894185],[128.33404541015625,-0.960572064254066],[128.33885192871094,-0.9574825923035775],[128.34056854248047,-0.9509603646093012],[128.33988189697266,-0.9502738136073248],[128.33850860595703,-0.9502738136073248],[128.33816528320312,-0.9533632920402368],[128.33473205566406,-0.9550796677501125],[128.33232879638672,-0.9540498424269401],[128.33267211914062,-0.952676741516612],[128.32820892333984,-0.9537065672506913],[128.3319854736328,-0.9516469154747256],[128.3361053466797,-0.9509603646093012],[128.3374786376953,-0.9492439868485292],[128.33335876464844,-0.9437515722967476],[128.33267211914062,-0.9434082960987666],[128.32786560058594,-0.9464977806599393],[128.3254623413086,-0.9464977806599393],[128.32271575927734,-0.9492439868485292],[128.32408905029297,-0.9464977806599393],[128.32958221435547,-0.9434082960987666],[128.32958221435547,-0.9420351909682694],[128.32752227783203,-0.9420351909682694],[128.3254623413086,-0.9403188087943306],[128.31584930419922,-0.9382591490717829],[128.31241607666016,-0.9427217436012114],[128.31344604492188,-0.9444381245910733],[128.3148193359375,-0.9437515722967476],[128.3141326904297,-0.9454679527782588],[128.31035614013672,-0.9430650198669213],[128.31241607666016,-0.9451246767497707],[128.30795288085938,-0.9447814006873898],[128.30623626708984,-0.9502738136073248],[128.30657958984375,-0.9530200167955343],[128.30589294433594,-0.9554229427892693],[128.3086395263672,-0.9581691418668328],[128.309326171875,-0.960572064254066],[128.30760955810547,-0.9622884363535462],[128.30829620361328,-0.9657211779601198],[128.31138610839844,-0.9674375474641295],[128.31928253173828,-0.9694971897227163],[128.32820892333984,-0.9698404633107316],[128.33026885986328,-0.9729299240347729],[128.33301544189453,-0.9739597436478817],[128.33782196044922,-0.9722433774513775],[128.33850860595703,-0.9725866507605332],[128.33782196044922,-0.9770492005978184],[128.33919525146484,-0.9794521095951723],[128.33919525146484,-0.9832281059656083],[128.3364486694336,-0.9876906416231748],[128.33438873291016,-0.9897502714457431],[128.33404541015625,-0.9962724240994447],[128.33576202392578,-0.9976455072263093],[128.3316421508789,-1.0038243741947497],[128.33507537841797,-1.0062272637555623],[128.33301544189453,-1.0079436123584458],[128.33335876464844,-1.012406114488698],[128.3316421508789,-1.0137791908328069],[128.3309555053711,-1.016182073033434],[128.3319854736328,-1.0178984163683253],[128.33473205566406,-1.0199580271642361],[128.34056854248047,-1.021674368487382],[128.34091186523438,-1.023733976864719],[128.34434509277344,-1.026480119309383],[128.34400177001953,-1.0278531896477574],[128.3470916748047,-1.03094259574938],[128.3591079711914,-1.0378079318963245],[128.36254119873047,-1.037121398950589],[128.36322784423828,-1.0350617992202586],[128.36597442626953,-1.036434865855938],[128.38417053222656,-1.033345465089738],[128.3865737915039,-1.0343752656794294],[128.39069366455078,-1.032658931177778],[128.39412689208984,-1.032658931177778],[128.40099334716797,-1.0350617992202586],[128.4020233154297,-1.0330021981523032],[128.4078598022461,-1.0312858629091153],[128.4088897705078,-1.031972397117542],[128.40648651123047,-1.0340319988533224],[128.40065002441406,-1.0378079318963245],[128.40614318847656,-1.0350617992202586],[128.41644287109375,-1.0254503161686586],[128.419189453125,-1.0206445638034296],[128.4198760986328,-1.016182073033434],[128.41678619384766,-1.0027945638422011],[128.41472625732422,-1.00142148286821],[128.4136962890625,-0.9990185897801638],[128.4088897705078,-0.995929153228289],[128.40442657470703,-0.9904368144358244],[128.39550018310547,-0.9897502714457431],[128.3855438232422,-0.994556069386249],[128.39000701904297,-0.9948993404003375],[128.39309692382812,-0.9938695272509648],[128.39893341064453,-0.9942127983364486],[128.3979034423828,-0.9911233572836977],[128.4027099609375,-0.9911233572836977],[128.40476989746094,-0.9924964425523655],[128.40682983398438,-0.9966156949348317],[128.41060638427734,-0.9979887779185361],[128.41266632080078,-1.0010782125348072],[128.41575622558594,-1.0034811041132627],[128.41575622558594,-1.008630151546413],[128.41712951660156,-1.0093166905895288],[128.41712951660156,-1.0106897682408942],[128.41506958007812,-1.0100032294877366],[128.40957641601562,-0.9986753191954563],[128.4085464477539,-0.9993618603290031],[128.4033966064453,-0.9962724240994447],[128.40099334716797,-0.9966156949348317],[128.39962005615234,-0.994556069386249],[128.39035034179688,-0.99695896573445],[128.38726043701172,-0.995929153228289],[128.38760375976562,-0.9973022364982853],[128.38623046875,-0.9979887779185361],[128.38176727294922,-0.9966156949348317],[128.38211059570312,-0.9990185897801638],[128.3810806274414,-0.9990185897801638],[128.37352752685547,-0.9955858823213788],[128.37284088134766,-0.9924964425523655],[128.36666107177734,-0.9887204566941818]],[[128.40065002441406,-1.0378079318963245],[128.39893341064453,-1.036091599252785],[128.3968734741211,-1.0367781324218726],[128.397216796875,-1.0378079318963245],[128.39893341064453,-1.0374646654420872],[128.40030670166016,-1.0381511983133151],[128.40065002441406,-1.0378079318963245]],[[128.4088897705078,-0.5678465387258314],[128.4130096435547,-0.5671599268994498],[128.4140396118164,-0.5647567848663329],[128.41266632080078,-0.5620103356121291],[128.41026306152344,-0.5613237230965495],[128.4088897705078,-0.5589205786578617],[128.40614318847656,-0.5602938041720762],[128.40648651123047,-0.5613237230965495],[128.408203125,-0.5602938041720762],[128.4088897705078,-0.5609804168085333],[128.40614318847656,-0.5644134787803949],[128.40648651123047,-0.5651000909319919],[128.40717315673828,-0.5647567848663329],[128.4085464477539,-0.5657867030024306],[128.4088897705078,-0.5678465387258314]],[[128.4020233154297,-0.5548009001919496],[128.4020233154297,-0.5585772722291011],[128.4033966064453,-0.5602938041720762],[128.40614318847656,-0.5592638850665423],[128.4085464477539,-0.5551442068406232],[128.41094970703125,-0.553084366650026],[128.40991973876953,-0.5510245257445661],[128.40614318847656,-0.5517111394589733],[128.4027099609375,-0.5554875134693589],[128.4023666381836,-0.5534276733981756],[128.40133666992188,-0.5537709801264441],[128.39893341064453,-0.5572040463136716],[128.40133666992188,-0.5568607397847671],[128.40133666992188,-0.5551442068406232],[128.4020233154297,-0.5548009001919496]],[[128.38623046875,-1.1394131115462187],[128.3858871459961,-1.138726601727143],[128.38211059570312,-1.1366670712892386],[128.38382720947266,-1.1363238160733857],[128.38451385498047,-1.1352940501811162],[128.38176727294922,-1.1335777728791072],[128.37799072265625,-1.1335777728791072],[128.3755874633789,-1.132204750304993],[128.36631774902344,-1.1304884711730097],[128.3639144897461,-1.1318614945598426],[128.36288452148438,-1.1335777728791072],[128.3642578125,-1.1356373055193103],[128.37146759033203,-1.1397563663944368],[128.38726043701172,-1.1431889126242112],[128.40133666992188,-1.1545162860006428],[128.40442657470703,-1.154859539037048],[128.40545654296875,-1.1541730329227988],[128.40511322021484,-1.1493674854885398],[128.40065002441406,-1.1490242317905484],[128.39893341064453,-1.1479944704491487],[128.39893341064453,-1.1459349466540516],[128.3968734741211,-1.1462782007228185],[128.3968734741211,-1.1452484383931534],[128.39584350585938,-1.1438754213781408],[128.39481353759766,-1.1442186756935229],[128.39309692382812,-1.142845658185692],[128.3920669555664,-1.1431889126242112],[128.3920669555664,-1.142159149185602],[128.38932037353516,-1.1414726400215045],[128.38863372802734,-1.1397563663944368],[128.3869171142578,-1.138383346756271],[128.38623046875,-1.1394131115462187]],[[128.36528778076172,-0.5493079911125136],[128.36563110351562,-0.5503379119510043],[128.36700439453125,-0.5510245257445661],[128.36769104003906,-0.5503379119510043],[128.36734771728516,-0.5493079911125136],[128.36185455322266,-0.5475914559874298],[128.3584213256836,-0.5475914559874298],[128.3536148071289,-0.5462182275334015],[128.36048126220703,-0.5393520805723568],[128.36631774902344,-0.5369489273009975],[128.3694076538086,-0.537978850247498],[128.3700942993164,-0.5390087730201572],[128.3690643310547,-0.5396953881051871],[128.3690643310547,-0.540038695618648],[128.3704376220703,-0.5403820031127111],[128.37421417236328,-0.5445016915246867],[128.37730407714844,-0.5451883059868976],[128.37970733642578,-0.5486213771215631],[128.38176727294922,-0.5479347630518134],[128.38211059570312,-0.5489646841269007],[128.3865737915039,-0.550681218857676],[128.39035034179688,-0.553084366650026],[128.3913803100586,-0.5520544462864905],[128.3920669555664,-0.5537709801264441],[128.39309692382812,-0.5534276733981756],[128.39344024658203,-0.5548009001919496],[128.3968734741211,-0.5551442068406232],[128.39859008789062,-0.5578906593114539],[128.39859008789062,-0.5544575935233524],[128.40099334716797,-0.553084366650026],[128.40442657470703,-0.5520544462864905],[128.4033966064453,-0.5493079911125136],[128.40065002441406,-0.5475914559874298],[128.39584350585938,-0.5458749203708209],[128.39309692382812,-0.5465615346763428],[128.38966369628906,-0.5427851550272607],[128.37970733642578,-0.5369489273009975],[128.37284088134766,-0.5293961537466316],[128.36872100830078,-0.5273363048114987],[128.36528778076172,-0.5283662293644369],[128.35670471191406,-0.5362623119069241],[128.3429718017578,-0.5410686180426438],[128.3361053466797,-0.5462182275334015],[128.33507537841797,-0.5479347630518134],[128.33816528320312,-0.5475914559874298],[128.3419418334961,-0.5513678326116747],[128.34331512451172,-0.5517111394589733],[128.3477783203125,-0.5517111394589733],[128.35086822509766,-0.5489646841269007],[128.36219787597656,-0.5489646841269007],[128.36528778076172,-0.5493079911125136]],[[128.3920669555664,-1.1363238160733857],[128.39618682861328,-1.1370103264642921],[128.40030670166016,-1.1376968366919584],[128.40133666992188,-1.1349507948021653],[128.40065002441406,-1.1328912616733788],[128.4023666381836,-1.1318614945598426],[128.40167999267578,-1.129115447136897],[128.4030532836914,-1.125339627696178],[128.40133666992188,-1.121907060326322],[128.39035034179688,-1.121907060326322],[128.39000701904297,-1.123966601232297],[128.38863372802734,-1.1249963711407673],[128.38863372802734,-1.1260261406858092],[128.3869171142578,-1.1267126535137493],[128.38726043701172,-1.1287721910265134],[128.38932037353516,-1.1301452152248288],[128.39035034179688,-1.1335777728791072],[128.3924102783203,-1.1349507948021653],[128.3920669555664,-1.1363238160733857]],[[128.36700439453125,-0.5523977530941693],[128.36666107177734,-0.5520544462864905],[128.36563110351562,-0.5520544462864905],[128.36563110351562,-0.5527410598820239],[128.36803436279297,-0.5568607397847671],[128.37181091308594,-0.5582339657803033],[128.3803939819336,-0.5585772722291011],[128.38451385498047,-0.5558308200781568],[128.38451385498047,-0.5554875134693589],[128.38176727294922,-0.5561741266670026],[128.38245391845703,-0.5551442068406232],[128.3807373046875,-0.5541142868348459],[128.3755874633789,-0.5558308200781568],[128.37284088134766,-0.5554875134693589],[128.36837768554688,-0.5517111394589733],[128.36769104003906,-0.5520544462864905],[128.3690643310547,-0.5534276733981756],[128.36734771728516,-0.5523977530941693],[128.3690643310547,-0.5551442068406232],[128.36837768554688,-0.5558308200781568],[128.36700439453125,-0.5523977530941693]],[[128.34091186523438,-0.5716229023106081],[128.34228515625,-0.5723095136051484],[128.34228515625,-0.5709362909339575],[128.34365844726562,-0.5692197621338551],[128.34365844726562,-0.570592985214887],[128.3484649658203,-0.5678465387258314],[128.3484649658203,-0.5668166209557199],[128.35018157958984,-0.567503232822844],[128.34983825683594,-0.568533150470671],[128.3484649658203,-0.5692197621338551],[128.34983825683594,-0.5695630679347943],[128.35086822509766,-0.5671599268994498],[128.34949493408203,-0.5664733149916117],[128.34606170654297,-0.5668166209557199],[128.33816528320312,-0.5729961248175215],[128.3306121826172,-0.5753992634120948],[128.32923889160156,-0.5767724850119151],[128.331298828125,-0.5788323167901694],[128.33335876464844,-0.5791756220138922],[128.3419418334961,-0.5788323167901694],[128.3481216430664,-0.583295283072971],[128.35430145263672,-0.5812354529190458],[128.35464477539062,-0.5798622323989093],[128.36013793945312,-0.5764291796429859],[128.36151123046875,-0.5743693469952547],[128.35670471191406,-0.5699063737152983],[128.35704803466797,-0.5712795966325359],[128.35567474365234,-0.5712795966325359],[128.353271484375,-0.5760858742533657],[128.34915161132812,-0.5774590956876295],[128.34571838378906,-0.5760858742533657],[128.3429718017578,-0.5729961248175215],[128.33953857421875,-0.5726528192216023],[128.34091186523438,-0.5716229023106081]],[[128.35121154785156,-1.053598148319523],[128.35155487060547,-1.0532548835917481],[128.35155487060547,-1.0525683540227675],[128.34949493408203,-1.0525683540227675],[128.35121154785156,-1.053598148319523]],[[128.35155487060547,-1.0532548835917481],[128.35498809814453,-1.0511952944315084],[128.35636138916016,-1.0494789690934994],[128.35498809814453,-1.0505087644094147],[128.35189819335938,-1.0505087644094147],[128.35224151611328,-1.0522250891816043],[128.35155487060547,-1.0532548835917481]],[[128.35636138916016,-1.0494789690934994],[128.36013793945312,-1.0439867216902599],[128.3580780029297,-1.0415838604315155],[128.35224151611328,-1.0395242636084987],[128.3474349975586,-1.0354050659349383],[128.34434509277344,-1.0357483326124566],[128.34125518798828,-1.0343752656794294],[128.33919525146484,-1.036091599252785],[128.3415985107422,-1.0374646654420872],[128.3415985107422,-1.0381511983133151],[128.3374786376953,-1.0381511983133151],[128.33782196044922,-1.0398675298390145],[128.3371353149414,-1.040897328306599],[128.33473205566406,-1.0391809973406367],[128.3371353149414,-1.0491357039128246],[128.33988189697266,-1.0539414130094826],[128.34537506103516,-1.0539414130094826],[128.3477783203125,-1.0515385593859747],[128.34537506103516,-1.0515385593859747],[128.34365844726562,-1.0491357039128246],[128.34949493408203,-1.0474193774447826],[128.35189819335938,-1.0477626428136233],[128.3539581298828,-1.0453597844424678],[128.3539581298828,-1.0433001900892407],[128.35601806640625,-1.0433001900892407],[128.35704803466797,-1.0443299874345513],[128.3587646484375,-1.0433001900892407],[128.3591079711914,-1.0443299874345513],[128.35773468017578,-1.0467328465942671],[128.35567474365234,-1.0460463155934718],[128.3536148071289,-1.0474193774447826],[128.3539581298828,-1.0481059081448763],[128.35636138916016,-1.0484491734384989],[128.35636138916016,-1.0494789690934994]],[[128.3477783203125,-1.1195042607704835],[128.3474349975586,-1.117101459245518],[128.34674835205078,-1.1129823663479783],[128.34503173828125,-1.1112660759415007],[128.34331512451172,-1.1112660759415007],[128.34228515625,-1.109549784537748],[128.33782196044922,-1.1081767506977371],[128.331298828125,-1.1098930428982072],[128.32923889160156,-1.111952592223858],[128.32855224609375,-1.1143553979541139],[128.32958221435547,-1.1160716865616536],[128.33507537841797,-1.1177879741676122],[128.33576202392578,-1.1195042607704835],[128.33988189697266,-1.1195042607704835],[128.34056854248047,-1.1212205463686757],[128.34365844726562,-1.1222503172447347],[128.34674835205078,-1.1212205463686757],[128.3477783203125,-1.1195042607704835]],[[128.33541870117188,-1.1057739399467152],[128.33919525146484,-1.106803716221279],[128.34228515625,-1.107833492138269],[128.34434509277344,-1.109549784537748],[128.34537506103516,-1.1085200092174432],[128.34331512451172,-1.106803716221279],[128.3429718017578,-1.1057739399467152],[128.34400177001953,-1.1037143863262031],[128.3419418334961,-1.10131157196642],[128.3374786376953,-1.1040576453620758],[128.33576202392578,-1.1037143863262031],[128.33541870117188,-1.1057739399467152]],[[128.31722259521484,-0.5544575935233524],[128.32340240478516,-0.5551442068406232],[128.3306121826172,-0.5551442068406232],[128.33438873291016,-0.5561741266670026],[128.34056854248047,-0.5544575935233524],[128.3415985107422,-0.5523977530941693],[128.3367919921875,-0.5489646841269007],[128.3374786376953,-0.5503379119510043],[128.33404541015625,-0.5517111394589733],[128.33370208740234,-0.550681218857676],[128.33473205566406,-0.550681218857676],[128.33438873291016,-0.5496512980784161],[128.33026885986328,-0.5475914559874298],[128.31584930419922,-0.5496512980784161],[128.31619262695312,-0.553084366650026],[128.31722259521484,-0.5544575935233524]],[[128.2375717163086,-1.0426136583384107],[128.23585510253906,-1.0439867216902599],[128.23413848876953,-1.0477626428136233],[128.23551177978516,-1.0487924386944911],[128.2372283935547,-1.0481059081448763],[128.23997497558594,-1.0453597844424678],[128.24546813964844,-1.0481059081448763],[128.24581146240234,-1.0511952944315084],[128.24684143066406,-1.0522250891816043],[128.2485580444336,-1.0525683540227675],[128.24993133544922,-1.0508520294393406],[128.25061798095703,-1.0484491734384989],[128.25027465820312,-1.0457030500367352],[128.2440948486328,-1.0439867216902599],[128.23997497558594,-1.040554062188093],[128.23894500732422,-1.040554062188093],[128.2379150390625,-1.0415838604315155],[128.23963165283203,-1.0426136583384107],[128.2375717163086,-1.0426136583384107]],[[128.2437515258789,-1.063209545296857],[128.2437515258789,-1.0608066988471734],[128.2379150390625,-1.0645825995715654],[128.23551177978516,-1.064925863044735],[128.23345184326172,-1.0628662816327363],[128.23379516601562,-1.0580605863344203],[128.2327651977539,-1.055314471390858],[128.23482513427734,-1.0494789690934994],[128.2317352294922,-1.0481059081448763],[128.2327651977539,-1.0443299874345513],[128.23070526123047,-1.0388377310354855],[128.2272720336914,-1.0391809973406367],[128.2265853881836,-1.040554062188093],[128.2276153564453,-1.0511952944315084],[128.22933197021484,-1.0608066988471734],[128.23104858398438,-1.0638960725105875],[128.23482513427734,-1.0673287062858776],[128.2375717163086,-1.0680152325815442],[128.24237823486328,-1.0645825995715654],[128.2437515258789,-1.063209545296857]],[[128.15139770507812,-0.7964831351139168],[128.15345764160156,-0.798199582665049],[128.1548309326172,-0.7995727401902428],[128.15860748291016,-0.7978562932120923],[128.15963745117188,-0.7961398455178568],[128.1610107421875,-0.7954532662400027],[128.1613540649414,-0.793393527721463],[128.15654754638672,-0.7947666868479075],[128.15654754638672,-0.7930502378685986],[128.1551742553711,-0.7930502378685986],[128.1548309326172,-0.7954532662400027],[128.15139770507812,-0.7964831351139168]],[[128.13594818115234,-0.805408654538823],[128.13560485839844,-0.8071250983478677],[128.13594818115234,-0.8095281184631773],[128.13766479492188,-0.8105579837911989],[128.14041137695312,-0.8084982528736049],[128.15105438232422,-0.8074683870227943],[128.15242767333984,-0.8057519433585014],[128.15174102783203,-0.804722076812709],[128.14899444580078,-0.804722076812709],[128.14762115478516,-0.8060952321492607],[128.14659118652344,-0.805408654538823],[128.14178466796875,-0.8064385209110867],[128.1383514404297,-0.804722076812709],[128.13594818115234,-0.805408654538823]],[[128.11946868896484,-0.8479762437614795],[128.12152862548828,-0.8469463881625501],[128.12152862548828,-0.8455732469383577],[128.1229019165039,-0.844886676144057],[128.1232452392578,-0.8438568197251755],[128.11981201171875,-0.8414538203547153],[128.11809539794922,-0.8414538203547153],[128.11534881591797,-0.8445433907014035],[128.11260223388672,-0.8510658089130487],[128.11431884765625,-0.8555285097605179],[128.12152862548828,-0.8524389481865597],[128.12118530273438,-0.8510658089130487],[128.11981201171875,-0.8507225240182663],[128.11946868896484,-0.8479762437614795]],[[128.1112289428711,-0.8541553715897976],[128.1112289428711,-0.8524389481865597],[128.10951232910156,-0.8503792390929306],[128.10710906982422,-0.8490060990864237],[128.10367584228516,-0.8493493841338022],[128.10436248779297,-0.8479762437614795],[128.10230255126953,-0.8462598176112124],[128.10161590576172,-0.8435135341916151],[128.1002426147461,-0.8428269630336445],[128.09818267822266,-0.8442001052284525],[128.09612274169922,-0.8393941054303014],[128.09371948242188,-0.8376776754978152],[128.0892562866211,-0.8393941054303014],[128.0847930908203,-0.839050819504024],[128.08135986328125,-0.8442001052284525],[128.08135986328125,-0.8472896733926092],[128.07964324951172,-0.8500359541370699],[128.08067321777344,-0.8524389481865597],[128.0837631225586,-0.8548419407365486],[128.08685302734375,-0.8558717942264451],[128.0902862548828,-0.8544986561785208],[128.0954360961914,-0.8582747846268859],[128.09749603271484,-0.8579315003763099],[128.09818267822266,-0.859991205417387],[128.09921264648438,-0.8603344894829092],[128.10333251953125,-0.8596479213209847],[128.1060791015625,-0.8555285097605179],[128.10779571533203,-0.8565583630660996],[128.10951232910156,-0.8562150786616343],[128.1112289428711,-0.8541553715897976]]]}}]}