{"type":"FeatureCollection","features":[{"type":"Feature","id":"pmtiles:12/3508/1973:water:340:0","properties":{"class":"ocean","water":"ocean","kind":"waterway","verification":"verified","source":"OpenMapTiles/OpenStreetMap national PMTiles","sourceId":"12/3508/1973:water:340:0","sourceLayer":"water","archive":"https://its.hanifahseptiani45.workers.dev/v1/map/archive/indonesia.pmtiles","updatedAt":"2026-07-26T10:34:10.751Z"},"geometry":{"type":"Polygon","coordinates":[[[128.31893920898438,6.578667368565007],[128.40957641601562,6.578667368565007],[128.40957641601562,6.488618840362278],[128.31893920898438,6.488618840362278],[128.31893920898438,6.578667368565007]]]}},{"type":"Feature","id":"pmtiles:12/3509/1973:water:340:0","properties":{"class":"ocean","water":"ocean","kind":"waterway","verification":"verified","source":"OpenMapTiles/OpenStreetMap national PMTiles","sourceId":"12/3509/1973:water:340:0","sourceLayer":"water","archive":"https://its.hanifahseptiani45.workers.dev/v1/map/archive/indonesia.pmtiles","updatedAt":"2026-07-26T10:34:10.832Z"},"geometry":{"type":"Polygon","coordinates":[[[128.40682983398438,6.578667368565007],[128.49746704101562,6.578667368565007],[128.49746704101562,6.488618840362278],[128.40682983398438,6.488618840362278],[128.40682983398438,6.578667368565007]]]}},{"type":"Feature","id":"pmtiles:12/3510/1973:water:340:0","properties":{"class":"ocean","water":"ocean","kind":"waterway","verification":"verified","source":"OpenMapTiles/OpenStreetMap national PMTiles","sourceId":"12/3510/1973:water:340:0","sourceLayer":"water","archive":"https://its.hanifahseptiani45.workers.dev/v1/map/archive/indonesia.pmtiles","updatedAt":"2026-07-26T10:34:10.896Z"},"geometry":{"type":"Polygon","coordinates":[[[128.49472045898438,6.578667368565007],[128.58535766601562,6.578667368565007],[128.58535766601562,6.488618840362278],[128.49472045898438,6.488618840362278],[128.49472045898438,6.578667368565007]]]}},{"type":"Feature","id":"pmtiles:12/3511/1973:water:340:0","properties":{"class":"ocean","water":"ocean","kind":"waterway","verification":"verified","source":"OpenMapTiles/OpenStreetMap national PMTiles","sourceId":"12/3511/1973:water:340:0","sourceLayer":"water","archive":"https://its.hanifahseptiani45.workers.dev/v1/map/archive/indonesia.pmtiles","updatedAt":"2026-07-26T10:34:10.977Z"},"geometry":{"type":"Polygon","coordinates":[[[128.58261108398438,6.578667368565007],[128.67324829101562,6.578667368565007],[128.67324829101562,6.488618840362278],[128.58261108398438,6.488618840362278],[128.58261108398438,6.578667368565007]]]}},{"type":"Feature","id":"pmtiles:12/3508/1974:water:340:0","properties":{"class":"ocean","water":"ocean","kind":"waterway","verification":"verified","source":"OpenMapTiles/OpenStreetMap national PMTiles","sourceId":"12/3508/1974:water:340:0","sourceLayer":"water","archive":"https://its.hanifahseptiani45.workers.dev/v1/map/archive/indonesia.pmtiles","updatedAt":"2026-07-26T10:34:43.150Z"},"geometry":{"type":"Polygon","coordinates":[[[128.31893920898438,6.491347821282432],[128.40957641601562,6.491347821282432],[128.40957641601562,6.4012836786624945],[128.31893920898438,6.4012836786624945],[128.31893920898438,6.491347821282432]]]}},{"type":"Feature","id":"pmtiles:12/3509/1974:water:340:0","properties":{"class":"ocean","water":"ocean","kind":"waterway","verification":"verified","source":"OpenMapTiles/OpenStreetMap national PMTiles","sourceId":"12/3509/1974:water:340:0","sourceLayer":"water","archive":"https://its.hanifahseptiani45.workers.dev/v1/map/archive/indonesia.pmtiles","updatedAt":"2026-07-26T10:34:43.218Z"},"geometry":{"type":"Polygon","coordinates":[[[128.40682983398438,6.491347821282432],[128.49746704101562,6.491347821282432],[128.49746704101562,6.4012836786624945],[128.40682983398438,6.4012836786624945],[128.40682983398438,6.491347821282432]]]}},{"type":"Feature","id":"pmtiles:12/3510/1974:water:340:0","properties":{"class":"ocean","water":"ocean","kind":"waterway","verification":"verified","source":"OpenMapTiles/OpenStreetMap national PMTiles","sourceId":"12/3510/1974:water:340:0","sourceLayer":"water","archive":"https://its.hanifahseptiani45.workers.dev/v1/map/archive/indonesia.pmtiles","updatedAt":"2026-07-26T10:34:43.278Z"},"geometry":{"type":"Polygon","coordinates":[[[128.49472045898438,6.491347821282432],[128.58535766601562,6.491347821282432],[128.58535766601562,6.4012836786624945],[128.49472045898438,6.4012836786624945],[128.49472045898438,6.491347821282432]]]}},{"type":"Feature","id":"pmtiles:12/3511/1974:water:340:0","properties":{"class":"ocean","water":"ocean","kind":"waterway","verification":"verified","source":"OpenMapTiles/OpenStreetMap national PMTiles","sourceId":"12/3511/1974:water:340:0","sourceLayer":"water","archive":"https://its.hanifahseptiani45.workers.dev/v1/map/archive/indonesia.pmtiles","updatedAt":"2026-07-26T10:34:43.345Z"},"geometry":{"type":"Polygon","coordinates":[[[128.58261108398438,6.491347821282432],[128.67324829101562,6.491347821282432],[128.67324829101562,6.4012836786624945],[128.58261108398438,6.4012836786624945],[128.58261108398438,6.491347821282432]]]}},{"type":"Feature","id":"pmtiles:12/3508/1975:water:340:0","properties":{"class":"ocean","water":"ocean","kind":"waterway","verification":"verified","source":"OpenMapTiles/OpenStreetMap national PMTiles","sourceId":"12/3508/1975:water:340:0","sourceLayer":"water","archive":"https://its.hanifahseptiani45.workers.dev/v1/map/archive/indonesia.pmtiles","updatedAt":"2026-07-26T10:35:14.736Z"},"geometry":{"type":"Polygon","coordinates":[[[128.31893920898438,6.40401312961761],[128.40957641601562,6.40401312961761],[128.40957641601562,6.31393357916707],[128.31893920898438,6.31393357916707],[128.31893920898438,6.40401312961761]]]}},{"type":"Feature","id":"pmtiles:12/3509/1975:water:340:0","properties":{"class":"ocean","water":"ocean","kind":"waterway","verification":"verified","source":"OpenMapTiles/OpenStreetMap national PMTiles","sourceId":"12/3509/1975:water:340:0","sourceLayer":"water","archive":"https://its.hanifahseptiani45.workers.dev/v1/map/archive/indonesia.pmtiles","updatedAt":"2026-07-26T10:35:14.805Z"},"geometry":{"type":"Polygon","coordinates":[[[128.40682983398438,6.40401312961761],[128.49746704101562,6.40401312961761],[128.49746704101562,6.31393357916707],[128.40682983398438,6.31393357916707],[128.40682983398438,6.40401312961761]]]}},{"type":"Feature","id":"pmtiles:12/3510/1975:water:340:0","properties":{"class":"ocean","water":"ocean","kind":"waterway","verification":"verified","source":"OpenMapTiles/OpenStreetMap national PMTiles","sourceId":"12/3510/1975:water:340:0","sourceLayer":"water","archive":"https://its.hanifahseptiani45.workers.dev/v1/map/archive/indonesia.pmtiles","updatedAt":"2026-07-26T10:35:14.865Z"},"geometry":{"type":"Polygon","coordinates":[[[128.49472045898438,6.40401312961761],[128.58535766601562,6.40401312961761],[128.58535766601562,6.31393357916707],[128.49472045898438,6.31393357916707],[128.49472045898438,6.40401312961761]]]}},{"type":"Feature","id":"pmtiles:12/3511/1975:water:340:0","properties":{"class":"ocean","water":"ocean","kind":"waterway","verification":"verified","source":"OpenMapTiles/OpenStreetMap national PMTiles","sourceId":"12/3511/1975:water:340:0","sourceLayer":"water","archive":"https://its.hanifahseptiani45.workers.dev/v1/map/archive/indonesia.pmtiles","updatedAt":"2026-07-26T10:35:14.928Z"},"geometry":{"type":"Polygon","coordinates":[[[128.58261108398438,6.40401312961761],[128.67324829101562,6.40401312961761],[128.67324829101562,6.31393357916707],[128.58261108398438,6.31393357916707],[128.58261108398438,6.40401312961761]]]}},{"type":"Feature","id":"pmtiles:10/877/493:water:340:0","properties":{"class":"ocean","water":"ocean","kind":"waterway","verification":"verified","source":"OpenMapTiles/OpenStreetMap national PMTiles","sourceId":"10/877/493:water:340:0","sourceLayer":"water","archive":"https://its.hanifahseptiani45.workers.dev/v1/map/archive/indonesia.pmtiles","updatedAt":"2026-07-26T09:37:51.594Z"},"geometry":{"type":"Polygon","coordinates":[[[128.3148193359375,6.670063575977281],[128.6773681640625,6.670063575977281],[128.6773681640625,6.309838680093364],[128.3148193359375,6.309838680093364],[128.3148193359375,6.670063575977281]]]}}]}