{"type":"FeatureCollection","features":[{"type":"Feature","id":"pmtiles:12/3352/1980:water:2410:0","properties":{"class":"ocean","water":"ocean","kind":"waterway","verification":"verified","source":"OpenMapTiles/OpenStreetMap national PMTiles","sourceId":"12/3352/1980:water:2410:0","sourceLayer":"water","archive":"https://its.hanifahseptiani45.workers.dev/v1/map/archive/indonesia.pmtiles","updatedAt":"2026-07-26T10:37:48.606Z"},"geometry":{"type":"Polygon","coordinates":[[[114.60800170898438,5.967119522904156],[114.69863891601562,5.967119522904156],[114.69863891601562,5.87696603826862],[114.60800170898438,5.87696603826862],[114.60800170898438,5.967119522904156]]]}},{"type":"Feature","id":"pmtiles:12/3353/1980:water:2410:0","properties":{"class":"ocean","water":"ocean","kind":"waterway","verification":"verified","source":"OpenMapTiles/OpenStreetMap national PMTiles","sourceId":"12/3353/1980:water:2410:0","sourceLayer":"water","archive":"https://its.hanifahseptiani45.workers.dev/v1/map/archive/indonesia.pmtiles","updatedAt":"2026-07-26T10:37:48.669Z"},"geometry":{"type":"Polygon","coordinates":[[[114.69589233398438,5.967119522904156],[114.78652954101562,5.967119522904156],[114.78652954101562,5.87696603826862],[114.69589233398438,5.87696603826862],[114.69589233398438,5.967119522904156]]]}},{"type":"Feature","id":"pmtiles:12/3354/1980:water:2410:0","properties":{"class":"ocean","water":"ocean","kind":"waterway","verification":"verified","source":"OpenMapTiles/OpenStreetMap national PMTiles","sourceId":"12/3354/1980:water:2410:0","sourceLayer":"water","archive":"https://its.hanifahseptiani45.workers.dev/v1/map/archive/indonesia.pmtiles","updatedAt":"2026-07-26T10:37:48.730Z"},"geometry":{"type":"Polygon","coordinates":[[[114.78378295898438,5.967119522904156],[114.87442016601562,5.967119522904156],[114.87442016601562,5.87696603826862],[114.78378295898438,5.87696603826862],[114.78378295898438,5.967119522904156]]]}},{"type":"Feature","id":"pmtiles:12/3355/1980:water:2410:0","properties":{"class":"ocean","water":"ocean","kind":"waterway","verification":"verified","source":"OpenMapTiles/OpenStreetMap national PMTiles","sourceId":"12/3355/1980:water:2410:0","sourceLayer":"water","archive":"https://its.hanifahseptiani45.workers.dev/v1/map/archive/indonesia.pmtiles","updatedAt":"2026-07-26T10:37:48.795Z"},"geometry":{"type":"Polygon","coordinates":[[[114.87167358398438,5.967119522904156],[114.96231079101562,5.967119522904156],[114.96231079101562,5.87696603826862],[114.87167358398438,5.87696603826862],[114.87167358398438,5.967119522904156]]]}},{"type":"Feature","id":"pmtiles:12/3352/1981:water:2410:0","properties":{"class":"ocean","water":"ocean","kind":"waterway","verification":"verified","source":"OpenMapTiles/OpenStreetMap national PMTiles","sourceId":"12/3352/1981:water:2410:0","sourceLayer":"water","archive":"https://its.hanifahseptiani45.workers.dev/v1/map/archive/indonesia.pmtiles","updatedAt":"2026-07-26T10:38:24.838Z"},"geometry":{"type":"Polygon","coordinates":[[[114.60800170898438,5.879698177726667],[114.69863891601562,5.879698177726667],[114.69863891601562,5.789530528448793],[114.60800170898438,5.789530528448793],[114.60800170898438,5.879698177726667]]]}},{"type":"Feature","id":"pmtiles:12/3353/1981:water:2410:0","properties":{"class":"ocean","water":"ocean","kind":"waterway","verification":"verified","source":"OpenMapTiles/OpenStreetMap national PMTiles","sourceId":"12/3353/1981:water:2410:0","sourceLayer":"water","archive":"https://its.hanifahseptiani45.workers.dev/v1/map/archive/indonesia.pmtiles","updatedAt":"2026-07-26T10:38:24.890Z"},"geometry":{"type":"Polygon","coordinates":[[[114.69589233398438,5.879698177726667],[114.78652954101562,5.879698177726667],[114.78652954101562,5.789530528448793],[114.69589233398438,5.789530528448793],[114.69589233398438,5.879698177726667]]]}},{"type":"Feature","id":"pmtiles:12/3354/1981:water:2410:0","properties":{"class":"ocean","water":"ocean","kind":"waterway","verification":"verified","source":"OpenMapTiles/OpenStreetMap national PMTiles","sourceId":"12/3354/1981:water:2410:0","sourceLayer":"water","archive":"https://its.hanifahseptiani45.workers.dev/v1/map/archive/indonesia.pmtiles","updatedAt":"2026-07-26T10:38:24.954Z"},"geometry":{"type":"Polygon","coordinates":[[[114.78378295898438,5.879698177726667],[114.87442016601562,5.879698177726667],[114.87442016601562,5.789530528448793],[114.78378295898438,5.789530528448793],[114.78378295898438,5.879698177726667]]]}},{"type":"Feature","id":"pmtiles:12/3355/1981:water:2410:0","properties":{"class":"ocean","water":"ocean","kind":"waterway","verification":"verified","source":"OpenMapTiles/OpenStreetMap national PMTiles","sourceId":"12/3355/1981:water:2410:0","sourceLayer":"water","archive":"https://its.hanifahseptiani45.workers.dev/v1/map/archive/indonesia.pmtiles","updatedAt":"2026-07-26T10:38:25.025Z"},"geometry":{"type":"Polygon","coordinates":[[[114.87167358398438,5.879698177726667],[114.96231079101562,5.879698177726667],[114.96231079101562,5.789530528448793],[114.87167358398438,5.789530528448793],[114.87167358398438,5.879698177726667]]]}},{"type":"Feature","id":"pmtiles:12/3352/1982:water:2410:0","properties":{"class":"ocean","water":"ocean","kind":"waterway","verification":"verified","source":"OpenMapTiles/OpenStreetMap national PMTiles","sourceId":"12/3352/1982:water:2410:0","sourceLayer":"water","archive":"https://its.hanifahseptiani45.workers.dev/v1/map/archive/indonesia.pmtiles","updatedAt":"2026-07-26T10:38:56.569Z"},"geometry":{"type":"Polygon","coordinates":[[[114.60800170898438,5.792263093990954],[114.69863891601562,5.792263093990954],[114.69863891601562,5.702081487858422],[114.60800170898438,5.702081487858422],[114.60800170898438,5.792263093990954]]]}},{"type":"Feature","id":"pmtiles:12/3353/1982:water:2410:0","properties":{"class":"ocean","water":"ocean","kind":"waterway","verification":"verified","source":"OpenMapTiles/OpenStreetMap national PMTiles","sourceId":"12/3353/1982:water:2410:0","sourceLayer":"water","archive":"https://its.hanifahseptiani45.workers.dev/v1/map/archive/indonesia.pmtiles","updatedAt":"2026-07-26T10:38:56.643Z"},"geometry":{"type":"Polygon","coordinates":[[[114.69589233398438,5.792263093990954],[114.78652954101562,5.792263093990954],[114.78652954101562,5.702081487858422],[114.69589233398438,5.702081487858422],[114.69589233398438,5.792263093990954]]]}},{"type":"Feature","id":"pmtiles:12/3354/1982:water:2410:0","properties":{"class":"ocean","water":"ocean","kind":"waterway","verification":"verified","source":"OpenMapTiles/OpenStreetMap national PMTiles","sourceId":"12/3354/1982:water:2410:0","sourceLayer":"water","archive":"https://its.hanifahseptiani45.workers.dev/v1/map/archive/indonesia.pmtiles","updatedAt":"2026-07-26T10:38:56.723Z"},"geometry":{"type":"Polygon","coordinates":[[[114.78378295898438,5.792263093990954],[114.87442016601562,5.792263093990954],[114.87442016601562,5.702081487858422],[114.78378295898438,5.702081487858422],[114.78378295898438,5.792263093990954]]]}},{"type":"Feature","id":"pmtiles:12/3355/1982:water:2410:0","properties":{"class":"ocean","water":"ocean","kind":"waterway","verification":"verified","source":"OpenMapTiles/OpenStreetMap national PMTiles","sourceId":"12/3355/1982:water:2410:0","sourceLayer":"water","archive":"https://its.hanifahseptiani45.workers.dev/v1/map/archive/indonesia.pmtiles","updatedAt":"2026-07-26T10:38:56.796Z"},"geometry":{"type":"Polygon","coordinates":[[[114.87167358398438,5.792263093990954],[114.96231079101562,5.792263093990954],[114.96231079101562,5.702081487858422],[114.87167358398438,5.702081487858422],[114.87167358398438,5.792263093990954]]]}},{"type":"Feature","id":"pmtiles:12/3352/1983:water:1990:0","properties":{"class":"ocean","water":"ocean","kind":"waterway","verification":"verified","source":"OpenMapTiles/OpenStreetMap national PMTiles","sourceId":"12/3352/1983:water:1990:0","sourceLayer":"water","archive":"https://its.hanifahseptiani45.workers.dev/v1/map/archive/indonesia.pmtiles","updatedAt":"2026-07-26T10:39:31.277Z"},"geometry":{"type":"Polygon","coordinates":[[[114.60800170898438,5.70481447318565],[114.69863891601562,5.70481447318565],[114.69863891601562,5.61461911814834],[114.60800170898438,5.61461911814834],[114.60800170898438,5.70481447318565]]]}},{"type":"Feature","id":"pmtiles:12/3353/1983:water:1990:0","properties":{"class":"ocean","water":"ocean","kind":"waterway","verification":"verified","source":"OpenMapTiles/OpenStreetMap national PMTiles","sourceId":"12/3353/1983:water:1990:0","sourceLayer":"water","archive":"https://its.hanifahseptiani45.workers.dev/v1/map/archive/indonesia.pmtiles","updatedAt":"2026-07-26T10:39:31.363Z"},"geometry":{"type":"Polygon","coordinates":[[[114.69589233398438,5.70481447318565],[114.78652954101562,5.70481447318565],[114.78652954101562,5.61461911814834],[114.69589233398438,5.61461911814834],[114.69589233398438,5.70481447318565]]]}},{"type":"Feature","id":"pmtiles:12/3354/1983:water:1990:0","properties":{"class":"ocean","water":"ocean","kind":"waterway","verification":"verified","source":"OpenMapTiles/OpenStreetMap national PMTiles","sourceId":"12/3354/1983:water:1990:0","sourceLayer":"water","archive":"https://its.hanifahseptiani45.workers.dev/v1/map/archive/indonesia.pmtiles","updatedAt":"2026-07-26T10:39:31.447Z"},"geometry":{"type":"Polygon","coordinates":[[[114.78378295898438,5.70481447318565],[114.87442016601562,5.70481447318565],[114.87442016601562,5.61461911814834],[114.78378295898438,5.61461911814834],[114.78378295898438,5.70481447318565]]]}},{"type":"Feature","id":"pmtiles:12/3355/1983:water:1990:0","properties":{"class":"ocean","water":"ocean","kind":"waterway","verification":"verified","source":"OpenMapTiles/OpenStreetMap national PMTiles","sourceId":"12/3355/1983:water:1990:0","sourceLayer":"water","archive":"https://its.hanifahseptiani45.workers.dev/v1/map/archive/indonesia.pmtiles","updatedAt":"2026-07-26T10:39:31.530Z"},"geometry":{"type":"Polygon","coordinates":[[[114.87167358398438,5.70481447318565],[114.96231079101562,5.70481447318565],[114.96231079101562,5.61461911814834],[114.87167358398438,5.61461911814834],[114.87167358398438,5.70481447318565]]]}},{"type":"Feature","id":"pmtiles:10/838/495:water:1990:0","properties":{"class":"ocean","water":"ocean","kind":"waterway","verification":"verified","source":"OpenMapTiles/OpenStreetMap national PMTiles","sourceId":"10/838/495:water:1990:0","sourceLayer":"water","archive":"https://its.hanifahseptiani45.workers.dev/v1/map/archive/indonesia.pmtiles","updatedAt":"2026-07-26T09:38:13.529Z"},"geometry":{"type":"Polygon","coordinates":[[[114.6038818359375,5.971217057997222],[114.9664306640625,5.971217057997222],[114.9664306640625,5.61051899590089],[114.6038818359375,5.61051899590089],[114.6038818359375,5.971217057997222]]]}}]}