{"type":"FeatureCollection","features":[{"type":"Feature","id":"pmtiles:10/827/514:mountain_peak:10701639311:0","properties":{"name_int":"Bukit Tentudung","name_de":"Bukit Tentudung","name":"Bukit Tentudung","rank":1,"class":"peak","name:latin":"Bukit Tentudung","name_en":"Bukit Tentudung","kind":"poi","verification":"verified","source":"OpenMapTiles/OpenStreetMap national PMTiles","sourceId":"10/827/514:mountain_peak:10701639311:0","sourceLayer":"mountain_peak","archive":"https://its.hanifahseptiani45.workers.dev/v1/map/archive/indonesia.pmtiles","updatedAt":"2026-07-26T09:41:55.782Z"},"geometry":{"type":"Point","coordinates":[111.1333179473877,-1.0832904028138017]}},{"type":"Feature","id":"pmtiles:10/828/514:mountain_peak:10701639311:0","properties":{"name_int":"Bukit Tentudung","name_de":"Bukit Tentudung","name":"Bukit Tentudung","rank":1,"class":"peak","name:latin":"Bukit Tentudung","name_en":"Bukit Tentudung","kind":"poi","verification":"verified","source":"OpenMapTiles/OpenStreetMap national PMTiles","sourceId":"10/828/514:mountain_peak:10701639311:0","sourceLayer":"mountain_peak","archive":"https://its.hanifahseptiani45.workers.dev/v1/map/archive/indonesia.pmtiles","updatedAt":"2026-07-26T09:41:55.845Z"},"geometry":{"type":"Point","coordinates":[111.1333179473877,-1.0832904028138017]}},{"type":"Feature","id":"pmtiles:10/827/515:mountain_peak:10701639311:0","properties":{"name_int":"Bukit Tentudung","name_de":"Bukit Tentudung","name":"Bukit Tentudung","rank":1,"class":"peak","name:latin":"Bukit Tentudung","name_en":"Bukit Tentudung","kind":"poi","verification":"verified","source":"OpenMapTiles/OpenStreetMap national PMTiles","sourceId":"10/827/515:mountain_peak:10701639311:0","sourceLayer":"mountain_peak","archive":"https://its.hanifahseptiani45.workers.dev/v1/map/archive/indonesia.pmtiles","updatedAt":"2026-07-26T09:42:06.766Z"},"geometry":{"type":"Point","coordinates":[111.1333179473877,-1.0832904028138017]}},{"type":"Feature","id":"pmtiles:10/828/515:mountain_peak:10701639311:0","properties":{"name_int":"Bukit Tentudung","name_de":"Bukit Tentudung","name":"Bukit Tentudung","rank":1,"class":"peak","name:latin":"Bukit Tentudung","name_en":"Bukit Tentudung","kind":"poi","verification":"verified","source":"OpenMapTiles/OpenStreetMap national PMTiles","sourceId":"10/828/515:mountain_peak:10701639311:0","sourceLayer":"mountain_peak","archive":"https://its.hanifahseptiani45.workers.dev/v1/map/archive/indonesia.pmtiles","updatedAt":"2026-07-26T09:42:06.831Z"},"geometry":{"type":"Point","coordinates":[111.1333179473877,-1.0832904028138017]}},{"type":"Feature","id":"pmtiles:10/828/515:mountain_peak:10701716841:0","properties":{"name_int":"Bukit Perai","name_de":"Bukit Perai","name":"Bukit Perai","rank":1,"class":"peak","name:latin":"Bukit Perai","name_en":"Bukit Perai","kind":"poi","verification":"verified","source":"OpenMapTiles/OpenStreetMap national PMTiles","sourceId":"10/828/515:mountain_peak:10701716841:0","sourceLayer":"mountain_peak","archive":"https://its.hanifahseptiani45.workers.dev/v1/map/archive/indonesia.pmtiles","updatedAt":"2026-07-26T09:42:06.831Z"},"geometry":{"type":"Point","coordinates":[111.21665954589844,-1.1999969475101295]}},{"type":"Feature","id":"pmtiles:10/828/515:mountain_peak:10701570901:0","properties":{"name_int":"Bukit Belah Ulu","name_de":"Bukit Belah Ulu","name":"Bukit Belah Ulu","rank":1,"class":"peak","name:latin":"Bukit Belah Ulu","name_en":"Bukit Belah Ulu","kind":"poi","verification":"verified","source":"OpenMapTiles/OpenStreetMap national PMTiles","sourceId":"10/828/515:mountain_peak:10701570901:0","sourceLayer":"mountain_peak","archive":"https://its.hanifahseptiani45.workers.dev/v1/map/archive/indonesia.pmtiles","updatedAt":"2026-07-26T09:42:06.831Z"},"geometry":{"type":"Point","coordinates":[111.28334999084473,-1.4000166836387677]}},{"type":"Feature","id":"pmtiles:10/828/515:mountain_peak:10701926191:0","properties":{"name_int":"Bukit Seguruh","name_de":"Bukit Seguruh","name":"Bukit Seguruh","rank":2,"class":"peak","name:latin":"Bukit Seguruh","name_en":"Bukit Seguruh","kind":"poi","verification":"verified","source":"OpenMapTiles/OpenStreetMap national PMTiles","sourceId":"10/828/515:mountain_peak:10701926191:0","sourceLayer":"mountain_peak","archive":"https://its.hanifahseptiani45.workers.dev/v1/map/archive/indonesia.pmtiles","updatedAt":"2026-07-26T09:42:06.831Z"},"geometry":{"type":"Point","coordinates":[111.31665229797363,-1.3166985128854094]}},{"type":"Feature","id":"pmtiles:10/828/515:waterway:5196529912:0","properties":{"name_int":"Batang Kawa River","name_de":"Sungai Batang Kawa","name":"Sungai Batang Kawa","name:en":"Batang Kawa River","class":"river","name:latin":"Sungai Batang Kawa","name_en":"Batang Kawa River","waterway":"river","kind":"waterway","verification":"verified","source":"OpenMapTiles/OpenStreetMap national PMTiles","sourceId":"10/828/515:waterway:5196529912:0","sourceLayer":"waterway","archive":"https://its.hanifahseptiani45.workers.dev/v1/map/archive/indonesia.pmtiles","updatedAt":"2026-07-26T09:42:06.831Z"},"geometry":{"type":"LineString","coordinates":[[111.13863945007324,-1.2244532188123713],[111.13855361938477,-1.2248822742251093],[111.1388111114502,-1.2252255185058516],[111.13949775695801,-1.2253113295691804],[111.14044189453125,-1.2259120069353884],[111.1406135559082,-1.2265984951889095],[111.13992691040039,-1.2273707942635923],[111.13924026489258,-1.2304599883306508],[111.1388111114502,-1.2312322862887726],[111.13846778869629,-1.231403908026877],[111.13718032836914,-1.2310606645396263],[111.13666534423828,-1.2311464754155708],[111.13632202148438,-1.2314897188917655],[111.1365795135498,-1.2338066111992276],[111.1376953125,-1.2338066111992276],[111.13795280456543,-1.2340640435533459],[111.13795280456543,-1.2345789081868332],[111.13700866699219,-1.2357802586104611],[111.1373519897461,-1.2372390405371902],[111.13700866699219,-1.2379255258722566],[111.13700866699219,-1.239727549030917],[111.13640785217285,-1.2424734867231564],[111.13529205322266,-1.2435032126222296],[111.13340377807617,-1.2474504915110174],[111.13288879394531,-1.2479653535386035],[111.1333179473877,-1.2494241287359813],[111.13391876220703,-1.2494241287359813],[111.13426208496094,-1.2497673698412086],[111.13675117492676,-1.2494241287359813],[111.13692283630371,-1.249595749294187],[111.13709449768066,-1.250110610901558],[111.13632202148438,-1.2522558665117174],[111.1362361907959,-1.2533713987352968],[111.1365795135498,-1.2546585507104737],[111.13649368286133,-1.2558598919825954],[111.13597869873047,-1.2564605624116183],[111.13494873046875,-1.2568896126335005],[111.13460540771484,-1.257661902855233],[111.13537788391113,-1.2585200028335777],[111.13460540771484,-1.2596355323832995],[111.13434791564941,-1.2610084911734845],[111.13340377807617,-1.2619523999216824],[111.13348960876465,-1.262810498486445],[111.13245964050293,-1.265813841230866],[111.13263130187988,-1.2659854607112777],[111.13306045532227,-1.2658996509725],[111.13426208496094,-1.2646983143314259],[111.13460540771484,-1.2646125045500725],[111.13503456115723,-1.2653847924801624],[111.13486289978027,-1.265813841230866],[111.13451957702637,-1.265813841230866],[111.13426208496094,-1.2662428899105862],[111.13434791564941,-1.2665003190843436],[111.1373519897461,-1.2688171804967112],[111.13812446594238,-1.2707908015447913],[111.13838195800781,-1.2721637544280355],[111.13812446594238,-1.273193468611069],[111.13812446594238,-1.2747380391143395],[111.1376953125,-1.2753387051710092],[111.13743782043457,-1.2762826086910621],[111.1380386352539,-1.2771407024995796],[111.13821029663086,-1.2782562240223],[111.13675117492676,-1.2799724100339063],[111.13580703735352,-1.2816027856810734],[111.13563537597656,-1.2833189694515426],[111.13580703735352,-1.283748015214286],[111.1362361907959,-1.283833824358183],[111.13675117492676,-1.2831473511262885],[111.13726615905762,-1.2830615419593414],[111.13752365112305,-1.283233160290365],[111.13889694213867,-1.2858932429475658],[111.13855361938477,-1.2875236148192215],[111.13683700561523,-1.28915398564817],[111.13666534423828,-1.2895830304297107],[111.13743782043457,-1.2899262662028548],[111.13829612731934,-1.28915398564817],[111.1388111114502,-1.2881242778775857],[111.13932609558105,-1.2881242778775857],[111.14130020141602,-1.2890681766832017],[111.14130020141602,-1.2894972214791949],[111.1406135559082,-1.290012075138904],[111.14035606384277,-1.2907843554331322],[111.14069938659668,-1.2911275910441873],[111.1435317993164,-1.292414724172744],[111.14404678344727,-1.292500533024807],[111.14567756652832,-1.2920714887355444],[111.1461067199707,-1.2923289153177961],[111.14559173583984,-1.2941309006626511],[111.14584922790527,-1.2952464147584521],[111.14550590515137,-1.29584707599129],[111.14404678344727,-1.2972200154170537],[111.14181518554688,-1.2973058241064308],[111.1417293548584,-1.297906484850614],[111.14241600036621,-1.2994510403946578],[111.14224433898926,-1.3003091263999806],[111.14267349243164,-1.3024543401366628],[111.14473342895508,-1.3009097864301538],[111.14619255065918,-1.3008239778631605],[111.14687919616699,-1.3013388292212937],[111.14481925964355,-1.3039130844347113],[111.14499092102051,-1.3050285942099293],[111.1446475982666,-1.3066589537605466],[111.1417293548584,-1.3117216424564617],[111.14052772521973,-1.3130945732202832],[111.14001274108887,-1.3143816951264853],[111.14009857177734,-1.315668816369282],[111.14198684692383,-1.321503757664729],[111.1417293548584,-1.3229624908490933],[111.1402702331543,-1.3241637998863496],[111.13855361938477,-1.326051570054119],[111.14035606384277,-1.3286257997803972],[111.13992691040039,-1.3299987212045892],[111.1391544342041,-1.33111421929938],[111.13924026489258,-1.3338600586126432],[111.13984107971191,-1.3380646191208427],[111.13984107971191,-1.338751077295555],[111.13941192626953,-1.339094306310841],[111.1391544342041,-1.3398665714194635],[111.13966941833496,-1.3415827152334856],[111.14009857177734,-1.3420117509989353],[111.14104270935059,-1.3420975581429957],[111.14138603210449,-1.342354979557129],[111.14104270935059,-1.344071121625106],[111.13941192626953,-1.3465595254810268],[111.13941192626953,-1.347503402141399],[111.14121437072754,-1.3481040507348467],[111.14164352416992,-1.3489621198969814],[111.14035606384277,-1.3494769612490387],[111.13984107971191,-1.3502492230727512],[111.13984107971191,-1.3509356778212123],[111.14112854003906,-1.351536325567011],[111.14267349243164,-1.3505924504712112],[111.14361763000488,-1.3507640641522727],[111.14404678344727,-1.3511072914780158],[111.14456176757812,-1.3523085867361573],[111.14327430725098,-1.3540247217876669],[111.1431884765625,-1.355140208919721],[111.14069938659668,-1.3578002146221309],[111.13906860351562,-1.3588298934633514],[111.13898277282715,-1.3598595718656412],[111.13812446594238,-1.3614898951040715],[111.13812446594238,-1.3620905402298433],[111.13889694213867,-1.3628627980286865],[111.13975524902344,-1.3626911852059038],[111.14009857177734,-1.363034410839262],[111.14044189453125,-1.3637208619591945],[111.1402702331543,-1.3645789255837855],[111.14078521728516,-1.3651795699388742],[111.14087104797363,-1.3657802141439106],[111.13846778869629,-1.3686976267173918],[111.13863945007324,-1.3688692391112625],[111.13992691040039,-1.3688692391112625],[111.14044189453125,-1.3691266576790184],[111.14138603210449,-1.371357617441248],[111.14147186279297,-1.3719582600989924],[111.13941192626953,-1.37264470866603],[111.1402702331543,-1.373845993184105],[111.14009857177734,-1.3744466352166569],[111.13949775695801,-1.3748756651474139],[111.13949775695801,-1.3752188890365034],[111.1406135559082,-1.3766775900143529],[111.14078521728516,-1.3809678818317224],[111.14155769348145,-1.3819975507164202],[111.1435317993164,-1.3825981906930167],[111.14421844482422,-1.3842284984346804],[111.14627838134766,-1.3847433322255256],[111.14670753479004,-1.385086554690659],[111.14653587341309,-1.385343971506856],[111.14499092102051,-1.3860304162133588],[111.1443042755127,-1.386802666270313],[111.1443042755127,-1.3875749160752662],[111.1446475982666,-1.3881755546381669],[111.14499092102051,-1.3900632748421629],[111.14559173583984,-1.390492301950843],[111.14542007446289,-1.3923800203023546],[111.14593505859375,-1.3928948523177667],[111.14790916442871,-1.392637436324108],[111.14825248718262,-1.3928090469896688],[111.1483383178711,-1.394696763485598],[111.14936828613281,-1.3955548159378424],[111.1490249633789,-1.3964986732737117],[111.14705085754395,-1.3961554524681503],[111.14653587341309,-1.3965844784672896],[111.14627838134766,-1.3972709199029651],[111.14662170410156,-1.39915863281648],[111.14645004272461,-1.3995876582668814],[111.14593505859375,-1.3999308785706717],[111.14516258239746,-1.3996734633475398],[111.14336013793945,-1.3996734633475398],[111.14250183105469,-1.4000166836387677],[111.14001274108887,-1.4019043943420542],[111.13632202148438,-1.4029340540842696],[111.13537788391113,-1.4028482491230392],[111.13469123840332,-1.402419224269778],[111.13409042358398,-1.40147536931579],[111.13194465637207,-1.4001024887037232],[111.13211631774902,-1.398987022614378],[111.13245964050293,-1.398472191932683],[111.13323211669922,-1.3982147765494943],[111.13383293151855,-1.3972709199029651],[111.1336612701416,-1.3969276992101953],[111.1322021484375,-1.3960696472589262],[111.13160133361816,-1.3964986732737117],[111.13065719604492,-1.398987022614378],[111.12756729125977,-1.3992444379128415],[111.12464904785156,-1.4018185893430797],[111.12353324890137,-1.4043927379432262],[111.12301826477051,-1.4050791770912952],[111.12224578857422,-1.4054223965896853],[111.12070083618164,-1.4075675173113638],[111.11924171447754,-1.408940393537776],[111.11907005310059,-1.4101416595722185],[111.11872673034668,-1.4103990736417984],[111.1168384552002,-1.4106564876829282],[111.11623764038086,-1.4109997063601156],[111.11589431762695,-1.4119435574612282]]}},{"type":"Feature","id":"pmtiles:10/828/515:waterway:6508563792:0","properties":{"name_int":"Pinoh River","name_de":"Sungai Pinoh","name":"Sungai Pinoh","name:en":"Pinoh River","class":"river","name:latin":"Sungai Pinoh","name_en":"Pinoh River","waterway":"river","kind":"waterway","verification":"verified","source":"OpenMapTiles/OpenStreetMap national PMTiles","sourceId":"10/828/515:waterway:6508563792:0","sourceLayer":"waterway","archive":"https://its.hanifahseptiani45.workers.dev/v1/map/archive/indonesia.pmtiles","updatedAt":"2026-07-26T09:42:06.831Z"},"geometry":{"type":"LineString","coordinates":[[111.32308959960938,-1.1434463534261852],[111.32472038269043,-1.145076811302232],[111.32506370544434,-1.145076811302232],[111.3255786895752,-1.1446477435299869],[111.3259220123291,-1.144733557089566],[111.32583618164062,-1.1454200654738003],[111.32635116577148,-1.1462782007228185],[111.32514953613281,-1.1479086569872834],[111.32540702819824,-1.1482519108192832],[111.32617950439453,-1.1483377242708457],[111.32720947265625,-1.1477370300558363],[111.32823944091797,-1.147822843522846],[111.32892608642578,-1.147222149199692],[111.33261680603027,-1.1492816720679144],[111.33493423461914,-1.1497965525530134],[111.33544921875,-1.1496249257349689],[111.33647918701172,-1.147136335714663],[111.33776664733887,-1.1470505222270617],[111.33785247802734,-1.1465356412473824],[111.33828163146973,-1.1463640142335692],[111.34025573730469,-1.1467930817487968],[111.34248733520508,-1.1461923872094957],[111.34308815002441,-1.1467072682508928],[111.34334564208984,-1.1473079626821487],[111.34437561035156,-1.1479944704491487],[111.34471893310547,-1.1486809780513028],[111.34523391723633,-1.1490242317905484],[111.34660720825195,-1.1487667914899902],[111.34729385375977,-1.1476512165862545],[111.3475513458252,-1.1463640142335692],[111.34909629821777,-1.1451626248489788],[111.34892463684082,-1.1470505222270617],[111.35107040405273,-1.147222149199692],[111.35355949401855,-1.1468788952441287],[111.35373115539551,-1.147222149199692],[111.3530445098877,-1.1485951646100574],[111.3533878326416,-1.1487667914899902],[111.35467529296875,-1.1483377242708457],[111.35553359985352,-1.1491100452189045],[111.35527610778809,-1.1500539927607463],[111.35544776916504,-1.1503114329452444],[111.357421875,-1.1505688731065362],[111.3577651977539,-1.1519418869075508],[111.35733604431152,-1.1534007133462012],[111.3577651977539,-1.1540872196468683],[111.357421875,-1.1547737257818227],[111.35785102844238,-1.1559751111189627],[111.35845184326172,-1.1563183639790964],[111.35931015014648,-1.1561467375542094],[111.35939598083496,-1.1550311655396968],[111.36119842529297,-1.1536581532283634],[111.3617992401123,-1.15374396651724],[111.36480331420898,-1.1554602317509648],[111.36531829833984,-1.1554602317509648],[111.3658332824707,-1.154430472735072],[111.36574745178223,-1.1538297798035302],[111.36471748352051,-1.154430472735072],[111.36411666870117,-1.1541730329227988],[111.36394500732422,-1.1519418869075508],[111.36343002319336,-1.1501398061581511],[111.36368751525879,-1.1499681793607408],[111.36394500732422,-1.1498823659581632],[111.36523246765137,-1.1506546864884655],[111.3672924041748,-1.1501398061581511],[111.36978149414062,-1.1503972463349186],[111.37012481689453,-1.14953911232206],[111.37295722961426,-1.1484235377198218],[111.37321472167969,-1.1485093511662257],[111.37347221374512,-1.1497965525530134],[111.37415885925293,-1.1507404998678084],[111.37493133544922,-1.152714206879935],[111.37561798095703,-1.1534865266428511],[111.37544631958008,-1.154258846196143],[111.37570381164551,-1.154430472735072],[111.37656211853027,-1.1535723399369004],[111.37690544128418,-1.1540872196468683],[111.37750625610352,-1.1541730329227988],[111.37862205505371,-1.1535723399369004],[111.38033866882324,-1.1515128201657774],[111.38128280639648,-1.1509979399903756],[111.38257026672363,-1.150826313244579],[111.38308525085449,-1.1511695667258408],[111.38274192810059,-1.152628393560022],[111.38291358947754,-1.1528858335120304],[111.38608932495117,-1.1519418869075508],[111.38711929321289,-1.1510837533594014],[111.3874626159668,-1.1510837533594014],[111.38797760009766,-1.1515986335192991],[111.38986587524414,-1.1521993269216182],[111.3962173461914,-1.1519418869075508],[111.39724731445312,-1.1521135135861726],[111.39793395996094,-1.152628393560022],[111.39853477478027,-1.1524567669124082],[111.39922142028809,-1.151427006809655],[111.39965057373047,-1.1511695667258408],[111.40076637268066,-1.1521993269216182],[111.40179634094238,-1.1520277002481691],[111.40308380126953,-1.1510837533594014],[111.40385627746582,-1.1510837533594014],[111.40505790710449,-1.1516844468702345],[111.40643119812012,-1.1531432734407616],[111.40763282775879,-1.1540014063683515],[111.40823364257812,-1.1534865266428511],[111.4112377166748,-1.1531432734407616],[111.41355514526367,-1.1535723399369004],[111.41724586486816,-1.1534007133462012],[111.42239570617676,-1.154687912524011],[111.42291069030762,-1.1545162860006428],[111.42316818237305,-1.1533149000469791],[111.42342567443848,-1.1531432734407616],[111.42471313476562,-1.1535723399369004],[111.42531394958496,-1.155374418513901],[111.42557144165039,-1.1554602317509648],[111.42900466918945,-1.1545162860006428],[111.43106460571289,-1.152800020197276],[111.43200874328613,-1.1528858335120304],[111.43269538879395,-1.15374396651724],[111.43389701843262,-1.1540014063683515],[111.43458366394043,-1.1538297798035302],[111.43561363220215,-1.1529716468241986],[111.43527030944824,-1.1515986335192991],[111.43861770629883,-1.1509121266187776],[111.43887519836426,-1.1510837533594014],[111.43878936767578,-1.152800020197276],[111.43904685974121,-1.1535723399369004],[111.44059181213379,-1.1538297798035302],[111.44308090209961,-1.152800020197276],[111.44342422485352,-1.1528858335120304],[111.44376754760742,-1.1538297798035302],[111.44488334655762,-1.154430472735072],[111.44659996032715,-1.15374396651724],[111.4467716217041,-1.1532290867451565],[111.44634246826172,-1.1522851402544632],[111.44659996032715,-1.1513411934509747],[111.44694328308105,-1.1512553800896939],[111.4478874206543,-1.152800020197276],[111.44891738891602,-1.152800020197276],[111.45123481750488,-1.1520277002481691]]}},{"type":"Feature","id":"pmtiles:10/828/516:mountain_peak:10701570901:0","properties":{"name_int":"Bukit Belah Ulu","name_de":"Bukit Belah Ulu","name":"Bukit Belah Ulu","rank":1,"class":"peak","name:latin":"Bukit Belah Ulu","name_en":"Bukit Belah Ulu","kind":"poi","verification":"verified","source":"OpenMapTiles/OpenStreetMap national PMTiles","sourceId":"10/828/516:mountain_peak:10701570901:0","sourceLayer":"mountain_peak","archive":"https://its.hanifahseptiani45.workers.dev/v1/map/archive/indonesia.pmtiles","updatedAt":"2026-07-26T09:42:16.807Z"},"geometry":{"type":"Point","coordinates":[111.28334999084473,-1.4000166836387677]}},{"type":"Feature","id":"pmtiles:10/828/516:waterway:5196529912:1","properties":{"name_int":"Batang Kawa River","name_de":"Sungai Batang Kawa","name":"Sungai Batang Kawa","name:en":"Batang Kawa River","class":"river","name:latin":"Sungai Batang Kawa","name_en":"Batang Kawa River","waterway":"river","kind":"waterway","verification":"verified","source":"OpenMapTiles/OpenStreetMap national PMTiles","sourceId":"10/828/516:waterway:5196529912:1","sourceLayer":"waterway","archive":"https://its.hanifahseptiani45.workers.dev/v1/map/archive/indonesia.pmtiles","updatedAt":"2026-07-26T09:42:16.808Z"},"geometry":{"type":"LineString","coordinates":[[111.14250183105469,-1.4000166836387677],[111.14001274108887,-1.4019043943420542],[111.13632202148438,-1.4029340540842696],[111.13537788391113,-1.4028482491230392],[111.13469123840332,-1.402419224269778],[111.13409042358398,-1.40147536931579],[111.13194465637207,-1.4001024887037232]]}},{"type":"Feature","id":"pmtiles:8/206/128:mountain_peak:10701639311:0","properties":{"name_int":"Bukit Tentudung","name_de":"Bukit Tentudung","name":"Bukit Tentudung","rank":1,"class":"peak","name:latin":"Bukit Tentudung","name_en":"Bukit Tentudung","kind":"poi","verification":"verified","source":"OpenMapTiles/OpenStreetMap national PMTiles","sourceId":"8/206/128:mountain_peak:10701639311:0","sourceLayer":"mountain_peak","archive":"https://its.hanifahseptiani45.workers.dev/v1/map/archive/indonesia.pmtiles","updatedAt":"2026-07-26T09:35:32.415Z"},"geometry":{"type":"Point","coordinates":[111.13323211669922,-1.0834620335045742]}},{"type":"Feature","id":"pmtiles:8/206/128:mountain_peak:10701716841:0","properties":{"name_int":"Bukit Perai","name_de":"Bukit Perai","name":"Bukit Perai","rank":1,"class":"peak","name:latin":"Bukit Perai","name_en":"Bukit Perai","kind":"poi","verification":"verified","source":"OpenMapTiles/OpenStreetMap national PMTiles","sourceId":"8/206/128:mountain_peak:10701716841:0","sourceLayer":"mountain_peak","archive":"https://its.hanifahseptiani45.workers.dev/v1/map/archive/indonesia.pmtiles","updatedAt":"2026-07-26T09:35:32.415Z"},"geometry":{"type":"Point","coordinates":[111.21665954589844,-1.2001685712337036]}},{"type":"Feature","id":"pmtiles:8/206/128:mountain_peak:10701570901:0","properties":{"name_int":"Bukit Belah Ulu","name_de":"Bukit Belah Ulu","name":"Bukit Belah Ulu","rank":1,"class":"peak","name:latin":"Bukit Belah Ulu","name_en":"Bukit Belah Ulu","kind":"poi","verification":"verified","source":"OpenMapTiles/OpenStreetMap national PMTiles","sourceId":"8/206/128:mountain_peak:10701570901:0","sourceLayer":"mountain_peak","archive":"https://its.hanifahseptiani45.workers.dev/v1/map/archive/indonesia.pmtiles","updatedAt":"2026-07-26T09:35:32.415Z"},"geometry":{"type":"Point","coordinates":[111.28326416015625,-1.3999308785706717]}},{"type":"Feature","id":"pmtiles:8/206/128:mountain_peak:10701926191:0","properties":{"name_int":"Bukit Seguruh","name_de":"Bukit Seguruh","name":"Bukit Seguruh","rank":3,"class":"peak","name:latin":"Bukit Seguruh","name_en":"Bukit Seguruh","kind":"poi","verification":"verified","source":"OpenMapTiles/OpenStreetMap national PMTiles","sourceId":"8/206/128:mountain_peak:10701926191:0","sourceLayer":"mountain_peak","archive":"https://its.hanifahseptiani45.workers.dev/v1/map/archive/indonesia.pmtiles","updatedAt":"2026-07-26T09:35:32.415Z"},"geometry":{"type":"Point","coordinates":[111.31656646728516,-1.3165268968289325]}},{"type":"Feature","id":"pmtiles:8/207/128:mountain_peak:10701639311:0","properties":{"name_int":"Bukit Tentudung","name_de":"Bukit Tentudung","name":"Bukit Tentudung","rank":1,"class":"peak","name:latin":"Bukit Tentudung","name_en":"Bukit Tentudung","kind":"poi","verification":"verified","source":"OpenMapTiles/OpenStreetMap national PMTiles","sourceId":"8/207/128:mountain_peak:10701639311:0","sourceLayer":"mountain_peak","archive":"https://its.hanifahseptiani45.workers.dev/v1/map/archive/indonesia.pmtiles","updatedAt":"2026-07-26T09:35:32.569Z"},"geometry":{"type":"Point","coordinates":[111.13323211669922,-1.0834620335045742]}},{"type":"Feature","id":"pmtiles:8/207/128:mountain_peak:10701716841:0","properties":{"name_int":"Bukit Perai","name_de":"Bukit Perai","name":"Bukit Perai","rank":1,"class":"peak","name:latin":"Bukit Perai","name_en":"Bukit Perai","kind":"poi","verification":"verified","source":"OpenMapTiles/OpenStreetMap national PMTiles","sourceId":"8/207/128:mountain_peak:10701716841:0","sourceLayer":"mountain_peak","archive":"https://its.hanifahseptiani45.workers.dev/v1/map/archive/indonesia.pmtiles","updatedAt":"2026-07-26T09:35:32.569Z"},"geometry":{"type":"Point","coordinates":[111.21665954589844,-1.2001685712337036]}},{"type":"Feature","id":"pmtiles:8/207/128:mountain_peak:10701570901:0","properties":{"name_int":"Bukit Belah Ulu","name_de":"Bukit Belah Ulu","name":"Bukit Belah Ulu","rank":1,"class":"peak","name:latin":"Bukit Belah Ulu","name_en":"Bukit Belah Ulu","kind":"poi","verification":"verified","source":"OpenMapTiles/OpenStreetMap national PMTiles","sourceId":"8/207/128:mountain_peak:10701570901:0","sourceLayer":"mountain_peak","archive":"https://its.hanifahseptiani45.workers.dev/v1/map/archive/indonesia.pmtiles","updatedAt":"2026-07-26T09:35:32.569Z"},"geometry":{"type":"Point","coordinates":[111.28326416015625,-1.3999308785706717]}},{"type":"Feature","id":"pmtiles:8/207/128:mountain_peak:10701926191:0","properties":{"name_int":"Bukit Seguruh","name_de":"Bukit Seguruh","name":"Bukit Seguruh","rank":3,"class":"peak","name:latin":"Bukit Seguruh","name_en":"Bukit Seguruh","kind":"poi","verification":"verified","source":"OpenMapTiles/OpenStreetMap national PMTiles","sourceId":"8/207/128:mountain_peak:10701926191:0","sourceLayer":"mountain_peak","archive":"https://its.hanifahseptiani45.workers.dev/v1/map/archive/indonesia.pmtiles","updatedAt":"2026-07-26T09:35:32.569Z"},"geometry":{"type":"Point","coordinates":[111.31656646728516,-1.3165268968289325]}},{"type":"Feature","id":"pmtiles:8/206/129:mountain_peak:10701639311:0","properties":{"name_int":"Bukit Tentudung","name_de":"Bukit Tentudung","name":"Bukit Tentudung","rank":1,"class":"peak","name:latin":"Bukit Tentudung","name_en":"Bukit Tentudung","kind":"poi","verification":"verified","source":"OpenMapTiles/OpenStreetMap national PMTiles","sourceId":"8/206/129:mountain_peak:10701639311:0","sourceLayer":"mountain_peak","archive":"https://its.hanifahseptiani45.workers.dev/v1/map/archive/indonesia.pmtiles","updatedAt":"2026-07-26T09:35:34.958Z"},"geometry":{"type":"Point","coordinates":[111.13323211669922,-1.0834620335045742]}},{"type":"Feature","id":"pmtiles:8/206/129:mountain_peak:10701716841:0","properties":{"name_int":"Bukit Perai","name_de":"Bukit Perai","name":"Bukit Perai","rank":1,"class":"peak","name:latin":"Bukit Perai","name_en":"Bukit Perai","kind":"poi","verification":"verified","source":"OpenMapTiles/OpenStreetMap national PMTiles","sourceId":"8/206/129:mountain_peak:10701716841:0","sourceLayer":"mountain_peak","archive":"https://its.hanifahseptiani45.workers.dev/v1/map/archive/indonesia.pmtiles","updatedAt":"2026-07-26T09:35:34.958Z"},"geometry":{"type":"Point","coordinates":[111.21665954589844,-1.2001685712337036]}},{"type":"Feature","id":"pmtiles:8/206/129:mountain_peak:10701570901:0","properties":{"name_int":"Bukit Belah Ulu","name_de":"Bukit Belah Ulu","name":"Bukit Belah Ulu","rank":1,"class":"peak","name:latin":"Bukit Belah Ulu","name_en":"Bukit Belah Ulu","kind":"poi","verification":"verified","source":"OpenMapTiles/OpenStreetMap national PMTiles","sourceId":"8/206/129:mountain_peak:10701570901:0","sourceLayer":"mountain_peak","archive":"https://its.hanifahseptiani45.workers.dev/v1/map/archive/indonesia.pmtiles","updatedAt":"2026-07-26T09:35:34.958Z"},"geometry":{"type":"Point","coordinates":[111.28326416015625,-1.3999308785706717]}},{"type":"Feature","id":"pmtiles:8/206/129:mountain_peak:10701926191:0","properties":{"name_int":"Bukit Seguruh","name_de":"Bukit Seguruh","name":"Bukit Seguruh","rank":3,"class":"peak","name:latin":"Bukit Seguruh","name_en":"Bukit Seguruh","kind":"poi","verification":"verified","source":"OpenMapTiles/OpenStreetMap national PMTiles","sourceId":"8/206/129:mountain_peak:10701926191:0","sourceLayer":"mountain_peak","archive":"https://its.hanifahseptiani45.workers.dev/v1/map/archive/indonesia.pmtiles","updatedAt":"2026-07-26T09:35:34.958Z"},"geometry":{"type":"Point","coordinates":[111.31656646728516,-1.3165268968289325]}},{"type":"Feature","id":"pmtiles:8/207/129:mountain_peak:10701639311:0","properties":{"name_int":"Bukit Tentudung","name_de":"Bukit Tentudung","name":"Bukit Tentudung","rank":1,"class":"peak","name:latin":"Bukit Tentudung","name_en":"Bukit Tentudung","kind":"poi","verification":"verified","source":"OpenMapTiles/OpenStreetMap national PMTiles","sourceId":"8/207/129:mountain_peak:10701639311:0","sourceLayer":"mountain_peak","archive":"https://its.hanifahseptiani45.workers.dev/v1/map/archive/indonesia.pmtiles","updatedAt":"2026-07-26T09:35:35.086Z"},"geometry":{"type":"Point","coordinates":[111.13323211669922,-1.0834620335045742]}},{"type":"Feature","id":"pmtiles:8/207/129:mountain_peak:10701716841:0","properties":{"name_int":"Bukit Perai","name_de":"Bukit Perai","name":"Bukit Perai","rank":1,"class":"peak","name:latin":"Bukit Perai","name_en":"Bukit Perai","kind":"poi","verification":"verified","source":"OpenMapTiles/OpenStreetMap national PMTiles","sourceId":"8/207/129:mountain_peak:10701716841:0","sourceLayer":"mountain_peak","archive":"https://its.hanifahseptiani45.workers.dev/v1/map/archive/indonesia.pmtiles","updatedAt":"2026-07-26T09:35:35.086Z"},"geometry":{"type":"Point","coordinates":[111.21665954589844,-1.2001685712337036]}},{"type":"Feature","id":"pmtiles:8/207/129:mountain_peak:10701570901:0","properties":{"name_int":"Bukit Belah Ulu","name_de":"Bukit Belah Ulu","name":"Bukit Belah Ulu","rank":1,"class":"peak","name:latin":"Bukit Belah Ulu","name_en":"Bukit Belah Ulu","kind":"poi","verification":"verified","source":"OpenMapTiles/OpenStreetMap national PMTiles","sourceId":"8/207/129:mountain_peak:10701570901:0","sourceLayer":"mountain_peak","archive":"https://its.hanifahseptiani45.workers.dev/v1/map/archive/indonesia.pmtiles","updatedAt":"2026-07-26T09:35:35.086Z"},"geometry":{"type":"Point","coordinates":[111.28326416015625,-1.3999308785706717]}},{"type":"Feature","id":"pmtiles:8/207/129:mountain_peak:10701926191:0","properties":{"name_int":"Bukit Seguruh","name_de":"Bukit Seguruh","name":"Bukit Seguruh","rank":3,"class":"peak","name:latin":"Bukit Seguruh","name_en":"Bukit Seguruh","kind":"poi","verification":"verified","source":"OpenMapTiles/OpenStreetMap national PMTiles","sourceId":"8/207/129:mountain_peak:10701926191:0","sourceLayer":"mountain_peak","archive":"https://its.hanifahseptiani45.workers.dev/v1/map/archive/indonesia.pmtiles","updatedAt":"2026-07-26T09:35:35.086Z"},"geometry":{"type":"Point","coordinates":[111.31656646728516,-1.3165268968289325]}}]}