{"type":"FeatureCollection","features":[{"type":"Feature","id":"pmtiles:12/3288/1976:water:2690:0","properties":{"class":"ocean","water":"ocean","kind":"waterway","verification":"verified","source":"OpenMapTiles/OpenStreetMap national PMTiles","sourceId":"12/3288/1976:water:2690:0","sourceLayer":"water","archive":"https://its.hanifahseptiani45.workers.dev/v1/map/archive/indonesia.pmtiles","updatedAt":"2026-07-26T10:35:33.216Z"},"geometry":{"type":"Polygon","coordinates":[[[108.98300170898438,6.316663493894268],[109.07363891601562,6.316663493894268],[109.07363891601562,6.226568742378319],[108.98300170898438,6.226568742378319],[108.98300170898438,6.316663493894268]]]}},{"type":"Feature","id":"pmtiles:12/3289/1976:water:2690:0","properties":{"class":"ocean","water":"ocean","kind":"waterway","verification":"verified","source":"OpenMapTiles/OpenStreetMap national PMTiles","sourceId":"12/3289/1976:water:2690:0","sourceLayer":"water","archive":"https://its.hanifahseptiani45.workers.dev/v1/map/archive/indonesia.pmtiles","updatedAt":"2026-07-26T10:35:33.272Z"},"geometry":{"type":"Polygon","coordinates":[[[109.07089233398438,6.316663493894268],[109.16152954101562,6.316663493894268],[109.16152954101562,6.226568742378319],[109.07089233398438,6.226568742378319],[109.07089233398438,6.316663493894268]]]}},{"type":"Feature","id":"pmtiles:12/3290/1976:water:2690:0","properties":{"class":"ocean","water":"ocean","kind":"waterway","verification":"verified","source":"OpenMapTiles/OpenStreetMap national PMTiles","sourceId":"12/3290/1976:water:2690:0","sourceLayer":"water","archive":"https://its.hanifahseptiani45.workers.dev/v1/map/archive/indonesia.pmtiles","updatedAt":"2026-07-26T10:35:33.334Z"},"geometry":{"type":"Polygon","coordinates":[[[109.15878295898438,6.316663493894268],[109.24942016601562,6.316663493894268],[109.24942016601562,6.226568742378319],[109.15878295898438,6.226568742378319],[109.15878295898438,6.316663493894268]]]}},{"type":"Feature","id":"pmtiles:12/3291/1976:water:2690:0","properties":{"class":"ocean","water":"ocean","kind":"waterway","verification":"verified","source":"OpenMapTiles/OpenStreetMap national PMTiles","sourceId":"12/3291/1976:water:2690:0","sourceLayer":"water","archive":"https://its.hanifahseptiani45.workers.dev/v1/map/archive/indonesia.pmtiles","updatedAt":"2026-07-26T10:35:33.404Z"},"geometry":{"type":"Polygon","coordinates":[[[109.24667358398438,6.316663493894268],[109.33731079101562,6.316663493894268],[109.33731079101562,6.226568742378319],[109.24667358398438,6.226568742378319],[109.24667358398438,6.316663493894268]]]}},{"type":"Feature","id":"pmtiles:12/3288/1977:water:2690:0","properties":{"class":"ocean","water":"ocean","kind":"waterway","verification":"verified","source":"OpenMapTiles/OpenStreetMap national PMTiles","sourceId":"12/3288/1977:water:2690:0","sourceLayer":"water","archive":"https://its.hanifahseptiani45.workers.dev/v1/map/archive/indonesia.pmtiles","updatedAt":"2026-07-26T10:36:04.728Z"},"geometry":{"type":"Polygon","coordinates":[[[108.98300170898438,6.22929911460929],[109.07363891601562,6.22929911460929],[109.07363891601562,6.139189368969383],[108.98300170898438,6.139189368969383],[108.98300170898438,6.22929911460929]]]}},{"type":"Feature","id":"pmtiles:12/3289/1977:water:2690:0","properties":{"class":"ocean","water":"ocean","kind":"waterway","verification":"verified","source":"OpenMapTiles/OpenStreetMap national PMTiles","sourceId":"12/3289/1977:water:2690:0","sourceLayer":"water","archive":"https://its.hanifahseptiani45.workers.dev/v1/map/archive/indonesia.pmtiles","updatedAt":"2026-07-26T10:36:04.781Z"},"geometry":{"type":"Polygon","coordinates":[[[109.07089233398438,6.22929911460929],[109.16152954101562,6.22929911460929],[109.16152954101562,6.139189368969383],[109.07089233398438,6.139189368969383],[109.07089233398438,6.22929911460929]]]}},{"type":"Feature","id":"pmtiles:12/3290/1977:water:2690:0","properties":{"class":"ocean","water":"ocean","kind":"waterway","verification":"verified","source":"OpenMapTiles/OpenStreetMap national PMTiles","sourceId":"12/3290/1977:water:2690:0","sourceLayer":"water","archive":"https://its.hanifahseptiani45.workers.dev/v1/map/archive/indonesia.pmtiles","updatedAt":"2026-07-26T10:36:04.841Z"},"geometry":{"type":"Polygon","coordinates":[[[109.15878295898438,6.22929911460929],[109.24942016601562,6.22929911460929],[109.24942016601562,6.139189368969383],[109.15878295898438,6.139189368969383],[109.15878295898438,6.22929911460929]]]}},{"type":"Feature","id":"pmtiles:12/3291/1977:water:2690:0","properties":{"class":"ocean","water":"ocean","kind":"waterway","verification":"verified","source":"OpenMapTiles/OpenStreetMap national PMTiles","sourceId":"12/3291/1977:water:2690:0","sourceLayer":"water","archive":"https://its.hanifahseptiani45.workers.dev/v1/map/archive/indonesia.pmtiles","updatedAt":"2026-07-26T10:36:04.911Z"},"geometry":{"type":"Polygon","coordinates":[[[109.24667358398438,6.22929911460929],[109.33731079101562,6.22929911460929],[109.33731079101562,6.139189368969383],[109.24667358398438,6.139189368969383],[109.24667358398438,6.22929911460929]]]}},{"type":"Feature","id":"pmtiles:12/3288/1978:water:2690:0","properties":{"class":"ocean","water":"ocean","kind":"waterway","verification":"verified","source":"OpenMapTiles/OpenStreetMap national PMTiles","sourceId":"12/3288/1978:water:2690:0","sourceLayer":"water","archive":"https://its.hanifahseptiani45.workers.dev/v1/map/archive/indonesia.pmtiles","updatedAt":"2026-07-26T10:36:35.087Z"},"geometry":{"type":"Polygon","coordinates":[[[108.98300170898438,6.1419201924305185],[109.07363891601562,6.1419201924305185],[109.07363891601562,6.05179565978203],[108.98300170898438,6.05179565978203],[108.98300170898438,6.1419201924305185]]]}},{"type":"Feature","id":"pmtiles:12/3289/1978:water:2690:0","properties":{"class":"ocean","water":"ocean","kind":"waterway","verification":"verified","source":"OpenMapTiles/OpenStreetMap national PMTiles","sourceId":"12/3289/1978:water:2690:0","sourceLayer":"water","archive":"https://its.hanifahseptiani45.workers.dev/v1/map/archive/indonesia.pmtiles","updatedAt":"2026-07-26T10:36:35.151Z"},"geometry":{"type":"Polygon","coordinates":[[[109.07089233398438,6.1419201924305185],[109.16152954101562,6.1419201924305185],[109.16152954101562,6.05179565978203],[109.07089233398438,6.05179565978203],[109.07089233398438,6.1419201924305185]]]}},{"type":"Feature","id":"pmtiles:12/3290/1978:water:2690:0","properties":{"class":"ocean","water":"ocean","kind":"waterway","verification":"verified","source":"OpenMapTiles/OpenStreetMap national PMTiles","sourceId":"12/3290/1978:water:2690:0","sourceLayer":"water","archive":"https://its.hanifahseptiani45.workers.dev/v1/map/archive/indonesia.pmtiles","updatedAt":"2026-07-26T10:36:35.216Z"},"geometry":{"type":"Polygon","coordinates":[[[109.15878295898438,6.1419201924305185],[109.24942016601562,6.1419201924305185],[109.24942016601562,6.05179565978203],[109.15878295898438,6.05179565978203],[109.15878295898438,6.1419201924305185]]]}},{"type":"Feature","id":"pmtiles:12/3291/1978:water:2690:0","properties":{"class":"ocean","water":"ocean","kind":"waterway","verification":"verified","source":"OpenMapTiles/OpenStreetMap national PMTiles","sourceId":"12/3291/1978:water:2690:0","sourceLayer":"water","archive":"https://its.hanifahseptiani45.workers.dev/v1/map/archive/indonesia.pmtiles","updatedAt":"2026-07-26T10:36:35.284Z"},"geometry":{"type":"Polygon","coordinates":[[[109.24667358398438,6.1419201924305185],[109.33731079101562,6.1419201924305185],[109.33731079101562,6.05179565978203],[109.24667358398438,6.05179565978203],[109.24667358398438,6.1419201924305185]]]}},{"type":"Feature","id":"pmtiles:12/3288/1979:water:2690:0","properties":{"class":"ocean","water":"ocean","kind":"waterway","verification":"verified","source":"OpenMapTiles/OpenStreetMap national PMTiles","sourceId":"12/3288/1979:water:2690:0","sourceLayer":"water","archive":"https://its.hanifahseptiani45.workers.dev/v1/map/archive/indonesia.pmtiles","updatedAt":"2026-07-26T10:37:09.706Z"},"geometry":{"type":"Polygon","coordinates":[[[108.98300170898438,6.054526928194491],[109.07363891601562,6.054526928194491],[109.07363891601562,5.964387815824367],[108.98300170898438,5.964387815824367],[108.98300170898438,6.054526928194491]]]}},{"type":"Feature","id":"pmtiles:12/3289/1979:water:2690:0","properties":{"class":"ocean","water":"ocean","kind":"waterway","verification":"verified","source":"OpenMapTiles/OpenStreetMap national PMTiles","sourceId":"12/3289/1979:water:2690:0","sourceLayer":"water","archive":"https://its.hanifahseptiani45.workers.dev/v1/map/archive/indonesia.pmtiles","updatedAt":"2026-07-26T10:37:09.768Z"},"geometry":{"type":"Polygon","coordinates":[[[109.07089233398438,6.054526928194491],[109.16152954101562,6.054526928194491],[109.16152954101562,5.964387815824367],[109.07089233398438,5.964387815824367],[109.07089233398438,6.054526928194491]]]}},{"type":"Feature","id":"pmtiles:12/3290/1979:water:2690:0","properties":{"class":"ocean","water":"ocean","kind":"waterway","verification":"verified","source":"OpenMapTiles/OpenStreetMap national PMTiles","sourceId":"12/3290/1979:water:2690:0","sourceLayer":"water","archive":"https://its.hanifahseptiani45.workers.dev/v1/map/archive/indonesia.pmtiles","updatedAt":"2026-07-26T10:37:09.836Z"},"geometry":{"type":"Polygon","coordinates":[[[109.15878295898438,6.054526928194491],[109.24942016601562,6.054526928194491],[109.24942016601562,5.964387815824367],[109.15878295898438,5.964387815824367],[109.15878295898438,6.054526928194491]]]}},{"type":"Feature","id":"pmtiles:12/3291/1979:water:2690:0","properties":{"class":"ocean","water":"ocean","kind":"waterway","verification":"verified","source":"OpenMapTiles/OpenStreetMap national PMTiles","sourceId":"12/3291/1979:water:2690:0","sourceLayer":"water","archive":"https://its.hanifahseptiani45.workers.dev/v1/map/archive/indonesia.pmtiles","updatedAt":"2026-07-26T10:37:09.896Z"},"geometry":{"type":"Polygon","coordinates":[[[109.24667358398438,6.054526928194491],[109.33731079101562,6.054526928194491],[109.33731079101562,5.964387815824367],[109.24667358398438,5.964387815824367],[109.24667358398438,6.054526928194491]]]}},{"type":"Feature","id":"pmtiles:10/822/494:water:2690:0","properties":{"class":"ocean","water":"ocean","kind":"waterway","verification":"verified","source":"OpenMapTiles/OpenStreetMap national PMTiles","sourceId":"10/822/494:water:2690:0","sourceLayer":"water","archive":"https://its.hanifahseptiani45.workers.dev/v1/map/archive/indonesia.pmtiles","updatedAt":"2026-07-26T09:38:02.758Z"},"geometry":{"type":"Polygon","coordinates":[[[108.9788818359375,6.320758338986863],[109.3414306640625,6.320758338986863],[109.3414306640625,5.960290229693385],[108.9788818359375,5.960290229693385],[108.9788818359375,6.320758338986863]]]}},{"type":"Feature","id":"pmtiles:8/205/123:water:880:0","properties":{"class":"ocean","water":"ocean","kind":"waterway","verification":"verified","source":"OpenMapTiles/OpenStreetMap national PMTiles","sourceId":"8/205/123:water:880:0","sourceLayer":"water","archive":"https://its.hanifahseptiani45.workers.dev/v1/map/archive/indonesia.pmtiles","updatedAt":"2026-07-26T09:35:15.917Z"},"geometry":{"type":"Polygon","coordinates":[[[108.25927734375,7.035475652433021],[109.70947265625,7.035475652433021],[109.70947265625,5.5941182188847876],[108.25927734375,5.5941182188847876],[108.25927734375,7.035475652433021]]]}}]}