{"type":"FeatureCollection","features":[{"type":"Feature","id":"pmtiles:12/3208/1976:water:1590:0","properties":{"class":"ocean","water":"ocean","kind":"waterway","verification":"verified","source":"OpenMapTiles/OpenStreetMap national PMTiles","sourceId":"12/3208/1976:water:1590:0","sourceLayer":"water","archive":"https://its.hanifahseptiani45.workers.dev/v1/map/archive/indonesia.pmtiles","updatedAt":"2026-07-26T10:35:28.236Z"},"geometry":{"type":"Polygon","coordinates":[[[102.04238891601562,6.316663493894268],[102.04238891601562,6.2775688916652115],[102.0423674583435,6.2775688916652115],[102.04161643981934,6.276395794877729],[102.04114437103271,6.2765024401494],[102.04047918319702,6.276801046793906],[102.03974962234497,6.277312943500547],[102.03932046890259,6.2777181947031835],[102.0389986038208,6.278123445590509],[102.03876256942749,6.2785713540991],[102.03929901123047,6.27923255166958],[102.03927755355835,6.279360525295928],[102.03921318054199,6.279403183164391],[102.0391058921814,6.279424512097293],[102.03897714614868,6.279360525295928],[102.03831195831299,6.27814477457585],[102.03783988952637,6.278272748469519],[102.0366382598877,6.278891288512227],[102.03614473342896,6.279339196360382],[102.03545808792114,6.280235010900782],[102.03635931015015,6.2815147432846175],[102.03635931015015,6.281621387507926],[102.03625202178955,6.281578729821234],[102.03547954559326,6.280426970958914],[102.03520059585571,6.280426970958914],[102.03487873077393,6.28049095762924],[102.03432083129883,6.2806829175929835],[102.0338487625122,6.2809601929712215],[102.03292608261108,6.281770689383848],[102.03243255615234,6.282303910019678],[102.03198194503784,6.282602513337125],[102.03168153762817,6.282901116483231],[102.03118801116943,6.2836049660783],[102.03189611434937,6.284543430724014],[102.03191757202148,6.284671403044555],[102.03178882598877,6.2846287456078755],[102.0310378074646,6.283476993495455],[102.03052282333374,6.283519651026566],[102.03000783920288,6.283690281116037],[102.02942848205566,6.284031541127092],[102.02818393707275,6.285076648518569],[102.02754020690918,6.285844481182579],[102.02726125717163,6.286313711697062],[102.02786207199097,6.287166857002447],[102.02781915664673,6.287252171456018],[102.02769041061401,6.287166857002447],[102.02687501907349,6.285865809851515],[102.02618837356567,6.285908467186744],[102.02571630477905,6.2860577678325456],[102.024986743927,6.2865269981546135],[102.02333450317383,6.2879133579965725],[102.02254056930542,6.288873143414264],[102.02309846878052,6.289619641958609],[102.02309846878052,6.289726284520313],[102.02301263809204,6.289704956009729],[102.02247619628906,6.288915800502821],[102.02187538146973,6.289001114669432],[102.02112436294556,6.289406356769604],[102.01889276504517,6.291389905649723],[102.01861381530762,6.291731160607824],[102.01884984970093,6.292029758512314],[102.01884984970093,6.292093743755245],[102.01876401901245,6.292093743755245],[102.01865673065186,6.291901788002818],[102.01827049255371,6.291965773261509],[102.01781988143921,6.292115072167803],[102.01728343963623,6.29247765504735],[102.01492309570312,6.294589162083156],[102.01475143432617,6.294845101746716],[102.01481580734253,6.294951743235984],[102.01479434967041,6.29503705641163],[102.01393604278564,6.295868859139759],[102.01382875442505,6.295890187397319],[102.01374292373657,6.2957195613123105],[102.01442956924438,6.294909086642903],[102.0138931274414,6.294055954045703],[102.01376438140869,6.294162595696989],[102.01339960098267,6.293586730520005],[102.01337814331055,6.2931175065705105],[102.01346397399902,6.2928189092911],[102.01382875442505,6.292349684648144],[102.01408624649048,6.292200385809281],[102.01479434967041,6.291923116423263],[102.01640367507935,6.29117662118712],[102.01739072799683,6.290558095750612],[102.01754093170166,6.290238168511877],[102.01788425445557,6.289854255565459],[102.01820611953735,6.289619641958609],[102.01874256134033,6.289406356769604],[102.01927900314331,6.289107757357996],[102.01947212219238,6.288958457587881],[102.01975107192993,6.288617200809455],[102.02103853225708,6.287870700825792],[102.02136039733887,6.28774272929239],[102.02232599258423,6.287572100532245],[102.02284097671509,6.287380143110127],[102.02331304550171,6.287166857002447],[102.02378511428833,6.286846927676933],[102.02447175979614,6.285844481182579],[102.02483654022217,6.285609865766602],[102.02530860900879,6.284863361466336],[102.02582359313965,6.284287485988514],[102.02653169631958,6.283711609873279],[102.02824831008911,6.282645170939915],[102.02906370162964,6.282047964182652],[102.03032970428467,6.28091753523033],[102.0310378074646,6.280107037489387],[102.03266859054565,6.278827301645336],[102.03356981277466,6.278507367192887],[102.0338487625122,6.278528696162496],[102.03404188156128,6.278656669961833],[102.0344066619873,6.279467169960512],[102.03455686569214,6.279616472454265],[102.03494310379028,6.279573814603268],[102.0351791381836,6.279445841029343],[102.03537225723267,6.279061920118863],[102.03550100326538,6.27893394641913],[102.03648805618286,6.278507367192887],[102.03696012496948,6.278187432543902],[102.03786134719849,6.277440917598597],[102.03835487365723,6.277355601536726],[102.0391058921814,6.276737059670211],[102.03979253768921,6.276267820522918],[102.04073667526245,6.275819910033491],[102.04129457473755,6.275457315545722],[102.04170227050781,6.274966746131213],[102.04009294509888,6.27562794827729],[102.03848361968994,6.275883897269836],[102.03794717788696,6.276075858931748],[102.03760385513306,6.2760332007907635],[102.03745365142822,6.275969213572765],[102.03736782073975,6.275414657354105],[102.03738927841187,6.275222695448605],[102.0375394821167,6.275030733472349],[102.0379900932312,6.27471079668814],[102.04084396362305,6.273089780629334],[102.04172372817993,6.272705855034843],[102.04208850860596,6.272641867408254],[102.04238891601562,6.272641867408254],[102.04238891601562,6.269122535852418],[102.04217433929443,6.268994559711928],[102.04092979431152,6.269762416083864],[102.03884840011597,6.270764893534562],[102.0364236831665,6.272065978415625],[102.03397750854492,6.273516364291538],[102.03266859054565,6.274390859707495],[102.03125238418579,6.275649277364806],[102.03060865402222,6.27577725187156],[102.03030824661255,6.2756919355372105],[102.03020095825195,6.275435986450347],[102.03020095825195,6.274881429664163],[102.03005075454712,6.274732125813202],[102.02987909317017,6.274838771425394],[102.02975034713745,6.275265353655925],[102.02970743179321,6.275542631918498],[102.02983617782593,6.275755922789273],[102.02990055084229,6.276054529861696],[102.02940702438354,6.277035666180225],[102.02876329421997,6.2777181947031835],[102.02841997146606,6.277782181706371],[102.02799081802368,6.278166103560295],[102.02764749526978,6.278294077448734],[102.02739000320435,6.27846470925104],[102.02713251113892,6.278805972687962],[102.02672481536865,6.279061920118863],[102.02595233917236,6.279893748400454],[102.02575922012329,6.279979064046515],[102.02513694763184,6.280618930946261],[102.02455759048462,6.280874877485957],[102.02311992645264,6.281237468201766],[102.02108144760132,6.2818560047223],[102.02018022537231,6.282239923572234],[102.0196008682251,6.282538526926373],[102.01923608779907,6.282922445272845],[102.01900005340576,6.282986431636374],[102.01865673065186,6.283221048235362],[102.0179271697998,6.284052869870351],[102.01760530471802,6.284479444551948],[102.01730489730835,6.2845860881677],[102.01640367507935,6.285119305918542],[102.01554536819458,6.285545879725703],[102.01402187347412,6.287145528386873],[102.01367855072021,6.287380143110127],[102.01314210891724,6.288169300947871],[102.01297044754028,6.288361258078638],[102.01273441314697,6.288467900898453],[102.01174736022949,6.289171742960633],[102.01101779937744,6.289385028245903],[102.01076030731201,6.289406356769604],[102.01061010360718,6.289321042669513],[102.01009511947632,6.289598313443662],[102.00912952423096,6.289918241076222],[102.00874328613281,6.2901101975612335],[102.00721979141235,6.291411234091157],[102.00687646865845,6.2916458468892955],[102.00610399246216,6.291944444842812],[102.00582504272461,6.292115072167803],[102.0054817199707,6.292520311840079],[102.00524568557739,6.292946879574714],[102.00507402420044,6.293309461873804],[102.00483798980713,6.294119939039092],[102.00470924377441,6.294141267368474],[102.00428009033203,6.2931175065705105],[102.00415134429932,6.293181491679491],[102.00449466705322,6.2940986107088435],[102.0045804977417,6.294461192204082],[102.00453758239746,6.29471713193071],[102.0041298866272,6.295570263441931],[102.00352907180786,6.29629542412458],[102.00340032577515,6.2965087064855965],[102.0032286643982,6.29657269117682],[102.00314283370972,6.296530034716881],[102.00305700302124,6.29642339355172],[102.003014087677,6.2962527676418745],[102.00417280197144,6.294247909002237],[102.0042371749878,6.293991969044427],[102.00410842895508,6.293693372267612],[102.00350761413574,6.294119939039092],[102.00224161148071,6.295122369573264],[102.00187683105469,6.295506278627187],[102.00179100036621,6.295655576515983],[102.00179100036621,6.295804874361835],[102.002112865448,6.296530034716881],[102.00226306915283,6.296636675860157],[102.00237035751343,6.296636675860157],[102.0024561882019,6.29657269117682],[102.0025634765625,6.296316752364632],[102.00262784957886,6.296338080603789],[102.00230598449707,6.297020583794591],[102.00179100036621,6.297511132408857],[102.00138330459595,6.297681757905181],[102.00037479400635,6.29832160301693],[101.9999885559082,6.298470900096191],[101.99960231781006,6.298726837846473],[101.99844360351562,6.299302697323213],[101.997971534729,6.299601290874406],[101.99747800827026,6.3000065247048695],[101.9974136352539,6.299985196616433],[101.99694156646729,6.299068087983883],[101.99694156646729,6.298982775470549],[101.99715614318848,6.298748165986638],[101.99681282043457,6.298364259329674],[101.99584722518921,6.298982775470549],[101.99584722518921,6.299132072359654],[101.99664115905762,6.300305117851153],[101.9967269897461,6.300326445926473],[101.99715614318848,6.300134493217172],[101.99713468551636,6.300241133619991],[101.99582576751709,6.300838319470785],[101.99565410614014,6.3009662877779675],[101.99563264846802,6.300923631679069],[101.99584722518921,6.30075300724846],[101.9965124130249,6.300390430147118],[101.99629783630371,6.299963868527101],[101.9960618019104,6.299750587585621],[101.99597597122192,6.299771915683706],[101.99462413787842,6.300497070497329],[101.99479579925537,6.300816991416511],[101.99479579925537,6.300987615826102],[101.99428081512451,6.301307536442835],[101.99447393417358,6.301670112903352],[101.99513912200928,6.301136912138446],[101.99543952941895,6.301008943873342],[101.99543952941895,6.3010729280098445],[101.99475288391113,6.301542144769741],[101.99284315109253,6.303120416211499],[101.99267148971558,6.303184400087574],[101.99185609817505,6.302843152657232],[101.99140548706055,6.302864480628202],[101.99125528335571,6.302949792503341],[101.99108362197876,6.303120416211499],[101.99099779129028,6.303163072129763],[101.99084758758545,6.3035683031783805],[101.99074029922485,6.303717598748065],[101.99050426483154,6.3038029104828865],[101.9904613494873,6.303909550131664],[101.99005365371704,6.304058845603109],[101.99039697647095,6.304464075951884],[101.99093341827393,6.30386689427479],[101.99134111404419,6.303248383955776],[101.99149131774902,6.303163072129763],[101.99204921722412,6.303184400087574],[101.9921350479126,6.303227056000594],[101.99217796325684,6.303333695767762],[101.99215650558472,6.3035256472934265],[101.99209213256836,6.303632286999218],[101.9914698600769,6.304016189758528],[101.98983907699585,6.305722420805992],[101.98981761932373,6.305850387908208],[101.98988199234009,6.305871715755515],[101.99082612991333,6.305189224206714],[101.99116945266724,6.305039929060669],[101.99174880981445,6.304890633871651],[101.99204921722412,6.304720010745839],[101.9921350479126,6.3045280596622035],[101.99273586273193,6.304421420140599],[101.9930362701416,6.3041868131158765],[101.99346542358398,6.3041868131158765],[101.99374437332153,6.304421420140599],[101.99352979660034,6.304442748046668],[101.99365854263306,6.304762666532554],[101.99335813522339,6.30493328964431],[101.99344396591187,6.305061256941315],[101.99395895004272,6.304869305983985],[101.99443101882935,6.304613371263699],[101.99501037597656,6.304400092233649],[101.99524641036987,6.30422946894646],[101.99580430984497,6.3033550237185665],[101.99593305587769,6.3033123678160905],[101.99619054794312,6.303397679617547],[101.99636220932007,6.303376351668504],[101.99659824371338,6.303099088251045],[101.9967269897461,6.303056432327509],[101.99730634689331,6.30303510436444],[101.99764966964722,6.302907136567512],[101.997971534729,6.302139329123193],[101.99861526489258,6.302011361105315],[101.99904441833496,6.3020966731207295],[101.99938774108887,6.302011361105315],[102.00005292892456,6.30164878488327],[102.00071811676025,6.301179568219808],[102.00076103210449,6.300710351132025],[102.0018982887268,6.30028378977498],[102.00249910354614,6.3000065247048695],[102.00282096862793,6.299686603286062],[102.00387239456177,6.298876134809177],[102.00683355331421,6.297020583794591],[102.00724124908447,6.296018156924319],[102.00852870941162,6.294973071531203],[102.0091724395752,6.294909086642903],[102.01013803482056,6.29397064070892],[102.01088905334473,6.293373446959137],[102.01148986816406,6.293202820047398],[102.01176881790161,6.293224148414424],[102.01196193695068,6.293437432036598],[102.0119833946228,6.293714700614501],[102.01183319091797,6.293991969044427],[102.01226234436035,6.294269237326361],[102.01282024383545,6.295058384703353],[102.01262712478638,6.2951863544352875],[102.01217651367188,6.294546505460303],[102.01183319091797,6.294226580677233],[102.01155424118042,6.294183924024608],[102.01071739196777,6.294439863887845],[102.00977325439453,6.2951863544352875],[102.00717687606812,6.297681757905181],[102.0069408416748,6.298065665066872],[102.00691938400269,6.298257618541243],[102.00773477554321,6.2995159784487385],[102.0076060295105,6.2995799627693145],[102.00668334960938,6.298257618541243],[102.0064902305603,6.298172305894738],[102.00606107711792,6.298257618541243],[102.00556755065918,6.298470900096191],[102.00464487075806,6.2991107442352785],[102.00206995010376,6.301456832663149],[102.00151205062866,6.3020966731207295],[102.00149059295654,6.302309953097918],[102.00202703475952,6.303141744171057],[102.00185537338257,6.30326971191009],[102.00131893157959,6.302437921042127],[102.00108289718628,6.302267297109495],[102.00082540512085,6.302267297109495],[102.00028896331787,6.302416593053607],[101.99979543685913,6.302693856835873],[101.99694156646729,6.305210552081206],[101.99612617492676,6.306042338502365],[101.99593305587769,6.3064049116529475],[101.99659824371338,6.307279351737606],[101.99642658233643,6.3073859906714205],[101.99565410614014,6.3063622560013215],[101.99535369873047,6.306276944687568],[101.9949460029602,6.306340928174222],[101.99455976486206,6.306490222945655],[101.9941520690918,6.3067674845499795],[101.99333667755127,6.307513957363028],[101.9906759262085,6.310115939906439],[101.99020385742188,6.310713114384484],[101.99063301086426,6.311331615796831],[101.99050426483154,6.311438253896753],[101.98983907699585,6.310478510207346],[101.98962450027466,6.310350544247768],[101.98930263519287,6.310350544247768],[101.98891639709473,6.310435854890997],[101.98835849761963,6.310777097323452],[101.98681354522705,6.312142064805585],[101.98466777801514,6.314552076733634],[101.98447465896606,6.314253491793735],[101.98421716690063,6.31406154424144],[101.98391675949097,6.314040216731257],[101.9835090637207,6.314125526766787],[101.98314428329468,6.314338801794136],[101.98035478591919,6.316663493894268],[102.04238891601562,6.316663493894268]]]}},{"type":"Feature","id":"pmtiles:12/3208/1976:water:1590:1","properties":{"class":"ocean","water":"ocean","kind":"waterway","verification":"verified","source":"OpenMapTiles/OpenStreetMap national PMTiles","sourceId":"12/3208/1976:water:1590:1","sourceLayer":"water","archive":"https://its.hanifahseptiani45.workers.dev/v1/map/archive/indonesia.pmtiles","updatedAt":"2026-07-26T10:35:28.236Z"},"geometry":{"type":"Polygon","coordinates":[[[102.04238891601562,6.274412188845645],[102.04238891601562,6.273900289288989],[102.04193830490112,6.274220226570819],[102.04193830490112,6.274305543146141],[102.04204559326172,6.274412188845645],[102.04234600067139,6.274433517982928],[102.04238891601562,6.274412188845645]]]}},{"type":"Feature","id":"pmtiles:12/3208/1976:water:1590:2","properties":{"class":"ocean","water":"ocean","kind":"waterway","verification":"verified","source":"OpenMapTiles/OpenStreetMap national PMTiles","sourceId":"12/3208/1976:water:1590:2","sourceLayer":"water","archive":"https://its.hanifahseptiani45.workers.dev/v1/map/archive/indonesia.pmtiles","updatedAt":"2026-07-26T10:35:28.236Z"},"geometry":{"type":"Polygon","coordinates":[[[102.0416808128357,6.276331807704253],[102.04238891601562,6.277376930553501],[102.04238891601562,6.275329340960397],[102.04210996627808,6.27562794827729],[102.0416808128357,6.276331807704253]]]}},{"type":"Feature","id":"pmtiles:12/3209/1976:water:1590:0","properties":{"class":"ocean","water":"ocean","kind":"waterway","verification":"verified","source":"OpenMapTiles/OpenStreetMap national PMTiles","sourceId":"12/3209/1976:water:1590:0","sourceLayer":"water","archive":"https://its.hanifahseptiani45.workers.dev/v1/map/archive/indonesia.pmtiles","updatedAt":"2026-07-26T10:35:28.286Z"},"geometry":{"type":"Polygon","coordinates":[[[102.03974962234497,6.277312943500547],[102.03964233398438,6.277419588584436],[102.03964233398438,6.316663493894268],[102.13027954101562,6.316663493894268],[102.13027954101562,6.226568742378319],[102.117018699646,6.226568742378319],[102.11459398269653,6.227976592333064],[102.11259841918945,6.22923512167263],[102.11182594299316,6.229619079175549],[102.11124658584595,6.230152353019207],[102.11083889007568,6.230344331470292],[102.11025953292847,6.23087760457706],[102.10965871810913,6.231240229980116],[102.10852146148682,6.232157457822225],[102.10714817047119,6.233053353236315],[102.10613965988159,6.233799931579313],[102.0988655090332,6.23983651170964],[102.09759950637817,6.240945699084591],[102.09371566772461,6.244593202546142],[102.09371566772461,6.245169121823082],[102.0935869216919,6.245830361693166],[102.09330797195435,6.246512931005583],[102.09283590316772,6.247302150663543],[102.09266424179077,6.247259490171928],[102.09264278411865,6.2471101784238385],[102.09324359893799,6.246107655583671],[102.09345817565918,6.2454250857428235],[102.09345817565918,6.244827836402109],[102.09330797195435,6.24391063073098],[102.09322214126587,6.243825309191536],[102.09161281585693,6.244038613014098],[102.08875894546509,6.2447851757088415],[102.08981037139893,6.245403755420952],[102.08983182907104,6.245531737339135],[102.08974599838257,6.2455957282864745],[102.08841562271118,6.244806506055909],[102.08704233169556,6.245894352604012],[102.0863127708435,6.246726233733185],[102.08573341369629,6.24753678330535],[102.08644151687622,6.24860329398777],[102.08560466766357,6.2474088018774125],[102.08547592163086,6.247430132117572],[102.08483219146729,6.2476647647019945],[102.08386659622192,6.248411322225337],[102.08290100097656,6.249264529519266],[102.08221435546875,6.250011084760175],[102.08206415176392,6.250245716187294],[102.0823860168457,6.250693648619588],[102.08240747451782,6.250821629244072],[102.08232164382935,6.250778969039388],[102.08157062530518,6.249669802496527],[102.08077669143677,6.249776453227824],[102.08039045333862,6.249947094352706],[102.07944631576538,6.250672318512471],[102.07826614379883,6.251824143052559],[102.07805156707764,6.252101433766725],[102.07803010940552,6.252250744090375],[102.07852363586426,6.253018625081495],[102.07843780517578,6.253018625081495],[102.07777261734009,6.252016113562632],[102.07760095596313,6.252016113562632],[102.07702159881592,6.2522080840022625],[102.07663536071777,6.252464044478771],[102.07547664642334,6.2535518751063535],[102.07433938980103,6.254853002884488],[102.07414627075195,6.255194281765625],[102.07470417022705,6.25594082854127],[102.07468271255493,6.25602614810488],[102.07395315170288,6.255044972282548],[102.07367420196533,6.255087632139208],[102.07313776016235,6.255343591206056],[102.07247257232666,6.25594082854127],[102.0713996887207,6.257156631007746],[102.07154989242554,6.257348599559677],[102.07154989242554,6.257455248724725],[102.07144260406494,6.257412589061303],[102.07090616226196,6.256602054794925],[102.07026243209839,6.256858013120123],[102.06974744796753,6.2572419503728725],[102.06891059875488,6.258031153839809],[102.06830978393555,6.258777696562731],[102.06925392150879,6.260100141053172],[102.06916809082031,6.260057481605742],[102.06815958023071,6.258671047667619],[102.06768751144409,6.2587137072282815],[102.06727981567383,6.258884345436073],[102.06665754318237,6.259332270466331],[102.06517696380615,6.260931999581658],[102.06474781036377,6.261465241531226],[102.0648980140686,6.261635878840082],[102.06491947174072,6.2617425271297975],[102.06485509872437,6.261806516093188],[102.06470489501953,6.261721197473605],[102.06425428390503,6.26101731833019],[102.06371784210205,6.26120928546338],[102.06337451934814,6.261465241531226],[102.06270933151245,6.262105131151927],[102.0623230934143,6.26257438304205],[102.06326723098755,6.263875488349612],[102.06326723098755,6.263939477051551],[102.06318140029907,6.263918147485114],[102.06219434738159,6.262531723796755],[102.06137895584106,6.262723690373193],[102.0609712600708,6.26295831609302],[102.05983400344849,6.263875488349612],[102.05914735794067,6.264515375016131],[102.0585036277771,6.26521924944322],[102.05807447433472,6.265837804974268],[102.05893278121948,6.267032254959176],[102.05893278121948,6.267096243274054],[102.05886840820312,6.2670749138366375],[102.05779552459717,6.265581851050342],[102.05708742141724,6.26573115752123],[102.05590724945068,6.266200406151583],[102.05378293991089,6.267949420055871],[102.05198049545288,6.2697410867554595],[102.05277442932129,6.2708075521067315],[102.05277442932129,6.270935527802294],[102.05268859863281,6.270871539958449],[102.05178737640381,6.269549122760608],[102.05105781555176,6.2697410867554595],[102.0505428314209,6.269997038638678],[102.04951286315918,6.270764893534562],[102.04734563827515,6.273068451437041],[102.04798936843872,6.273942947604581],[102.0479679107666,6.274028264225279],[102.04790353775024,6.2740069350714265],[102.04728126525879,6.273089780629334],[102.04670190811157,6.273260414136104],[102.04614400863647,6.27349503511671],[102.0453929901123,6.27404959337828],[102.04496383666992,6.274476176254865],[102.04472780227661,6.274881429664163],[102.0450496673584,6.275222695448605],[102.04507112503052,6.275371999158992],[102.04496383666992,6.275478644640231],[102.04481363296509,6.275435986450347],[102.04419136047363,6.274390859707495],[102.04356908798218,6.274582821919452],[102.04260349273682,6.2750733916954005],[102.04210996627808,6.27562794827729],[102.0416808128357,6.276331807704253],[102.04243183135986,6.277419588584436],[102.04245328903198,6.2775688916652115],[102.0423674583435,6.2775688916652115],[102.04161643981934,6.276395794877729],[102.04114437103271,6.2765024401494],[102.04047918319702,6.276801046793906],[102.03974962234497,6.277312943500547]]]}},{"type":"Feature","id":"pmtiles:12/3209/1976:water:1590:1","properties":{"class":"ocean","water":"ocean","kind":"waterway","verification":"verified","source":"OpenMapTiles/OpenStreetMap national PMTiles","sourceId":"12/3209/1976:water:1590:1","sourceLayer":"water","archive":"https://its.hanifahseptiani45.workers.dev/v1/map/archive/indonesia.pmtiles","updatedAt":"2026-07-26T10:35:28.286Z"},"geometry":{"type":"Polygon","coordinates":[[[102.03964233398438,6.2756919355372105],[102.03964233398438,6.27637446582078],[102.03979253768921,6.276267820522918],[102.04073667526245,6.275819910033491],[102.04129457473755,6.275457315545722],[102.04170227050781,6.274966746131213],[102.04009294509888,6.27562794827729],[102.03964233398438,6.2756919355372105]]]}},{"type":"Feature","id":"pmtiles:12/3209/1976:water:1590:2","properties":{"class":"ocean","water":"ocean","kind":"waterway","verification":"verified","source":"OpenMapTiles/OpenStreetMap national PMTiles","sourceId":"12/3209/1976:water:1590:2","sourceLayer":"water","archive":"https://its.hanifahseptiani45.workers.dev/v1/map/archive/indonesia.pmtiles","updatedAt":"2026-07-26T10:35:28.286Z"},"geometry":{"type":"Polygon","coordinates":[[[102.03964233398438,6.270380966227947],[102.03964233398438,6.273772314321263],[102.04084396362305,6.273089780629334],[102.04172372817993,6.272705855034843],[102.04208850860596,6.272641867408254],[102.0424747467041,6.272663196617984],[102.04279661178589,6.272791171858046],[102.04301118850708,6.273068451437041],[102.04296827316284,6.273260414136104],[102.04256057739258,6.273793643484737],[102.04193830490112,6.274220226570819],[102.04193830490112,6.274305543146141],[102.04204559326172,6.274412188845645],[102.04234600067139,6.274433517982928],[102.04275369644165,6.274326872287773],[102.04322576522827,6.274092251681651],[102.04406261444092,6.273452376764453],[102.04468488693237,6.273068451437041],[102.04500675201416,6.272343258380388],[102.04599380493164,6.271938002997544],[102.04657316207886,6.271554076554779],[102.04803228378296,6.270402295530175],[102.04865455627441,6.2702529903962585],[102.05082178115845,6.268695948595308],[102.05215215682983,6.267842773034445],[102.05223798751831,6.267714796579966],[102.0518946647644,6.267778784811142],[102.05052137374878,6.26841866669109],[102.04985618591309,6.2686532898504055],[102.04891204833984,6.268845254174991],[102.0481824874878,6.269079877142403],[102.04749584197998,6.2693998173824355],[102.04672336578369,6.269869062712772],[102.04530715942383,6.2709141985218935],[102.04498529434204,6.271106162014206],[102.04485654830933,6.271106162014206],[102.04477071762085,6.270999515638309],[102.04485654830933,6.270508942028229],[102.04217433929443,6.268994559711928],[102.04092979431152,6.269762416083864],[102.03964233398438,6.270380966227947]]]}},{"type":"Feature","id":"pmtiles:12/3210/1976:water:1590:0","properties":{"class":"ocean","water":"ocean","kind":"waterway","verification":"verified","source":"OpenMapTiles/OpenStreetMap national PMTiles","sourceId":"12/3210/1976:water:1590:0","sourceLayer":"water","archive":"https://its.hanifahseptiani45.workers.dev/v1/map/archive/indonesia.pmtiles","updatedAt":"2026-07-26T10:35:28.361Z"},"geometry":{"type":"Polygon","coordinates":[[[102.12753295898438,6.316663493894268],[102.21817016601562,6.316663493894268],[102.21817016601562,6.226568742378319],[102.12753295898438,6.226568742378319],[102.12753295898438,6.316663493894268]]]}},{"type":"Feature","id":"pmtiles:12/3211/1976:water:1590:0","properties":{"class":"ocean","water":"ocean","kind":"waterway","verification":"verified","source":"OpenMapTiles/OpenStreetMap national PMTiles","sourceId":"12/3211/1976:water:1590:0","sourceLayer":"water","archive":"https://its.hanifahseptiani45.workers.dev/v1/map/archive/indonesia.pmtiles","updatedAt":"2026-07-26T10:35:28.410Z"},"geometry":{"type":"Polygon","coordinates":[[[102.21542358398438,6.316663493894268],[102.30606079101562,6.316663493894268],[102.30606079101562,6.226568742378319],[102.21542358398438,6.226568742378319],[102.21542358398438,6.316663493894268]]]}},{"type":"Feature","id":"pmtiles:12/3209/1977:water:1590:0","properties":{"class":"ocean","water":"ocean","kind":"waterway","verification":"verified","source":"OpenMapTiles/OpenStreetMap national PMTiles","sourceId":"12/3209/1977:water:1590:0","sourceLayer":"water","archive":"https://its.hanifahseptiani45.workers.dev/v1/map/archive/indonesia.pmtiles","updatedAt":"2026-07-26T10:35:59.762Z"},"geometry":{"type":"Polygon","coordinates":[[[102.13027954101562,6.2189748199836],[102.13004350662231,6.219102808348737],[102.11714744567871,6.226483418017324],[102.11459398269653,6.227976592333064],[102.11259841918945,6.22923512167263],[102.11249113082886,6.22929911460929],[102.13027954101562,6.22929911460929],[102.13027954101562,6.2189748199836]]]}},{"type":"Feature","id":"pmtiles:12/3210/1977:water:1590:0","properties":{"class":"ocean","water":"ocean","kind":"waterway","verification":"verified","source":"OpenMapTiles/OpenStreetMap national PMTiles","sourceId":"12/3210/1977:water:1590:0","sourceLayer":"water","archive":"https://its.hanifahseptiani45.workers.dev/v1/map/archive/indonesia.pmtiles","updatedAt":"2026-07-26T10:35:59.817Z"},"geometry":{"type":"Polygon","coordinates":[[[102.21817016601562,6.220809316906639],[102.21782684326172,6.220702660284076],[102.21677541732788,6.220489346974006],[102.21484422683716,6.220340027605445],[102.21405029296875,6.220446684301592],[102.21250534057617,6.220126714148236],[102.21166849136353,6.2208733108698056],[102.21151828765869,6.2208519795496215],[102.21121788024902,6.220702660284076],[102.21100330352783,6.220659997628985],[102.2102952003479,6.220830648228571],[102.20999479293823,6.220702660284076],[102.2098445892334,6.220702660284076],[102.20982313156128,6.220787985583868],[102.21012353897095,6.221299937091729],[102.21003770828247,6.22142792489079],[102.20971584320068,6.221555912658673],[102.20862150192261,6.221470587483537],[102.20744132995605,6.221193280568713],[102.20654010772705,6.221065292712524],[102.20593929290771,6.2208733108698056],[102.204909324646,6.220745322935699],[102.20295667648315,6.221470587483537],[102.20014572143555,6.22223851356101],[102.1993088722229,6.2223451698719],[102.19636917114258,6.223091763442071],[102.19355821609497,6.224030336710925],[102.19233512878418,6.224264979766133],[102.19175577163696,6.224286310947775],[102.19113349914551,6.224478291543591],[102.19008207321167,6.224606278568459],[102.18860149383545,6.225054232910011],[102.18782901763916,6.225011570608231],[102.18746423721313,6.225054232910011],[102.18722820281982,6.225139557503198],[102.18652009963989,6.225544849131495],[102.18409538269043,6.226014133784062],[102.18353748321533,6.22592880933297],[102.18323707580566,6.225715498144581],[102.18289375305176,6.2256941670209756],[102.18207836151123,6.225992802672607],[102.18079090118408,6.22614212043473],[102.18057632446289,6.226078127113297],[102.18034029006958,6.225822153749604],[102.17982530593872,6.225608842517886],[102.17838764190674,6.225758160389191],[102.17787265777588,6.225779491510195],[102.17774391174316,6.225758160389191],[102.1774435043335,6.225395531199538],[102.17714309692383,6.225267544366972],[102.17630624771118,6.225203550938971],[102.1758770942688,6.225096895208338],[102.17540502548218,6.225075564059608],[102.17489004135132,6.225139557503198],[102.17407464981079,6.225011570608231],[102.17353820800781,6.225011570608231],[102.17188596725464,6.225139557503198],[102.17141389846802,6.2251182263562015],[102.17059850692749,6.2248835836821],[102.16896772384644,6.224627609736245],[102.16776609420776,6.224520953888671],[102.16643571853638,6.224520953888671],[102.16607093811035,6.224563616230299],[102.16531991958618,6.224478291543591],[102.16506242752075,6.2243929668429985],[102.1647834777832,6.224200986216019],[102.16411828994751,6.2240943302818295],[102.16368913650513,6.22390234954571],[102.1632170677185,6.223945011937587],[102.16268062591553,6.22390234954571],[102.16190814971924,6.223433063006539],[102.15991258621216,6.222878451101693],[102.15946197509766,6.222686469921328],[102.15896844863892,6.22221718229622],[102.15815305709839,6.221747894252061],[102.15733766555786,6.221406593593116],[102.15645790100098,6.220787985583868],[102.1553635597229,6.22040402162574],[102.1552562713623,6.220105382797755],[102.15534210205078,6.21991340060444],[102.15568542480469,6.219614761497752],[102.15697288513184,6.211338124499051],[102.15660810470581,6.211444783020326],[102.1563720703125,6.211444783020326],[102.15620040893555,6.211402119614419],[102.15598583221436,6.211231465956175],[102.15512752532959,6.211167470820058],[102.15356111526489,6.210890158473717],[102.15272426605225,6.210783499840076],[102.14911937713623,6.210911490197844],[102.14714527130127,6.2113167927922035],[102.14497804641724,6.211999406982613],[102.14251041412354,6.213087321518941],[102.14175939559937,6.213535285674396],[102.140793800354,6.214217896987563],[102.13871240615845,6.215177817648467],[102.1378755569458,6.215711106147779],[102.13379859924316,6.217417625712486],[102.13343381881714,6.217481620088449],[102.13281154632568,6.217716266067029],[102.13156700134277,6.218292214843331],[102.13004350662231,6.219102808348737],[102.12753295898438,6.2205320096429375],[102.12753295898438,6.22929911460929],[102.21817016601562,6.22929911460929],[102.21817016601562,6.220809316906639]]]}},{"type":"Feature","id":"pmtiles:12/3211/1977:water:1590:0","properties":{"class":"ocean","water":"ocean","kind":"waterway","verification":"verified","source":"OpenMapTiles/OpenStreetMap national PMTiles","sourceId":"12/3211/1977:water:1590:0","sourceLayer":"water","archive":"https://its.hanifahseptiani45.workers.dev/v1/map/archive/indonesia.pmtiles","updatedAt":"2026-07-26T10:35:59.895Z"},"geometry":{"type":"Polygon","coordinates":[[[102.30606079101562,6.183542178352468],[102.3033356666565,6.185419464077967],[102.30305671691895,6.185504795088917],[102.30290651321411,6.185291467535691],[102.30254173278809,6.1850354743581875],[102.30230569839478,6.185014141587786],[102.30138301849365,6.185291467535691],[102.300546169281,6.185334133053217],[102.29949474334717,6.185483462337473],[102.29915142059326,6.1856114588332645],[102.29741334915161,6.1864007698724635],[102.29619026184082,6.186720760498545],[102.29398012161255,6.1874247391940145],[102.29284286499023,6.1877447292001335],[102.29035377502441,6.188982022067378],[102.28835821151733,6.189558002241412],[102.28749990463257,6.189877990955665],[102.28511810302734,6.190923286071438],[102.28228569030762,6.192011244096946],[102.28046178817749,6.192800545575352],[102.27910995483398,6.193717840405753],[102.27664232254028,6.195211107650763],[102.27606296539307,6.195680419341031],[102.27559089660645,6.1959790720175505],[102.27546215057373,6.195829745700408],[102.27443218231201,6.196619041469589],[102.2743034362793,6.19649104764126],[102.27387428283691,6.1968750290330945],[102.27353096008301,6.197088351907794],[102.27314472198486,6.197301674696291],[102.27299451828003,6.197216345591244],[102.27213621139526,6.197941642544251],[102.27202892303467,6.19798430703986],[102.27194309234619,6.197834981290171],[102.27181434631348,6.197877645794392],[102.27097749710083,6.198581609615957],[102.27074146270752,6.198602941838303],[102.27041959762573,6.198389619575963],[102.27033376693726,6.198282958412435],[102.27046251296997,6.198154964987751],[102.27046251296997,6.19798430703986],[102.27022647857666,6.1977709845273665],[102.26947546005249,6.197578994192369],[102.26827383041382,6.197600326455273],[102.26793050765991,6.197642990978466],[102.2672438621521,6.198026971531988],[102.26546287536621,6.199584223134011],[102.26546287536621,6.199797544913238],[102.2643256187439,6.201077473776735],[102.26368188858032,6.201632108652845],[102.2636604309082,6.201738769139041],[102.26357460021973,6.201738769139041],[102.26280212402344,6.202314735391752],[102.2620940208435,6.202506724002816],[102.26151466369629,6.202912033063271],[102.26142883300781,6.202890701015235],[102.26147174835205,6.202762708708846],[102.26142883300781,6.202720044599815],[102.26121425628662,6.202720044599815],[102.26093530654907,6.2028053728144386],[102.26057052612305,6.203018693290545],[102.25908994674683,6.204341278315695],[102.25527048110962,6.207093097811139],[102.25303888320923,6.208607658997892],[102.25024938583374,6.21074083638058],[102.24574327468872,6.214644528608602],[102.24518537521362,6.214943170537538],[102.24338293075562,6.216607029609563],[102.24327564239502,6.216628361101968],[102.24293231964111,6.216500372134618],[102.24252462387085,6.216692355573969],[102.24211692810059,6.21690567042441],[102.24164485931396,6.217289636937167],[102.24106550216675,6.217460288630647],[102.24072217941284,6.217673603169615],[102.24001407623291,6.218270883418427],[102.23973512649536,6.2184202033746345],[102.23552942276001,6.218356209112898],[102.2323751449585,6.219209465295904],[102.23218202590942,6.219166802519624],[102.23179578781128,6.218846831587285],[102.23168849945068,6.2188255001848916],[102.23140954971313,6.219081476956703],[102.23100185394287,6.219721418341038],[102.23055124282837,6.221043961400127],[102.23029375076294,6.221171949261517],[102.23016500473022,6.221129286644526],[102.22999334335327,6.220937304825156],[102.22973585128784,6.220979967457751],[102.22941398620605,6.221171949261517],[102.22900629043579,6.221726562967376],[102.22887754440308,6.2218118881009445],[102.2283411026001,6.221747894252061],[102.22797632217407,6.221769225535894],[102.22600221633911,6.221961207051365],[102.22580909729004,6.222110525959351],[102.22548723220825,6.222046532146834],[102.22492933273315,6.222131857228462],[102.22235441207886,6.221598575241046],[102.22192525863647,6.221577243950293],[102.22158193588257,6.221321268393737],[102.2212815284729,6.221363930995167],[102.22123861312866,6.221449256187597],[102.22110986709595,6.221470587483537],[102.2193717956543,6.220958636141887],[102.21834182739258,6.2208519795496215],[102.21782684326172,6.220702660284076],[102.21677541732788,6.220489346974006],[102.21542358398438,6.220382690286499],[102.21542358398438,6.22929911460929],[102.30606079101562,6.22929911460929],[102.30606079101562,6.183542178352468]]]}},{"type":"Feature","id":"pmtiles:10/802/494:water:1590:0","properties":{"class":"ocean","water":"ocean","kind":"waterway","verification":"verified","source":"OpenMapTiles/OpenStreetMap national PMTiles","sourceId":"10/802/494:water:1590:0","sourceLayer":"water","archive":"https://its.hanifahseptiani45.workers.dev/v1/map/archive/indonesia.pmtiles","updatedAt":"2026-07-26T09:38:00.395Z"},"geometry":{"type":"Polygon","coordinates":[[[102.3101806640625,6.180662238434394],[102.30331420898438,6.1854407968319975],[102.30305671691895,6.185526127839523],[102.30228424072266,6.185014141587786],[102.29945182800293,6.185526127839523],[102.29739189147949,6.186379437157186],[102.29284286499023,6.1877447292001335],[102.29035377502441,6.189024687287002],[102.28752136230469,6.189877990955665],[102.28048324584961,6.1927792131184844],[102.27559089660645,6.196021736671838],[102.27550506591797,6.195851078034025],[102.27438926696777,6.196619041469589],[102.2743034362793,6.196448383024915],[102.27215766906738,6.197898978045217],[102.27181434631348,6.197898978045217],[102.27095603942871,6.198581609615957],[102.27044105529785,6.198410951806068],[102.27044105529785,6.19798430703986],[102.27018356323242,6.19781364903676],[102.26949691772461,6.197557661928627],[102.26795196533203,6.197642990978466],[102.26546287536621,6.199605555315799],[102.2636604309082,6.201738769139041],[102.26151466369629,6.202933365110468],[102.26117134094238,6.202762708708846],[102.26057052612305,6.203018693290545],[102.25911140441895,6.204298614334434],[102.25027084350586,6.210783499840076],[102.24340438842773,6.216585698116305],[102.24288940429688,6.216500372134618],[102.24254608154297,6.216671024084178],[102.23971366882324,6.218377540534348],[102.23550796508789,6.218377540534348],[102.23241806030273,6.219230796682737],[102.23164558410645,6.2188041687816025],[102.23104476928711,6.219742749707095],[102.23052978515625,6.221022630086864],[102.23027229309082,6.221193280568713],[102.22975730895996,6.221022630086864],[102.2288990020752,6.22179055681886],[102.22495079040527,6.222131857228462],[102.216796875,6.220510678308912],[102.21405029296875,6.220425352964099],[102.21250534057617,6.220169376846599],[102.2116470336914,6.2208519795496215],[102.2109603881836,6.220681328956957],[102.21027374267578,6.2208519795496215],[102.2098445892334,6.220681328956957],[102.21010208129883,6.221278605788854],[102.20975875854492,6.2215345813661855],[102.20486640930176,6.220766654260217],[102.20297813415527,6.221449256187597],[102.19636917114258,6.223070432211927],[102.19353675842285,6.22400900551888],[102.18855857849121,6.225032901759562],[102.18744277954102,6.225032901759562],[102.18649864196777,6.225544849131495],[102.18409538269043,6.226056796004428],[102.18289375305176,6.225715498144581],[102.18074798583984,6.22614212043473],[102.1798038482666,6.225630173644959],[102.17791557312012,6.225800822630333],[102.17714309692383,6.2252888755079],[102.17585563659668,6.2251182263562015],[102.17190742492676,6.2251182263562015],[102.16898918151855,6.224606278568459],[102.16529846191406,6.224520953888671],[102.16366767883301,6.223923680742075],[102.16272354125977,6.223923680742075],[102.161865234375,6.223411731790279],[102.15989112854004,6.222899782339624],[102.15645790100098,6.220766654260217],[102.15534210205078,6.220425352964099],[102.1552562713623,6.220084051446392],[102.15568542480469,6.219657424237653],[102.15697288513184,6.2112954610844895],[102.1563720703125,6.211466114721986],[102.15268135070801,6.210783499840076],[102.14916229248047,6.2109541536435415],[102.14495658874512,6.211978075302582],[102.1424674987793,6.213087321518941],[102.13791847229004,6.215732437676493],[102.13276863098145,6.2176949346187484],[102.1300220489502,6.219060145563816],[102.11182594299316,6.2296404101396945],[102.10616111755371,6.23382126237351],[102.0988655090332,6.239793850609871],[102.09371566772461,6.244571872190377],[102.09362983703613,6.245851691997643],[102.09285736083984,6.247302150663543],[102.09268569946289,6.247131508676176],[102.09345817565918,6.2454250857428235],[102.09320068359375,6.243803978804493],[102.08873748779297,6.244742515012092],[102.08985328674316,6.2454250857428235],[102.08976745605469,6.2455957282864745],[102.08839416503906,6.244827836402109],[102.08702087402344,6.245937013206898],[102.08573341369629,6.2475581135403075],[102.0864200592041,6.248581963795431],[102.08547592163086,6.247472792595289],[102.0838451385498,6.248411322225337],[102.08221435546875,6.250032414894264],[102.0820426940918,6.2502883764354635],[102.0823860168457,6.250800299142156],[102.08152770996094,6.249691132644514],[102.08041191101074,6.249947094352706],[102.07809448242188,6.252080103717006],[102.07852363586426,6.253018625081495],[102.07757949829102,6.251994783509446],[102.07663536071777,6.252421384408066],[102.0754337310791,6.253530545115794],[102.07414627075195,6.255151621917662],[102.07466125488281,6.256004818215274],[102.073974609375,6.255066302211318],[102.0736312866211,6.255066302211318],[102.07242965698242,6.255919498648197],[102.0713996887207,6.257113971319967],[102.07157135009766,6.257455248724725],[102.07088470458984,6.256602054794925],[102.06976890563965,6.257199290692043],[102.06830978393555,6.258820356114683],[102.06925392150879,6.260100141053172],[102.0681381225586,6.258649717885987],[102.06770896911621,6.2587350370073125],[102.06667900085449,6.259332270466331],[102.06513404846191,6.2609533292700945],[102.06470489501953,6.261465241531226],[102.06487655639648,6.261806516093188],[102.06427574157715,6.2610386480151305],[102.06367492675781,6.26120928546338],[102.06273078918457,6.262062471868276],[102.06230163574219,6.26257438304205],[102.06324577331543,6.263939477051551],[102.06221580505371,6.26248906454795],[102.06092834472656,6.26300097530347],[102.05912590026855,6.264536704558168],[102.05809593200684,6.265816475485394],[102.0589542388916,6.267096243274054],[102.05775260925293,6.2655605215510235],[102.05595016479492,6.266157747202627],[102.052001953125,6.2697410867554595],[102.05277442932129,6.270935527802294],[102.05174446105957,6.269570452096858],[102.05105781555176,6.2697410867554595],[102.04951286315918,6.270764893534562],[102.04736709594727,6.273068451437041],[102.0479679107666,6.2740069350714265],[102.04728126525879,6.273068451437041],[102.0461654663086,6.27349503511671],[102.04496383666992,6.27451883452332],[102.04470634460449,6.274860100545212],[102.0450496673584,6.275201366343609],[102.04496383666992,6.275457315545722],[102.04419136047363,6.274348201428552],[102.04264640808105,6.2751160499149705],[102.04170227050781,6.276310478644689],[102.0424747467041,6.277590220673261],[102.04161643981934,6.276395794877729],[102.04050064086914,6.27682237583339],[102.03895568847656,6.278102116604302],[102.03878402709961,6.278614012032207],[102.03929901123047,6.279211222728804],[102.03921318054199,6.279381854230593],[102.03895568847656,6.279381854230593],[102.03826904296875,6.278187432543902],[102.0366382598877,6.278869959557483],[102.03543663024902,6.280235010900782],[102.03638076782227,6.2816000586650205],[102.03543663024902,6.280405642067066],[102.03380584716797,6.28091753523033],[102.03200340270996,6.28262384213896],[102.03123092651367,6.283562308554181],[102.03191757202148,6.284671403044555],[102.03105926513672,6.283476993495455],[102.03054428100586,6.283476993495455],[102.02942848205566,6.28398888363796],[102.02822685241699,6.285097977218996],[102.02728271484375,6.2862923830464865],[102.02779769897461,6.28723084284394],[102.02685356140137,6.285865809851515],[102.02573776245117,6.2860364391714825],[102.02333450317383,6.2879133579965725],[102.02256202697754,6.288851814868664],[102.0230770111084,6.289704956009729],[102.02247619628906,6.288937129045792],[102.02110290527344,6.289363699721321],[102.01887130737305,6.291411234091157],[102.01861381530762,6.291752489035247],[102.01887130737305,6.292093743755245],[102.01861381530762,6.291923116423263],[102.01827049255371,6.291923116423263],[102.01732635498047,6.292520311840079],[102.01492309570312,6.294567833772163],[102.01483726501465,6.294994399825555],[102.01397895812988,6.295847530881332],[102.01372146606445,6.295676904782297],[102.01440811157227,6.294909086642903],[102.01337814331055,6.293629387221671],[102.01346397399902,6.292776252522884],[102.01380729675293,6.292349684648144],[102.01741218566895,6.290558095750612],[102.01784133911133,6.289875584069918],[102.02101707458496,6.287828043651487],[102.02281951904297,6.28740147171608],[102.02376365661621,6.2868895849317],[102.02582359313965,6.284244828520357],[102.02908515930176,6.2820266353572265],[102.03105926513672,6.280064379678592],[102.03269004821777,6.278784643729708],[102.03380584716797,6.278528696162496],[102.03457832336426,6.279637801378442],[102.03492164611816,6.2795524856764615],[102.0355224609375,6.27895527537126],[102.03646659851074,6.278528696162496],[102.03783988952637,6.277419588584436],[102.03835487365723,6.27733427251907],[102.04127311706543,6.275457315545722],[102.04170227050781,6.274945417015772],[102.04007148742676,6.27562794827729],[102.03758239746094,6.276054529861696],[102.03741073608398,6.275201366343609],[102.03801155090332,6.274689467562197],[102.04084396362305,6.273068451437041],[102.04204559326172,6.272641867408254],[102.04281806945801,6.272812501061665],[102.04298973083496,6.273068451437041],[102.04195976257324,6.274348201428552],[102.04273223876953,6.274348201428552],[102.04470634460449,6.273068451437041],[102.04496383666992,6.272300599933871],[102.04599380493164,6.271959332236065],[102.04805374145508,6.270423624831523],[102.04865455627441,6.2702529903962585],[102.05225944519043,6.267693467167831],[102.04753875732422,6.2693998173824355],[102.04496383666992,6.271106162014206],[102.04479217529297,6.271020844915228],[102.04487800598145,6.270508942028229],[102.0421314239502,6.268973230352117],[102.03397750854492,6.27349503511671],[102.03123092651367,6.27562794827729],[102.03028678894043,6.275713264622112],[102.030029296875,6.274689467562197],[102.02977180480957,6.275286682758292],[102.02994346618652,6.276054529861696],[102.02942848205566,6.276993008117856],[102.02874183654785,6.277675536696705],[102.02736854553223,6.278443380278816],[102.02513694763184,6.2806615887116095],[102.02110290527344,6.2818560047223],[102.01955795288086,6.282538526926373],[102.01861381530762,6.283221048235362],[102.0175838470459,6.2845007732768465],[102.01552391052246,6.28552455104365],[102.01363563537598,6.28740147171608],[102.01294898986816,6.288339929512048],[102.01174736022949,6.289193071493116],[102.0106315612793,6.289363699721321],[102.00874328613281,6.290131526055191],[102.00719833374023,6.291411234091157],[102.00582504272461,6.292093743755245],[102.00522422790527,6.292946879574714],[102.00488090515137,6.294141267368474],[102.00428009033203,6.2931175065705105],[102.00410842895508,6.293202820047398],[102.00453758239746,6.294738460235564],[102.00342178344727,6.296530034716881],[102.00316429138184,6.296530034716881],[102.00299263000488,6.296274095883675],[102.00419425964355,6.294226580677233],[102.00410842895508,6.293714700614501],[102.00187683105469,6.295506278627187],[102.00179100036621,6.295762217838828],[102.00213432312012,6.296530034716881],[102.00239181518555,6.296615347633235],[102.00264930725098,6.296359408842079],[102.00179100036621,6.297468476026026],[101.99749946594238,6.300027852792439],[101.99698448181152,6.299089416110007],[101.99715614318848,6.298748165986638],[101.99681282043457,6.29832160301693],[101.99586868286133,6.299004103600197],[101.99664115905762,6.30028378977498],[101.99715614318848,6.3001984774614925],[101.9956111907959,6.3009662877779675],[101.99646949768066,6.300369102074441],[101.9959545135498,6.299771915683706],[101.99466705322266,6.3005397266312855],[101.99475288391113,6.3009662877779675],[101.99432373046875,6.301307536442835],[101.9944953918457,6.30164878488327],[101.99543952941895,6.30105159996522],[101.99286460876465,6.303099088251045],[101.99183464050293,6.302843152657232],[101.9912338256836,6.302928464535867],[101.99071884155273,6.303696270812168],[101.99003219604492,6.304037517681266],[101.99037551879883,6.304464075951884],[101.99149131774902,6.303184400087574],[101.99200630187988,6.303184400087574],[101.99217796325684,6.3035256472934265],[101.99149131774902,6.304037517681266],[101.98986053466797,6.305829060060034],[101.99080467224121,6.305146568455086],[101.9930362701416,6.304208141031609],[101.99372291564941,6.3043787643258185],[101.99355125427246,6.304464075951884],[101.99363708496094,6.304720010745839],[101.99337959289551,6.304890633871651],[101.99346542358398,6.305061256941315],[101.99398040771484,6.304890633871651],[101.99526786804199,6.304208141031609],[101.99578285217285,6.3033550237185665],[101.99638366699219,6.3033550237185665],[101.9967269897461,6.303013776400476],[101.99767112731934,6.302928464535867],[101.99801445007324,6.302160657123082],[101.99938774108887,6.301990033099258],[102.00007438659668,6.30164878488327],[102.00076103210449,6.301222224297646],[102.00076103210449,6.300710351132025],[102.00247764587402,6.300027852792439],[102.00385093688965,6.29891879107636],[102.00685501098633,6.2970419120048575],[102.00728416442871,6.296018156924319],[102.00857162475586,6.294994399825555],[102.0091724395752,6.294909086642903],[102.01088905334473,6.293373446959137],[102.01174736022949,6.293202820047398],[102.01200485229492,6.293714700614501],[102.01183319091797,6.29397064070892],[102.01286315917969,6.295079712994195],[102.01260566711426,6.295165026148823],[102.01183319091797,6.294226580677233],[102.01071739196777,6.294397207252729],[102.0069408416748,6.298065665066872],[102.0077133178711,6.2995159784487385],[102.00762748718262,6.299601290874406],[102.00668334960938,6.2982362903809275],[102.00556755065918,6.298492228246872],[102.00462341308594,6.299089416110007],[102.00153350830078,6.3020753451181974],[102.00204849243164,6.303184400087574],[102.00187683105469,6.30326971191009],[102.0011043548584,6.3022459691139545],[102.00033187866211,6.302416593053607],[101.99698448181152,6.305231879954832],[101.9959545135498,6.306426239477446],[101.99664115905762,6.307279351737606],[101.99646949768066,6.307364662886414],[101.9956111907959,6.306340928174222],[101.99458122253418,6.306511550766643],[101.99063301086426,6.310094612233769],[101.99020385742188,6.310691786736413],[101.99063301086426,6.311374271039426],[101.9904613494873,6.3114595815141],[101.98986053466797,6.310521165520171],[101.98891639709473,6.310435854890997],[101.98677062988281,6.312142064805585],[101.9846248626709,6.31453074924363],[101.98419570922852,6.314018889220165],[101.9831657409668,6.314360129292027],[101.97535514831543,6.320758338986863],[102.3101806640625,6.320758338986863],[102.3101806640625,6.180662238434394]]]}}]}