{"type":"FeatureCollection","features":[{"type":"Feature","id":"pmtiles:10/816/534:water:130:0","properties":{"class":"ocean","water":"ocean","kind":"waterway","verification":"verified","source":"OpenMapTiles/OpenStreetMap national PMTiles","sourceId":"10/816/534:water:130:0","sourceLayer":"water","archive":"https://its.hanifahseptiani45.workers.dev/v1/map/archive/indonesia.pmtiles","updatedAt":"2026-07-26T09:45:37.755Z"},"geometry":{"type":"Polygon","coordinates":[[[106.8695068359375,-7.705548128425903],[107.2320556640625,-7.705548128425903],[107.2320556640625,-8.064668502396387],[106.8695068359375,-8.064668502396387],[106.8695068359375,-7.705548128425903]]]}}]}