{"type":"FeatureCollection","features":[{"type":"Feature","id":"pmtiles:10/840/528:water:110:0","properties":{"class":"ocean","water":"ocean","kind":"waterway","verification":"verified","source":"OpenMapTiles/OpenStreetMap national PMTiles","sourceId":"10/840/528:water:110:0","sourceLayer":"water","archive":"https://its.hanifahseptiani45.workers.dev/v1/map/archive/indonesia.pmtiles","updatedAt":"2026-07-26T09:44:39.892Z"},"geometry":{"type":"Polygon","coordinates":[[[115.3070068359375,-5.61051899590089],[115.6695556640625,-5.61051899590089],[115.6695556640625,-5.971217057997222],[115.3070068359375,-5.971217057997222],[115.3070068359375,-5.61051899590089]]]}}]}