{"type":"FeatureCollection","features":[{"type":"Feature","id":"pmtiles:10/859/518:water:30:0","properties":{"class":"ocean","water":"ocean","kind":"waterway","verification":"verified","source":"OpenMapTiles/OpenStreetMap national PMTiles","sourceId":"10/859/518:water:30:0","sourceLayer":"water","archive":"https://its.hanifahseptiani45.workers.dev/v1/map/archive/indonesia.pmtiles","updatedAt":"2026-07-26T09:42:48.378Z"},"geometry":{"type":"Polygon","coordinates":[[[121.9866943359375,-2.103409206077373],[122.3492431640625,-2.103409206077373],[122.3492431640625,-2.4656692707025485],[121.9866943359375,-2.4656692707025485],[121.9866943359375,-2.103409206077373]]]}}]}