{"type":"FeatureCollection","features":[{"type":"Feature","id":"pmtiles:10/805/535:water:2640:0","properties":{"class":"ocean","water":"ocean","kind":"waterway","verification":"verified","source":"OpenMapTiles/OpenStreetMap national PMTiles","sourceId":"10/805/535:water:2640:0","sourceLayer":"water","archive":"https://its.hanifahseptiani45.workers.dev/v1/map/archive/indonesia.pmtiles","updatedAt":"2026-07-26T09:45:46.854Z"},"geometry":{"type":"Polygon","coordinates":[[[103.0023193359375,-8.053790678898523],[103.3648681640625,-8.053790678898523],[103.3648681640625,-8.412602260297831],[103.0023193359375,-8.412602260297831],[103.0023193359375,-8.053790678898523]]]}}]}