{"type":"FeatureCollection","features":[{"type":"Feature","id":"pmtiles:12/3420/1980:water:1610:0","properties":{"class":"ocean","water":"ocean","kind":"waterway","verification":"verified","source":"OpenMapTiles/OpenStreetMap national PMTiles","sourceId":"12/3420/1980:water:1610:0","sourceLayer":"water","archive":"https://its.hanifahseptiani45.workers.dev/v1/map/archive/indonesia.pmtiles","updatedAt":"2026-07-26T10:37:52.641Z"},"geometry":{"type":"Polygon","coordinates":[[[120.58456420898438,5.967119522904156],[120.67520141601562,5.967119522904156],[120.67520141601562,5.87696603826862],[120.58456420898438,5.87696603826862],[120.58456420898438,5.967119522904156]]]}},{"type":"Feature","id":"pmtiles:12/3421/1980:water:1610:0","properties":{"class":"ocean","water":"ocean","kind":"waterway","verification":"verified","source":"OpenMapTiles/OpenStreetMap national PMTiles","sourceId":"12/3421/1980:water:1610:0","sourceLayer":"water","archive":"https://its.hanifahseptiani45.workers.dev/v1/map/archive/indonesia.pmtiles","updatedAt":"2026-07-26T10:37:52.707Z"},"geometry":{"type":"Polygon","coordinates":[[[120.67245483398438,5.967119522904156],[120.76309204101562,5.967119522904156],[120.76309204101562,5.87696603826862],[120.67245483398438,5.87696603826862],[120.67245483398438,5.967119522904156]]]}},{"type":"Feature","id":"pmtiles:12/3422/1980:water:1610:0","properties":{"class":"ocean","water":"ocean","kind":"waterway","verification":"verified","source":"OpenMapTiles/OpenStreetMap national PMTiles","sourceId":"12/3422/1980:water:1610:0","sourceLayer":"water","archive":"https://its.hanifahseptiani45.workers.dev/v1/map/archive/indonesia.pmtiles","updatedAt":"2026-07-26T10:37:52.759Z"},"geometry":{"type":"Polygon","coordinates":[[[120.76034545898438,5.967119522904156],[120.85098266601562,5.967119522904156],[120.85098266601562,5.87696603826862],[120.76034545898438,5.87696603826862],[120.76034545898438,5.967119522904156]]]}},{"type":"Feature","id":"pmtiles:12/3423/1980:water:360:0","properties":{"class":"ocean","water":"ocean","kind":"waterway","verification":"verified","source":"OpenMapTiles/OpenStreetMap national PMTiles","sourceId":"12/3423/1980:water:360:0","sourceLayer":"water","archive":"https://its.hanifahseptiani45.workers.dev/v1/map/archive/indonesia.pmtiles","updatedAt":"2026-07-26T10:37:52.829Z"},"geometry":{"type":"Polygon","coordinates":[[[120.88349103927612,5.967119522904156],[120.88224649429321,5.965390866098929],[120.88186025619507,5.96502806089228],[120.88125944137573,5.964174400635613],[120.88059425354004,5.9634914714735885],[120.88012218475342,5.962787199884673],[120.87956428527832,5.961720119996798],[120.8789849281311,5.961250604188635],[120.87846994400024,5.961058529424065],[120.87834119796753,5.961165237634916],[120.8777403831482,5.961912194529788],[120.87765455245972,5.96189085291833],[120.87767601013184,5.961805486464215],[120.87782621383667,5.96161341189385],[120.87767601013184,5.961485362142952],[120.8779764175415,5.961101212710872],[120.87814807891846,5.96122926255147],[120.87844848632812,5.9609091378940064],[120.87844848632812,5.960823771287153],[120.87834119796753,5.960845112940106],[120.8781909942627,5.960695721351954],[120.87827682495117,5.960589013049798],[120.8780837059021,5.960396938053634],[120.87782621383667,5.960204862990253],[120.87754726409912,5.960098154592643],[120.87722539901733,5.9601621796336985],[120.87645292282104,5.960119496273833],[120.87645292282104,5.960034129544141],[120.87656021118164,5.96001278785964],[120.876624584198,5.95979937096898],[120.87636709213257,5.958412159157177],[120.8761739730835,5.9581133746157775],[120.87580919265747,5.957729222823616],[120.87499380111694,5.9565554240155905],[120.87432861328125,5.955893827218119],[120.8739423751831,5.955146862134072],[120.87351322174072,5.95482673392992],[120.87342739105225,5.954677340704137],[120.87336301803589,5.954527947437725],[120.87336301803589,5.954058425478806],[120.87327718734741,5.953631586986106],[120.87310552597046,5.953247432059143],[120.87282657623291,5.952927302748179],[120.87291240692139,5.952735225072061],[120.87284803390503,5.95258583127756],[120.87289094924927,5.952500463376751],[120.87310552597046,5.952351069518414],[120.87336301803589,5.952372411500676],[120.87357759475708,5.952223017607523],[120.87396383285522,5.952223017607523],[120.87424278259277,5.951710809665585],[120.87430715560913,5.951091891098827],[120.87430715560913,5.950643708253352],[120.87518692016602,5.94810399856074],[120.87529420852661,5.947463733761637],[120.87580919265747,5.946140517481595],[120.87568044662476,5.944369110059796],[120.87578773498535,5.943664813958264],[120.87585210800171,5.942149507169077],[120.8759593963623,5.94157326264741],[120.87593793869019,5.941338496187882],[120.8756160736084,5.9404207717946775],[120.87529420852661,5.939801840526329],[120.87510108947754,5.939631100743682],[120.87482213973999,5.939503045871945],[120.87477922439575,5.939076196084471],[120.87454319000244,5.938692030992911],[120.87439298629761,5.938585318419911],[120.87411403656006,5.938542633384927],[120.87396383285522,5.938051755244871],[120.87409257888794,5.937368793626703],[120.8740496635437,5.936621803387382],[120.87417840957642,5.936472405217998],[120.87488651275635,5.9366431459797155],[120.8751654624939,5.936515090413394],[120.87542295455933,5.936173608757699],[120.87563753128052,5.9358534695133045],[120.87593793869019,5.9350424492618],[120.87645292282104,5.934060686307987],[120.87703227996826,5.9325453530993],[120.87750434875488,5.9317556707624135],[120.87789058685303,5.930901958855841],[120.87804079055786,5.93077390195586],[120.878427028656,5.930197645538087],[120.87879180908203,5.929600045654155],[120.87904930114746,5.9288103591002965],[120.87926387786865,5.927764556248874],[120.87930679321289,5.927273668512655],[120.87947845458984,5.926697408439054],[120.87962865829468,5.925715630631657],[120.87967157363892,5.924883252427179],[120.87958574295044,5.924093559124387],[120.87928533554077,5.923325207799834],[120.87889909744263,5.922812972989519],[120.87877035140991,5.922514169130778],[120.87877035140991,5.922343423996068],[120.87889909744263,5.921959247249973],[120.8791995048523,5.921767158776731],[120.87932825088501,5.921596413411081],[120.87952136993408,5.921276265708272],[120.87986469268799,5.920913431420814],[120.88003635406494,5.920507910464579],[120.88018655776978,5.920294478262818],[120.88098049163818,5.920017016277242],[120.8812165260315,5.919739554152358],[120.88136672973633,5.91976089739768],[120.88143110275269,5.919974329805569],[120.88160276412964,5.920038359511864],[120.88171005249023,5.920273135038087],[120.88220357894897,5.920251791812561],[120.88284730911255,5.920081045978591],[120.88342666625977,5.920017016277242],[120.88419914245605,5.919803583885837],[120.8850359916687,5.9196968676592405],[120.88552951812744,5.919398062115093],[120.88621616363525,5.919163286217042],[120.886709690094,5.919163286217042],[120.88698863983154,5.919376718855759],[120.88722467422485,5.919440748631288],[120.88791131973267,5.919440748631288],[120.8881688117981,5.919398062115093],[120.88894128799438,5.91907791313848],[120.88964939117432,5.918843137104432],[120.89035749435425,5.918715077407455],[120.89087247848511,5.918672390835212],[120.89134454727173,5.918565674390166],[120.89181661605835,5.918522987806369],[120.89207410812378,5.918416271332461],[120.89303970336914,5.918352241438228],[120.89357614517212,5.918266868234397],[120.89441299438477,5.918224181627522],[120.89509963989258,5.9180534351670815],[120.8952283859253,5.917904031970934],[120.89533567428589,5.918096121787144],[120.89542150497437,5.918565674390166],[120.89552879333496,5.918629704259658],[120.89563608169556,5.918565674390166],[120.89570045471191,5.9184376146289],[120.89632272720337,5.9184589579245],[120.89698791503906,5.918138808403896],[120.89778184890747,5.917669255438241],[120.89831829071045,5.917434478805831],[120.89926242828369,5.916858208467218],[120.90024948120117,5.916068503694248],[120.90076446533203,5.915748352789279],[120.9011721611023,5.915342828043592],[120.90157985687256,5.915065363572538],[120.90192317962646,5.914617151440638],[120.90190172195435,5.914553121106422],[120.90110778808594,5.913549978236034],[120.90100049972534,5.913336543348038],[120.90100049972534,5.913272512865561],[120.90132236480713,5.913400573823068],[120.90127944946289,5.913528634750932],[120.90134382247925,5.913635352168157],[120.90183734893799,5.914275656239184],[120.90198755264282,5.914211625865434],[120.90211629867554,5.9143823735122965],[120.90200901031494,5.914425060415766],[120.9029746055603,5.914275656239184],[120.90355396270752,5.914083565095709],[120.90434789657593,5.913614008686366],[120.90462684631348,5.913379230332225],[120.90535640716553,5.91293101683398],[120.90578556060791,5.91248280297259],[120.90591430664062,5.9121626499921405],[120.9058928489685,5.912077275832729],[120.9055495262146,5.911906527474386],[120.90546369552612,5.911970558114945],[120.90514183044434,5.91147965634805],[120.90527057647705,5.911394282083265],[120.90537786483765,5.911266220661375],[120.90524911880493,5.910967410561739],[120.90535640716553,5.91090337980512],[120.90602159500122,5.911927871022073],[120.90619325637817,5.911970558114945],[120.90634346008301,5.911906527474386],[120.90889692306519,5.910540538710961],[120.91108560562134,5.909003797322157],[120.9117078781128,5.90836348715105],[120.91387510299683,5.905972989303152],[120.91458320617676,5.903774575925212],[120.9148621559143,5.903561137268582],[120.91576337814331,5.90317694747948],[120.91638565063477,5.902408567102199],[120.91662168502808,5.901981688654502],[120.91670751571655,5.901618841715447],[120.91666460037231,5.901405402228576],[120.91660022735596,5.901426746180974],[120.916428565979,5.901085242844189],[120.916428565979,5.9008291152035355],[120.91660022735596,5.9002101395834075],[120.91662168502808,5.899804603457582],[120.91668605804443,5.8995271312006],[120.91707229614258,5.898780089818587],[120.9172010421753,5.898331864506318],[120.91724395751953,5.8982464882152925],[120.91741561889648,5.89818245598839],[120.9179949760437,5.897221971697874],[120.91823101043701,5.896987186396117],[120.91872453689575,5.896005355875744],[120.9188961982727,5.895791914228354],[120.91913223266602,5.895685193373865],[120.91930389404297,5.895514439964003],[120.91958284378052,5.894831425799026],[120.91962575912476,5.894639327913666],[120.91958284378052,5.894276476171001],[120.919668674469,5.8940203453862665],[120.91996908187866,5.893678837489432],[120.92033386230469,5.893614804735378],[120.92065572738647,5.893294640854322],[120.92095613479614,5.893123886708921],[120.92121362686157,5.892846411110625],[120.92144966125488,5.892462213899364],[120.92209339141846,5.892120705043936],[120.92232942581177,5.891885917583977],[120.92275857925415,5.891651130024698],[120.92335939407349,5.891651130024698],[120.92365980148315,5.891885917583977],[120.92417478561401,5.892013983483537],[120.92526912689209,5.892056672110158],[120.92702865600586,5.89199263916899],[120.92730760574341,5.891843228944211],[120.9279727935791,5.891736507330478],[120.92883110046387,5.891330965011193],[120.92928171157837,5.8912242432989785],[120.92968940734863,5.891266931986323],[120.93029022216797,5.891480375373803],[120.93063354492188,5.891501719708046],[120.93101978302002,5.891394998028645],[120.93162059783936,5.891651130024698],[120.93213558197021,5.891715163005259],[120.93273639678955,5.891672474352376],[120.93305826187134,5.891757851654859],[120.9336805343628,5.891672474352376],[120.9343671798706,5.8916297856962245],[120.93565464019775,5.891053488516789],[120.93608379364014,5.890562568225519],[120.93631982803345,5.890391813239873],[120.93711376190186,5.890114336276227],[120.93728542327881,5.889943581152764],[120.93765020370483,5.889815514775705],[120.9379506111145,5.889538037524133],[120.9380578994751,5.889538037524133],[120.938401222229,5.889879547967922],[120.93872308731079,5.889858203571336],[120.93887329101562,5.889900892363684],[120.93887329101562,5.87696603826862],[120.9379506111145,5.87696603826862],[120.9370493888855,5.87696603826862],[120.84823608398438,5.87696603826862],[120.84823608398438,5.967119522904156],[120.88349103927612,5.967119522904156]],[[120.88555097579956,5.916836865109801],[120.88557243347168,5.916986268594371],[120.88544368743896,5.917327762121801],[120.88533639907837,5.917370448797882],[120.8850359916687,5.917327762121801],[120.88479995727539,5.9170289552968285],[120.88482141494751,5.916687461584857],[120.88512182235718,5.9162819375278985],[120.88522911071777,5.916303280906732],[120.88540077209473,5.916474027907739],[120.88555097579956,5.916836865109801]]]}},{"type":"Feature","id":"pmtiles:12/3420/1981:water:1610:0","properties":{"class":"ocean","water":"ocean","kind":"waterway","verification":"verified","source":"OpenMapTiles/OpenStreetMap national PMTiles","sourceId":"12/3420/1981:water:1610:0","sourceLayer":"water","archive":"https://its.hanifahseptiani45.workers.dev/v1/map/archive/indonesia.pmtiles","updatedAt":"2026-07-26T10:38:28.127Z"},"geometry":{"type":"Polygon","coordinates":[[[120.58456420898438,5.879698177726667],[120.67520141601562,5.879698177726667],[120.67520141601562,5.789530528448793],[120.58456420898438,5.789530528448793],[120.58456420898438,5.879698177726667]]]}},{"type":"Feature","id":"pmtiles:12/3421/1981:water:1610:0","properties":{"class":"ocean","water":"ocean","kind":"waterway","verification":"verified","source":"OpenMapTiles/OpenStreetMap national PMTiles","sourceId":"12/3421/1981:water:1610:0","sourceLayer":"water","archive":"https://its.hanifahseptiani45.workers.dev/v1/map/archive/indonesia.pmtiles","updatedAt":"2026-07-26T10:38:28.194Z"},"geometry":{"type":"Polygon","coordinates":[[[120.67245483398438,5.879698177726667],[120.76309204101562,5.879698177726667],[120.76309204101562,5.789530528448793],[120.67245483398438,5.789530528448793],[120.67245483398438,5.879698177726667]]]}},{"type":"Feature","id":"pmtiles:12/3422/1981:water:1610:0","properties":{"class":"ocean","water":"ocean","kind":"waterway","verification":"verified","source":"OpenMapTiles/OpenStreetMap national PMTiles","sourceId":"12/3422/1981:water:1610:0","sourceLayer":"water","archive":"https://its.hanifahseptiani45.workers.dev/v1/map/archive/indonesia.pmtiles","updatedAt":"2026-07-26T10:38:28.259Z"},"geometry":{"type":"Polygon","coordinates":[[[120.76034545898438,5.879698177726667],[120.85098266601562,5.879698177726667],[120.85098266601562,5.789530528448793],[120.76034545898438,5.789530528448793],[120.76034545898438,5.879698177726667]],[[120.78397035598755,5.828126789013297],[120.78369140625,5.828062748738688],[120.7831335067749,5.828382950038616],[120.78304767608643,5.828361603290958],[120.78285455703735,5.828190829280572],[120.78274726867676,5.827827934336014],[120.78253269195557,5.827529079499627],[120.78229665756226,5.827465039156834],[120.7821249961853,5.827657160163255],[120.78210353851318,5.8278065875672524],[120.78253269195557,5.827870627871064],[120.7825756072998,5.827913321402903],[120.78214645385742,5.828190829280572],[120.78203916549683,5.828190829280572],[120.78186750411987,5.827934668167586],[120.78165292739868,5.827977361694536],[120.78154563903809,5.827891974637382],[120.78143835067749,5.827614466611962],[120.78128814697266,5.827593119835086],[120.78120231628418,5.827721200484135],[120.78126668930054,5.828084095497701],[120.7816743850708,5.828297563043165],[120.78152418136597,5.82842564353146],[120.78143835067749,5.828724497890519],[120.78135251998901,5.82887392501037],[120.7812237739563,5.828831231551604],[120.78105211257935,5.828660457684123],[120.78081607818604,5.82887392501037],[120.7807731628418,5.82895931191814],[120.78085899353027,5.829386246262132],[120.78079462051392,5.829450286385708],[120.7802152633667,5.82942893967865],[120.78000068664551,5.829578366610946],[120.77989339828491,5.829578366610946],[120.77974319458008,5.829471633091927],[120.779550075531,5.829450286385708],[120.77942132949829,5.829300859419305],[120.77924966812134,5.8293222061312235],[120.77894926071167,5.829194125847522],[120.77871322631836,5.829279512706563],[120.77834844589233,5.829044698812922],[120.7781982421875,5.829151432413127],[120.77817678451538,5.829300859419305],[120.77796220779419,5.829471633091927],[120.77800512313843,5.8296424067126225],[120.77804803848267,5.829706446806952],[120.77817678451538,5.8296424067126225],[120.77843427658081,5.8296424067126225],[120.778648853302,5.8297277935034515],[120.77871322631836,5.829834526973741],[120.77860593795776,5.829919913735353],[120.77839136123657,5.829941260423723],[120.77834844589233,5.830176073942241],[120.7783055305481,5.830218767298675],[120.77815532684326,5.830176073942241],[120.77798366546631,5.83041088736249],[120.777747631073,5.830496274036392],[120.77770471572876,5.83066704734523],[120.77776908874512,5.830923207211029],[120.77749013900757,5.831115327033615],[120.77772617340088,5.83149956648144],[120.77759742736816,5.831670339484887],[120.7775330543518,5.832139964976292],[120.777747631073,5.832289391186578],[120.77781200408936,5.832396124169534],[120.77781200408936,5.832566896900033],[120.77796220779419,5.8326949764137765],[120.7778549194336,5.833143254481584],[120.77791929244995,5.833292680424577],[120.77806949615479,5.833271333863749],[120.77826261520386,5.833356720102245],[120.77841281890869,5.833591532191107],[120.77860593795776,5.8337623045576095],[120.77877759933472,5.833783651099779],[120.77888488769531,5.833698264926255],[120.77897071838379,5.833719611470855],[120.77897071838379,5.83384769072137],[120.77884197235107,5.833911730335643],[120.77882051467896,5.833975769942626],[120.77884197235107,5.834210581772268],[120.77873468399048,5.834424046986626],[120.77873468399048,5.834530779563323],[120.77877759933472,5.834616165610058],[120.77901363372803,5.834701551643775],[120.7792067527771,5.834915016671232],[120.77937841415405,5.835427332405487],[120.77933549880981,5.835896954750581],[120.7792067527771,5.83606772641491],[120.77907800674438,5.835918301211478],[120.7787561416626,5.835213867573103],[120.77843427658081,5.83472289815019],[120.77834844589233,5.834701551643775],[120.77826261520386,5.834915016671232],[120.77806949615479,5.835085788634657],[120.77791929244995,5.835341946482274],[120.77787637710571,5.8354700253621985],[120.77796220779419,5.835832915363071],[120.77884197235107,5.837241780198681],[120.77912092208862,5.838245060574138],[120.77961444854736,5.838693334203853],[120.77967882156372,5.838842758667383],[120.77963590621948,5.839056222117605],[120.77948570251465,5.8391416074749],[120.77937841415405,5.839291031818888],[120.77944278717041,5.839397763468767],[120.7796573638916,5.839547187744429],[120.77989339828491,5.839376417140414],[120.78008651733398,5.839440456123029],[120.7802152633667,5.839632573026918],[120.78012943267822,5.839952767720334],[120.78019380569458,5.83999546033229],[120.7803225517273,5.839931421413127],[120.78053712844849,5.839952767720334],[120.78064441680908,5.840208923343297],[120.78094482421875,5.840465078849107],[120.78100919723511,5.8406998879598575],[120.78161001205444,5.841084120837863],[120.78191041946411,5.840956043241164],[120.78218936920166,5.840913350702408],[120.78238248825073,5.8406998879598575],[120.7823395729065,5.8405077714220255],[120.78255414962769,5.840315654818269],[120.78266143798828,5.840016806637053],[120.78289747238159,5.839846036176212],[120.78291893005371,5.839781997239967],[120.782790184021,5.839696611980244],[120.78272581100464,5.839525841421775],[120.78287601470947,5.839291031818888],[120.78306913375854,5.839248339153258],[120.78362703323364,5.839440456123029],[120.7837986946106,5.839397763468767],[120.78388452529907,5.839248339153258],[120.78375577926636,5.83890679771099],[120.78420639038086,5.838543909700462],[120.78442096710205,5.838479870615373],[120.7846999168396,5.8385652560605195],[120.78489303588867,5.8385652560605195],[120.78506469726562,5.838778719616471],[120.78549385070801,5.83903487577625],[120.78568696975708,5.839440456123029],[120.78600883483887,5.839525841421775],[120.78609466552734,5.839483148774036],[120.78613758087158,5.839269685486485],[120.78628778457642,5.839205646484345],[120.78658819198608,5.83941910979631],[120.78693151473999,5.839483148774036],[120.78686714172363,5.839611226707518],[120.78639507293701,5.839803343552845],[120.78635215759277,5.839974114026717],[120.78652381896973,5.840166230747585],[120.78654527664185,5.840358347402585],[120.78667402267456,5.840401039983632],[120.78703880310059,5.840763926791155],[120.78776836395264,5.840721234237776],[120.78800439834595,5.840977389509305],[120.78811168670654,5.840998735776651],[120.78875541687012,5.8405291177072485],[120.78886270523071,5.840315654818269],[120.78875541687012,5.840102191847961],[120.78830480575562,5.840102191847961],[120.7880687713623,5.840166230747585],[120.78791856765747,5.840123538148646],[120.78789710998535,5.840059499244134],[120.78791856765747,5.839888728796296],[120.78774690628052,5.839653919345508],[120.78804731369019,5.839483148774036],[120.78819751739502,5.839248339153258],[120.78830480575562,5.839226992819206],[120.78843355178833,5.83931237815051],[120.78881978988647,5.839717958296404],[120.78939914703369,5.839760650926252],[120.78948497772217,5.839974114026717],[120.78944206237793,5.840059499244134],[120.78931331634521,5.840272962230728],[120.78905582427979,5.840486425135978],[120.78892707824707,5.840785273066658],[120.78892707824707,5.841297583433956],[120.78881978988647,5.841382968449622],[120.78860521316528,5.841447007202831],[120.78815460205078,5.841361622196928],[120.78796148300171,5.8414256609525665],[120.78755378723145,5.841318929689109],[120.78725337982178,5.841318929689109],[120.78667402267456,5.8411908521460845],[120.78648090362549,5.841126813363601],[120.78618049621582,5.841297583433956],[120.78557968139648,5.841148159625234],[120.78547239303589,5.840977389509305],[120.7853651046753,5.840934696972198],[120.78527927398682,5.84123354466368],[120.78472137451172,5.841553738441888],[120.78450679779053,5.841489699700901],[120.78418493270874,5.841575084687264],[120.78373432159424,5.841553738441888],[120.78343391418457,5.841318929689109],[120.78330516815186,5.841340275943423],[120.78317642211914,5.8415110459486925],[120.78300476074219,5.841361622196928],[120.78255414962769,5.841340275943423],[120.78242540359497,5.841468353452271],[120.7821249961853,5.841575084687264],[120.78191041946411,5.841553738441888],[120.78124523162842,5.841361622196928],[120.78115940093994,5.8414043147015065],[120.78115940093994,5.841489699700901],[120.78109502792358,5.8415110459486925],[120.78083753585815,5.841361622196928],[120.78058004379272,5.841361622196928],[120.78047275543213,5.841254890921249],[120.78036546707153,5.841297583433956],[120.78019380569458,5.84123354466368],[120.77995777130127,5.840956043241164],[120.77952861785889,5.840593156558086],[120.77944278717041,5.840358347402585],[120.7788634300232,5.839974114026717],[120.77856302261353,5.839611226707518],[120.7780909538269,5.838650641492663],[120.77787637710571,5.837967557671263],[120.77779054641724,5.837519283460949],[120.77757596969604,5.837071008892067],[120.77733993530273,5.836323883813847],[120.77725410461426,5.835662143627218],[120.77691078186035,5.835064442142084],[120.77678203582764,5.8343600074308455],[120.77624559402466,5.833121907915057],[120.7760739326477,5.831926498892571],[120.77577352523804,5.831222060239966],[120.77555894851685,5.830496274036392],[120.77534437179565,5.830133380582538],[120.77534437179565,5.829941260423723],[120.77519416809082,5.829514326501965],[120.7747220993042,5.8285964174703935],[120.77455043792725,5.828062748738688],[120.77452898025513,5.827507732719511],[120.7746148109436,5.826910022546713],[120.77474355697632,5.826611167221699],[120.77495813369751,5.82631231173761],[120.77545166015625,5.8259280687386195],[120.77594518661499,5.8256719065932145],[120.77703952789307,5.82535170374716],[120.77776908874512,5.8252236225576155],[120.77871322631836,5.825202275689847],[120.77912092208862,5.825287663156047],[120.78002214431763,5.825650559742485],[120.78169584274292,5.826440392678819],[120.78289747238159,5.82714483733335],[120.78579425811768,5.828724497890519],[120.78757524490356,5.829855873665366],[120.78946352005005,5.8309018605600045],[120.78991413116455,5.831371486694735],[120.79015016555786,5.831883805666067],[120.79045057296753,5.832310737784795],[120.79079389572144,5.832630936660564],[120.79124450683594,5.832929788779708],[120.79126596450806,5.833079214779573],[120.7910943031311,5.833271333863749],[120.79100847244263,5.833591532191107],[120.79062223434448,5.833826344181645],[120.79032182693481,5.834125195663773],[120.79027891159058,5.83429596786776],[120.79002141952515,5.834616165610058],[120.7895278930664,5.834979056163604],[120.78942060470581,5.835213867573103],[120.7891845703125,5.835448678884234],[120.78920602798462,5.835512718315655],[120.78896999359131,5.835704836566052],[120.78877687454224,5.835790222433971],[120.78858375549316,5.835790222433971],[120.78849792480469,5.8357475295016314],[120.78836917877197,5.835619450685115],[120.78875541687012,5.835256560546071],[120.78881978988647,5.835128481617389],[120.788733959198,5.834957709666966],[120.78877687454224,5.834850977171527],[120.78901290893555,5.8348082841676785],[120.7890772819519,5.834594819099593],[120.78914165496826,5.834509433049618],[120.78957080841064,5.834381353950249],[120.789635181427,5.83429596786776],[120.78969955444336,5.833911730335643],[120.78957080841064,5.833591532191107],[120.78942060470581,5.833591532191107],[120.78922748565674,5.833740958014644],[120.7891845703125,5.834061156073872],[120.78905582427979,5.834274621345102],[120.78892707824707,5.834274621345102],[120.788733959198,5.834082502604645],[120.78866958618164,5.834061156073872],[120.78819751739502,5.834210581772268],[120.78811168670654,5.8337623045576095],[120.78819751739502,5.833527492540256],[120.7881760597229,5.833463452882086],[120.78791856765747,5.833356720102245],[120.78804731369019,5.833057868210588],[120.78830480575562,5.8329938284988],[120.78843355178833,5.832716322996575],[120.78864812850952,5.832716322996575],[120.78881978988647,5.832545550311565],[120.78916311264038,5.832545550311565],[120.78922748565674,5.83243881735703],[120.7891845703125,5.832225351387038],[120.78899145126343,5.832182658183299],[120.78879833221436,5.831947845504587],[120.78841209411621,5.8320759251597],[120.78815460205078,5.832310737784795],[120.78800439834595,5.832246697987699],[120.78781127929688,5.832268044587536],[120.78774690628052,5.831926498892571],[120.7876181602478,5.831648992862284],[120.78763961791992,5.831350140060778],[120.78787565231323,5.83120071360031],[120.78809022903442,5.831115327033615],[120.78824043273926,5.8309872471592],[120.78830480575562,5.831008593806956],[120.78834772109985,5.831115327033615],[120.78841209411621,5.831093980389909],[120.78826189041138,5.830581660697305],[120.78813314437866,5.830453580701061],[120.787832736969,5.830325500675585],[120.7876181602478,5.830133380582538],[120.78740358352661,5.830026647169092],[120.7871675491333,5.830047993853412],[120.78691005706787,5.830261460651883],[120.78673839569092,5.830304154001837],[120.78639507293701,5.830154727262794],[120.78613758087158,5.830261460651883],[120.78594446182251,5.829898567046186],[120.7856011390686,5.829621060012869],[120.78545093536377,5.8291727791307295],[120.78519344329834,5.828809884821013],[120.78472137451172,5.828382950038616],[120.78412055969238,5.8282762162922666],[120.78397035598755,5.828126789013297]],[[120.79152345657349,5.833527492540256],[120.79173803329468,5.833484799435624],[120.79184532165527,5.833527492540256],[120.79201698303223,5.83365557183464],[120.79208135604858,5.833826344181645],[120.79253196716309,5.834018463009855],[120.79259634017944,5.834146542192116],[120.7923173904419,5.834167888719648],[120.79218864440918,5.834018463009855],[120.79212427139282,5.834018463009855],[120.79201698303223,5.834103849134621],[120.79212427139282,5.834231928297356],[120.79214572906494,5.834381353950249],[120.79150199890137,5.834167888719648],[120.79141616821289,5.834018463009855],[120.79143762588501,5.833740958014644],[120.79152345657349,5.833527492540256]],[[120.79145908355713,5.835064442142084],[120.79118013381958,5.835128481617389],[120.79115867614746,5.8352992535157995],[120.79105138778687,5.835384639445493],[120.79092264175415,5.835341946482274],[120.7908582687378,5.835256560546071],[120.79087972640991,5.835064442142084],[120.79113721847534,5.834850977171527],[120.79124450683594,5.834616165610058],[120.79128742218018,5.834274621345102],[120.7915449142456,5.8342532748216485],[120.7916522026062,5.834338660910632],[120.79201698303223,5.834402700468829],[120.7923173904419,5.834616165610058],[120.7923173904419,5.8346802051365785],[120.79225301742554,5.8346588586285435],[120.79201698303223,5.834573472588318],[120.79195261001587,5.8347442446557665],[120.79182386398315,5.834829630670001],[120.79167366027832,5.834829630670001],[120.79145908355713,5.835064442142084]],[[120.79650163650513,5.836430616028835],[120.79645872116089,5.836686773261931],[120.79663038253784,5.837241780198681],[120.79660892486572,5.837412551453255],[120.79587936401367,5.837220433788204],[120.79514980316162,5.837284473017206],[120.79424858093262,5.837135048138151],[120.79343318939209,5.836814851834575],[120.79326152801514,5.836665426830322],[120.7933259010315,5.836494655348105],[120.79388380050659,5.836473308909149],[120.79390525817871,5.836302537368397],[120.79379796981812,5.836174458678698],[120.79315423965454,5.835704836566052],[120.79326152801514,5.835619450685115],[120.79351902008057,5.835619450685115],[120.793776512146,5.83553406479119],[120.79450607299805,5.83553406479119],[120.794677734375,5.835427332405487],[120.79484939575195,5.8352992535157995],[120.79489231109619,5.83517117459688],[120.79491376876831,5.834530779563323],[120.79497814178467,5.834381353950249],[120.79525709152222,5.8343600074308455],[120.79562187194824,5.834552126076218],[120.79581499099731,5.835021749154464],[120.79605102539062,5.835192521085389],[120.79632997512817,5.83527790703134],[120.79652309417725,5.835491371839339],[120.79684495925903,5.835512718315655],[120.79686641693115,5.835662143627218],[120.7965874671936,5.835982340589254],[120.79663038253784,5.836217151578509],[120.79650163650513,5.836430616028835]],[[120.79006433486938,5.839632573026918],[120.78991413116455,5.83941910979631],[120.79004287719727,5.83931237815051],[120.7901930809021,5.839397763468767],[120.79036474227905,5.839696611980244],[120.79090118408203,5.839696611980244],[120.79096555709839,5.839632573026918],[120.79092264175415,5.839504495098311],[120.79060077667236,5.839333724481293],[120.79057931900024,5.839226992819206],[120.79094409942627,5.838885451363922],[120.79092264175415,5.838821412317898],[120.79060077667236,5.838842758667383],[120.79042911529541,5.838778719616471],[120.790536403656,5.838479870615373],[120.79038619995117,5.838394485157224],[120.79038619995117,5.838287753316223],[120.79057931900024,5.837903518520335],[120.7907509803772,5.837882172135039],[120.79094409942627,5.837988904053276],[120.7910943031311,5.837967557671263],[120.79122304916382,5.838116982328344],[120.79135179519653,5.83809563595122],[120.79184532165527,5.837882172135039],[120.79203844070435,5.837967557671263],[120.79236030578613,5.837967557671263],[120.79257488250732,5.838116982328344],[120.79283237457275,5.838202367828785],[120.7931113243103,5.838031596814901],[120.79308986663818,5.837455244258777],[120.79313278198242,5.837241780198681],[120.79319715499878,5.837199087376902],[120.7933259010315,5.837177740964805],[120.79339027404785,5.837241780198681],[120.79358339309692,5.837754093806311],[120.79360485076904,5.837924864904778],[120.79351902008057,5.838159675080206],[120.7935619354248,5.838458524252047],[120.79347610473633,5.838629295135846],[120.79336881637573,5.838650641492663],[120.79328298568726,5.838586602419781],[120.79315423965454,5.838650641492663],[120.7930040359497,5.838586602419781],[120.7927680015564,5.83841583152298],[120.7926607131958,5.838394485157224],[120.79248905181885,5.8385225633395805],[120.7925534248352,5.838800065967575],[120.79251050949097,5.83890679771099],[120.79203844070435,5.839077568458151],[120.7917594909668,5.839013529434055],[120.79156637191772,5.839056222117605],[120.7916522026062,5.839184300148673],[120.79205989837646,5.839397763468767],[120.79244613647461,5.839397763468767],[120.79253196716309,5.839483148774036],[120.7926607131958,5.839781997239967],[120.79287528991699,5.839824689864926],[120.79296112060547,5.840123538148646],[120.79341173171997,5.840016806637053],[120.79373359680176,5.840016806637053],[120.79392671585083,5.840230269639903],[120.79407691955566,5.840294308524918],[120.79439878463745,5.840251615935728],[120.79446315765381,5.840208923343297],[120.79448461532593,5.84014488444852],[120.79429149627686,5.839974114026717],[120.79514980316162,5.839717958296404],[120.7953429222107,5.839846036176212],[120.795578956604,5.839846036176212],[120.79577207565308,5.839397763468767],[120.79628705978394,5.839760650926252],[120.79645872116089,5.839717958296404],[120.79656600952148,5.839483148774036],[120.79637289047241,5.839291031818888],[120.79641580581665,5.839248339153258],[120.79682350158691,5.839333724481293],[120.79701662063599,5.839269685486485],[120.79748868942261,5.838842758667383],[120.79757452011108,5.838586602419781],[120.79757452011108,5.8382664069455785],[120.79763889312744,5.838202367828785],[120.7980465888977,5.838202367828785],[120.7981538772583,5.838138328704673],[120.79819679260254,5.837967557671263],[120.79832553863525,5.837775440196481],[120.7982611656189,5.837604669052467],[120.79834699630737,5.837391205049286],[120.79828262329102,5.837156394551883],[120.79836845397949,5.836836198260514],[120.79811096191406,5.836772158980281],[120.79808950424194,5.836686773261931],[120.79828262329102,5.83653734822353],[120.79832553863525,5.836366576702289],[120.7980465888977,5.8363879231452955],[120.79791784286499,5.836281190922136],[120.79800367355347,5.836110419322864],[120.79802513122559,5.835832915363071],[120.79787492752075,5.835662143627218],[120.79798221588135,5.835448678884234],[120.79774618148804,5.835192521085389],[120.79768180847168,5.834957709666966],[120.79841136932373,5.8346588586285435],[120.7984972000122,5.834573472588318],[120.79838991165161,5.834424046986626],[120.79817533493042,5.834424046986626],[120.79811096191406,5.834146542192116],[120.79783201217651,5.834082502604645],[120.79746723175049,5.833463452882086],[120.79708099365234,5.833719611470855],[120.79686641693115,5.833698264926255],[120.7968020439148,5.833634225287611],[120.79682350158691,5.8334207597725936],[120.7965874671936,5.833185947612222],[120.79654455184937,5.832929788779708],[120.7968020439148,5.832716322996575],[120.79684495925903,5.83260959007454],[120.7968020439148,5.832524203722286],[120.7965874671936,5.832417470763687],[120.79583644866943,5.832310737784795],[120.79530000686646,5.832268044587536],[120.79489231109619,5.832310737784795],[120.79476356506348,5.832182658183299],[120.79452753067017,5.832139964976292],[120.79427003860474,5.832161311580208],[120.79349756240845,5.832502857132184],[120.79326152801514,5.832524203722286],[120.79281091690063,5.8322040047855666],[120.79259634017944,5.832161311580208],[120.79242467880249,5.832225351387038],[120.79212427139282,5.832545550311565],[120.7922101020813,5.832887095629573],[120.79190969467163,5.833057868210588],[120.79193115234375,5.833143254481584],[120.79199552536011,5.833185947612222],[120.7922101020813,5.833185947612222],[120.79193115234375,5.8332286407396055],[120.79173803329468,5.833143254481584],[120.7916522026062,5.8327803627400385],[120.79167366027832,5.832182658183299],[120.79178094863892,5.831947845504587],[120.79197406768799,5.831862459051607],[120.79336881637573,5.831841112436351],[120.79583644866943,5.832118618371581],[120.79667329788208,5.832139964976292],[120.79712390899658,5.832225351387038],[120.79862594604492,5.832716322996575],[120.79991340637207,5.832887095629573],[120.80008506774902,5.8329938284988],[120.8001708984375,5.833143254481584],[120.80021381378174,5.8334207597725936],[120.80014944076538,5.833634225287611],[120.79967737197876,5.83472289815019],[120.79948425292969,5.836131765775605],[120.79946279525757,5.837092355308243],[120.79935550689697,5.838052943194469],[120.79911947250366,5.838671987848642],[120.79901218414307,5.838842758667383],[120.79783201217651,5.839717958296404],[120.79716682434082,5.840038152940991],[120.79643726348877,5.840272962230728],[120.79407691955566,5.840870658160412],[120.7926607131958,5.8410627745737855],[120.7922101020813,5.841020082043158],[120.79102993011475,5.841084120837863],[120.7907509803772,5.841126813363601],[120.79062223434448,5.841276237178022],[120.79040765762329,5.841318929689109],[120.79027891159058,5.841254890921249],[120.79021453857422,5.84104142830887],[120.79006433486938,5.840913350702408],[120.79004287719727,5.840827965615162],[120.79021453857422,5.840614502840069],[120.79021453857422,5.8405077714220255],[120.79004287719727,5.840208923343297],[120.79010725021362,5.839803343552845],[120.79006433486938,5.839632573026918]]]}},{"type":"Feature","id":"pmtiles:12/3423/1981:water:360:0","properties":{"class":"ocean","water":"ocean","kind":"waterway","verification":"verified","source":"OpenMapTiles/OpenStreetMap national PMTiles","sourceId":"12/3423/1981:water:360:0","sourceLayer":"water","archive":"https://its.hanifahseptiani45.workers.dev/v1/map/archive/indonesia.pmtiles","updatedAt":"2026-07-26T10:38:28.314Z"},"geometry":{"type":"Polygon","coordinates":[[[120.84823608398438,5.879698177726667],[120.93887329101562,5.879698177726667],[120.93887329101562,5.789530528448793],[120.84823608398438,5.789530528448793],[120.84823608398438,5.879698177726667]]]}},{"type":"Feature","id":"pmtiles:12/3420/1982:water:1610:0","properties":{"class":"ocean","water":"ocean","kind":"waterway","verification":"verified","source":"OpenMapTiles/OpenStreetMap national PMTiles","sourceId":"12/3420/1982:water:1610:0","sourceLayer":"water","archive":"https://its.hanifahseptiani45.workers.dev/v1/map/archive/indonesia.pmtiles","updatedAt":"2026-07-26T10:38:59.896Z"},"geometry":{"type":"Polygon","coordinates":[[[120.58456420898438,5.792263093990954],[120.67520141601562,5.792263093990954],[120.67520141601562,5.702081487858422],[120.58456420898438,5.702081487858422],[120.58456420898438,5.792263093990954]]]}},{"type":"Feature","id":"pmtiles:12/3421/1982:water:1610:0","properties":{"class":"ocean","water":"ocean","kind":"waterway","verification":"verified","source":"OpenMapTiles/OpenStreetMap national PMTiles","sourceId":"12/3421/1982:water:1610:0","sourceLayer":"water","archive":"https://its.hanifahseptiani45.workers.dev/v1/map/archive/indonesia.pmtiles","updatedAt":"2026-07-26T10:38:59.957Z"},"geometry":{"type":"Polygon","coordinates":[[[120.67245483398438,5.792263093990954],[120.76309204101562,5.792263093990954],[120.76309204101562,5.702081487858422],[120.67245483398438,5.702081487858422],[120.67245483398438,5.792263093990954]]]}},{"type":"Feature","id":"pmtiles:12/3422/1982:water:1610:0","properties":{"class":"ocean","water":"ocean","kind":"waterway","verification":"verified","source":"OpenMapTiles/OpenStreetMap national PMTiles","sourceId":"12/3422/1982:water:1610:0","sourceLayer":"water","archive":"https://its.hanifahseptiani45.workers.dev/v1/map/archive/indonesia.pmtiles","updatedAt":"2026-07-26T10:39:00.021Z"},"geometry":{"type":"Polygon","coordinates":[[[120.76034545898438,5.702081487858422],[120.76034545898438,5.792263093990954],[120.85098266601562,5.792263093990954],[120.85098266601562,5.7086363605129975],[120.8471417427063,5.7091274391602695],[120.84585428237915,5.70914879039627],[120.84460973739624,5.709020682968401],[120.84342956542969,5.70921284409944],[120.84111213684082,5.709319600255526],[120.83941698074341,5.709490410063893],[120.83838701248169,5.709469058840625],[120.83804368972778,5.709511761286365],[120.83780765533447,5.709618517386744],[120.83767890930176,5.709767975893882],[120.83746433258057,5.709789327106009],[120.83712100982666,5.709960136774356],[120.83697080612183,5.709960136774356],[120.83662748336792,5.710088243992203],[120.83630561828613,5.710109595192392],[120.83600521087646,5.710002839183488],[120.83581209182739,5.710045541589437],[120.83527565002441,5.709896083154689],[120.83495378494263,5.709703922252743],[120.83420276641846,5.709405005166076],[120.83362340927124,5.7091274391602695],[120.83270072937012,5.708422847926428],[120.83186388015747,5.70801717379284],[120.83029747009277,5.707397986403805],[120.83003997802734,5.707376635102605],[120.82825899124146,5.70660798772964],[120.82484722137451,5.705561771593992],[120.82319498062134,5.705134744051321],[120.82216501235962,5.704665013387114],[120.82130670547485,5.704131228074502],[120.8205771446228,5.703853659515616],[120.81995487213135,5.703490685043647],[120.81961154937744,5.703362576351665],[120.81905364990234,5.703191764717843],[120.81836700439453,5.703127710342045],[120.81783056259155,5.702914195704409],[120.81690788269043,5.702850141297631],[120.81589937210083,5.702337705785908],[120.8156418800354,5.702081487858422],[120.81253051757812,5.702081487858422],[120.81244468688965,5.702230948330026],[120.81244468688965,5.702295002805926],[120.81233739852905,5.702380408762693],[120.81188678741455,5.702487166190764],[120.81162929534912,5.702487166190764],[120.8108139038086,5.702316354296329],[120.80931186676025,5.702401760249899],[120.80832481384277,5.702145542351019],[120.80821752548218,5.702081487858422],[120.76034545898438,5.702081487858422]]]}},{"type":"Feature","id":"pmtiles:12/3423/1982:water:360:0","properties":{"class":"ocean","water":"ocean","kind":"waterway","verification":"verified","source":"OpenMapTiles/OpenStreetMap national PMTiles","sourceId":"12/3423/1982:water:360:0","sourceLayer":"water","archive":"https://its.hanifahseptiani45.workers.dev/v1/map/archive/indonesia.pmtiles","updatedAt":"2026-07-26T10:39:00.087Z"},"geometry":{"type":"Polygon","coordinates":[[[120.85108995437622,5.708615009257926],[120.84823608398438,5.7089779804860825],[120.84823608398438,5.792263093990954],[120.9370493888855,5.792263093990954],[120.9379506111145,5.792263093990954],[120.93887329101562,5.792263093990954],[120.93887329101562,5.702081487858422],[120.9379506111145,5.702081487858422],[120.9370493888855,5.702081487858422],[120.91535568237305,5.702081487858422],[120.91677188873291,5.702380408762693],[120.91750144958496,5.703319873447981],[120.91840267181396,5.703704199466742],[120.91930389404297,5.7039604166695455],[120.91958284378052,5.704408796499052],[120.92003345489502,5.704835824582247],[120.92044115066528,5.705049338504622],[120.92220067977905,5.70481447318565],[120.92256546020508,5.70481447318565],[120.92361688613892,5.705134744051321],[120.92479705810547,5.706095555575175],[120.92503309249878,5.7065012310685574],[120.92522621154785,5.706757447021758],[120.92597723007202,5.707205824664356],[120.92649221420288,5.707739607114945],[120.9269642829895,5.708465550450114],[120.92775821685791,5.710109595192392],[120.92831611633301,5.7105152678448405],[120.92891693115234,5.711113100703869],[120.92981815338135,5.71168958179851],[120.93039751052856,5.712223360072599],[120.93037605285645,5.712970648820644],[120.93048334121704,5.713333617289308],[120.93132019042969,5.7144865744284346],[120.93219995498657,5.715490072270896],[120.93271493911743,5.715917092095879],[120.93297243118286,5.716002496022654],[120.9339165687561,5.71689923648438],[120.93443155288696,5.717603817290083],[120.93486070632935,5.718585958783862],[120.93483924865723,5.719418642642793],[120.93466758728027,5.7201018695192545],[120.93410968780518,5.720016466204328],[120.93374490737915,5.720272676110852],[120.93365907669067,5.720656990755472],[120.93376636505127,5.7224504556822495],[120.93393802642822,5.723304484622616],[120.93490362167358,5.725119291884496],[120.93516111373901,5.726058719262355],[120.9354829788208,5.726998145095692],[120.93595504760742,5.728962394118909],[120.9360408782959,5.7294961562732],[120.93556880950928,5.72996586655627],[120.9354829788208,5.730158020651629],[120.93569755554199,5.730777183407881],[120.93563318252563,5.7314603967044775],[120.93544006347656,5.732143609183382],[120.93544006347656,5.732954922939925],[120.93509674072266,5.735367507032635],[120.93486070632935,5.736712571610383],[120.93473196029663,5.737054174807568],[120.9343671798706,5.737694680250797],[120.93320846557617,5.741110697128903],[120.93254327774048,5.7428613978436545],[120.9313416481018,5.745615538078695],[120.93127727508545,5.746149284645554],[120.93114852905273,5.746298733594628],[120.93091249465942,5.74632008344129],[120.92986106872559,5.748049418362186],[120.92968940734863,5.748134817481429],[120.92938899993896,5.748028068580382],[120.92876672744751,5.748455064064416],[120.92850923538208,5.748753960712648],[120.92792987823486,5.749479851919062],[120.92760801315308,5.75005629427632],[120.92687845230103,5.750974330898913],[120.9261703491211,5.751999114216147],[120.92453956604004,5.753899228397913],[120.92430353164673,5.754390268109148],[120.92391729354858,5.754710511170586],[120.92374563217163,5.754966705489892],[120.92239379882812,5.756034180577487],[120.92104196548462,5.7568027613992285],[120.92050552368164,5.756674664667784],[120.9201192855835,5.756781411946008],[120.91975450515747,5.757123003101555],[120.91923952102661,5.7574432446233885],[120.91861724853516,5.75769943771094],[120.91793060302734,5.75769943771094],[120.91690063476562,5.757806184796664],[120.91582775115967,5.757806184796664],[120.91445446014404,5.757678088291399],[120.91391801834106,5.75774213654762],[120.9130597114563,5.758019678907928],[120.91213703155518,5.758425317498364],[120.91172933578491,5.7586815101430915],[120.91155767440796,5.758852305175424],[120.9114933013916,5.7594500873841525],[120.91130018234253,5.759727628910113],[120.91031312942505,5.759663580877685],[120.90975522994995,5.759236593810385],[120.90885400772095,5.758788257044316],[120.90728759765625,5.758297221132665],[120.90630054473877,5.758062377720563],[120.90537786483765,5.758041028314651],[120.90471267700195,5.757934281273052],[120.90404748916626,5.757912931862336],[120.90284585952759,5.757592690605165],[120.9011721611023,5.757293798602319],[120.90054988861084,5.757229750295551],[120.90033531188965,5.757293798602319],[120.90018510818481,5.757549991757244],[120.90009927749634,5.758062377720563],[120.89988470077515,5.758318570528971],[120.89958429336548,5.758190474139212],[120.8993911743164,5.757891582450796],[120.89947700500488,5.757315148036312],[120.89928388595581,5.756973556996272],[120.89833974838257,5.756076879539279],[120.89724540710449,5.755265598716477],[120.89685916900635,5.7551375016386],[120.89600086212158,5.754603763503496],[120.89559316635132,5.754475666276491],[120.89482069015503,5.754390268109148],[120.89462757110596,5.753899228397913],[120.89428424835205,5.7536430335976405],[120.89394092559814,5.753216042007352],[120.89359760284424,5.752682302068621],[120.89351177215576,5.752468805952873],[120.89349031448364,5.75210586237219],[120.89336156845093,5.751871016402461],[120.89263200759888,5.751102428914521],[120.89185953140259,5.750141693094392],[120.8909797668457,5.749373103270301],[120.89035749435425,5.748540463122794],[120.88979959487915,5.747964019230153],[120.88900566101074,5.747280825712579],[120.88827610015869,5.746426832662607],[120.88769674301147,5.744227794663587],[120.88733196258545,5.743437846901742],[120.88692426681519,5.742925447767803],[120.88625907897949,5.742263598204374],[120.88613033294678,5.741900648117365],[120.88606595993042,5.741196097288551],[120.88621616363525,5.740299394973945],[120.88619470596313,5.739979143805385],[120.8863878250122,5.739488091664171],[120.88595867156982,5.737950882226642],[120.8859372138977,5.737737380588101],[120.88606595993042,5.737502528693369],[120.88567972183228,5.736499069508227],[120.88529348373413,5.735858562722271],[120.88428497314453,5.734620247563456],[120.88387727737427,5.733766235543115],[120.88353395462036,5.733339229053627],[120.88336229324341,5.7329335725926995],[120.88331937789917,5.732570616567429],[120.88366270065308,5.73190875498598],[120.8840274810791,5.731503097508366],[120.88422060012817,5.731204191814058],[120.88432788848877,5.730862585114664],[120.88422060012817,5.729666960057202],[120.8840274810791,5.72906914658968],[120.88394165039062,5.727681362913344],[120.88407039642334,5.7270835473675845],[120.88396310806274,5.7259946674447235],[120.88411331176758,5.724884434798739],[120.88366270065308,5.722877470311886],[120.88321208953857,5.721446970047296],[120.88398456573486,5.720635639948668],[120.88411331176758,5.720315377750794],[120.88441371917725,5.718500555242628],[120.88415622711182,5.717283553395021],[120.88334083557129,5.715404668267681],[120.88271856307983,5.714806839888396],[120.8811092376709,5.713803340848429],[120.88083028793335,5.713568479117029],[120.88070154190063,5.713333617289308],[120.8805513381958,5.712351466784369],[120.88035821914673,5.71166823065721],[120.8804440498352,5.710963642547583],[120.8802080154419,5.710130946391786],[120.88003635406494,5.709298249025906],[120.87992906570435,5.707077716802246],[120.8799934387207,5.706565285067583],[120.88014364242554,5.706180960966066],[120.88076591491699,5.705284203727416],[120.88050842285156,5.705177446819889],[120.8805513381958,5.705092041279556],[120.88078737258911,5.705177446819889],[120.88091611862183,5.704793121788242],[120.88102340698242,5.70417393091779],[120.88108777999878,5.704195282338233],[120.88113069534302,5.704067173803594],[120.8814525604248,5.704109876651643],[120.88173151016235,5.704067173803594],[120.88192462921143,5.703746902341834],[120.88209629058838,5.703576090822423],[120.88306188583374,5.703063655959099],[120.88340520858765,5.7026579780343525],[120.88370561599731,5.702081487858422],[120.86726903915405,5.702081487858422],[120.86701154708862,5.7022522998227885],[120.8660888671875,5.702764735410781],[120.86548805236816,5.7029996015690045],[120.86469411849976,5.703618793707051],[120.86332082748413,5.704472850731804],[120.86246252059937,5.704835824582247],[120.8601450920105,5.705988798818694],[120.85973739624023,5.706223663656729],[120.8589220046997,5.706565285067583],[120.85799932479858,5.70688555495542],[120.85690498352051,5.707120419426133],[120.85662603378296,5.707248527278679],[120.85615396499634,5.7075687967848125],[120.85518836975098,5.7079531199560165],[120.85370779037476,5.7081879839893475],[120.85345029830933,5.708273389068509],[120.85317134857178,5.708465550450114],[120.85295677185059,5.708529604229668],[120.85108995437622,5.708615009257926]]]}},{"type":"Feature","id":"pmtiles:12/3423/1982:water:360:1","properties":{"class":"ocean","water":"ocean","kind":"waterway","verification":"verified","source":"OpenMapTiles/OpenStreetMap national PMTiles","sourceId":"12/3423/1982:water:360:1","sourceLayer":"water","archive":"https://its.hanifahseptiani45.workers.dev/v1/map/archive/indonesia.pmtiles","updatedAt":"2026-07-26T10:39:00.087Z"},"geometry":{"type":"Polygon","coordinates":[[[120.91331720352173,5.702081487858422],[120.90915441513062,5.702081487858422],[120.91016292572021,5.70355473937893],[120.91177225112915,5.702636626556696],[120.91301679611206,5.7022522998227885],[120.91331720352173,5.702081487858422]]]}},{"type":"Feature","id":"pmtiles:12/3420/1983:water:1610:0","properties":{"class":"ocean","water":"ocean","kind":"waterway","verification":"verified","source":"OpenMapTiles/OpenStreetMap national PMTiles","sourceId":"12/3420/1983:water:1610:0","sourceLayer":"water","archive":"https://its.hanifahseptiani45.workers.dev/v1/map/archive/indonesia.pmtiles","updatedAt":"2026-07-26T10:39:35.061Z"},"geometry":{"type":"Polygon","coordinates":[[[120.58456420898438,5.70481447318565],[120.67520141601562,5.70481447318565],[120.67520141601562,5.61461911814834],[120.58456420898438,5.61461911814834],[120.58456420898438,5.70481447318565]]]}},{"type":"Feature","id":"pmtiles:12/3421/1983:water:1610:0","properties":{"class":"ocean","water":"ocean","kind":"waterway","verification":"verified","source":"OpenMapTiles/OpenStreetMap national PMTiles","sourceId":"12/3421/1983:water:1610:0","sourceLayer":"water","archive":"https://its.hanifahseptiani45.workers.dev/v1/map/archive/indonesia.pmtiles","updatedAt":"2026-07-26T10:39:35.168Z"},"geometry":{"type":"Polygon","coordinates":[[[120.67245483398438,5.70481447318565],[120.76309204101562,5.70481447318565],[120.76309204101562,5.61461911814834],[120.67245483398438,5.61461911814834],[120.67245483398438,5.70481447318565]]]}},{"type":"Feature","id":"pmtiles:12/3422/1983:water:1610:0","properties":{"class":"ocean","water":"ocean","kind":"waterway","verification":"verified","source":"OpenMapTiles/OpenStreetMap national PMTiles","sourceId":"12/3422/1983:water:1610:0","sourceLayer":"water","archive":"https://its.hanifahseptiani45.workers.dev/v1/map/archive/indonesia.pmtiles","updatedAt":"2026-07-26T10:39:35.260Z"},"geometry":{"type":"Polygon","coordinates":[[[120.76034545898438,5.616434267224804],[120.76034545898438,5.70481447318565],[120.82250833511353,5.70481447318565],[120.82216501235962,5.704665013387114],[120.82130670547485,5.704131228074502],[120.8205771446228,5.703853659515616],[120.81995487213135,5.703490685043647],[120.81961154937744,5.703362576351665],[120.81905364990234,5.703191764717843],[120.81836700439453,5.703127710342045],[120.81783056259155,5.702914195704409],[120.81690788269043,5.702850141297631],[120.81589937210083,5.702337705785908],[120.81542730331421,5.701867972831465],[120.81512689590454,5.701739863777149],[120.81420421600342,5.701782566798428],[120.81356048583984,5.701697160752701],[120.81295967102051,5.701739863777149],[120.81257343292236,5.702017433358677],[120.81244468688965,5.702230948330026],[120.81244468688965,5.702295002805926],[120.81233739852905,5.702380408762693],[120.81188678741455,5.702487166190764],[120.81162929534912,5.702487166190764],[120.8108139038086,5.702316354296329],[120.80931186676025,5.702401760249899],[120.80832481384277,5.702145542351019],[120.80774545669556,5.701825269816553],[120.80750942230225,5.701590403177647],[120.80660820007324,5.701248778804029],[120.80562114715576,5.700736341862324],[120.80478429794312,5.699882279276125],[120.80463409423828,5.69958335707075],[120.80444097518921,5.698964160578754],[120.80424785614014,5.698622534642141],[120.8036470413208,5.698088743709249],[120.80315351486206,5.697234677184568],[120.80287456512451,5.696145740523562],[120.8022952079773,5.69495004298858],[120.80186605453491,5.693263251163387],[120.80143690109253,5.692088899501059],[120.80098628997803,5.691106712631978],[120.8008360862732,5.6905088589335975],[120.80044984817505,5.689505317399636],[120.80042839050293,5.6888220540765815],[120.80049276351929,5.688352310071124],[120.80040693283081,5.688074733887603],[120.80038547515869,5.687711749445498],[120.8005142211914,5.687156596326332],[120.80032110214233,5.68675090716971],[120.80014944076538,5.685982232193808],[120.79999923706055,5.685768711184934],[120.80012798309326,5.685405725288035],[120.80032110214233,5.685128147682988],[120.80034255981445,5.684957330628734],[120.80023527145386,5.684402174852281],[120.79976320266724,5.682736704310585],[120.79978466033936,5.681989376219562],[120.79954862594604,5.680857706121188],[120.79922676086426,5.679960909369711],[120.7986044883728,5.678658416363476],[120.79787492752075,5.677484034899308],[120.79742431640625,5.676992929213739],[120.79650163650513,5.675199322285735],[120.79639434814453,5.6749430922690465],[120.79645872116089,5.674686862138515],[120.79650163650513,5.674003581233748],[120.79643726348877,5.673875465973978],[120.79620122909546,5.67374735068573],[120.7960295677185,5.673469767463587],[120.79590082168579,5.672871895454435],[120.79581499099731,5.67270107476655],[120.7957935333252,5.672081849348942],[120.79583644866943,5.67193238104511],[120.79577207565308,5.671612091692182],[120.79562187194824,5.671590739062339],[120.79525709152222,5.671313154802377],[120.79514980316162,5.670736633220329],[120.79482793807983,5.66981846803013],[120.79480648040771,5.669241944954791],[120.79514980316162,5.6683878356365085],[120.79532146453857,5.668088897076544],[120.79536437988281,5.667918074972761],[120.79562187194824,5.667469666709877],[120.79587936401367,5.66740560835818],[120.79609394073486,5.667298844422888],[120.79626560211182,5.667063963695739],[120.79637289047241,5.665932264307585],[120.7963514328003,5.665611971625253],[120.79626560211182,5.665505207358322],[120.79630851745605,5.665313031628145],[120.79641580581665,5.665248973037194],[120.79738140106201,5.664907327098874],[120.79753160476685,5.6647578569373],[120.79763889312744,5.664330799119725],[120.79787492752075,5.663967799726535],[120.79929113388062,5.662857447225676],[120.79944133758545,5.662836094272038],[120.79959154129028,5.662921506081801],[120.8000636100769,5.663006917878931],[120.80066442489624,5.663028270826231],[120.8011794090271,5.662836094272038],[120.80190896987915,5.662409035033932],[120.80205917358398,5.662409035033932],[120.80250978469849,5.662537152838496],[120.80283164978027,5.662772035406448],[120.80323934555054,5.66294285903227],[120.80347537994385,5.66294285903227],[120.80426931381226,5.662814741317646],[120.80495595932007,5.66230227017509],[120.8055567741394,5.662131446359908],[120.80617904663086,5.662174152318428],[120.80684423446655,5.662558505803176],[120.80718755722046,5.662622564692441],[120.80755233764648,5.6626012117301485],[120.80761671066284,5.6624944469068055],[120.80783128738403,5.662366329092748],[120.80821752548218,5.66230227017509],[120.80905437469482,5.662024681449779],[120.80935478210449,5.662003328465389],[120.80954790115356,5.662067387416201],[120.81006288528442,5.662409035033932],[120.81085681915283,5.663177741435291],[120.8112645149231,5.663284506132385],[120.81162929534912,5.663177741435291],[120.81210136413574,5.663263153194549],[120.81246614456177,5.663476682537407],[120.81323862075806,5.663668858878523],[120.81349611282349,5.664138622998806],[120.81375360488892,5.6648005627017],[120.81398963928223,5.665676030175931],[120.81398963928223,5.665996322822721],[120.81422567367554,5.666572849139328],[120.81448316574097,5.6668931412887105],[120.81501960754395,5.66717072767446],[120.81516981124878,5.667384255572685],[120.81538438796997,5.6679821332676],[120.81652164459229,5.668494599370405],[120.81746578216553,5.668772184986139],[120.81961154937744,5.669135181359124],[120.82197189331055,5.6696689991399865],[120.82343101501465,5.670096053009146],[120.82401037216187,5.67035228517895],[120.82437515258789,5.67039499052953],[120.82456827163696,5.67050175389214],[120.8246111869812,5.67039499052953],[120.82484722137451,5.6702455217886865],[120.82658529281616,5.67033093250248],[120.82692861557007,5.670266874468325],[120.82800149917603,5.66981846803013],[120.8297610282898,5.669476824795751],[120.8306622505188,5.66885759591797],[120.83109140396118,5.668644068564703],[120.83194971084595,5.6679821332676],[120.83248615264893,5.6676404889463186],[120.83349466323853,5.667384255572685],[120.83443880081177,5.667085316493058],[120.83647727966309,5.666231203984154],[120.83690643310547,5.665932264307585],[120.83709955215454,5.666039028495547],[120.83714246749878,5.665782794411257],[120.83724975585938,5.665547913067471],[120.83746433258057,5.665398443071666],[120.83883762359619,5.6647578569373],[120.83945989608765,5.66458703384815],[120.84012508392334,5.664181328808965],[120.8405327796936,5.664117270092518],[120.84162712097168,5.664138622998806],[120.84205627441406,5.6640745642776125],[120.84235668182373,5.663903740986413],[120.84325790405273,5.664117270092518],[120.843665599823,5.664288093320593],[120.84415912628174,5.664394857812482],[120.84561824798584,5.66458703384815],[120.84662675857544,5.664480269391788],[120.84737777709961,5.664031858459552],[120.84806442260742,5.663861035155719],[120.84872961044312,5.663861035155719],[120.84997415542603,5.664159975904269],[120.85098266601562,5.664266740419848],[120.85098266601562,5.616434267224804],[120.85098266601562,5.615537370740739],[120.85098266601562,5.61461911814834],[120.76034545898438,5.61461911814834],[120.76034545898438,5.615537370740739],[120.76034545898438,5.616434267224804]],[[120.82119941711426,5.664885974221022],[120.82154273986816,5.6647578569373],[120.82195043563843,5.6647578569373],[120.8222508430481,5.664864621342375],[120.82244396209717,5.665078150093294],[120.82250833511353,5.665334384490208],[120.82242250442505,5.665569265920851],[120.82218647003174,5.665761441565763],[120.82167148590088,5.665974969985129],[120.82134962081909,5.666017675659532],[120.8211350440979,5.665932264307585],[120.82100629806519,5.665740088719488],[120.82098484039307,5.665248973037194],[120.82107067108154,5.6650140914763085],[120.82119941711426,5.664885974221022]]]}},{"type":"Feature","id":"pmtiles:12/3423/1983:water:360:0","properties":{"class":"ocean","water":"ocean","kind":"waterway","verification":"verified","source":"OpenMapTiles/OpenStreetMap national PMTiles","sourceId":"12/3423/1983:water:360:0","sourceLayer":"water","archive":"https://its.hanifahseptiani45.workers.dev/v1/map/archive/indonesia.pmtiles","updatedAt":"2026-07-26T10:39:35.336Z"},"geometry":{"type":"Polygon","coordinates":[[[120.84823608398438,5.616434267224804],[120.84823608398438,5.663861035155719],[120.84872961044312,5.663861035155719],[120.84997415542603,5.664159975904269],[120.85145473480225,5.6643094462205426],[120.85181951522827,5.664245387518321],[120.85194826126099,5.66405321136898],[120.85229158401489,5.663967799726535],[120.85304260253906,5.664138622998806],[120.85478067398071,5.664736504053934],[120.85591793060303,5.665377090211976],[120.85804224014282,5.6662739096395995],[120.85881471633911,5.666359320941041],[120.85926532745361,5.666508790688113],[120.85973739624023,5.666380673764408],[120.86044549942017,5.666508790688113],[120.86089611053467,5.66644473222982],[120.8612608909607,5.66653014350598],[120.86181879043579,5.666722318831148],[120.86222648620605,5.666700966020386],[120.86302042007446,5.667469666709877],[120.86312770843506,5.66761913616952],[120.86312770843506,5.6679821332676],[120.86323499679565,5.668217013621202],[120.86319208145142,5.668302424635158],[120.86297750473022,5.668451893879222],[120.86289167404175,5.66885759591797],[120.86280584335327,5.669028417743704],[120.86222648620605,5.669199239518903],[120.86201190948486,5.669177886799773],[120.86158275604248,5.668772184986139],[120.8617115020752,5.668281071882859],[120.861496925354,5.66819566086572],[120.86147546768188,5.6679821332676],[120.86153984069824,5.667960780503449],[120.86175441741943,5.668088897076544],[120.86181879043579,5.6680675443163295],[120.86190462112427,5.667747252818444],[120.86218357086182,5.667939427738489],[120.86278438568115,5.667939427738489],[120.86284875869751,5.667939427738489],[120.86289167404175,5.667789958361766],[120.86284875869751,5.667683194497542],[120.86186170578003,5.66740560835818],[120.86164712905884,5.66717072767446],[120.86130380630493,5.667063963695739],[120.86117506027222,5.666871788484272],[120.860595703125,5.666658260396517],[120.86044549942017,5.666615554769493],[120.86005926132202,5.666658260396517],[120.85973739624023,5.666871788484272],[120.85965156555176,5.666871788484272],[120.85941553115845,5.666765024450271],[120.8589220046997,5.666679613208856],[120.85870742797852,5.666487437869492],[120.85817098617554,5.66644473222982],[120.8580207824707,5.666572849139328],[120.8582353591919,5.666765024450271],[120.85825681686401,5.6668931412887105],[120.8581280708313,5.667106669289595],[120.85817098617554,5.6672561388432285],[120.85829973220825,5.667426961142866],[120.8585786819458,5.667704547271967],[120.85879325866699,5.66776860559051],[120.85898637771606,5.667939427738489],[120.85898637771606,5.668088897076544],[120.8590292930603,5.668131602594585],[120.85930824279785,5.668088897076544],[120.85956573486328,5.668345130137425],[120.85997343063354,5.668409188384857],[120.86023092269897,5.668686774041674],[120.86053133010864,5.668836243186178],[120.8607029914856,5.669113828637634],[120.8609390258789,5.669199239518903],[120.86098194122314,5.6692846503875245],[120.86096048355103,5.669604941032347],[120.86113214492798,5.66981846803013],[120.86158275604248,5.6699252314994055],[120.8620548248291,5.6699679368815765],[120.86231231689453,5.669797115333907],[120.86237668991089,5.669861173420216],[120.8625054359436,5.670117405694313],[120.86241960525513,5.670309579825229],[120.86239814758301,5.670565811900218],[120.8626127243042,5.671035570408861],[120.86278438568115,5.672060496736478],[120.86293458938599,5.672551606623159],[120.86291313171387,5.672765132530429],[120.8629560470581,5.672935953199342],[120.86287021636963,5.673427062340636],[120.86342811584473,5.673661940477771],[120.86422204971313,5.6743879268423],[120.86445808410645,5.674281164198959],[120.86490869522095,5.674366574315215],[120.86516618728638,5.674281164198959],[120.86531639099121,5.674345221787334],[120.86557388305664,5.674644157105689],[120.86559534072876,5.674836329728507],[120.86540222167969,5.675071207291623],[120.86535930633545,5.6751566172908525],[120.86565971374512,5.675626372060464],[120.86565971374512,5.676309651042061],[120.8654236793518,5.676587232896992],[120.86540222167969,5.677056986500801],[120.86533784866333,5.677142396205824],[120.86499452590942,5.67746268248689],[120.86458683013916,5.677633501764021],[120.8641791343689,5.677932435377173],[120.86398601531982,5.677889730584766],[120.86377143859863,5.677953787772168],[120.86310625076294,5.677996492559814],[120.86293458938599,5.678103254515051],[120.86297750473022,5.67827407360231],[120.86327791213989,5.678423540262116],[120.86342811584473,5.678637063994586],[120.86377143859863,5.6785730068831555],[120.86426496505737,5.678679768731584],[120.86475849151611,5.678231368835242],[120.86514472961426,5.678188664065004],[120.86523056030273,5.678231368835242],[120.86527347564697,5.678402187884515],[120.86505889892578,5.678679768731584],[120.86505889892578,5.678829235286173],[120.86510181427002,5.679064111222161],[120.86505889892578,5.679256282371284],[120.86510181427002,5.679448453456331],[120.86484432220459,5.679918204727684],[120.86490869522095,5.680046318644301],[120.86516618728638,5.67993955704911],[120.86531639099121,5.679363044093108],[120.86583137512207,5.678295425984658],[120.86626052856445,5.677761616188647],[120.86636781692505,5.677740263786518],[120.86683988571167,5.677804320990518],[120.86703300476074,5.677975140166382],[120.8675479888916,5.678530302138242],[120.86859941482544,5.6791922253287055],[120.86879253387451,5.679555215142543],[120.86898565292358,5.680174432532411],[120.86932897567749,5.68047336482725],[120.86952209472656,5.680772296966936],[120.86992979049683,5.681071228951453],[120.87003707885742,5.681242047158676],[120.87050914764404,5.681562331160663],[120.87061643600464,5.68177585372969],[120.8711314201355,5.682266955338022],[120.87117433547974,5.682416420961772],[120.87093830108643,5.6829288742343635],[120.87110996246338,5.6831851006996175],[120.87136745452881,5.683163748498529],[120.87166786193848,5.683227805099406],[120.87177515029907,5.683377270473727],[120.87183952331543,5.683676201105968],[120.87179660797119,5.683889722891095],[120.87162494659424,5.684231357582576],[120.87156057357788,5.684530287771295],[120.87177515029907,5.685384373169342],[120.87186098098755,5.685427077405961],[120.87198972702026,5.685320316808443],[120.87226867675781,5.684615696368127],[120.8725905418396,5.684423527007439],[120.87265491485596,5.684017835924166],[120.87282657623291,5.68371890546932],[120.87295532226562,5.683676201105968],[120.87334156036377,5.684017835924166],[120.87381362915039,5.6841673010933675],[120.87510108947754,5.684081892430001],[120.87518692016602,5.684017835924166],[120.87535858154297,5.683761609829531],[120.8754014968872,5.68350538362084],[120.87553024291992,5.683291861693149],[120.87565898895264,5.682886169812406],[120.87583065032959,5.68271535209287],[120.87625980377197,5.682544534322659],[120.87632417678833,5.682032080708041],[120.87769746780396,5.681284751702563],[120.87810516357422,5.681113933508016],[120.87846994400024,5.681071228951453],[120.87894201278687,5.680815001545639],[120.87947845458984,5.680750944676376],[120.88074445724487,5.681007172110682],[120.88125944137573,5.681306103973327],[120.88132381439209,5.681434217581241],[120.88140964508057,5.681476922110889],[120.88209629058838,5.681306103973327],[120.8829116821289,5.681370160780844],[120.88351249694824,5.681626387939673],[120.88374853134155,5.681669092455067],[120.88422060012817,5.681562331160663],[120.88462829589844,5.681519626637353],[120.88510036468506,5.681519626637353],[120.88552951812744,5.681605035680818],[120.8857011795044,5.681711796967292],[120.88589429855347,5.681925319480911],[120.8861517906189,5.682480477645797],[120.88617324829102,5.682544534322659],[120.8860445022583,5.682800760958969],[120.8860445022583,5.683056987481237],[120.88621616363525,5.683697553288042],[120.88619470596313,5.684231357582576],[120.88625907897949,5.684338118382101],[120.88658094406128,5.684615696368127],[120.886709690094,5.684615696368127],[120.88701009750366,5.684466231315355],[120.88746070861816,5.684444879161788],[120.88786840438843,5.684786513523775],[120.88791131973267,5.685213556191101],[120.88780403137207,5.685555190096835],[120.88804006576538,5.685875471699276],[120.88819026947021,5.686195753123442],[120.88831901550293,5.68675090716971],[120.88829755783081,5.6870711881066],[120.8880615234375,5.6879466217577175],[120.88797569274902,5.6885658301211635],[120.8879542350769,5.688757998098424],[120.88801860809326,5.689142333860332],[120.88823318481445,5.689612077220531],[120.88846921920776,5.689697485062979],[120.88924169540405,5.6898042448482045],[120.88947772979736,5.689975060463354],[120.88979959487915,5.690423451211657],[120.88994979858398,5.690786433942293],[120.88988542556763,5.691128064538276],[120.88994979858398,5.691576454387416],[120.89012145996094,5.692024843886827],[120.8901858329773,5.692878918156211],[120.89014291763306,5.692942973675244],[120.88889837265015,5.69351947302539],[120.88831901550293,5.693370010286429],[120.8881688117981,5.693391362108656],[120.88801860809326,5.693220547508602],[120.88703155517578,5.692729455250685],[120.88668823242188,5.692622696008641],[120.88608741760254,5.6926013441578505],[120.8854866027832,5.692772158941949],[120.88535785675049,5.692836214472877],[120.88488578796387,5.69354082484206],[120.88426351547241,5.694651118216001],[120.88379144668579,5.695120857074514],[120.88351249694824,5.695248967605636],[120.88207483291626,5.695206264098445],[120.88117361068726,5.695441133348751],[120.87956428527832,5.696487367933571],[120.87922096252441,5.696636829861561],[120.87879180908203,5.696700884961643],[120.8779764175415,5.696572774754316],[120.87733268737793,5.696594126457526],[120.87593793869019,5.697021160354936],[120.87465047836304,5.697683062268396],[120.87201118469238,5.6992844347097105],[120.87085247039795,5.699860927695184],[120.86806297302246,5.701526348623091],[120.86701154708862,5.7022522998227885],[120.8660888671875,5.702764735410781],[120.86548805236816,5.7029996015690045],[120.86469411849976,5.703618793707051],[120.86332082748413,5.704472850731804],[120.86248397827148,5.70481447318565],[120.88091611862183,5.70481447318565],[120.88091611862183,5.704793121788242],[120.88102340698242,5.70417393091779],[120.88108777999878,5.704195282338233],[120.88113069534302,5.704067173803594],[120.8814525604248,5.704109876651643],[120.88173151016235,5.704067173803594],[120.88192462921143,5.703746902341834],[120.88209629058838,5.703576090822423],[120.88306188583374,5.703063655959099],[120.88340520858765,5.7026579780343525],[120.88441371917725,5.700650935660889],[120.8846926689148,5.700245256030527],[120.88621616363525,5.699455247506506],[120.88679552078247,5.69922037989781],[120.88718175888062,5.698921457347794],[120.88767528533936,5.69836631505629],[120.88808298110962,5.697811172228057],[120.88827610015869,5.6974268422633685],[120.88853359222412,5.697191973824985],[120.88870525360107,5.696914401910348],[120.88900566101074,5.695547892067154],[120.88958501815796,5.694651118216001],[120.89027166366577,5.694309489714044],[120.89106559753418,5.694031916406658],[120.89173078536987,5.694117323592451],[120.89222431182861,5.694266786137021],[120.89284658432007,5.694245434347323],[120.89318990707397,5.6938397501922395],[120.89379072189331,5.693626232100826],[120.8941125869751,5.693775694773137],[120.89486360549927,5.694330841501369],[120.89619398117065,5.694330841501369],[120.8969235420227,5.694800580621731],[120.89756727218628,5.695441133348751],[120.897696018219,5.696060333639309],[120.89778184890747,5.6962097956784135],[120.89881181716919,5.696615478159941],[120.89947700500488,5.696743588357748],[120.9000563621521,5.697191973824985],[120.90007781982422,5.6974268422633685],[120.90179443359375,5.699711466606402],[120.90385437011719,5.700159849756034],[120.90424060821533,5.70062958410854],[120.90424060821533,5.701227427273935],[120.90439081192017,5.701440942539207],[120.90490579605103,5.701504997103314],[120.9076738357544,5.702124190854278],[120.90859651565552,5.701227427273935],[120.91016292572021,5.70355473937893],[120.91177225112915,5.702636626556696],[120.91301679611206,5.7022522998227885],[120.91342449188232,5.701996081857175],[120.91413259506226,5.701846621324393],[120.9144115447998,5.701974730354877],[120.914626121521,5.701932027347894],[120.91677188873291,5.702380408762693],[120.91750144958496,5.703319873447981],[120.91840267181396,5.703704199466742],[120.91930389404297,5.7039604166695455],[120.91958284378052,5.704408796499052],[120.9200119972229,5.70481447318565],[120.9370493888855,5.70481447318565],[120.9379506111145,5.70481447318565],[120.93887329101562,5.70481447318565],[120.93887329101562,5.616434267224804],[120.93887329101562,5.615537370740739],[120.93887329101562,5.61461911814834],[120.9379506111145,5.61461911814834],[120.9370493888855,5.61461911814834],[120.84823608398438,5.61461911814834],[120.84823608398438,5.615537370740739],[120.84823608398438,5.616434267224804]]]}},{"type":"Feature","id":"pmtiles:10/855/495:water:360:0","properties":{"class":"ocean","water":"ocean","kind":"waterway","verification":"verified","source":"OpenMapTiles/OpenStreetMap national PMTiles","sourceId":"10/855/495:water:360:0","sourceLayer":"water","archive":"https://its.hanifahseptiani45.workers.dev/v1/map/archive/indonesia.pmtiles","updatedAt":"2026-07-26T09:38:14.509Z"},"geometry":{"type":"Polygon","coordinates":[[[120.5804443359375,5.616412912562637],[120.5804443359375,5.971217057997222],[120.88600158691406,5.971217057997222],[120.8854866027832,5.9702780422448285],[120.88471412658691,5.9687414675421735],[120.88059425354004,5.96353415457115],[120.87956428527832,5.961741461614906],[120.87844848632812,5.961058529424065],[120.87767601013184,5.961912194529788],[120.87784767150879,5.961656095137528],[120.87767601013184,5.961485362142952],[120.87844848632812,5.960802429633347],[120.87759017944336,5.960119496273833],[120.87647438049316,5.960119496273833],[120.87664604187012,5.95977802927537],[120.87638854980469,5.958412159157177],[120.87347030639648,5.9546559988114325],[120.87329864501953,5.953631586986106],[120.87286949157715,5.952948644708044],[120.87286949157715,5.952521805353186],[120.87398529052734,5.952265701581155],[120.87424278259277,5.951668125648865],[120.87432861328125,5.950643708253352],[120.87578773498535,5.946119175257451],[120.87570190429688,5.944411794643017],[120.8759593963623,5.941338496187882],[120.87527275085449,5.939801840526329],[120.87484359741211,5.939545730832506],[120.8745002746582,5.938692030992911],[120.8741569519043,5.9385212908662055],[120.87398529052734,5.938094440317897],[120.87407112121582,5.9366431459797155],[120.8741569519043,5.936472405217998],[120.87484359741211,5.9366431459797155],[120.87544441223145,5.936216293976244],[120.8770751953125,5.9325453530993],[120.87879180908203,5.92964273138162],[120.87930679321289,5.927764556248874],[120.8796501159668,5.924861909379786],[120.87956428527832,5.924093559124387],[120.87879180908203,5.922386110284691],[120.88016510009766,5.920251791812561],[120.88119506835938,5.919739554152358],[120.88171005249023,5.920251791812561],[120.8822250366211,5.920251791812561],[120.88505744934082,5.9196541811628265],[120.88625907897949,5.919141942948642],[120.88788986206055,5.919483435144187],[120.88969230651855,5.918885823663487],[120.89441299438477,5.918202838322841],[120.89527130126953,5.917861345336036],[120.89552879333496,5.918629704259658],[120.89570045471191,5.9184589579245],[120.89630126953125,5.9184589579245],[120.89827537536621,5.917434478805831],[120.90076446533203,5.91572700938903],[120.90188026428223,5.914617151440638],[120.90102195739746,5.9132511693697865],[120.90127944946289,5.9134219173131015],[120.90205192565918,5.914446403866279],[120.90351104736328,5.914104908559395],[120.90582847595215,5.91248280297259],[120.90591430664062,5.912055932290826],[120.90548515319824,5.911970558114945],[120.90514183044434,5.911458312783083],[120.90539932250977,5.911287564233746],[120.90522766113281,5.910946066977019],[120.9060001373291,5.911885183925904],[120.90634346008301,5.911885183925904],[120.9089183807373,5.910519195109785],[120.91166496276855,5.9083848308353595],[120.91389656066895,5.90599433307959],[120.91458320617676,5.903774575925212],[120.91578483581543,5.90317694747948],[120.91638565063477,5.902408567102199],[120.91672897338867,5.901640185659616],[120.91638565063477,5.9011279307727875],[120.9166431427002,5.899847291484804],[120.91715812683105,5.898310520434791],[120.91870307922363,5.896005355875744],[120.91930389404297,5.895493095784062],[120.91964721679688,5.8940416896228385],[120.92093467712402,5.893102542437049],[120.92144966125488,5.892419525303936],[120.92273712158203,5.891651130024698],[120.92522621154785,5.892078016422232],[120.92702865600586,5.89199263916899],[120.92926025390625,5.8912242432989785],[120.93217849731445,5.891736507330478],[120.93441009521484,5.891651130024698],[120.93561172485352,5.891053488516789],[120.93629837036133,5.890370468862969],[120.93707084655762,5.889943581152764],[120.93707084655762,5.890114336276227],[120.93792915344238,5.88951669311443],[120.93844413757324,5.889858203571336],[120.93964576721191,5.890028958721047],[120.94058990478516,5.889602070748339],[120.94101905822754,5.890370468862969],[120.94179153442383,5.890797356245059],[120.94273567199707,5.892419525303936],[120.9429931640625,5.892590279665981],[120.9429931640625,5.616412912562637],[120.9429931640625,5.6155587254349655],[120.9429931640625,5.61051899590089],[120.93792915344238,5.61051899590089],[120.93707084655762,5.61051899590089],[120.5804443359375,5.61051899590089],[120.5804443359375,5.6155587254349655],[120.5804443359375,5.616412912562637]],[[120.89029312133789,5.694309489714044],[120.89106559753418,5.694053268204286],[120.89286804199219,5.694224082556829],[120.8932113647461,5.693882453800995],[120.89381217956543,5.693626232100826],[120.89484214782715,5.694309489714044],[120.89621543884277,5.694309489714044],[120.8975887298584,5.695419781602681],[120.89776039123535,5.6961884439609065],[120.89947700500488,5.696786291750655],[120.90007781982422,5.69721332550516],[120.90179443359375,5.699690115019109],[120.90385437011719,5.700202552894865],[120.9041976928711,5.70062958410854],[120.90436935424805,5.7014836455827265],[120.90771675109863,5.702081487858422],[120.9085750579834,5.701227427273935],[120.91012001037598,5.703533387934641],[120.91175079345703,5.702679329511227],[120.91415405273438,5.701825269816553],[120.91681480407715,5.702337705785908],[120.91750144958496,5.703362576351665],[120.91930389404297,5.7039604166695455],[120.92041969299316,5.705070689892494],[120.92256546020508,5.70481447318565],[120.9235954284668,5.705156095435996],[120.926513671875,5.707718255826464],[120.92771530151367,5.710109595192392],[120.93037605285645,5.712244711193222],[120.93046188354492,5.7133549683685345],[120.93132019042969,5.714465223391386],[120.93441009521484,5.717625168210034],[120.93483924865723,5.718564607899751],[120.93483924865723,5.719418642642793],[120.93466758728027,5.7201018695192545],[120.93415260314941,5.720016466204328],[120.93372344970703,5.720272676110852],[120.93380928039551,5.722493157159562],[120.93398094177246,5.723347186036136],[120.9349250793457,5.725140642523883],[120.9360408782959,5.7294961562732],[120.93544006347656,5.730179371102693],[120.93569755554199,5.730777183407881],[120.93561172485352,5.7314603967044775],[120.93475341796875,5.737096875192833],[120.93132019042969,5.74563688795098],[120.93132019042969,5.746149284645554],[120.9308910369873,5.74632008344129],[120.92986106872559,5.748028068580382],[120.9294319152832,5.748028068580382],[120.92848777770996,5.748711261201066],[120.92376708984375,5.754945355967692],[120.9210205078125,5.756824110851667],[120.92016220092773,5.756824110851667],[120.91861724853516,5.757678088291399],[120.91389656066895,5.757763485964773],[120.91175079345703,5.758702859524959],[120.91132164001465,5.759727628910113],[120.91029167175293,5.7596422315319415],[120.90883255004883,5.758788257044316],[120.90728759765625,5.758275871735577],[120.90402603149414,5.757934281273052],[120.90119361877441,5.7572510997319455],[120.90033531188965,5.7572510997319455],[120.89990615844727,5.758275871735577],[120.8993911743164,5.757934281273052],[120.89947700500488,5.757336497469495],[120.89930534362793,5.756994906442273],[120.89836120605469,5.756055530058788],[120.89595794677734,5.754603763503496],[120.89484214782715,5.7544329671944325],[120.8946704864502,5.753920577959391],[120.89364051818848,5.752639602851872],[120.89338302612305,5.751871016402461],[120.88831901550293,5.746405482819952],[120.88737487792969,5.7434164969470345],[120.88608741760254,5.7418792981050615],[120.88634490966797,5.739488091664171],[120.88591575622559,5.737950882226642],[120.88608741760254,5.737523878869595],[120.88565826416016,5.736499069508227],[120.88428497314453,5.734620247563456],[120.88334083557129,5.732912222244636],[120.88334083557129,5.732570616567429],[120.88437080383301,5.730862585114664],[120.88394165039062,5.727702713456992],[120.88411331176758,5.724884434798739],[120.88325500488281,5.721468320823831],[120.8840274810791,5.720614289141039],[120.88437080383301,5.718479204355333],[120.88411331176758,5.717283553395021],[120.88334083557129,5.715404668267681],[120.88068008422852,5.7133549683685345],[120.88033676147461,5.711646879515101],[120.88042259216309,5.710963642547583],[120.8799934387207,5.709255546564279],[120.87990760803223,5.707035014175176],[120.88016510009766,5.706180960966066],[120.88076591491699,5.705241500966807],[120.88050842285156,5.705156095435996],[120.88076591491699,5.705156095435996],[120.88102340698242,5.704216633757909],[120.88171005249023,5.704045822378376],[120.88205337524414,5.703618793707051],[120.88308334350586,5.703020953033175],[120.88471412658691,5.7002879591630204],[120.88720321655273,5.698921457347794],[120.88866233825684,5.696871698526948],[120.88900566101074,5.695505188582175],[120.88960647583008,5.694651118216001],[120.89029312133789,5.694309489714044]],[[120.81424713134766,5.666551496323052],[120.81501960754395,5.66714937488031],[120.81536293029785,5.668003486030969],[120.81656455993652,5.668515952114831],[120.82197189331055,5.669626293735689],[120.82454681396484,5.670480401221184],[120.82489013671875,5.670224169108266],[120.82660675048828,5.670309579825229],[120.82978248596191,5.669455472086881],[120.83252906799316,5.667661841722335],[120.83441734313965,5.667063963695739],[120.83690643310547,5.665953617146755],[120.83707809448242,5.666039028495547],[120.83742141723633,5.6654411487886875],[120.8400821685791,5.664159975904269],[120.84162712097168,5.664159975904269],[120.84231376647949,5.663903740986413],[120.84566116333008,5.66458703384815],[120.84660530090332,5.664501622284632],[120.84806442260742,5.66381832932187],[120.85141181945801,5.664330799119725],[120.85227012634277,5.663989152638337],[120.8547592163086,5.6647578569373],[120.8580207824707,5.66629526246615],[120.86222648620605,5.666722318831148],[120.86299896240234,5.667491019492189],[120.86325645446777,5.668174308109457],[120.86282730102539,5.669028417743704],[120.86222648620605,5.669199239518903],[120.86153984069824,5.668772184986139],[120.8617115020752,5.668259719129765],[120.86145401000977,5.668003486030969],[120.86179733276367,5.668088897076544],[120.86188316345215,5.667747252818444],[120.86282730102539,5.667918074972761],[120.86282730102539,5.667661841722335],[120.86188316345215,5.66740560835818],[120.860595703125,5.66663690758341],[120.85965156555176,5.6668931412887105],[120.85870742797852,5.666466085050047],[120.8580207824707,5.666551496323052],[120.85819244384766,5.666722318831148],[120.85810661315918,5.667063963695739],[120.85827827453613,5.66740560835818],[120.85905075073242,5.668174308109457],[120.85930824279785,5.668088897076544],[120.86050987243652,5.66885759591797],[120.8609390258789,5.669199239518903],[120.86111068725586,5.669797115333907],[120.86239814758301,5.6698825261140655],[120.86291313171387,5.672530254028089],[120.86291313171387,5.673384357214502],[120.86342811584473,5.673640587923799],[120.86420059204102,5.674409279368604],[120.86514472961426,5.6743238692586715],[120.86557388305664,5.674665509622486],[120.86540222167969,5.675177969788692],[120.86565971374512,5.675605019579237],[120.86565971374512,5.676288298586144],[120.86531639099121,5.677142396205824],[120.86420059204102,5.6779110829813675],[120.86308479309082,5.677996492559814],[120.86299896240234,5.678252721219167],[120.86342811584473,5.678594359254433],[120.86428642272949,5.678679768731584],[120.86480140686035,5.678252721219167],[120.86523056030273,5.678252721219167],[120.86488723754883,5.680046318644301],[120.86514472961426,5.679960909369711],[120.86583137512207,5.678252721219167],[120.86634635925293,5.677740263786518],[120.86686134338379,5.677825673390274],[120.86857795715332,5.6791922253287055],[120.8690071105957,5.680131727906215],[120.87115287780762,5.682266955338022],[120.87098121643066,5.682950226444163],[120.87106704711914,5.68320645289991],[120.87175369262695,5.683377270473727],[120.87158203125,5.68448758346814],[120.87183952331543,5.685427077405961],[120.87278366088867,5.68371890546932],[120.87381362915039,5.68414594892873],[120.87510108947754,5.68406054026218],[120.87570190429688,5.682864817600233],[120.87630271911621,5.682523182097839],[120.87630271911621,5.682010728464192],[120.87896347045898,5.680815001545639],[120.88076591491699,5.680985819828848],[120.8814525604248,5.681498274374519],[120.88213920593262,5.681327456243281],[120.88376998901367,5.681669092455067],[120.8854866027832,5.681583683421124],[120.88617324829102,5.682437773190557],[120.88600158691406,5.6830356352754166],[120.88625907897949,5.684316766223759],[120.8866024017334,5.68457299207131],[120.88746070861816,5.684402174852281],[120.88788986206055,5.684743809239606],[120.88780403137207,5.685597894320793],[120.88831901550293,5.686708203031316],[120.8880615234375,5.689099629899474],[120.88823318481445,5.689612077220531],[120.88926315307617,5.689782892892737],[120.88977813720703,5.690466155074233],[120.89020729064941,5.692857566314942],[120.88891983032227,5.69354082484206],[120.88814735412598,5.693370010286429],[120.88668823242188,5.6926013441578505],[120.8854866027832,5.692772158941949],[120.88428497314453,5.694651118216001],[120.88351249694824,5.695248967605636],[120.88205337524414,5.695163560588071],[120.88119506835938,5.695419781602681],[120.87922096252441,5.696615478159941],[120.87733268737793,5.696615478159941],[120.8759593963623,5.697042512041449],[120.86548805236816,5.703020953033175],[120.86334228515625,5.704472850731804],[120.85896492004395,5.70660798772964],[120.85690498352051,5.707120419426133],[120.85518836975098,5.707974471235758],[120.85372924804688,5.708145281444985],[120.85295677185059,5.7084869017107565],[120.84712028503418,5.709084736685909],[120.84463119506836,5.7089993317276395],[120.83836555480957,5.709426356391717],[120.83630561828613,5.710109595192392],[120.83527565002441,5.709938785568596],[120.83184242248535,5.707974471235758],[120.82823753356934,5.70660798772964],[120.82317352294922,5.705156095435996],[120.8195686340332,5.703362576351665],[120.81690788269043,5.702850141297631],[120.81510543823242,5.701739863777149],[120.81295967102051,5.701739863777149],[120.81235885620117,5.702423111736309],[120.81192970275879,5.702508517673991],[120.8108139038086,5.702337705785908],[120.80935478210449,5.702423111736309],[120.80832481384277,5.7021668938469645],[120.8056640625,5.700714990313159],[120.80480575561523,5.699860927695184],[120.80429077148438,5.698579831385786],[120.80368995666504,5.698067392061617],[120.80317497253418,5.69721332550516],[120.80042839050293,5.6895266693654065],[120.8005142211914,5.687135244272596],[120.79999923706055,5.685768711184934],[120.80034255981445,5.684914626357255],[120.79957008361816,5.680900410693582],[120.79862594604492,5.678679768731584],[120.79742431640625,5.6769715767831315],[120.79648017883301,5.675177969788692],[120.79648017883301,5.673982228692424],[120.79605102539062,5.673469767463587],[120.7957935333252,5.671590739062339],[120.79527854919434,5.671334507442495],[120.79484939575195,5.6692846503875245],[120.79562187194824,5.667491019492189],[120.79630851745605,5.667063963695739],[120.79630851745605,5.66535573735149],[120.79733848571777,5.6649286799759295],[120.79785346984863,5.663989152638337],[120.79931259155273,5.662878800178504],[120.80068588256836,5.66304962377275],[120.80188751220703,5.662451740971946],[120.80351829528809,5.662964211981944],[120.80429077148438,5.662793388362445],[120.80557823181152,5.662110093379454],[120.80617904663086,5.662195505296509],[120.80720901489258,5.662622564692441],[120.80909729003906,5.662024681449779],[120.80952644348145,5.662024681449779],[120.8108139038086,5.66322044731649],[120.81210136413574,5.66322044731649],[120.81321716308594,5.6636475059548985],[120.81424713134766,5.666551496323052]],[[120.79004287719727,5.839653919345508],[120.78987121582031,5.839397763468767],[120.79004287719727,5.83931237815051],[120.79038619995117,5.839653919345508],[120.79098701477051,5.839653919345508],[120.79055786132812,5.839226992819206],[120.79090118408203,5.838800065967575],[120.79047203063965,5.838800065967575],[120.79055786132812,5.8379462112884255],[120.79124450683594,5.838116982328344],[120.79184532165527,5.837860825748962],[120.79278945922852,5.838202367828785],[120.79313278198242,5.838031596814901],[120.7932186126709,5.837177740964805],[120.7935619354248,5.837775440196481],[120.79347610473633,5.838629295135846],[120.79261779785156,5.838373138790644],[120.79253196716309,5.838885451363922],[120.79158782958984,5.839056222117605],[120.7921028137207,5.839397763468767],[120.79244613647461,5.839397763468767],[120.79296112060547,5.840080845546439],[120.79373359680176,5.83999546033229],[120.79407691955566,5.840337001110839],[120.79450607299805,5.840166230747585],[120.7943344116211,5.83999546033229],[120.79510688781738,5.839739304611726],[120.79553604125977,5.839824689864926],[120.7957935333252,5.839397763468767],[120.79648017883301,5.839739304611726],[120.79639434814453,5.839226992819206],[120.79699516296387,5.839226992819206],[120.79751014709473,5.838800065967575],[120.79768180847168,5.838202367828785],[120.79819679260254,5.838116982328344],[120.79828262329102,5.837775440196481],[120.79836845397949,5.836836198260514],[120.79811096191406,5.836665426830322],[120.79828262329102,5.836323883813847],[120.79793930053711,5.836238498027214],[120.79793930053711,5.8354700253621985],[120.79768180847168,5.834957709666966],[120.79854011535645,5.834616165610058],[120.79785346984863,5.834103849134621],[120.79742431640625,5.833506145988352],[120.79708099365234,5.83367691838086],[120.79682350158691,5.83367691838086],[120.79656600952148,5.832908442205039],[120.79682350158691,5.832481510541285],[120.79450607299805,5.832139964976292],[120.7932186126709,5.832481510541285],[120.79261779785156,5.832139964976292],[120.7921028137207,5.832566896900033],[120.79218864440918,5.832908442205039],[120.79193115234375,5.833079214779573],[120.79218864440918,5.833164601047315],[120.79193115234375,5.833249987302082],[120.79167366027832,5.832737669578535],[120.7917594909668,5.831969192115807],[120.79339027404785,5.831798419203352],[120.79665184020996,5.832139964976292],[120.80008506774902,5.8329938284988],[120.8001708984375,5.8334207597725936],[120.79965591430664,5.834701551643775],[120.79939842224121,5.838031596814901],[120.79896926879883,5.838885451363922],[120.79785346984863,5.839739304611726],[120.79407691955566,5.840849311888192],[120.79098701477051,5.841105467101144],[120.79038619995117,5.841361622196928],[120.79004287719727,5.840934696972198],[120.79021453857422,5.840593156558086],[120.79004287719727,5.839653919345508]],[[120.79648017883301,5.836409269587477],[120.79656600952148,5.837433897856428],[120.79424858093262,5.837177740964805],[120.7932186126709,5.836665426830322],[120.79390525817871,5.836323883813847],[120.79313278198242,5.835726183034254],[120.794677734375,5.8354700253621985],[120.79493522644043,5.8343600074308455],[120.79527854919434,5.8343600074308455],[120.79562187194824,5.834530779563323],[120.7957935333252,5.835043095648672],[120.79682350158691,5.8354700253621985],[120.79648017883301,5.836409269587477]],[[120.78394889831543,5.828126789013297],[120.78300476074219,5.828382950038616],[120.7825756072998,5.827529079499627],[120.78231811523438,5.827443692374288],[120.78214645385742,5.827785240797695],[120.7825756072998,5.827870627871064],[120.78206062316895,5.828212176034711],[120.78128814697266,5.827614466611962],[120.78128814697266,5.828126789013297],[120.78171730041504,5.828297563043165],[120.78137397766113,5.828895271738531],[120.78103065490723,5.828639110947023],[120.7807731628418,5.828895271738531],[120.7807731628418,5.829492979797365],[120.77991485595703,5.829578366610946],[120.77939987182617,5.8293222061312235],[120.7781982421875,5.829151432413127],[120.77802658081055,5.829663753411538],[120.77871322631836,5.829834526973741],[120.77776908874512,5.8305176207028495],[120.77776908874512,5.8309445538612295],[120.77751159667969,5.831115327033615],[120.77776908874512,5.83145687322245],[120.77751159667969,5.832139964976292],[120.77794075012207,5.832737669578535],[120.77794075012207,5.833249987302082],[120.77828407287598,5.833335373543832],[120.77862739562988,5.8337623045576095],[120.77897071838379,5.83367691838086],[120.77871322631836,5.834530779563323],[120.77922821044922,5.834957709666966],[120.77939987182617,5.835384639445493],[120.77922821044922,5.83606772641491],[120.77836990356445,5.834701551643775],[120.77794075012207,5.8352992535157995],[120.77794075012207,5.835811568898933],[120.77879905700684,5.837263126608349],[120.77914237976074,5.838287753316223],[120.7796573638916,5.838885451363922],[120.77939987182617,5.839397763468767],[120.7796573638916,5.839568534066274],[120.78008651733398,5.839397763468767],[120.78008651733398,5.83999546033229],[120.78051567077637,5.839910075105109],[120.78103065490723,5.840678541681129],[120.78163146972656,5.841105467101144],[120.78240394592285,5.840678541681129],[120.78291893005371,5.839824689864926],[120.78274726867676,5.839568534066274],[120.78291893005371,5.83931237815051],[120.78377723693848,5.839397763468767],[120.78377723693848,5.838885451363922],[120.78446388244629,5.838458524252047],[120.78489303588867,5.838543909700462],[120.78566551208496,5.839483148774036],[120.78600883483887,5.839568534066274],[120.7862663269043,5.839226992819206],[120.78695297241211,5.839483148774036],[120.78635215759277,5.83999546033229],[120.78703880310059,5.840763926791155],[120.7877254486084,5.840763926791155],[120.78815460205078,5.841020082043158],[120.78875541687012,5.8405077714220255],[120.78875541687012,5.840080845546439],[120.78789710998535,5.840080845546439],[120.7877254486084,5.839653919345508],[120.78824043273926,5.839226992819206],[120.7888412475586,5.839739304611726],[120.78935623168945,5.839739304611726],[120.78944206237793,5.840080845546439],[120.78909873962402,5.8405077714220255],[120.7888412475586,5.841361622196928],[120.78798294067383,5.841447007202831],[120.78652381896973,5.841105467101144],[120.78618049621582,5.841276237178022],[120.78532218933105,5.840934696972198],[120.78523635864258,5.8411908521460845],[120.78472137451172,5.8415323921957025],[120.78377723693848,5.8415323921957025],[120.78343391418457,5.841361622196928],[120.78317642211914,5.8415323921957025],[120.7825756072998,5.841361622196928],[120.78214645385742,5.841617777175557],[120.78128814697266,5.841361622196928],[120.7811164855957,5.8415323921957025],[120.78017234802246,5.841276237178022],[120.77888488769531,5.83999546033229],[120.77811241149902,5.838629295135846],[120.77725410461426,5.835640797156572],[120.77622413635254,5.833164601047315],[120.77605247497559,5.831883805666067],[120.77467918395996,5.828639110947023],[120.77450752258301,5.827529079499627],[120.77476501464844,5.8265898204066815],[120.77545166015625,5.825906721897624],[120.77699661254883,5.825309010020547],[120.77871322631836,5.8252236225576155],[120.78171730041504,5.826419045857335],[120.78575134277344,5.828724497890519],[120.78944206237793,5.8309445538612295],[120.79047203063965,5.832310737784795],[120.79124450683594,5.832908442205039],[120.79098701477051,5.833591532191107],[120.78892707824707,5.835726183034254],[120.78841209411621,5.835640797156572],[120.78875541687012,5.835213867573103],[120.78875541687012,5.834872323672229],[120.78961372375488,5.8343600074308455],[120.78969955444336,5.833933076872128],[120.78944206237793,5.833591532191107],[120.78901290893555,5.834274621345102],[120.78866958618164,5.834103849134621],[120.78815460205078,5.834189235246356],[120.78824043273926,5.833506145988352],[120.78789710998535,5.833335373543832],[120.7880687713623,5.833079214779573],[120.78927040100098,5.832481510541285],[120.78875541687012,5.831969192115807],[120.78815460205078,5.832310737784795],[120.78781127929688,5.832225351387038],[120.78763961791992,5.831371486694735],[120.78824043273926,5.8310299404539165],[120.78841209411621,5.831115327033615],[120.78824043273926,5.830603007360509],[120.78738212585449,5.830005300483975],[120.78678131103516,5.8303468473485225],[120.78618049621582,5.830261460651883],[120.78523635864258,5.828809884821013],[120.78394889831543,5.828126789013297]]]}}]}