{"type":"FeatureCollection","features":[{"type":"Feature","id":"pmtiles:10/838/494:water:2410:0","properties":{"class":"ocean","water":"ocean","kind":"waterway","verification":"verified","source":"OpenMapTiles/OpenStreetMap national PMTiles","sourceId":"10/838/494:water:2410:0","sourceLayer":"water","archive":"https://its.hanifahseptiani45.workers.dev/v1/map/archive/indonesia.pmtiles","updatedAt":"2026-07-26T09:38:04.555Z"},"geometry":{"type":"Polygon","coordinates":[[[114.6038818359375,6.320758338986863],[114.9664306640625,6.320758338986863],[114.9664306640625,5.960290229693385],[114.6038818359375,5.960290229693385],[114.6038818359375,6.320758338986863]]]}},{"type":"Feature","id":"pmtiles:8/209/123:water:760:0","properties":{"class":"ocean","water":"ocean","kind":"waterway","verification":"verified","source":"OpenMapTiles/OpenStreetMap national PMTiles","sourceId":"8/209/123:water:760:0","sourceLayer":"water","archive":"https://its.hanifahseptiani45.workers.dev/v1/map/archive/indonesia.pmtiles","updatedAt":"2026-07-26T09:35:16.170Z"},"geometry":{"type":"Polygon","coordinates":[[[113.88427734375,7.035475652433021],[115.33447265625,7.035475652433021],[115.33447265625,5.5941182188847876],[113.88427734375,5.5941182188847876],[113.88427734375,7.035475652433021]]]}}]}