{"type":"FeatureCollection","features":[{"type":"Feature","id":"pmtiles:10/891/521:water:2050:1","properties":{"class":"ocean","water":"ocean","kind":"waterway","verification":"verified","source":"OpenMapTiles/OpenStreetMap national PMTiles","sourceId":"10/891/521:water:2050:1","sourceLayer":"water","archive":"https://its.hanifahseptiani45.workers.dev/v1/map/archive/indonesia.pmtiles","updatedAt":"2026-07-26T09:43:37.244Z"},"geometry":{"type":"Polygon","coordinates":[[[133.4502410888672,-3.5189038690258485],[133.44268798828125,-3.5189038690258485],[133.44346046447754,-3.517875842097098],[133.44629287719727,-3.515648446528502],[133.44706535339355,-3.515648446528502],[133.449125289917,-3.516933483082923],[133.4502410888672,-3.5189038690258485]]]}},{"type":"Feature","id":"pmtiles:10/891/521:water:2050:2","properties":{"class":"ocean","water":"ocean","kind":"waterway","verification":"verified","source":"OpenMapTiles/OpenStreetMap national PMTiles","sourceId":"10/891/521:water:2050:2","sourceLayer":"water","archive":"https://its.hanifahseptiani45.workers.dev/v1/map/archive/indonesia.pmtiles","updatedAt":"2026-07-26T09:43:37.244Z"},"geometry":{"type":"Polygon","coordinates":[[[133.43358993530273,-3.5189038690258485],[133.4323024749756,-3.5189038690258485],[133.4322166442871,-3.5185611935089582],[133.43067169189453,-3.5175331662021705],[133.42689514160156,-3.5170191521235807],[133.4242343902588,-3.5153914390051284],[133.42080116271973,-3.512478682125021],[133.4208869934082,-3.5113649785625682],[133.419771194458,-3.510850961085694],[133.42037200927734,-3.510422612972178],[133.42148780822754,-3.510679621863858],[133.42329025268555,-3.5133353762688984],[133.4260368347168,-3.5153057698149297],[133.4274959564209,-3.5159054539810484],[133.4311008453369,-3.516762144978003],[133.4322166442871,-3.5174474972087637],[133.4329891204834,-3.5185611935089582],[133.43358993530273,-3.5189038690258485]]]}},{"type":"Feature","id":"pmtiles:10/891/521:water:105492783:0","properties":{"intermittent":0,"class":"river","id":10549278,"water":"river","kind":"waterway","verification":"verified","source":"OpenMapTiles/OpenStreetMap national PMTiles","sourceId":"10/891/521:water:105492783:0","sourceLayer":"water","archive":"https://its.hanifahseptiani45.workers.dev/v1/map/archive/indonesia.pmtiles","updatedAt":"2026-07-26T09:43:37.244Z"},"geometry":{"type":"Polygon","coordinates":[[[133.4502410888672,-3.5189038690258485],[133.44268798828125,-3.5189038690258485],[133.44346046447754,-3.517875842097098],[133.44629287719727,-3.515648446528502],[133.44706535339355,-3.515648446528502],[133.449125289917,-3.516933483082923],[133.4502410888672,-3.5189038690258485]]]}},{"type":"Feature","id":"pmtiles:10/891/521:water:105492783:1","properties":{"intermittent":0,"class":"river","id":10549278,"water":"river","kind":"waterway","verification":"verified","source":"OpenMapTiles/OpenStreetMap national PMTiles","sourceId":"10/891/521:water:105492783:1","sourceLayer":"water","archive":"https://its.hanifahseptiani45.workers.dev/v1/map/archive/indonesia.pmtiles","updatedAt":"2026-07-26T09:43:37.244Z"},"geometry":{"type":"Polygon","coordinates":[[[133.43358993530273,-3.5189038690258485],[133.4323024749756,-3.5189038690258485],[133.4322166442871,-3.5185611935089582],[133.43067169189453,-3.5175331662021705],[133.42689514160156,-3.5170191521235807],[133.4242343902588,-3.5153914390051284],[133.42080116271973,-3.512478682125021],[133.4208869934082,-3.5113649785625682],[133.419771194458,-3.510850961085694],[133.42037200927734,-3.510422612972178],[133.42148780822754,-3.510679621863858],[133.42329025268555,-3.5133353762688984],[133.4260368347168,-3.5153057698149297],[133.4274959564209,-3.5159054539810484],[133.4311008453369,-3.516762144978003],[133.4322166442871,-3.5174474972087637],[133.4329891204834,-3.5185611935089582],[133.43358993530273,-3.5189038690258485]]]}},{"type":"Feature","id":"pmtiles:10/891/522:landuse:2597566910:0","properties":{"class":"residential","kind":"green","verification":"verified","source":"OpenMapTiles/OpenStreetMap national PMTiles","sourceId":"10/891/522:landuse:2597566910:0","sourceLayer":"landuse","archive":"https://its.hanifahseptiani45.workers.dev/v1/map/archive/indonesia.pmtiles","updatedAt":"2026-07-26T09:43:46.763Z"},"geometry":{"type":"Polygon","coordinates":[[[133.40200424194336,-3.707527270207123],[133.40543746948242,-3.701959934039195],[133.4062957763672,-3.7029877525831125],[133.40269088745117,-3.7080411763946586],[133.40200424194336,-3.707527270207123]]]}},{"type":"Feature","id":"pmtiles:10/891/522:transportation:10299004080:0","properties":{"class":"ferry","highway":"ferry","kind":"road","verification":"verified","source":"OpenMapTiles/OpenStreetMap national PMTiles","sourceId":"10/891/522:transportation:10299004080:0","sourceLayer":"transportation","archive":"https://its.hanifahseptiani45.workers.dev/v1/map/archive/indonesia.pmtiles","updatedAt":"2026-07-26T09:43:46.764Z"},"geometry":{"type":"LineString","coordinates":[[133.5992431640625,-3.8439587470604977],[133.5769271850586,-3.8697352734583603]]}},{"type":"Feature","id":"pmtiles:10/891/522:transportation:10299004080:1","properties":{"class":"ferry","highway":"ferry","kind":"road","verification":"verified","source":"OpenMapTiles/OpenStreetMap national PMTiles","sourceId":"10/891/522:transportation:10299004080:1","sourceLayer":"transportation","archive":"https://its.hanifahseptiani45.workers.dev/v1/map/archive/indonesia.pmtiles","updatedAt":"2026-07-26T09:43:46.764Z"},"geometry":{"type":"LineString","coordinates":[[133.57933044433594,-3.8697352734583603],[133.5992431640625,-3.8464422337722084]]}},{"type":"Feature","id":"pmtiles:10/891/522:water:2050:0","properties":{"class":"ocean","water":"ocean","kind":"waterway","verification":"verified","source":"OpenMapTiles/OpenStreetMap national PMTiles","sourceId":"10/891/522:water:2050:0","sourceLayer":"water","archive":"https://its.hanifahseptiani45.workers.dev/v1/map/archive/indonesia.pmtiles","updatedAt":"2026-07-26T09:43:46.764Z"},"geometry":{"type":"Polygon","coordinates":[[[133.5992431640625,-3.8697352734583603],[133.4281826019287,-3.8697352734583603],[133.42886924743652,-3.86939273338821],[133.43127250671387,-3.867508760526775],[133.4322166442871,-3.866052960447206],[133.43213081359863,-3.8657960542912804],[133.43427658081055,-3.863312624105234],[133.43427658081055,-3.8627988100555655],[133.43393325805664,-3.8622849956948073],[133.4341049194336,-3.8620280883977642],[133.4352207183838,-3.8622849956948073],[133.43693733215332,-3.863655166632128],[133.4377956390381,-3.8639120734365378],[133.4402847290039,-3.864168980163143],[133.4428596496582,-3.8639977090207225],[133.44603538513184,-3.8623706314431985],[133.44697952270508,-3.860657914833638],[133.4483528137207,-3.8604010070441603],[133.45109939575195,-3.860572278912443],[133.4567642211914,-3.8595446471845776],[133.45762252807617,-3.8586882864614864],[133.45873832702637,-3.856889926133178],[133.4589958190918,-3.8541495602207902],[133.45873832702637,-3.851494822322749],[133.4578800201416,-3.848925713246416],[133.45667839050293,-3.84687042040494],[133.4557342529297,-3.8448151226059224],[133.4556484222412,-3.8434449213203976],[133.45521926879883,-3.8420747178334693],[133.45547676086426,-3.840961425879925],[133.45539093017578,-3.8390773900348307],[133.45470428466797,-3.835052390440538],[133.45341682434082,-3.8329970641869124],[133.45221519470215,-3.8292289532275845],[133.4520435333252,-3.825460825681432],[133.45101356506348,-3.821692681564727],[133.4502410888672,-3.8204080831949483],[133.44852447509766,-3.819637323249836],[133.44637870788574,-3.816297355490292],[133.4432888031006,-3.813813781300496],[133.44182968139648,-3.812186608112256],[133.43753814697266,-3.8091891757585756],[133.43582153320312,-3.8069625049652274],[133.43247413635254,-3.8043076207246855],[133.42886924743652,-3.8053353188207524],[133.42775344848633,-3.8051640358898737],[133.42397689819336,-3.803194279737397],[133.42183113098145,-3.8012245190833056],[133.4186553955078,-3.799768606142706],[133.4176254272461,-3.7996829641285075],[133.41599464416504,-3.800368100004121],[133.41479301452637,-3.799939890145623],[133.4142780303955,-3.798655259294904],[133.4131622314453,-3.796771130588027],[133.41299057006836,-3.7959147070891532],[133.4135913848877,-3.7953152101345893],[133.4117889404297,-3.7924033618659507],[133.41084480285645,-3.788977645462282],[133.41007232666016,-3.7846954808835704],[133.4099006652832,-3.7763880212459355],[133.40929985046387,-3.7723627286921584],[133.40689659118652,-3.7645690241679404],[133.40397834777832,-3.758573819366376],[133.40277671813965,-3.7567752498868145],[133.4003734588623,-3.754034565456564],[133.39719772338867,-3.7515508127614225],[133.39642524719238,-3.7506086978230684],[133.3952236175537,-3.748553170796626],[133.39436531066895,-3.7454698711986083],[133.39410781860352,-3.737504630317318],[133.3937644958496,-3.736648148493259],[133.3938503265381,-3.7351064791029955],[133.3948802947998,-3.733907401038252],[133.39685440063477,-3.729368019248099],[133.3989143371582,-3.725685107361926],[133.4000301361084,-3.724229068177351],[133.40157508850098,-3.722601727415011],[133.40354919433594,-3.7184905373599975],[133.40689659118652,-3.7130945713210224],[133.40689659118652,-3.7124950175022775],[133.40826988220215,-3.710782004348701],[133.4091281890869,-3.7085550822834676],[133.4091281890869,-3.7079555253841505],[133.40792655944824,-3.705385991211145],[133.4073257446289,-3.7050433860907788],[133.40681076049805,-3.7036729642828163],[133.4055233001709,-3.701788630832553],[133.40106010437012,-3.6970777796698258],[133.4000301361084,-3.6957929977350403],[133.39900016784668,-3.6938229951543065],[133.39848518371582,-3.692538208506477],[133.39831352233887,-3.690396893295329],[133.39771270751953,-3.687998614131061],[133.39797019958496,-3.684658143084448],[133.39659690856934,-3.6802898158700827],[133.39719772338867,-3.675321888298967],[133.39882850646973,-3.67043958769338],[133.39831352233887,-3.670011314436721],[133.39831352233887,-3.6692404220572854],[133.3992576599121,-3.665214639939194],[133.40131759643555,-3.660075317290378],[133.40286254882812,-3.658190891595183],[133.40526580810547,-3.6568203976915186],[133.40723991394043,-3.6561351499539825],[133.40895652770996,-3.656477773888213],[133.40998649597168,-3.6560494939499506],[133.41230392456055,-3.6519379961384004],[133.41230392456055,-3.644742829669241],[133.41161727905273,-3.6348065528037807],[133.41093063354492,-3.6301810072502576],[133.40929985046387,-3.623242644507741],[133.40835571289062,-3.6205872076466363],[133.40835571289062,-3.615704609873376],[133.4092140197754,-3.6136487713641117],[133.4077548980713,-3.6062819784690134],[133.40492248535156,-3.599514755642801],[133.40286254882812,-3.5957456477051295],[133.4011459350586,-3.5937754259902306],[133.39942932128906,-3.5930901304831764],[133.39591026306152,-3.5934327783010502],[133.39316368103027,-3.5943750591366097],[133.39101791381836,-3.5957456477051295],[133.3835506439209,-3.5974588805183885],[133.37994575500488,-3.597287557381975],[133.37522506713867,-3.5960882945253587],[133.3717918395996,-3.5955743242467264],[133.36973190307617,-3.5955743242467264],[133.36792945861816,-3.594546382820326],[133.36535453796387,-3.5919765241865207],[133.3638095855713,-3.5897493075175504],[133.3608055114746,-3.58666546008682],[133.3528232574463,-3.5804977340222877],[133.35041999816895,-3.5777565090984353],[133.34707260131836,-3.5744156301361016],[133.34278106689453,-3.568761807253267],[133.34235191345215,-3.567134185122228],[133.34132194519043,-3.5649069080618148],[133.33969116210938,-3.5601953426641586],[133.3384895324707,-3.557796718290845],[133.33282470703125,-3.5564260729883728],[133.32853317260742,-3.5541987700258204],[133.3275032043457,-3.554027438805889],[133.32304000854492,-3.5560834113443036],[133.32037925720215,-3.55676873450507],[133.31591606140137,-3.556511738379484],[133.31488609313965,-3.556683069137833],[133.31445693969727,-3.557111395894381],[133.3142852783203,-3.5586533705696723],[133.31480026245117,-3.562593960789897],[133.31497192382812,-3.567219849516775],[133.31462860107422,-3.5691901283874756],[133.3129119873047,-3.567219849516775],[133.31342697143555,-3.5629366200118966],[133.31256866455078,-3.559510022051967],[133.31239700317383,-3.558139379297941],[133.3124828338623,-3.557282726541274],[133.3129119873047,-3.5564260729883728],[133.31514358520508,-3.5547127634946207],[133.32046508789062,-3.554798429044922],[133.32140922546387,-3.554541432370172],[133.32630157470703,-3.552142793287004],[133.32741737365723,-3.5518001300518733],[133.3297348022461,-3.551885795872579],[133.3315372467041,-3.552571122152017],[133.3326530456543,-3.553513444955229],[133.33402633666992,-3.5541987700258204],[133.33514213562012,-3.5535991106169007],[133.33548545837402,-3.5482878245600205],[133.33497047424316,-3.5470884976750767],[133.3337688446045,-3.54640316732781],[133.32758903503418,-3.5440045071121915],[133.32776069641113,-3.543490507685277],[133.33428382873535,-3.5453751708543564],[133.3359146118164,-3.5465744999622473],[133.3366870880127,-3.5482021584055587],[133.33694458007812,-3.5520571274901442],[133.33720207214355,-3.55299945081822],[133.33797454833984,-3.553513444955229],[133.3384895324707,-3.553342113608039],[133.339262008667,-3.5539417731840075],[133.34063529968262,-3.55299945081822],[133.34192276000977,-3.552571122152017],[133.3432102203369,-3.552571122152017],[133.34630012512207,-3.5536847762706145],[133.34595680236816,-3.5541987700258204],[133.3418369293213,-3.5530851165275976],[133.34115028381348,-3.553342113608039],[133.34012031555176,-3.554541432370172],[133.34054946899414,-3.555569418639422],[133.34415435791016,-3.5597670173413007],[133.3462142944336,-3.5635362733433595],[133.34784507751465,-3.5673911782819374],[133.35067749023438,-3.5719313789160196],[133.3549690246582,-3.576043239356494],[133.35891723632812,-3.5792984491275064],[133.36475372314453,-3.582810636168844],[133.3711051940918,-3.587950397781171],[133.37316513061523,-3.5892353336686256],[133.3743667602539,-3.5906059299562543],[133.37719917297363,-3.5925761585151292],[133.38003158569336,-3.5937754259902306],[133.38303565979004,-3.5941180735507317],[133.38483810424805,-3.5940324116726714],[133.3857822418213,-3.593604102161734],[133.3905029296875,-3.59000629433352],[133.39505195617676,-3.58829304752787],[133.39788436889648,-3.5881217226705786],[133.40028762817383,-3.5883787099444646],[133.40209007263184,-3.5888926842753506],[133.40337753295898,-3.5896636452294644],[133.40646743774414,-3.592833144535348],[133.40852737426758,-3.5957456477051295],[133.40964317321777,-3.597801526694596],[133.41264724731445,-3.5998574010457816],[133.41341972351074,-3.6013993037637135],[133.41436386108398,-3.6019989318932204],[133.41522216796875,-3.601827609610808],[133.42174530029297,-3.599514755642801],[133.428955078125,-3.597801526694596],[133.43530654907227,-3.595916971131345],[133.43461990356445,-3.594546382820326],[133.4322166442871,-3.592661820529898],[133.42663764953613,-3.585551845957312],[133.42474937438965,-3.581782680380769],[133.42371940612793,-3.5783561527514394],[133.4234619140625,-3.5759575757853383],[133.4234619140625,-3.57098907496993],[133.42406272888184,-3.5690187999577603],[133.42535018920898,-3.5664488696783394],[133.430757522583,-3.5616516472715745],[133.43324661254883,-3.5601953426641586],[133.43582153320312,-3.559338691819235],[133.4391689300537,-3.559253026690911],[133.44079971313477,-3.558739035753746],[133.44131469726562,-3.558139379297941],[133.44165802001953,-3.557282726541274],[133.44268798828125,-3.557282726541274],[133.44243049621582,-3.558996031258175],[133.44491958618164,-3.5600240125589124],[133.44594955444336,-3.560966327743259],[133.44809532165527,-3.561565982358431],[133.44955444335938,-3.5601096776155288],[133.45324516296387,-3.554284435623842],[133.45779418945312,-3.548459156845084],[133.45985412597656,-3.5455465036793044],[133.46088409423828,-3.543319174479535],[133.46036911010742,-3.5406635057343294],[133.4567642211914,-3.5330391241319745],[133.4502410888672,-3.526699702963711],[133.44972610473633,-3.526614034813875],[133.44938278198242,-3.5272993797915007],[133.44715118408203,-3.524386660147954],[133.44552040100098,-3.5248150018441464],[133.44526290893555,-3.5241296550355656],[133.44457626342773,-3.5240439866489908],[133.44380378723145,-3.52430099178504],[133.44380378723145,-3.5249006701597096],[133.44337463378906,-3.5244723285029664],[133.44277381896973,-3.524386660147954],[133.44045639038086,-3.5249006701597096],[133.43796730041504,-3.525157675059077],[133.43419075012207,-3.5231016338761094],[133.43341827392578,-3.5230159653948903],[133.43324661254883,-3.5222449487090586],[133.4322166442871,-3.52113125681322],[133.43178749084473,-3.5195892196815777],[133.43238830566406,-3.519246544416731],[133.4322166442871,-3.5185611935089582],[133.43067169189453,-3.5175331662021705],[133.42689514160156,-3.5170191521235807],[133.4242343902588,-3.5153914390051284],[133.42080116271973,-3.512478682125021],[133.4208869934082,-3.5113649785625682],[133.419771194458,-3.510850961085694],[133.42037200927734,-3.510422612972178],[133.42148780822754,-3.510679621863858],[133.42329025268555,-3.5133353762688984],[133.4260368347168,-3.5153057698149297],[133.4274959564209,-3.5159054539810484],[133.4311008453369,-3.516762144978003],[133.4322166442871,-3.5174474972087637],[133.4329891204834,-3.5185611935089582],[133.43530654907227,-3.5200175635853412],[133.4365940093994,-3.5197605572667214],[133.43607902526855,-3.520874250801924],[133.43728065490723,-3.52344430772213],[133.43976974487305,-3.52387264985218],[133.44234466552734,-3.5225876228705033],[133.4421730041504,-3.5219022744214783],[133.4410572052002,-3.522416285805562],[133.44122886657715,-3.5209599194802337],[133.4421730041504,-3.5194178820649],[133.44346046447754,-3.517875842097098],[133.44629287719727,-3.515648446528502],[133.44706535339355,-3.515648446528502],[133.449125289917,-3.516933483082923],[133.45075607299805,-3.5197605572667214],[133.45195770263672,-3.5197605572667214],[133.45255851745605,-3.520617244719702],[133.4553050994873,-3.5204459072921424],[133.4571075439453,-3.521559600007734],[133.45813751220703,-3.52164526862299],[133.45890998840332,-3.520874250801924],[133.463716506958,-3.5221592801489976],[133.4666347503662,-3.5207029134216583],[133.4670639038086,-3.5219022744214783],[133.46431732177734,-3.522930296905784],[133.4619140625,-3.5244723285029664],[133.46028327941895,-3.526442698490527],[133.45959663391113,-3.5282417283106184],[133.46002578735352,-3.529869418956295],[133.4626865386963,-3.5344098040986154],[133.4640598297119,-3.535180810689866],[133.4656047821045,-3.5355234800802293],[133.46637725830078,-3.5363801530021703],[133.4674072265625,-3.536551487491579],[133.4696388244629,-3.537836495152689],[133.4696388244629,-3.5386074988941516],[133.46929550170898,-3.5395498359290656],[133.46723556518555,-3.539892503704081],[133.46569061279297,-3.5398068367722146],[133.46474647521973,-3.5408348394316533],[133.46500396728516,-3.5438331740016196],[133.46431732177734,-3.5440045071121915],[133.46431732177734,-3.544432839749817],[133.46637725830078,-3.545460837270795],[133.46637725830078,-3.5460605019636517],[133.4648323059082,-3.5456321700798696],[133.46380233764648,-3.545803502857197],[133.46320152282715,-3.5461461683165965],[133.46208572387695,-3.5492301517347187],[133.46062660217285,-3.5512004690843497],[133.4596824645996,-3.5516287983866164],[133.4585666656494,-3.552913785100884],[133.45547676086426,-3.559253026690911],[133.45376014709473,-3.561565982358431],[133.45006942749023,-3.564221590957871],[133.4465503692627,-3.5650782372580068],[133.43290328979492,-3.5643929202817333],[133.43213081359863,-3.5649069080618148],[133.42947006225586,-3.5683334859193536],[133.4282684326172,-3.5721883707334285],[133.42723846435547,-3.5763002300219284],[133.42723846435547,-3.577842172501448],[133.42775344848633,-3.579127122585774],[133.42912673950195,-3.5809260496754973],[133.43058586120605,-3.582296658419125],[133.43564987182617,-3.585466183275784],[133.43796730041504,-3.587950397781171],[133.43899726867676,-3.59146255159132],[133.43899726867676,-3.5940324116726714],[133.43753814697266,-3.5989151258774115],[133.43496322631836,-3.601313642570119],[133.42732429504395,-3.6054253707673922],[133.42363357543945,-3.6080808520149645],[133.42140197753906,-3.6094514199454295],[133.41814041137695,-3.6126208503623474],[133.41487884521484,-3.6176747840708146],[133.4146213531494,-3.61930231604687],[133.41487884521484,-3.6205015482633485],[133.41565132141113,-3.6219577566767214],[133.41814041137695,-3.625469779092242],[133.4208869934082,-3.62838217757961],[133.4231185913086,-3.632236808200716],[133.42483520507812,-3.6385754983098053],[133.42466354370117,-3.644742829669241],[133.42329025268555,-3.6515953704704742],[133.42080116271973,-3.656734741752956],[133.41702461242676,-3.6625593269218086],[133.41402053833008,-3.668555183828289],[133.41058731079102,-3.6747223089615346],[133.4099006652832,-3.678491086671471],[133.41015815734863,-3.679518932372474],[133.4080982208252,-3.6845724898157215],[133.40749740600586,-3.689112101690853],[133.4080982208252,-3.6906538513932645],[133.40972900390625,-3.6911677673661245],[133.41299057006836,-3.6906538513932645],[133.4172821044922,-3.6892834073454708],[133.42363357543945,-3.686371206727074],[133.4274959564209,-3.6844011832535273],[133.43178749084473,-3.6831163829859435],[133.43436241149902,-3.6812320059056276],[133.4365940093994,-3.6804611232234095],[133.44861030578613,-3.6732661860359457],[133.452730178833,-3.6700969691044776],[133.45839500427246,-3.665214639939194],[133.46440315246582,-3.6591331049382205],[133.47015380859375,-3.6527945597360656],[133.48234176635742,-3.635063526861501],[133.4842300415039,-3.6316372000737402],[133.48740577697754,-3.62838217757961],[133.4886932373047,-3.6261550501687054],[133.49281311035156,-3.623156985375772],[133.49573135375977,-3.621615119613736],[133.50972175598145,-3.6094514199454295],[133.5179615020752,-3.603883474871054],[133.52663040161133,-3.5996004170056324],[133.53229522705078,-3.597801526694596],[133.53744506835938,-3.594803368285554],[133.54860305786133,-3.589406658317074],[133.55512619018555,-3.585808833953749],[133.56019020080566,-3.5804977340222877],[133.5776138305664,-3.5732163372834123],[133.58190536499023,-3.5718457149608867],[133.582763671875,-3.570817746875818],[133.58267784118652,-3.569961105925742],[133.58868598937988,-3.547516828884085],[133.59134674072266,-3.5417771742002344],[133.59623908996582,-3.5333817943134704],[133.5974407196045,-3.5308117648685737],[133.5977840423584,-3.528584400262474],[133.59546661376953,-3.52387264985218],[133.59383583068848,-3.521730937230359],[133.59108924865723,-3.5190752067370568],[133.58945846557617,-3.516933483082923],[133.5889434814453,-3.5157341156872377],[133.58190536499023,-3.507938190040491],[133.5992431640625,-3.507938190040491],[133.5992431640625,-3.627525590763355],[133.59915733337402,-3.6271829558095163],[133.59838485717773,-3.6261550501687054],[133.5974407196045,-3.6256410969100443],[133.59718322753906,-3.625812414695403],[133.59726905822754,-3.6263263678566773],[133.5984706878662,-3.628896129279582],[133.59838485717773,-3.6304379826250397],[133.5992431640625,-3.6301810072502576],[133.5992431640625,-3.8697352734583603]]]}},{"type":"Feature","id":"pmtiles:10/891/522:water:2050:1","properties":{"class":"ocean","water":"ocean","kind":"waterway","verification":"verified","source":"OpenMapTiles/OpenStreetMap national PMTiles","sourceId":"10/891/522:water:2050:1","sourceLayer":"water","archive":"https://its.hanifahseptiani45.workers.dev/v1/map/archive/indonesia.pmtiles","updatedAt":"2026-07-26T09:43:46.764Z"},"geometry":{"type":"Polygon","coordinates":[[[133.3224391937256,-3.8697352734583603],[133.31703186035156,-3.8697352734583603],[133.3168601989746,-3.862970081440025],[133.31565856933594,-3.8604010070441603],[133.31548690795898,-3.855091561999444],[133.31377029418945,-3.847212969556182],[133.31050872802734,-3.8458427721249535],[133.3058738708496,-3.8443012973818895],[133.30089569091797,-3.843102370655018],[133.29797744750977,-3.841389615264717],[133.29437255859375,-3.8407045121459333],[133.29008102416992,-3.8388204757337974],[133.2868194580078,-3.8391630281179943],[133.28218460083008,-3.8408757879771827],[133.28269958496094,-3.8441300222383887],[133.28407287597656,-3.845671497291164],[133.28424453735352,-3.848925713246416],[133.28166961669922,-3.851666095985479],[133.27892303466797,-3.8525224637820656],[133.27686309814453,-3.8523511902916994],[133.2744598388672,-3.8506384534920954],[133.27205657958984,-3.8506384534920954],[133.26759338378906,-3.851837369613733],[133.2638168334961,-3.8523511902916994],[133.26313018798828,-3.8511522748938773],[133.26690673828125,-3.8499533578072658],[133.27497482299805,-3.8480693418317884],[133.27875137329102,-3.848925713246416],[133.28149795532227,-3.849096987426009],[133.28218460083008,-3.8485831647838893],[133.28235626220703,-3.84687042040494],[133.28012466430664,-3.845671497291164],[133.27978134155273,-3.8439587470604977],[133.28012466430664,-3.841389615264717],[133.2748031616211,-3.83984813247406],[133.2718849182129,-3.8377928177567497],[133.26948165893555,-3.831969399207537],[133.2699966430664,-3.826831055798138],[133.27136993408203,-3.824090593373583],[133.2773780822754,-3.8162117151205166],[133.27978134155273,-3.814498905931913],[133.2832145690918,-3.815355310953052],[133.2802963256836,-3.816725557211157],[133.27531814575195,-3.822035240805093],[133.27239990234375,-3.8295715094549934],[133.27274322509766,-3.8353949443356896],[133.27909469604492,-3.8362513284728976],[133.29179763793945,-3.835052390440538],[133.2964324951172,-3.8376215413070156],[133.30278396606445,-3.8384779232121957],[133.30759048461914,-3.839676856436597],[133.3132553100586,-3.8417321666178594],[133.31754684448242,-3.8458427721249535],[133.3194351196289,-3.848240616183574],[133.3197784423828,-3.8509810011277494],[133.31926345825195,-3.8571468349845333],[133.32029342651367,-3.8634838953859543],[133.32183837890625,-3.868793287932135],[133.3224391937256,-3.8697352734583603]]]}},{"type":"Feature","id":"pmtiles:10/891/522:water:105492783:0","properties":{"intermittent":0,"class":"river","id":10549278,"water":"river","kind":"waterway","verification":"verified","source":"OpenMapTiles/OpenStreetMap national PMTiles","sourceId":"10/891/522:water:105492783:0","sourceLayer":"water","archive":"https://its.hanifahseptiani45.workers.dev/v1/map/archive/indonesia.pmtiles","updatedAt":"2026-07-26T09:43:46.764Z"},"geometry":{"type":"Polygon","coordinates":[[[133.4080982208252,-3.6906538513932645],[133.4000301361084,-3.6957929977350403],[133.39848518371582,-3.692538208506477],[133.39831352233887,-3.690396893295329],[133.39771270751953,-3.687998614131061],[133.39797019958496,-3.684658143084448],[133.39659690856934,-3.6802898158700827],[133.39719772338867,-3.675321888298967],[133.39882850646973,-3.67043958769338],[133.39831352233887,-3.670011314436721],[133.39831352233887,-3.6692404220572854],[133.3992576599121,-3.665214639939194],[133.40131759643555,-3.660075317290378],[133.40286254882812,-3.658190891595183],[133.40526580810547,-3.6568203976915186],[133.40723991394043,-3.6561351499539825],[133.40895652770996,-3.656477773888213],[133.40998649597168,-3.6560494939499506],[133.41230392456055,-3.6519379961384004],[133.41230392456055,-3.644742829669241],[133.41161727905273,-3.6348065528037807],[133.41093063354492,-3.6301810072502576],[133.40929985046387,-3.623242644507741],[133.40835571289062,-3.6205872076466363],[133.40835571289062,-3.615704609873376],[133.4092140197754,-3.6136487713641117],[133.40869903564453,-3.6103936841980158],[133.4077548980713,-3.6062819784690134],[133.40492248535156,-3.599514755642801],[133.40286254882812,-3.5957456477051295],[133.4011459350586,-3.5937754259902306],[133.39942932128906,-3.5930901304831764],[133.39591026306152,-3.5934327783010502],[133.39316368103027,-3.5943750591366097],[133.39101791381836,-3.5957456477051295],[133.3835506439209,-3.5974588805183885],[133.37994575500488,-3.597287557381975],[133.37522506713867,-3.5960882945253587],[133.3717918395996,-3.5955743242467264],[133.36973190307617,-3.5955743242467264],[133.36792945861816,-3.594546382820326],[133.36535453796387,-3.5919765241865207],[133.3638095855713,-3.5897493075175504],[133.3608055114746,-3.58666546008682],[133.3528232574463,-3.5804977340222877],[133.35041999816895,-3.5777565090984353],[133.34707260131836,-3.5744156301361016],[133.34278106689453,-3.568761807253267],[133.34235191345215,-3.567134185122228],[133.34132194519043,-3.5649069080618148],[133.33969116210938,-3.5601953426641586],[133.3384895324707,-3.557796718290845],[133.33282470703125,-3.5564260729883728],[133.32853317260742,-3.5541987700258204],[133.3275032043457,-3.554027438805889],[133.32304000854492,-3.5560834113443036],[133.32037925720215,-3.55676873450507],[133.31591606140137,-3.556511738379484],[133.31488609313965,-3.556683069137833],[133.31445693969727,-3.557111395894381],[133.3142852783203,-3.5586533705696723],[133.31480026245117,-3.562593960789897],[133.31497192382812,-3.567219849516775],[133.31462860107422,-3.5691901283874756],[133.3129119873047,-3.567219849516775],[133.31342697143555,-3.5629366200118966],[133.31239700317383,-3.558139379297941],[133.3129119873047,-3.5564260729883728],[133.31514358520508,-3.5547127634946207],[133.32046508789062,-3.554798429044922],[133.32140922546387,-3.554541432370172],[133.32630157470703,-3.552142793287004],[133.32741737365723,-3.5518001300518733],[133.3297348022461,-3.551885795872579],[133.3315372467041,-3.552571122152017],[133.3326530456543,-3.553513444955229],[133.33402633666992,-3.5541987700258204],[133.33514213562012,-3.5535991106169007],[133.33548545837402,-3.5482878245600205],[133.33497047424316,-3.5470884976750767],[133.3337688446045,-3.54640316732781],[133.32758903503418,-3.5440045071121915],[133.32776069641113,-3.543490507685277],[133.33428382873535,-3.5453751708543564],[133.3359146118164,-3.5465744999622473],[133.3366870880127,-3.5482021584055587],[133.33694458007812,-3.5520571274901442],[133.33720207214355,-3.55299945081822],[133.33797454833984,-3.553513444955229],[133.3384895324707,-3.553342113608039],[133.339262008667,-3.5539417731840075],[133.34063529968262,-3.55299945081822],[133.34192276000977,-3.552571122152017],[133.3432102203369,-3.552571122152017],[133.34630012512207,-3.5536847762706145],[133.34595680236816,-3.5541987700258204],[133.3418369293213,-3.5530851165275976],[133.34115028381348,-3.553342113608039],[133.34012031555176,-3.554541432370172],[133.34054946899414,-3.555569418639422],[133.34415435791016,-3.5597670173413007],[133.3462142944336,-3.5635362733433595],[133.34784507751465,-3.5673911782819374],[133.35067749023438,-3.5719313789160196],[133.3549690246582,-3.576043239356494],[133.35891723632812,-3.5792984491275064],[133.36475372314453,-3.582810636168844],[133.3711051940918,-3.587950397781171],[133.37316513061523,-3.5892353336686256],[133.3743667602539,-3.5906059299562543],[133.37719917297363,-3.5925761585151292],[133.38003158569336,-3.5937754259902306],[133.38303565979004,-3.5941180735507317],[133.38483810424805,-3.5940324116726714],[133.3857822418213,-3.593604102161734],[133.3905029296875,-3.59000629433352],[133.39299201965332,-3.5889783466357272],[133.39505195617676,-3.58829304752787],[133.39788436889648,-3.5881217226705786],[133.40028762817383,-3.5883787099444646],[133.40209007263184,-3.5888926842753506],[133.40337753295898,-3.5896636452294644],[133.40646743774414,-3.592833144535348],[133.40852737426758,-3.5957456477051295],[133.40964317321777,-3.597801526694596],[133.41264724731445,-3.5998574010457816],[133.41341972351074,-3.6013993037637135],[133.41436386108398,-3.6019989318932204],[133.42174530029297,-3.599514755642801],[133.428955078125,-3.597801526694596],[133.43530654907227,-3.595916971131345],[133.43461990356445,-3.594546382820326],[133.4322166442871,-3.592661820529898],[133.42663764953613,-3.585551845957312],[133.42474937438965,-3.581782680380769],[133.42371940612793,-3.5783561527514394],[133.4234619140625,-3.5759575757853383],[133.4234619140625,-3.57098907496993],[133.42406272888184,-3.5690187999577603],[133.42535018920898,-3.5664488696783394],[133.430757522583,-3.5616516472715745],[133.43324661254883,-3.5601953426641586],[133.43582153320312,-3.559338691819235],[133.4391689300537,-3.559253026690911],[133.44079971313477,-3.558739035753746],[133.44131469726562,-3.558139379297941],[133.44165802001953,-3.557282726541274],[133.44268798828125,-3.557282726541274],[133.44243049621582,-3.558996031258175],[133.44491958618164,-3.5600240125589124],[133.44594955444336,-3.560966327743259],[133.44809532165527,-3.561565982358431],[133.44955444335938,-3.5601096776155288],[133.45324516296387,-3.554284435623842],[133.45985412597656,-3.5455465036793044],[133.46088409423828,-3.543319174479535],[133.4607982635498,-3.5426338413392386],[133.46036911010742,-3.5406635057343294],[133.4567642211914,-3.5330391241319745],[133.4502410888672,-3.526699702963711],[133.44972610473633,-3.526614034813875],[133.44938278198242,-3.5272993797915007],[133.44715118408203,-3.524386660147954],[133.44552040100098,-3.5248150018441464],[133.44526290893555,-3.5241296550355656],[133.44457626342773,-3.5240439866489908],[133.44380378723145,-3.52430099178504],[133.44380378723145,-3.5249006701597096],[133.44337463378906,-3.5244723285029664],[133.44277381896973,-3.524386660147954],[133.44045639038086,-3.5249006701597096],[133.43796730041504,-3.525157675059077],[133.43419075012207,-3.5231016338761094],[133.43341827392578,-3.5230159653948903],[133.43324661254883,-3.5222449487090586],[133.4322166442871,-3.52113125681322],[133.43178749084473,-3.5195892196815777],[133.43238830566406,-3.519246544416731],[133.4322166442871,-3.5185611935089582],[133.43067169189453,-3.5175331662021705],[133.42689514160156,-3.5170191521235807],[133.4242343902588,-3.5153914390051284],[133.42080116271973,-3.512478682125021],[133.4208869934082,-3.5113649785625682],[133.419771194458,-3.510850961085694],[133.42037200927734,-3.510422612972178],[133.42148780822754,-3.510679621863858],[133.42329025268555,-3.5133353762688984],[133.4260368347168,-3.5153057698149297],[133.4274959564209,-3.5159054539810484],[133.4311008453369,-3.516762144978003],[133.4322166442871,-3.5174474972087637],[133.4329891204834,-3.5185611935089582],[133.43530654907227,-3.5200175635853412],[133.4365940093994,-3.5197605572667214],[133.43607902526855,-3.520874250801924],[133.43728065490723,-3.52344430772213],[133.43976974487305,-3.52387264985218],[133.44234466552734,-3.5225876228705033],[133.4421730041504,-3.5219022744214783],[133.4410572052002,-3.522416285805562],[133.44122886657715,-3.5209599194802337],[133.4421730041504,-3.5194178820649],[133.44346046447754,-3.517875842097098],[133.44629287719727,-3.515648446528502],[133.44706535339355,-3.515648446528502],[133.449125289917,-3.516933483082923],[133.45075607299805,-3.5197605572667214],[133.45195770263672,-3.5197605572667214],[133.45255851745605,-3.520617244719702],[133.4553050994873,-3.5204459072921424],[133.4571075439453,-3.521559600007734],[133.45813751220703,-3.52164526862299],[133.45890998840332,-3.520874250801924],[133.463716506958,-3.5221592801489976],[133.4666347503662,-3.5207029134216583],[133.4670639038086,-3.5219022744214783],[133.46431732177734,-3.522930296905784],[133.4619140625,-3.5244723285029664],[133.46028327941895,-3.526442698490527],[133.45959663391113,-3.5282417283106184],[133.46002578735352,-3.529869418956295],[133.4626865386963,-3.5344098040986154],[133.4640598297119,-3.535180810689866],[133.4656047821045,-3.5355234800802293],[133.46637725830078,-3.5363801530021703],[133.4674072265625,-3.536551487491579],[133.4696388244629,-3.537836495152689],[133.4696388244629,-3.5386074988941516],[133.46929550170898,-3.5395498359290656],[133.46723556518555,-3.539892503704081],[133.46569061279297,-3.5398068367722146],[133.46474647521973,-3.5408348394316533],[133.46500396728516,-3.5438331740016196],[133.46431732177734,-3.5440045071121915],[133.46431732177734,-3.544432839749817],[133.46637725830078,-3.545460837270795],[133.46637725830078,-3.5460605019636517],[133.4648323059082,-3.5456321700798696],[133.46380233764648,-3.545803502857197],[133.46320152282715,-3.5461461683165965],[133.46208572387695,-3.5492301517347187],[133.46062660217285,-3.5512004690843497],[133.4596824645996,-3.5516287983866164],[133.4585666656494,-3.552913785100884],[133.45547676086426,-3.559253026690911],[133.45376014709473,-3.561565982358431],[133.45006942749023,-3.564221590957871],[133.4465503692627,-3.5650782372580068],[133.43290328979492,-3.5643929202817333],[133.43213081359863,-3.5649069080618148],[133.42947006225586,-3.5683334859193536],[133.4282684326172,-3.5721883707334285],[133.42723846435547,-3.5763002300219284],[133.42723846435547,-3.577842172501448],[133.42775344848633,-3.579127122585774],[133.42912673950195,-3.5809260496754973],[133.43058586120605,-3.582296658419125],[133.43564987182617,-3.585466183275784],[133.43796730041504,-3.587950397781171],[133.43899726867676,-3.59146255159132],[133.43899726867676,-3.5940324116726714],[133.43753814697266,-3.5989151258774115],[133.43496322631836,-3.601313642570119],[133.42732429504395,-3.6054253707673922],[133.42363357543945,-3.6080808520149645],[133.42140197753906,-3.6094514199454295],[133.41814041137695,-3.6126208503623474],[133.41487884521484,-3.6176747840708146],[133.4146213531494,-3.61930231604687],[133.41487884521484,-3.6205015482633485],[133.41565132141113,-3.6219577566767214],[133.41814041137695,-3.625469779092242],[133.4208869934082,-3.62838217757961],[133.4231185913086,-3.632236808200716],[133.42483520507812,-3.6385754983098053],[133.42466354370117,-3.644742829669241],[133.42329025268555,-3.6515953704704742],[133.42080116271973,-3.656734741752956],[133.41702461242676,-3.6625593269218086],[133.41402053833008,-3.668555183828289],[133.41058731079102,-3.6747223089615346],[133.4099006652832,-3.678491086671471],[133.41015815734863,-3.679518932372474],[133.4080982208252,-3.6845724898157215],[133.40749740600586,-3.689112101690853],[133.4080982208252,-3.6906538513932645]]]}},{"type":"Feature","id":"pmtiles:10/891/522:water:105492793:0","properties":{"intermittent":0,"class":"river","id":10549279,"water":"river","kind":"waterway","verification":"verified","source":"OpenMapTiles/OpenStreetMap national PMTiles","sourceId":"10/891/522:water:105492793:0","sourceLayer":"water","archive":"https://its.hanifahseptiani45.workers.dev/v1/map/archive/indonesia.pmtiles","updatedAt":"2026-07-26T09:43:46.764Z"},"geometry":{"type":"Polygon","coordinates":[[[133.31703186035156,-3.8697352734583603],[133.3168601989746,-3.862970081440025],[133.31565856933594,-3.8604010070441603],[133.31548690795898,-3.855091561999444],[133.31377029418945,-3.847212969556182],[133.31050872802734,-3.8458427721249535],[133.3058738708496,-3.8443012973818895],[133.30089569091797,-3.843102370655018],[133.29797744750977,-3.841389615264717],[133.29437255859375,-3.8407045121459333],[133.29008102416992,-3.8388204757337974],[133.2868194580078,-3.8391630281179943],[133.28218460083008,-3.8408757879771827],[133.28269958496094,-3.8441300222383887],[133.28407287597656,-3.845671497291164],[133.28424453735352,-3.848925713246416],[133.28166961669922,-3.851666095985479],[133.27892303466797,-3.8525224637820656],[133.27686309814453,-3.8523511902916994],[133.2744598388672,-3.8506384534920954],[133.27205657958984,-3.8506384534920954],[133.26759338378906,-3.851837369613733],[133.2638168334961,-3.8523511902916994],[133.26313018798828,-3.8511522748938773],[133.26690673828125,-3.8499533578072658],[133.27497482299805,-3.8480693418317884],[133.27875137329102,-3.848925713246416],[133.28149795532227,-3.849096987426009],[133.28218460083008,-3.8485831647838893],[133.28235626220703,-3.84687042040494],[133.28012466430664,-3.845671497291164],[133.27978134155273,-3.8439587470604977],[133.28012466430664,-3.841389615264717],[133.2748031616211,-3.83984813247406],[133.2718849182129,-3.8377928177567497],[133.26948165893555,-3.831969399207537],[133.2699966430664,-3.826831055798138],[133.27136993408203,-3.824090593373583],[133.2773780822754,-3.8162117151205166],[133.27978134155273,-3.814498905931913],[133.2832145690918,-3.815355310953052],[133.2802963256836,-3.816725557211157],[133.27531814575195,-3.822035240805093],[133.27239990234375,-3.8295715094549934],[133.27274322509766,-3.8353949443356896],[133.27909469604492,-3.8362513284728976],[133.29179763793945,-3.835052390440538],[133.2964324951172,-3.8376215413070156],[133.30278396606445,-3.8384779232121957],[133.30759048461914,-3.839676856436597],[133.3132553100586,-3.8417321666178594],[133.31754684448242,-3.8458427721249535],[133.3194351196289,-3.848240616183574],[133.3197784423828,-3.8509810011277494],[133.31926345825195,-3.8571468349845333],[133.32029342651367,-3.8634838953859543],[133.32183837890625,-3.868793287932135],[133.3224391937256,-3.8697352734583603],[133.31703186035156,-3.8697352734583603]]]}},{"type":"Feature","id":"pmtiles:10/892/523:transportation:10294359120:0","properties":{"class":"ferry","highway":"ferry","kind":"road","verification":"verified","source":"OpenMapTiles/OpenStreetMap national PMTiles","sourceId":"10/892/523:transportation:10294359120:0","sourceLayer":"transportation","archive":"https://its.hanifahseptiani45.workers.dev/v1/map/archive/indonesia.pmtiles","updatedAt":"2026-07-26T09:43:56.561Z"},"geometry":{"type":"LineString","coordinates":[[133.5882568359375,-3.859287739058317],[133.58868598937988,-3.8587739225726523]]}},{"type":"Feature","id":"pmtiles:8/222/130:water:105492783:0","properties":{"intermittent":0,"class":"river","id":10549278,"water":"river","kind":"waterway","verification":"verified","source":"OpenMapTiles/OpenStreetMap national PMTiles","sourceId":"8/222/130:water:105492783:0","sourceLayer":"water","archive":"https://its.hanifahseptiani45.workers.dev/v1/map/archive/indonesia.pmtiles","updatedAt":"2026-07-26T09:35:38.911Z"},"geometry":{"type":"Polygon","coordinates":[[[133.40801239013672,-3.6905681987022234],[133.40011596679688,-3.695707345539887],[133.39839935302734,-3.692623861007519],[133.39805603027344,-3.6847437963449323],[133.3966827392578,-3.6802898158700827],[133.39874267578125,-3.670353933058479],[133.39839935302734,-3.669326076798967],[133.4014892578125,-3.660075317290378],[133.40526580810547,-3.6569917095440587],[133.41007232666016,-3.6559638379377617],[133.4124755859375,-3.6518523397336793],[133.41144561767578,-3.6347208947682788],[133.40835571289062,-3.6206728670217956],[133.40835571289062,-3.6155332901756054],[133.40904235839844,-3.6138200914178498],[133.40869903564453,-3.6103936841980158],[133.4076690673828,-3.6062819784690134],[133.40286254882812,-3.5956599859799496],[133.39942932128906,-3.5929188065260007],[133.39599609375,-3.593604102161734],[133.3908462524414,-3.5956599859799496],[133.38363647460938,-3.5973732189542034],[133.36956024169922,-3.5956599859799496],[133.3469009399414,-3.5744156301361016],[133.34278106689453,-3.5685904787436726],[133.33831787109375,-3.557625387739492],[133.33282470703125,-3.5565974037626376],[133.32733154296875,-3.5538561075541537],[133.32046508789062,-3.556940065215656],[133.31497192382812,-3.5565974037626376],[133.3142852783203,-3.5586533705696723],[133.31462860107422,-3.5692757925903464],[133.3129119873047,-3.567219849516775],[133.3132553100586,-3.5627652904168485],[133.31222534179688,-3.5583107097537123],[133.3129119873047,-3.5562547421822615],[133.31497192382812,-3.554541432370172],[133.32046508789062,-3.5548840945872513],[133.32733154296875,-3.5518001300518733],[133.3297348022461,-3.5518001300518733],[133.33385467529297,-3.5541987700258204],[133.3352279663086,-3.553513444955229],[133.3348846435547,-3.5470028314094435],[133.32767486572266,-3.5439188405608917],[133.32767486572266,-3.543576174276268],[133.33419799804688,-3.545289504429988],[133.33660125732422,-3.5480308260728464],[133.33728790283203,-3.55282811937559],[133.33934783935547,-3.5538561075541537],[133.34312438964844,-3.552485456394919],[133.3462142944336,-3.5538561075541537],[133.3458709716797,-3.5541987700258204],[133.3417510986328,-3.5531707822290457],[133.34003448486328,-3.554541432370172],[133.34415435791016,-3.5596813522528095],[133.35067749023438,-3.572017042863152],[133.35891723632812,-3.5792127858606335],[133.36475372314453,-3.5826393102843497],[133.37711334228516,-3.5925761585151292],[133.3798599243164,-3.593604102161734],[133.3846664428711,-3.593946749786568],[133.39290618896484,-3.588807021906959],[133.40045928955078,-3.588464372353016],[133.40320587158203,-3.5894923206292333],[133.40972900390625,-3.5977158651626127],[133.41419219970703,-3.602170254143388],[133.43547821044922,-3.5960026328323806],[133.42655181884766,-3.5853805205862272],[133.42483520507812,-3.581954006425619],[133.4234619140625,-3.576128902919649],[133.4241485595703,-3.5689331357309015],[133.42552185058594,-3.5665345341367782],[133.43067169189453,-3.5617373121767457],[133.43582153320312,-3.559338691819235],[133.4406280517578,-3.5586533705696723],[133.44165802001953,-3.557282726541274],[133.44268798828125,-3.557282726541274],[133.44234466552734,-3.558996031258175],[133.44818115234375,-3.5617373121767457],[133.45985412597656,-3.5456321700798696],[133.46088409423828,-3.5425481746610217],[133.4567642211914,-3.532953456566844],[133.4502410888672,-3.5267853711056603],[133.44921112060547,-3.527470715956966],[133.44715118408203,-3.524386660147954],[133.43788146972656,-3.525072006767175],[133.43341827392578,-3.5230159653948903],[133.43204498291016,-3.5213025941146867],[133.43204498291016,-3.5185611935089582],[133.4241485595703,-3.51547710818744],[133.42071533203125,-3.5123930126673883],[133.42105865478516,-3.5113649785625682],[133.41968536376953,-3.510679621863858],[133.42037200927734,-3.510336943325882],[133.42140197753906,-3.510679621863858],[133.42586517333984,-3.515134431410914],[133.43101501464844,-3.516847814034392],[133.43547821044922,-3.5199318948203455],[133.43650817871094,-3.5195892196815777],[133.43616485595703,-3.5209599194802337],[133.43719482421875,-3.5233586392724447],[133.43994140625,-3.523701313023821],[133.44234466552734,-3.5226732913911576],[133.44234466552734,-3.5219879430052003],[133.44097137451172,-3.5223306172612467],[133.44131469726562,-3.5209599194802337],[133.4461212158203,-3.51547710818744],[133.44921112060547,-3.516847814034392],[133.4505844116211,-3.5199318948203455],[133.45195770263672,-3.5195892196815777],[133.45264434814453,-3.520617244719702],[133.45539093017578,-3.520274569833063],[133.45813751220703,-3.52164526862299],[133.45882415771484,-3.5209599194802337],[133.46363067626953,-3.5223306172612467],[133.4667205810547,-3.520617244719702],[133.4670639038086,-3.5219879430052003],[133.4619140625,-3.524386660147954],[133.45951080322266,-3.528156060302905],[133.4626007080078,-3.534324136660018],[133.46946716308594,-3.5377508280307097],[133.46981048583984,-3.538778832971772],[133.46946716308594,-3.5394641689654947],[133.46569061279297,-3.5398068367722146],[133.46466064453125,-3.5408348394316533],[133.46500396728516,-3.5439188405608917],[133.46431732177734,-3.54426150671857],[133.46637725830078,-3.545974835602763],[133.46328735351562,-3.5463175009986685],[133.4619140625,-3.549401483845031],[133.45848083496094,-3.55282811937559],[133.45367431640625,-3.561394652508227],[133.4502410888672,-3.5641359262839813],[133.44646453857422,-3.565163901844116],[133.43273162841797,-3.564478584931692],[133.4296417236328,-3.568247821628617],[133.42723846435547,-3.577842172501448],[133.43067169189453,-3.582296658419125],[133.43788146972656,-3.5881217226705786],[133.43891143798828,-3.593946749786568],[133.43753814697266,-3.5990864487077943],[133.4347915649414,-3.6014849649492504],[133.42140197753906,-3.6093657595103537],[133.4183120727539,-3.6127921706101773],[133.41487884521484,-3.6175891244121487],[133.41556549072266,-3.622043415922221],[133.4231185913086,-3.632322466472047],[133.42483520507812,-3.638489840632417],[133.42483520507812,-3.644657172578661],[133.4234619140625,-3.651509714033068],[133.41041564941406,-3.6748079631772725],[133.41007232666016,-3.6796045861273683],[133.40801239013672,-3.6847437963449323],[133.4073257446289,-3.689197754522297],[133.40801239013672,-3.6905681987022234]]]}},{"type":"Feature","id":"pmtiles:8/222/130:water:105492793:0","properties":{"intermittent":0,"class":"river","id":10549279,"water":"river","kind":"waterway","verification":"verified","source":"OpenMapTiles/OpenStreetMap national PMTiles","sourceId":"8/222/130:water:105492793:0","sourceLayer":"water","archive":"https://its.hanifahseptiani45.workers.dev/v1/map/archive/indonesia.pmtiles","updatedAt":"2026-07-26T09:35:38.911Z"},"geometry":{"type":"Polygon","coordinates":[[[133.34999084472656,-3.899535727961762],[133.34518432617188,-3.9043311049239264],[133.3403778076172,-3.900563311043612],[133.3304214477539,-3.8882322312217354],[133.32698822021484,-3.8875471659375336],[133.32561492919922,-3.8834367625466086],[133.32115173339844,-3.880011411095552],[133.31703186035156,-3.872475589031822],[133.31703186035156,-3.8628844457521296],[133.31565856933594,-3.8604866429826217],[133.31565856933594,-3.8550059255172187],[133.3139419555664,-3.847127332281275],[133.29025268554688,-3.8389061138427394],[133.28235626220703,-3.840961425879925],[133.28269958496094,-3.844044384653742],[133.28407287597656,-3.8457571347123576],[133.28441619873047,-3.848840076143702],[133.28166961669922,-3.851580459158427],[133.27686309814453,-3.8522655535335844],[133.2744598388672,-3.850552816561631],[133.27205657958984,-3.850552816561631],[133.2638168334961,-3.8522655535335844],[133.26313018798828,-3.8512379117640165],[133.275146484375,-3.848154979011994],[133.27892303466797,-3.848840076143702],[133.28235626220703,-3.848497527646714],[133.28235626220703,-3.8467847830956003],[133.2802963256836,-3.8457571347123576],[133.2802963256836,-3.841303977404948],[133.2748031616211,-3.8399337704799166],[133.27205657958984,-3.837878455968749],[133.2696533203125,-3.8320550380029914],[133.2699966430664,-3.82691669510767],[133.27754974365234,-3.816297355490292],[133.2799530029297,-3.8145845464724317],[133.28338623046875,-3.815269670489343],[133.2802963256836,-3.816639916884057],[133.2754898071289,-3.8221208805938147],[133.27239990234375,-3.8296571484904263],[133.27274322509766,-3.835480582788037],[133.27926635742188,-3.8361656900977863],[133.2919692993164,-3.8351380289272043],[133.2964324951172,-3.8375359030692806],[133.3029556274414,-3.8385635613554854],[133.3132553100586,-3.8416465287924666],[133.3194351196289,-3.848154979011994],[133.3194351196289,-3.857061198709374],[133.32046508789062,-3.8635695310133684],[133.32183837890625,-3.868707652832356],[133.32630157470703,-3.876243508458302],[133.3362579345703,-3.8868621000967067],[133.34999084472656,-3.899535727961762]]]}}]}