{"type":"FeatureCollection","features":[{"type":"Feature","id":"pmtiles:10/857/544:water:1980:0","properties":{"class":"ocean","water":"ocean","kind":"waterway","verification":"verified","source":"OpenMapTiles/OpenStreetMap national PMTiles","sourceId":"10/857/544:water:1980:0","sourceLayer":"water","archive":"https://its.hanifahseptiani45.workers.dev/v1/map/archive/indonesia.pmtiles","updatedAt":"2026-07-26T09:47:40.491Z"},"geometry":{"type":"Polygon","coordinates":[[[121.2835693359375,-11.173012874215061],[121.6461181640625,-11.173012874215061],[121.6461181640625,-11.52846990075463],[121.2835693359375,-11.52846990075463],[121.2835693359375,-11.173012874215061]]]}}]}