{"type":"FeatureCollection","features":[{"type":"Feature","id":"pmtiles:12/3403/1989:water:2310:0","properties":{"class":"ocean","water":"ocean","kind":"waterway","verification":"verified","source":"OpenMapTiles/OpenStreetMap national PMTiles","sourceId":"12/3403/1989:water:2310:0","sourceLayer":"water","archive":"https://its.hanifahseptiani45.workers.dev/v1/map/archive/indonesia.pmtiles","updatedAt":"2026-07-26T10:43:21.843Z"},"geometry":{"type":"Polygon","coordinates":[[[119.18106079101562,5.089576300054759],[119.12046432495117,5.089576300054759],[119.12222385406494,5.09051671441506],[119.1248631477356,5.091777722421952],[119.12589311599731,5.09214106325318],[119.12855386734009,5.093487559837314],[119.13370370864868,5.095624850210655],[119.13561344146729,5.096714865563811],[119.13863897323608,5.0981040981370285],[119.13992643356323,5.098638417557368],[119.14110660552979,5.098980381753066],[119.14503335952759,5.0995788186573066],[119.14604187011719,5.099899409626559],[119.14700746536255,5.100091764131264],[119.14720058441162,5.100049018690768],[119.14786577224731,5.099728427796208],[119.14801597595215,5.099685682331511],[119.14823055267334,5.099728427796208],[119.15071964263916,5.101374126023018],[119.15215730667114,5.102079423971375],[119.15280103683472,5.102335895760419],[119.15546178817749,5.1031053105124755],[119.15668487548828,5.1032976640563135],[119.15747880935669,5.103532762753815],[119.15966749191284,5.104537274399831],[119.16116952896118,5.105135706122084],[119.16430234909058,5.106546292972155],[119.16550397872925,5.107208840270033],[119.16659832000732,5.10774315210827],[119.17052507400513,5.110158236060258],[119.17153358459473,5.110927641425121],[119.17548179626465,5.114368581886055],[119.17831420898438,5.116655407863433],[119.17964458465576,5.117894992360945],[119.18106079101562,5.118643016326757],[119.18106079101562,5.089576300054759]]]}},{"type":"Feature","id":"pmtiles:12/3400/1990:water:2310:0","properties":{"class":"ocean","water":"ocean","kind":"waterway","verification":"verified","source":"OpenMapTiles/OpenStreetMap national PMTiles","sourceId":"12/3400/1990:water:2310:0","sourceLayer":"water","archive":"https://its.hanifahseptiani45.workers.dev/v1/map/archive/indonesia.pmtiles","updatedAt":"2026-07-26T10:43:57.115Z"},"geometry":{"type":"Polygon","coordinates":[[[118.91738891601562,5.002026285456836],[118.87031078338623,5.002026285456836],[118.87099742889404,5.002667563734107],[118.87282133102417,5.004676898267391],[118.87578248977661,5.007733640030864],[118.87649059295654,5.008439039947319],[118.87805700302124,5.00984983749683],[118.87887239456177,5.010854494501487],[118.88000965118408,5.011880525592858],[118.88061046600342,5.0123080380720495],[118.88097524642944,5.012970681861887],[118.8817048072815,5.013825705113533],[118.88191938400269,5.013953958504729],[118.88228416442871,5.01391120737712],[118.88273477554321,5.0141463385443075],[118.88442993164062,5.015279242072154],[118.88561010360718,5.0162625152386795],[118.88797044754028,5.018506937569327],[118.88988018035889,5.020067340925891],[118.89200448989868,5.021670491171577],[118.89350652694702,5.022632379427151],[118.8956093788147,5.023743892977137],[118.89621019363403,5.024256898591688],[118.89681100845337,5.0244279003734675],[118.9002013206482,5.025817288186957],[118.90151023864746,5.0262447915335144],[118.90410661697388,5.027249423293597],[118.90496492385864,5.027570050124908],[118.90685319900513,5.028104427826307],[118.9079475402832,5.0285105545860915],[118.91172409057617,5.030028183920194],[118.9150071144104,5.0312465598393175],[118.91732454299927,5.032358058688246],[118.91738891601562,5.032400808606056],[118.91738891601562,5.002026285456836]]]}},{"type":"Feature","id":"pmtiles:12/3401/1990:water:2310:0","properties":{"class":"ocean","water":"ocean","kind":"waterway","verification":"verified","source":"OpenMapTiles/OpenStreetMap national PMTiles","sourceId":"12/3401/1990:water:2310:0","sourceLayer":"water","archive":"https://its.hanifahseptiani45.workers.dev/v1/map/archive/indonesia.pmtiles","updatedAt":"2026-07-26T10:43:57.198Z"},"geometry":{"type":"Polygon","coordinates":[[[119.00527954101562,5.002026285456836],[118.91464233398438,5.002026285456836],[118.91464233398438,5.031096934849273],[118.9150071144104,5.0312465598393175],[118.91732454299927,5.032358058688246],[118.91966342926025,5.03376880449288],[118.92138004302979,5.034623800461247],[118.92202377319336,5.0350299231524644],[118.92290353775024,5.035350546150596],[118.92380475997925,5.035970416832043],[118.92500638961792,5.036526162457818],[118.92779588699341,5.0380010235458315],[118.92837524414062,5.038065147865055],[118.92919063568115,5.03785140010973],[118.9295768737793,5.037872774888427],[118.93301010131836,5.0385353926793215],[118.93522024154663,5.039005637153323],[118.93770933151245,5.039433131834372],[118.94489765167236,5.040886611645945],[118.94609928131104,5.041271355757573],[118.94727945327759,5.041827096849801],[118.94828796386719,5.042083592578123],[118.95232200622559,5.043408818893738],[118.9530086517334,5.0435584410497825],[118.95423173904419,5.043708063171323],[118.95687103271484,5.04445617326175],[118.95796537399292,5.04488366435487],[118.95882368087769,5.04528978063253],[118.96036863327026,5.045760020215496],[118.96161317825317,5.0462516339606225],[118.96182775497437,5.0463798809633005],[118.96219253540039,5.046743247333254],[118.96238565444946,5.046850119756286],[118.96270751953125,5.046850119756286],[118.96328687667847,5.046657749382177],[118.96408081054688,5.046679123871002],[118.96515369415283,5.046785996304578],[118.96753549575806,5.047170736919725],[118.96895170211792,5.047491353924713],[118.96970272064209,5.047940217465467],[118.97000312805176,5.048025715247533],[118.9733076095581,5.048538701703279],[118.97506713867188,5.049094436572474],[118.97568941116333,5.0491799342023995],[118.97723436355591,5.049650170965435],[118.97774934768677,5.049863914835896],[118.97950887680054,5.050270027995651],[118.98083925247192,5.0508257613809775],[118.98178339004517,5.051146376578885],[118.9839506149292,5.0515952375895665],[118.98538827896118,5.051766232178522],[118.98611783981323,5.05180898081872],[118.98680448532104,5.051979975351301],[118.98766279220581,5.0523860871853685],[118.98935794830322,5.0528135730515515],[118.9905595779419,5.05339067852357],[118.9915680885315,5.053689918195587],[118.99184703826904,5.0538609122318405],[118.99238348007202,5.054053280468665],[118.99461507797241,5.055079243433667],[118.9948296546936,5.055186114482424],[118.99510860443115,5.055485353325068],[118.99592399597168,5.055634972694563],[118.99648189544678,5.055592224306807],[118.99688959121704,5.055485353325068],[118.99703979492188,5.055506727522825],[118.99710416793823,5.05561359850104],[118.99714708328247,5.055976959695002],[118.99738311767578,5.05621207565305],[118.99755477905273,5.056318946514864],[118.99892807006836,5.05606245641691],[119.00176048278809,5.055848714591008],[119.00527954101562,5.055934211329827],[119.00527954101562,5.002026285456836]]]}},{"type":"Feature","id":"pmtiles:12/3402/1990:water:2310:0","properties":{"class":"ocean","water":"ocean","kind":"waterway","verification":"verified","source":"OpenMapTiles/OpenStreetMap national PMTiles","sourceId":"12/3402/1990:water:2310:0","sourceLayer":"water","archive":"https://its.hanifahseptiani45.workers.dev/v1/map/archive/indonesia.pmtiles","updatedAt":"2026-07-26T10:43:57.275Z"},"geometry":{"type":"Polygon","coordinates":[[[119.09317016601562,5.002026285456836],[119.00253295898438,5.002026285456836],[119.00253295898438,5.055870088776757],[119.00609493255615,5.055955585512763],[119.0077257156372,5.056169327303394],[119.00980710983276,5.056383069023468],[119.01094436645508,5.056340320685095],[119.01255369186401,5.056489939857059],[119.01304721832275,5.056596810673],[119.01519298553467,5.0572166610576375],[119.0163516998291,5.057387654162767],[119.01744604110718,5.05785788496901],[119.01931285858154,5.058477734146237],[119.02023553848267,5.059054834570787],[119.02143716812134,5.059696056661181],[119.02268171310425,5.060166285790345],[119.02469873428345,5.060572392490528],[119.02512788772583,5.0607220106842306],[119.02652263641357,5.060786132756661],[119.02690887451172,5.060700636658694],[119.02781009674072,5.061192239067779],[119.02826070785522,5.061341857118137],[119.02961254119873,5.061662467109542],[119.03351783752441,5.062431930440539],[119.03431177139282,5.0629876533880775],[119.03448343276978,5.0631800189125045],[119.03469800949097,5.063992228273619],[119.03476238250732,5.064120471763701],[119.03491258621216,5.064184593499206],[119.03510570526123,5.064120471763701],[119.03536319732666,5.0636929933645405],[119.03562068939209,5.063393758316963],[119.0363073348999,5.062773913849384],[119.036865234375,5.062175442765252],[119.03740167617798,5.0617052150963815],[119.03896808624268,5.0609357509009385],[119.0392255783081,5.060871628843344],[119.03995513916016,5.0608288808014095],[119.04233694076538,5.061234987085697],[119.04358148574829,5.0617265890887495],[119.04626369476318,5.063137271023123],[119.04701471328735,5.063586123720583],[119.0485167503357,5.064270089136656],[119.04928922653198,5.064868558282157],[119.05046939849854,5.065595270071142],[119.05158519744873,5.066450224070962],[119.0527868270874,5.0671769340815445],[119.05598402023315,5.068523482823167],[119.0581727027893,5.069314311728249],[119.05993223190308,5.069784533861451],[119.06435251235962,5.070682229710457],[119.07257080078125,5.0721142657432665],[119.07355785369873,5.07243487039004],[119.07428741455078,5.072862343004715],[119.07681941986084,5.073631792997659],[119.07754898071289,5.073802781760392],[119.08113241195679,5.074914207613759],[119.08402919769287,5.075640908098109],[119.0874195098877,5.07632486074732],[119.0897798538208,5.076581342803792],[119.09259080886841,5.077521776138198],[119.09317016601562,5.077778257718663],[119.09317016601562,5.002026285456836]]]}},{"type":"Feature","id":"pmtiles:12/3403/1990:water:2310:0","properties":{"class":"ocean","water":"ocean","kind":"waterway","verification":"verified","source":"OpenMapTiles/OpenStreetMap national PMTiles","sourceId":"12/3403/1990:water:2310:0","sourceLayer":"water","archive":"https://its.hanifahseptiani45.workers.dev/v1/map/archive/indonesia.pmtiles","updatedAt":"2026-07-26T10:43:57.352Z"},"geometry":{"type":"Polygon","coordinates":[[[119.09042358398438,5.002026285456836],[119.09042358398438,5.076795077772928],[119.09259080886841,5.077521776138198],[119.0949296951294,5.078569075282829],[119.09660339355469,5.079402638692244],[119.10207509994507,5.082672761656795],[119.10325527191162,5.0832284671773635],[119.10499334335327,5.083805545479748],[119.10559415817261,5.08431850353665],[119.10688161849976,5.0849810737554435],[119.10874843597412,5.085750509282917],[119.11110877990723,5.086306212147534],[119.11179542541504,5.086584063399954],[119.11280393600464,5.086669556068884],[119.11460638046265,5.087203884992363],[119.11514282226562,5.087289377578969],[119.1158938407898,5.087652720945286],[119.11651611328125,5.087759586602232],[119.11722421646118,5.087973317862861],[119.119713306427,5.089170211610536],[119.12222385406494,5.09051671441506],[119.1248631477356,5.091777722421952],[119.12589311599731,5.09214106325318],[119.12623643875122,5.092312047102723],[119.18106079101562,5.092312047102723],[119.18106079101562,5.002026285456836],[119.09042358398438,5.002026285456836]]]}},{"type":"Feature","id":"pmtiles:12/3400/1991:water:2310:0","properties":{"class":"ocean","water":"ocean","kind":"waterway","verification":"verified","source":"OpenMapTiles/OpenStreetMap national PMTiles","sourceId":"12/3400/1991:water:2310:0","sourceLayer":"water","archive":"https://its.hanifahseptiani45.workers.dev/v1/map/archive/indonesia.pmtiles","updatedAt":"2026-07-26T10:44:31.446Z"},"geometry":{"type":"Polygon","coordinates":[[[118.82675170898438,4.914464560331368],[118.82675170898438,4.991530608431788],[118.82836103439331,4.9920863918770095],[118.82928371429443,4.992471164755514],[118.83035659790039,4.992727679882449],[118.8337254524231,4.9932834623133004],[118.83501291275024,4.99371098693959],[118.83700847625732,4.994544659159075],[118.83726596832275,4.994544659159075],[118.83805990219116,4.9942453923304555],[118.83964776992798,4.994224016123184],[118.84288787841797,4.994459154364847],[118.8449478149414,4.994480530564445],[118.84715795516968,4.9946087877474525],[118.85185718536377,4.994694292522169],[118.85220050811768,4.994801173474897],[118.85303735733032,4.9956989727898105],[118.85342359542847,4.995955486653912],[118.85365962982178,4.9960196151042595],[118.85432481765747,4.996105119694974],[118.85647058486938,4.996040991252997],[118.85724306106567,4.996190624274504],[118.85741472244263,4.996147871986125],[118.85777950286865,4.9958699820437005],[118.85838031768799,4.995143192406516],[118.85900259017944,4.994630163942176],[118.8596248626709,4.9937751156094805],[118.86054754257202,4.993368967260864],[118.86099815368652,4.99321933359532],[118.86121273040771,4.99321933359532],[118.8615345954895,4.993304838551239],[118.86213541030884,4.993604105809155],[118.86284351348877,4.993454472197257],[118.86402368545532,4.9937751156094805],[118.86425971984863,4.993924749148206],[118.86430263519287,4.994010254012139],[118.86447429656982,4.9946729163295345],[118.86440992355347,4.995057687690348],[118.86406660079956,4.995656220469371],[118.86406660079956,4.995934110502418],[118.86481761932373,4.996853284387711],[118.86543989181519,4.9974945677302],[118.87099742889404,5.002667563734107],[118.87282133102417,5.004676898267391],[118.87290716171265,5.004762401727689],[118.91738891601562,5.004762401727689],[118.91738891601562,4.914464560331368],[118.82675170898438,4.914464560331368]]]}},{"type":"Feature","id":"pmtiles:12/3401/1991:water:2310:0","properties":{"class":"ocean","water":"ocean","kind":"waterway","verification":"verified","source":"OpenMapTiles/OpenStreetMap national PMTiles","sourceId":"12/3401/1991:water:2310:0","sourceLayer":"water","archive":"https://its.hanifahseptiani45.workers.dev/v1/map/archive/indonesia.pmtiles","updatedAt":"2026-07-26T10:44:31.526Z"},"geometry":{"type":"Polygon","coordinates":[[[118.91464233398438,5.004762401727689],[119.00527954101562,5.004762401727689],[119.00527954101562,4.914464560331368],[118.91464233398438,4.914464560331368],[118.91464233398438,5.004762401727689]]]}},{"type":"Feature","id":"pmtiles:12/3402/1991:water:2310:0","properties":{"class":"ocean","water":"ocean","kind":"waterway","verification":"verified","source":"OpenMapTiles/OpenStreetMap national PMTiles","sourceId":"12/3402/1991:water:2310:0","sourceLayer":"water","archive":"https://its.hanifahseptiani45.workers.dev/v1/map/archive/indonesia.pmtiles","updatedAt":"2026-07-26T10:44:31.601Z"},"geometry":{"type":"Polygon","coordinates":[[[119.00253295898438,5.004762401727689],[119.09317016601562,5.004762401727689],[119.09317016601562,4.914464560331368],[119.00253295898438,4.914464560331368],[119.00253295898438,5.004762401727689]]]}},{"type":"Feature","id":"pmtiles:12/3403/1991:water:2310:0","properties":{"class":"ocean","water":"ocean","kind":"waterway","verification":"verified","source":"OpenMapTiles/OpenStreetMap national PMTiles","sourceId":"12/3403/1991:water:2310:0","sourceLayer":"water","archive":"https://its.hanifahseptiani45.workers.dev/v1/map/archive/indonesia.pmtiles","updatedAt":"2026-07-26T10:44:31.683Z"},"geometry":{"type":"Polygon","coordinates":[[[119.09042358398438,5.004762401727689],[119.18106079101562,5.004762401727689],[119.18106079101562,4.914464560331368],[119.09042358398438,4.914464560331368],[119.09042358398438,5.004762401727689]]]}},{"type":"Feature","id":"pmtiles:10/850/497:water:2310:0","properties":{"class":"ocean","water":"ocean","kind":"waterway","verification":"verified","source":"OpenMapTiles/OpenStreetMap national PMTiles","sourceId":"10/850/497:water:2310:0","sourceLayer":"water","archive":"https://its.hanifahseptiani45.workers.dev/v1/map/archive/indonesia.pmtiles","updatedAt":"2026-07-26T09:38:32.714Z"},"geometry":{"type":"Polygon","coordinates":[[[119.1851806640625,4.910359820532264],[118.8226318359375,4.910359820532264],[118.8226318359375,4.989970137011127],[118.82280349731445,4.989970137011127],[118.8292407989502,4.992449788490418],[118.83370399475098,4.993304838551239],[118.83705139160156,4.994587411552018],[118.83808135986328,4.9942453923304555],[118.83962631225586,4.9942453923304555],[118.85181427001953,4.9946729163295345],[118.85361671447754,4.996040991252997],[118.85722160339355,4.996212000417643],[118.85782241821289,4.9958699820437005],[118.8596248626709,4.993817868052602],[118.86056900024414,4.993390343496003],[118.86116981506348,4.99321933359532],[118.86211395263672,4.993646858263418],[118.86288642883301,4.993475848429625],[118.8640022277832,4.993817868052602],[118.86425971984863,4.993988877797193],[118.86443138122559,4.9946729163295345],[118.86408805847168,4.995955486653912],[118.86477470397949,4.996896036630062],[118.8709545135498,5.0026248118685],[118.87885093688965,5.010833118836615],[118.88056755065918,5.012286662454727],[118.88168334960938,5.013825705113533],[118.8827133178711,5.014167714100765],[118.88442993164062,5.015279242072154],[118.88794898986816,5.01852831298298],[118.89198303222656,5.021691866481575],[118.89618873596191,5.024256898591688],[118.91498565673828,5.0312679348350855],[118.92777442932129,5.038022398319612],[118.9295768737793,5.03785140010973],[118.94485473632812,5.040929361002938],[118.95232200622559,5.043408818893738],[118.95421028137207,5.043665313997252],[118.95687103271484,5.044434798699697],[118.96159172058105,5.046230259457715],[118.96236419677734,5.046828745273089],[118.96408081054688,5.046657749382177],[118.96751403808594,5.047170736919725],[118.96897315979004,5.047512728386067],[118.97000312805176,5.048025715247533],[118.97326469421387,5.048538701703279],[118.97566795349121,5.049222683013113],[118.97953033447266,5.050248653625161],[118.98176193237305,5.051189125259967],[118.98682594299316,5.0519586010371995],[118.99154663085938,5.053668543937874],[118.99463653564453,5.055036495009247],[118.99515151977539,5.055463979126614],[118.99703979492188,5.055463979126614],[118.99712562561035,5.055976959695002],[118.99755477905273,5.056318946514864],[119.00176048278809,5.055891462961824],[119.00605201721191,5.055976959695002],[119.01257514953613,5.056489939857059],[119.0163516998291,5.057430402432004],[119.01935577392578,5.058456360046563],[119.02270317077637,5.060166285790345],[119.02510643005371,5.060679262632419],[119.02690887451172,5.060679262632419],[119.02828216552734,5.061363231122513],[119.03351783752441,5.062474678376546],[119.03446197509766,5.063158644968169],[119.03489112854004,5.064184593499206],[119.03738021850586,5.0617052150963815],[119.03901100158691,5.0609357509009385],[119.03995513916016,5.060850254822739],[119.0423583984375,5.061192239067779],[119.04853820800781,5.064270089136656],[119.05274391174316,5.0671769340815445],[119.05815124511719,5.069314311728249],[119.0643310546875,5.070682229710457],[119.07257080078125,5.072135639391348],[119.07428741455078,5.072819595756002],[119.0811538696289,5.074871460500958],[119.0874195098877,5.07632486074732],[119.08982276916504,5.076581342803792],[119.09256935119629,5.077521776138198],[119.09660339355469,5.079402638692244],[119.10209655761719,5.082651388357959],[119.10501480102539,5.083762798956556],[119.10690307617188,5.0849597005332186],[119.10870552062988,5.085729136086243],[119.11720275878906,5.087951944740013],[119.12484169006348,5.091799095417699],[119.13368225097656,5.095646223078475],[119.13557052612305,5.096672119898528],[119.13994789123535,5.098638417557368],[119.14698600769043,5.100091764131264],[119.1481876373291,5.099749800527491],[119.15067672729492,5.101374126023018],[119.15213584899902,5.10205805131767],[119.15745735168457,5.103511390148512],[119.1643238067627,5.10650354796168],[119.17050361633301,5.110179608443985],[119.17960166931152,5.117873620234775],[119.18148994445801,5.1188139931104075],[119.1851806640625,5.121207663281879],[119.1851806640625,4.910359820532264]]]}}]}