{"type":"FeatureCollection","features":[{"type":"Feature","id":"pmtiles:10/891/520:transportation:5462791650:1","properties":{"class":"primary","highway":"primary","kind":"road","verification":"verified","source":"OpenMapTiles/OpenStreetMap national PMTiles","sourceId":"10/891/520:transportation:5462791650:1","sourceLayer":"transportation","archive":"https://its.hanifahseptiani45.workers.dev/v1/map/archive/indonesia.pmtiles","updatedAt":"2026-07-26T09:43:27.146Z"},"geometry":{"type":"LineString","coordinates":[[133.27677726745605,-2.8058846278244545],[133.27643394470215,-2.8079420929097267],[133.2766056060791,-2.8092280067480004],[133.27789306640625,-2.8105996466145626],[133.27857971191406,-2.8123141941807006],[133.28012466430664,-2.8132571942678766],[133.28106880187988,-2.8143716479330436],[133.28201293945312,-2.8160861899523297],[133.28218460083008,-2.816686279062921],[133.28184127807617,-2.818486544539084],[133.2824420928955,-2.819258086033642],[133.28269958496094,-2.8202868072304597],[133.28415870666504,-2.822429973467706],[133.28518867492676,-2.8229443327766717],[133.28527450561523,-2.824487409337266],[133.28621864318848,-2.8258590312254483],[133.28699111938477,-2.8280021871807293],[133.28707695007324,-2.8291166267126897],[133.28802108764648,-2.8308311469776726],[133.28810691833496,-2.83194558378959],[133.28742027282715,-2.8331457453109437],[133.2872486114502,-2.8352031621670903],[133.28553199768066,-2.838375005984389],[133.28441619873047,-2.839060808908684],[133.28407287597656,-2.8400037872648767],[133.28458786010742,-2.842061191914766],[133.28441619873047,-2.8434327929772962],[133.28518867492676,-2.8442900428132702],[133.2853603363037,-2.8448043924089887],[133.2853603363037,-2.845575916372354],[133.2850170135498,-2.846604614186873],[133.28664779663086,-2.847976209844262],[133.28845024108887,-2.850547947298651],[133.28930854797363,-2.851062294099947],[133.29068183898926,-2.8526053331240604],[133.2912826538086,-2.8528625060934587],[133.2945442199707,-2.85174808947734],[133.29617500305176,-2.8527767817767113],[133.2982349395752,-2.8527767817767113],[133.29952239990234,-2.854491266896929],[133.3000373840332,-2.8559485772379247],[133.3018398284912,-2.8579202294616977],[133.3032989501953,-2.85800595339461],[133.30561637878418,-2.85877746850268],[133.30716133117676,-2.858948916234013],[133.30982208251953,-2.860834839587511],[133.31085205078125,-2.862034971015632],[133.31239700317383,-2.8628922069806038],[133.3132553100586,-2.8628922069806038],[133.31497192382812,-2.8633208247225923],[133.3154010772705,-2.86417805972539],[133.31514358520508,-2.86580680446275],[133.3165168762207,-2.8685499482543833],[133.31643104553223,-2.8688928407657386],[133.31522941589355,-2.8699215176827835],[133.31522941589355,-2.870950193673977],[133.31591606140137,-2.8715502542411286],[133.31806182861328,-2.871978868738964],[133.31866264343262,-2.873093265680481],[133.32003593444824,-2.874807720389313],[133.32080841064453,-2.8766936175934745],[133.3220100402832,-2.8778937323721863],[133.32261085510254,-2.8790938458871977],[133.3231258392334,-2.8790938458871977],[133.3257007598877,-2.8778937323721863],[133.32690238952637,-2.8779794548080133],[133.32913398742676,-2.878750956440456],[133.32947731018066,-2.8790938458871977],[133.3293914794922,-2.88020823587631],[133.3297348022461,-2.8808940137891597],[133.33248138427734,-2.8828656229873815],[133.33308219909668,-2.8827799009193456],[133.33402633666992,-2.882094124142654],[133.3352279663086,-2.8825227346765274],[133.33565711975098,-2.8829513450489515],[133.33608627319336,-2.8841514532326613],[133.33720207214355,-2.884751506849625],[133.33840370178223,-2.887065996405269],[133.34149360656738,-2.8893804812458512],[133.34243774414062,-2.88946620281601],[133.3444118499756,-2.8883518218990503],[133.34552764892578,-2.888008935243036],[133.34672927856445,-2.8885232651882404],[133.3476734161377,-2.88946620281601],[133.34896087646484,-2.8895519243797025],[133.34964752197266,-2.8892947596692267],[133.35033416748047,-2.8897233674876617],[133.35110664367676,-2.889809089031928],[133.35179328918457,-2.8908377470581286],[133.35196495056152,-2.8918664041517275],[133.35402488708496,-2.893237945491947],[133.35411071777344,-2.8952952543908452],[133.3553123474121,-2.8972668385798386],[133.3567714691162,-2.8979526061886816],[133.3578872680664,-2.8996670233927517],[133.35908889770508,-2.899924185749299],[133.36020469665527,-2.8992384193352763],[133.36149215698242,-2.9005242310204977],[133.363037109375,-2.9006099517475263],[133.36432456970215,-2.901381437998438],[133.36501121520996,-2.9008671138896602],[133.36655616760254,-2.9035244525992],[133.3681869506836,-2.9039530550316073],[133.36904525756836,-2.9044673777357986],[133.36956024169922,-2.904038775498563],[133.37041854858398,-2.9042102164129773],[133.37230682373047,-2.9034387320931927],[133.37419509887695,-2.9051531409770064],[133.37496757507324,-2.9053245817222404],[133.37591171264648,-2.905238861352885],[133.37677001953125,-2.904810259408464],[133.3777141571045,-2.9033530115807054],[133.3787441253662,-2.9033530115807054],[133.3798599243164,-2.9030101294656703],[133.3809757232666,-2.9036958935916743],[133.3813190460205,-2.904553098163717],[133.38226318359375,-2.905838903801694],[133.38269233703613,-2.905838903801694],[133.383207321167,-2.90549602244144],[133.38526725769043,-2.9073818686337916],[133.38655471801758,-2.9072961484206985],[133.38912963867188,-2.907896189775599],[133.38998794555664,-2.9077247494210496],[133.3912754058838,-2.906181785057811],[133.39299201965332,-2.9070389877423253],[133.394193649292,-2.9063532256467965],[133.39599609375,-2.906096064753555],[133.397798538208,-2.906267505355572],[133.3996868133545,-2.905838903801694],[133.40045928955078,-2.906181785057811],[133.40166091918945,-2.9060103444427767],[133.40432167053223,-2.906267505355572],[133.4066390991211,-2.905838903801694],[133.40869903564453,-2.906867547257505],[133.40929985046387,-2.9077247494210496],[133.41118812561035,-2.9066103864814608],[133.4139347076416,-2.9066103864814608],[133.41479301452637,-2.9078104696015856],[133.41402053833008,-2.909010551444922],[133.41410636901855,-2.9099534719972127],[133.416166305542,-2.911324991392391],[133.41668128967285,-2.9130393882883396],[133.4190845489502,-2.9141537448710153],[133.41925621032715,-2.9157824178917053],[133.41899871826172,-2.9167253327733675],[133.419771194458,-2.9180111245196088],[133.41951370239258,-2.9194683533872734],[133.4202003479004,-2.9200683882540517],[133.42226028442383,-2.920496984391221],[133.42337608337402,-2.9222113673040155],[133.4241485595703,-2.9240971854836317],[133.42474937438965,-2.9269259068077815],[133.42646598815918,-2.927011625524358],[133.42801094055176,-2.925811562895717],[133.4286117553711,-2.9263258756081854],[133.428955078125,-2.927097344234383],[133.42904090881348,-2.928040249611726],[133.42989921569824,-2.9295831839716584],[133.42981338500977,-2.931297552988781],[133.43050003051758,-2.9318975815242965],[133.43067169189453,-2.933097637629814],[133.43170166015625,-2.9339548197738594],[133.4323024749756,-2.937212105925468],[133.43307495117188,-2.937554977599433],[133.43384742736816,-2.939097898829118],[133.43470573425293,-2.9394407699238343],[133.43564987182617,-2.9402979471996673],[133.4359073638916,-2.9414979942792314],[133.43710899353027,-2.9426123225538277],[133.43693733215332,-2.944412388951605],[133.43753814697266,-2.94466954105674],[133.43994140625,-2.944240954181865],[133.44157218933105,-2.945526714311697],[133.44491958618164,-2.9470696245077193],[133.44706535339355,-2.9499840045966153],[133.44826698303223,-2.9496411367472177],[133.449125289917,-2.9499840045966153],[133.44964027404785,-2.950498306172449],[133.44989776611328,-2.9514411917768086],[133.44972610473633,-2.9532412438907016],[133.44998359680176,-2.9546127102098296],[133.45041275024414,-2.955127009642723],[133.45230102539062,-2.9562413242630186],[133.4538459777832,-2.956412757182221],[133.45444679260254,-2.959927126185434],[133.45513343811035,-2.9606128554234914],[133.45616340637207,-2.9607842876666695],[133.45685005187988,-2.9605271392919263],[133.4578800201416,-2.960870003778325],[133.45959663391113,-2.9624986086392227],[133.46062660217285,-2.963098620352568],[133.4607982635498,-2.963527199948686],[133.4604549407959,-2.9643843586430307],[133.4597682952881,-2.9647272219348224],[133.45916748046875,-2.9682415645471423],[133.4593391418457,-2.968927288632102],[133.46105575561523,-2.96978444313973],[133.46199989318848,-2.969955873961439],[133.4622573852539,-2.970298735525006],[133.46234321594238,-2.9710701736537857],[133.4611415863037,-2.972527333092728],[133.4604549407959,-2.9723559026703583],[133.45993995666504,-2.972527333092728],[133.45993995666504,-2.973470199939598],[133.46199989318848,-2.974070205695284],[133.4626865386963,-2.9750987862312144],[133.46397399902344,-2.9753559312152618],[133.46440315246582,-2.9760416508794663],[133.4666347503662,-2.9762987956435296],[133.4681797027588,-2.9755273611713164],[133.46860885620117,-2.9756130761393393],[133.46981048583984,-2.9770702295757303],[133.47092628479004,-2.9814416783174806],[133.47161293029785,-2.982384537534273],[133.47195625305176,-2.9834988246573886],[133.47247123718262,-2.984098824948205],[133.47607612609863,-2.984441682110173],[133.4777069091797,-2.984098824948205],[133.47899436950684,-2.98478453916519],[133.48028182983398,-2.98478453916519],[133.48234176635742,-2.9858131096883227],[133.48397254943848,-2.9861559663153656],[133.4850025177002,-2.986841679248343],[133.48543167114258,-2.987784533832013],[133.48560333251953,-2.988298817809067],[133.4853458404541,-2.9893273850401982],[133.48551750183105,-2.9898416682941757],[133.4875774383545,-2.9894988128183115],[133.48895072937012,-2.989927382146419],[133.49092483520508,-2.9894130989325873],[133.49255561828613,-2.9894988128183115],[133.49392890930176,-2.9906988065150415],[133.49470138549805,-2.990955947850665],[133.49530220031738,-2.9908702340788267],[133.4956455230713,-2.9904416651191212],[133.4981346130371,-2.9896702405696516],[133.49839210510254,-2.9894130989325873],[133.50139617919922,-2.9812702492821472],[133.50311279296875,-2.9817845363079982],[133.50482940673828,-2.9811845347544477],[133.50534439086914,-2.9797273867622067],[133.50543022155762,-2.9771559444237425],[133.50706100463867,-2.9724416178848685],[133.50723266601562,-2.9696130122914184],[133.50783348083496,-2.9674701244429116],[133.5110092163086,-2.966955830740943],[133.51161003112793,-2.966098674039344],[133.51238250732422,-2.9662701054328267],[133.5134983062744,-2.9646415061218363],[133.51409912109375,-2.9643843586430307],[133.5161590576172,-2.9624986086392227],[133.51916313171387,-2.9617271645299894],[133.5205364227295,-2.9624986086392227],[133.5212230682373,-2.962327176661404],[133.52251052856445,-2.9626700405905098],[133.5237979888916,-2.96224146066254],[133.52431297302246,-2.961212868158583],[133.5256862640381,-2.960355707008958],[133.5267162322998,-2.958898531532739],[133.52688789367676,-2.9578699359255864],[133.52731704711914,-2.957527070511148],[133.52808952331543,-2.957527070511148],[133.52937698364258,-2.956927055780824],[133.52989196777344,-2.956327040725938],[133.5318660736084,-2.9558127418491864],[133.5322093963623,-2.9546984267985295],[133.5336685180664,-2.954098410538677],[133.5351276397705,-2.9520412094721706],[133.53564262390137,-2.951869775877995],[133.53727340698242,-2.952298359813838],[133.53899002075195,-2.9519554926783798],[133.54070663452148,-2.9506697399781956],[133.5409641265869,-2.9499840045966153],[133.5417366027832,-2.9492125517868004],[133.54276657104492,-2.94904111775638],[133.5431957244873,-2.94904111775638],[133.54405403137207,-2.9496411367472177],[133.5468864440918,-2.9497268537194685],[133.54886054992676,-2.950069721542448],[133.54997634887695,-2.951012607510364],[133.55143547058105,-2.951355474936747],[133.55255126953125,-2.952469793341905],[133.55332374572754,-2.9526412268434825],[133.55521202087402,-2.9527269435843664],[133.55632781982422,-2.951184041236772],[133.55684280395508,-2.9512697580900635],[133.55718612670898,-2.9516983422573446],[133.5601043701172,-2.9520412094721706],[133.560791015625,-2.953069810481722],[133.56087684631348,-2.954012693903664],[133.5615634918213,-2.9548698599560623],[133.56319427490234,-2.9545269936145218],[133.56388092041016,-2.955384159269798],[133.56499671936035,-2.9558127418491864],[133.56568336486816,-2.956669906511337],[133.56645584106445,-2.9583842338484487],[133.56645584106445,-2.958984247790255],[133.56868743896484,-2.959498545196155],[133.56971740722656,-2.9604414231537532],[133.57074737548828,-2.9606985715483916],[133.57126235961914,-2.9617271645299894],[133.5710906982422,-2.96224146066254],[133.5714340209961,-2.9634414840427326],[133.57186317443848,-2.963870063506093],[133.57315063476562,-2.96395577937885],[133.57426643371582,-2.965584379699422],[133.57486724853516,-2.9657558111726416],[133.57495307922363,-2.967384408842534],[133.57521057128906,-2.967812986777929],[133.57675552368164,-2.9687558576507627],[133.57744216918945,-2.9705558816278312],[133.57864379882812,-2.971584465440145],[133.57847213745117,-2.9719273264979194],[133.57864379882812,-2.9722701874491833],[133.58087539672852,-2.9713273195769005],[133.5816478729248,-2.9720130417457256],[133.582763671875,-2.971584465440145],[133.5834503173828,-2.9726987634884523],[133.58448028564453,-2.9737273453034447],[133.5853385925293,-2.9742416358512287],[133.5874843597412,-2.9747559261591903],[133.59289169311523,-2.973898775512694],[133.59460830688477,-2.973813060411402],[133.59623908996582,-2.974155920776596],[133.5970973968506,-2.9746702111245185],[133.5974407196045,-2.9759559359447536],[133.59864234924316,-2.9766416552356247],[133.5992431640625,-2.976555940347609]]}}]}