{"type":"FeatureCollection","features":[{"type":"Feature","id":"pmtiles:10/804/543:water:2630:0","properties":{"class":"ocean","water":"ocean","kind":"waterway","verification":"verified","source":"OpenMapTiles/OpenStreetMap national PMTiles","sourceId":"10/804/543:water:2630:0","sourceLayer":"water","archive":"https://its.hanifahseptiani45.workers.dev/v1/map/archive/indonesia.pmtiles","updatedAt":"2026-07-26T09:47:26.909Z"},"geometry":{"type":"Polygon","coordinates":[[[102.6507568359375,-10.827910669267112],[103.0133056640625,-10.827910669267112],[103.0133056640625,-11.183790773046624],[102.6507568359375,-11.183790773046624],[102.6507568359375,-10.827910669267112]]]}}]}