{"type":"FeatureCollection","features":[{"type":"Feature","id":"pmtiles:10/843/543:water:510:0","properties":{"class":"ocean","water":"ocean","kind":"waterway","verification":"verified","source":"OpenMapTiles/OpenStreetMap national PMTiles","sourceId":"10/843/543:water:510:0","sourceLayer":"water","archive":"https://its.hanifahseptiani45.workers.dev/v1/map/archive/indonesia.pmtiles","updatedAt":"2026-07-26T09:47:30.090Z"},"geometry":{"type":"Polygon","coordinates":[[[116.3616943359375,-10.827910669267112],[116.7242431640625,-10.827910669267112],[116.7242431640625,-11.183790773046624],[116.3616943359375,-11.183790773046624],[116.3616943359375,-10.827910669267112]]]}}]}