{"type":"FeatureCollection","features":[{"type":"Feature","id":"pmtiles:10/810/511:transportation:4044148410:0","properties":{"class":"ferry","highway":"ferry","kind":"road","verification":"verified","source":"OpenMapTiles/OpenStreetMap national PMTiles","sourceId":"10/810/511:transportation:4044148410:0","sourceLayer":"transportation","archive":"https://its.hanifahseptiani45.workers.dev/v1/map/archive/indonesia.pmtiles","updatedAt":"2026-07-26T09:41:12.460Z"},"geometry":{"type":"LineString","coordinates":[[104.78150367736816,0.3570533530247104],[105.1226806640625,0.0388812988957028]]}},{"type":"Feature","id":"pmtiles:10/810/511:transportation:4044148410:1","properties":{"class":"ferry","highway":"ferry","kind":"road","verification":"verified","source":"OpenMapTiles/OpenStreetMap national PMTiles","sourceId":"10/810/511:transportation:4044148410:1","sourceLayer":"transportation","archive":"https://its.hanifahseptiani45.workers.dev/v1/map/archive/indonesia.pmtiles","updatedAt":"2026-07-26T09:41:12.460Z"},"geometry":{"type":"LineString","coordinates":[[104.78373527526855,0.3570533530247104],[105.1226806640625,0.04094123491925927]]}},{"type":"Feature","id":"pmtiles:10/810/511:transportation:4044148410:2","properties":{"class":"ferry","highway":"ferry","kind":"road","verification":"verified","source":"OpenMapTiles/OpenStreetMap national PMTiles","sourceId":"10/810/511:transportation:4044148410:2","sourceLayer":"transportation","archive":"https://its.hanifahseptiani45.workers.dev/v1/map/archive/indonesia.pmtiles","updatedAt":"2026-07-26T09:41:12.460Z"},"geometry":{"type":"LineString","coordinates":[[104.7601318359375,0.3032384067270897],[104.96827125549316,-0.005493164054087174]]}},{"type":"Feature","id":"pmtiles:10/810/511:water:1130:0","properties":{"class":"ocean","water":"ocean","kind":"waterway","verification":"verified","source":"OpenMapTiles/OpenStreetMap national PMTiles","sourceId":"10/810/511:water:1130:0","sourceLayer":"water","archive":"https://its.hanifahseptiani45.workers.dev/v1/map/archive/indonesia.pmtiles","updatedAt":"2026-07-26T09:41:12.460Z"},"geometry":{"type":"Polygon","coordinates":[[[104.7601318359375,0.00042915344239702335],[104.7601318359375,0.032529829184994696],[104.76030349731445,0.032529829184994696],[104.76193428039551,0.034418104009134254],[104.76579666137695,0.03527641073515042],[104.76785659790039,0.03527641073515042],[104.77103233337402,0.03287315188298123],[104.77283477783203,0.03416061198981879],[104.77395057678223,0.03579139476697435],[104.77480888366699,0.03570556409518133],[104.77669715881348,0.032615659859615675],[104.77875709533691,0.030469892972973867],[104.78055953979492,0.032014845135833525],[104.7821044921875,0.030984877029780478],[104.7835636138916,0.031156538381480914],[104.7846794128418,0.032958982557303784],[104.78399276733398,0.03476142670047011],[104.78116035461426,0.03673553215109848],[104.78055953979492,0.03896712956436943],[104.78124618530273,0.04179954158027499],[104.78107452392578,0.043001170889894524],[104.77910041809082,0.04248618690233741],[104.77704048156738,0.04488944548087659],[104.77412223815918,0.04523276812861354],[104.77412223815918,0.048751825171990504],[104.776611328125,0.04935263977114346],[104.77558135986328,0.050725930262998986],[104.77137565612793,0.05141257549806255],[104.77008819580078,0.053300849856071864],[104.7711181640625,0.055360785453274275],[104.77249145507812,0.05630492257823505],[104.77154731750488,0.05862235000142846],[104.76991653442383,0.05922316450306653],[104.76734161376953,0.05913733386036313],[104.76682662963867,0.05750655162422902],[104.76665496826172,0.051841728766220285],[104.76605415344238,0.04643439738278232],[104.7645092010498,0.04488944548087659],[104.76073265075684,0.04317283221830337],[104.7601318359375,0.04317283221830337],[104.7601318359375,0.3570533530247104],[105.1226806640625,0.3570533530247104],[105.1226806640625,0.00042915344239702335],[105.1226806640625,-0.0004291534423828125],[105.1226806640625,-0.005493164054087174],[104.7601318359375,-0.005493164054087174],[104.7601318359375,-0.0004291534423828125],[104.7601318359375,0.00042915344239702335]]]}}]}