{"type":"FeatureCollection","features":[{"type":"Feature","id":"pmtiles:10/886/535:water:1400:0","properties":{"class":"ocean","water":"ocean","kind":"waterway","verification":"verified","source":"OpenMapTiles/OpenStreetMap national PMTiles","sourceId":"10/886/535:water:1400:0","sourceLayer":"water","archive":"https://its.hanifahseptiani45.workers.dev/v1/map/archive/indonesia.pmtiles","updatedAt":"2026-07-26T09:45:53.365Z"},"geometry":{"type":"Polygon","coordinates":[[[131.4788818359375,-8.053790678898523],[131.8414306640625,-8.053790678898523],[131.8414306640625,-8.412602260297831],[131.4788818359375,-8.412602260297831],[131.4788818359375,-8.053790678898523]]]}}]}