{"type":"FeatureCollection","features":[{"type":"Feature","id":"pmtiles:10/820/515:transportation:10304328450:0","properties":{"class":"ferry","highway":"ferry","kind":"road","verification":"verified","source":"OpenMapTiles/OpenStreetMap national PMTiles","sourceId":"10/820/515:transportation:10304328450:0","sourceLayer":"transportation","archive":"https://its.hanifahseptiani45.workers.dev/v1/map/archive/indonesia.pmtiles","updatedAt":"2026-07-26T09:42:06.049Z"},"geometry":{"type":"LineString","coordinates":[[108.6383056640625,-1.3030549996558278],[108.60594749450684,-1.4116003389233214]]}},{"type":"Feature","id":"pmtiles:10/820/515:transportation:10304328450:1","properties":{"class":"ferry","highway":"ferry","kind":"road","verification":"verified","source":"OpenMapTiles/OpenStreetMap national PMTiles","sourceId":"10/820/515:transportation:10304328450:1","sourceLayer":"transportation","archive":"https://its.hanifahseptiani45.workers.dev/v1/map/archive/indonesia.pmtiles","updatedAt":"2026-07-26T09:42:06.049Z"},"geometry":{"type":"LineString","coordinates":[[108.37180137634277,-1.4116003389233214],[108.52243423461914,-1.2102085402681837],[108.6371898651123,-1.052739986429188],[108.6383056640625,-1.0497364179542785]]}},{"type":"Feature","id":"pmtiles:10/820/515:water:310:0","properties":{"class":"ocean","water":"ocean","kind":"waterway","verification":"verified","source":"OpenMapTiles/OpenStreetMap national PMTiles","sourceId":"10/820/515:water:310:0","sourceLayer":"water","archive":"https://its.hanifahseptiani45.workers.dev/v1/map/archive/indonesia.pmtiles","updatedAt":"2026-07-26T09:42:06.049Z"},"geometry":{"type":"Polygon","coordinates":[[[108.2757568359375,-1.0491357039128246],[108.6383056640625,-1.0491357039128246],[108.6383056640625,-1.4116003389233214],[108.2757568359375,-1.4116003389233214],[108.2757568359375,-1.0491357039128246]]]}}]}