{"type":"FeatureCollection","features":[{"type":"Feature","id":"pmtiles:10/825/513:mountain_peak:10701638931:0","properties":{"name_int":"Gunung Merawah","name_de":"Gunung Merawah","name":"Gunung Merawah","rank":1,"class":"peak","name:latin":"Gunung Merawah","name_en":"Gunung Merawah","kind":"poi","verification":"verified","source":"OpenMapTiles/OpenStreetMap national PMTiles","sourceId":"10/825/513:mountain_peak:10701638931:0","sourceLayer":"mountain_peak","archive":"https://its.hanifahseptiani45.workers.dev/v1/map/archive/indonesia.pmtiles","updatedAt":"2026-07-26T09:41:46.804Z"},"geometry":{"type":"Point","coordinates":[110.45001983642578,-0.4999574156803135]}},{"type":"Feature","id":"pmtiles:10/826/513:landuse:5994627642:0","properties":{"class":"residential","kind":"green","verification":"verified","source":"OpenMapTiles/OpenStreetMap national PMTiles","sourceId":"10/826/513:landuse:5994627642:0","sourceLayer":"landuse","archive":"https://its.hanifahseptiani45.workers.dev/v1/map/archive/indonesia.pmtiles","updatedAt":"2026-07-26T09:41:46.868Z"},"geometry":{"type":"Polygon","coordinates":[[[110.44384002685547,-0.6041510204647551],[110.44366836547852,-0.6063824938475335],[110.44289588928223,-0.6062966679651822],[110.4426383972168,-0.6052667572709112],[110.44126510620117,-0.605095105469502],[110.44169425964355,-0.6040651945470898],[110.44238090515137,-0.6044084982096081],[110.44384002685547,-0.6041510204647551]]]}},{"type":"Feature","id":"pmtiles:10/826/513:mountain_peak:10701638931:0","properties":{"name_int":"Gunung Merawah","name_de":"Gunung Merawah","name":"Gunung Merawah","rank":1,"class":"peak","name:latin":"Gunung Merawah","name_en":"Gunung Merawah","kind":"poi","verification":"verified","source":"OpenMapTiles/OpenStreetMap national PMTiles","sourceId":"10/826/513:mountain_peak:10701638931:0","sourceLayer":"mountain_peak","archive":"https://its.hanifahseptiani45.workers.dev/v1/map/archive/indonesia.pmtiles","updatedAt":"2026-07-26T09:41:46.868Z"},"geometry":{"type":"Point","coordinates":[110.45001983642578,-0.4999574156803135]}},{"type":"Feature","id":"pmtiles:10/826/513:transportation:6555529870:0","properties":{"class":"trunk","highway":"trunk","kind":"road","verification":"verified","source":"OpenMapTiles/OpenStreetMap national PMTiles","sourceId":"10/826/513:transportation:6555529870:0","sourceLayer":"transportation","archive":"https://its.hanifahseptiani45.workers.dev/v1/map/archive/indonesia.pmtiles","updatedAt":"2026-07-26T09:41:46.869Z"},"geometry":{"type":"LineString","coordinates":[[110.42126655578613,-0.7086000996551007],[110.42856216430664,-0.7018199888704828],[110.42976379394531,-0.7002751521236235],[110.43190956115723,-0.6992452606761503],[110.43388366699219,-0.6963272336824247],[110.43705940246582,-0.6949540438834845],[110.43808937072754,-0.6934950292846906],[110.43843269348145,-0.6925509607751792],[110.43877601623535,-0.6898045785883937],[110.4400634765625,-0.6868865457784352],[110.44014930725098,-0.6849125813962047],[110.43929100036621,-0.6804497024083531],[110.43929100036621,-0.6795056313232664],[110.44032096862793,-0.6783899107121556],[110.44109344482422,-0.677016715760729],[110.44203758239746,-0.6759009945763097],[110.44461250305176,-0.674270324692003],[110.4458999633789,-0.6727254790345825],[110.44744491577148,-0.6716097568666584],[110.4495906829834,-0.6691208372672293],[110.45062065124512,-0.6668035661601692],[110.45062065124512,-0.6652587181492606],[110.45130729675293,-0.661482420977606],[110.4513931274414,-0.6597659213122853],[110.45319557189941,-0.6572769957461446],[110.45310974121094,-0.6566762204234635],[110.45190811157227,-0.6554746695615989],[110.45165061950684,-0.654873894022515],[110.45147895812988,-0.6506684632365847],[110.44821739196777,-0.6463772037191404],[110.4470157623291,-0.6452614756496899],[110.44572830200195,-0.6429441934933067],[110.44564247131348,-0.6400261329859376],[110.4452133178711,-0.6389104035292661],[110.4426383972168,-0.6364214677149818],[110.44195175170898,-0.6352199120641444],[110.44169425964355,-0.634533308709635],[110.44195175170898,-0.6328167999248819],[110.44160842895508,-0.631529417963506],[110.44075012207031,-0.6298987336881225],[110.43929100036621,-0.6230326890521383],[110.43946266174316,-0.6208012226141904],[110.44238090515137,-0.6164241126384553],[110.44238090515137,-0.6131627342377044],[110.44135093688965,-0.6099871796752012],[110.44178009033203,-0.6077557077799725],[110.44315338134766,-0.6062966679651822],[110.44375419616699,-0.6025203277976061],[110.44632911682129,-0.5965983345429606],[110.44658660888672,-0.593508596397669],[110.44547080993652,-0.5895605951459117],[110.44358253479004,-0.5845826765364848],[110.44289588928223,-0.5815787579969509],[110.44203758239746,-0.5800338849821571],[110.44195175170898,-0.5781457062804236],[110.44109344482422,-0.5763433532975171],[110.44100761413574,-0.5752276106888559],[110.44023513793945,-0.5743693469952547],[110.4389476776123,-0.5738543887172227],[110.43817520141602,-0.571708728726918],[110.43585777282715,-0.5688764563124806],[110.43508529663086,-0.5686189769330383],[110.43148040771484,-0.5695630679347943],[110.42993545532227,-0.568533150470671],[110.4246997833252,-0.5661300090071819],[110.42375564575195,-0.5660441825078948],[110.4210090637207,-0.5666449679762167],[110.42023658752441,-0.5656150499924308],[110.4195499420166,-0.5651000909319919],[110.41817665100098,-0.5645851318259076],[110.41646003723145,-0.5645851318259076],[110.41465759277344,-0.5638985196135025],[110.41088104248047,-0.561409549665413],[110.41045188903809,-0.5607229370792908],[110.41028022766113,-0.559435538263358],[110.4096794128418,-0.5581481391649561],[110.4085636138916,-0.5574615261972298],[110.40736198425293,-0.5561741266670026],[110.40547370910645,-0.5556591667762518],[110.40427207946777,-0.5562599533110983],[110.40367126464844,-0.5562599533110983],[110.40204048156738,-0.5554875134693589],[110.39998054504395,-0.5531701933389286],[110.39800643920898,-0.5516253127490103],[110.39543151855469,-0.5483638968546387],[110.3950023651123,-0.5454457863900473],[110.39414405822754,-0.5428709818637145],[110.39242744445801,-0.5412402717629732],[110.39122581481934,-0.5393520805723568],[110.38865089416504,-0.5368631003809554],[110.3880500793457,-0.5357473503108139],[110.3880500793457,-0.5337733304585299],[110.38719177246094,-0.5323142718994518],[110.38607597351074,-0.5310268670018132],[110.3851318359375,-0.5305977319763002]]}},{"type":"Feature","id":"pmtiles:10/826/513:transportation_name:6555529870:0","properties":{"name":"Jalan Trans Kalimantan","name_int":"Jalan Trans Kalimantan","class":"trunk","name:latin":"Jalan Trans Kalimantan","name_de":"Jalan Trans Kalimantan","name_en":"Jalan Trans Kalimantan","highway":"trunk","kind":"road","verification":"verified","source":"OpenMapTiles/OpenStreetMap national PMTiles","sourceId":"10/826/513:transportation_name:6555529870:0","sourceLayer":"transportation_name","archive":"https://its.hanifahseptiani45.workers.dev/v1/map/archive/indonesia.pmtiles","updatedAt":"2026-07-26T09:41:46.869Z"},"geometry":{"type":"LineString","coordinates":[[110.41654586791992,-0.7150369045103702],[110.42083740234375,-0.709029220257932],[110.42633056640625,-0.7037081219791759],[110.42856216430664,-0.7018199888704828],[110.42976379394531,-0.7002751521236235],[110.43190956115723,-0.6992452606761503],[110.43388366699219,-0.6963272336824247],[110.43705940246582,-0.6949540438834845],[110.43808937072754,-0.6934950292846906],[110.43843269348145,-0.6925509607751792],[110.43877601623535,-0.6898045785883937],[110.4400634765625,-0.6868865457784352],[110.44014930725098,-0.6849125813962047],[110.43929100036621,-0.6804497024083531],[110.43929100036621,-0.6795056313232664],[110.44032096862793,-0.6783899107121556],[110.44109344482422,-0.677016715760729],[110.44203758239746,-0.6759009945763097],[110.44461250305176,-0.674270324692003],[110.4458999633789,-0.6727254790345825],[110.44744491577148,-0.6716097568666584],[110.4495906829834,-0.6691208372672293],[110.45062065124512,-0.6668035661601692],[110.45062065124512,-0.6652587181492606],[110.45130729675293,-0.661482420977606],[110.4513931274414,-0.6597659213122853],[110.45319557189941,-0.6572769957461446],[110.45310974121094,-0.6566762204234635],[110.45190811157227,-0.6554746695615989],[110.45165061950684,-0.654873894022515],[110.45147895812988,-0.6506684632365847],[110.44821739196777,-0.6463772037191404],[110.4470157623291,-0.6452614756496899],[110.44572830200195,-0.6429441934933067],[110.44564247131348,-0.6400261329859376],[110.4452133178711,-0.6389104035292661],[110.4426383972168,-0.6364214677149818],[110.44195175170898,-0.6352199120641444],[110.44169425964355,-0.634533308709635],[110.44195175170898,-0.6328167999248819],[110.44160842895508,-0.631529417963506],[110.44075012207031,-0.6298987336881225],[110.43929100036621,-0.6230326890521383],[110.43946266174316,-0.6208012226141904],[110.44238090515137,-0.6164241126384553],[110.44238090515137,-0.6131627342377044],[110.44135093688965,-0.6099871796752012],[110.44178009033203,-0.6077557077799725],[110.44315338134766,-0.6062966679651822],[110.44375419616699,-0.6025203277976061],[110.44632911682129,-0.5965983345429606],[110.44658660888672,-0.593508596397669],[110.44547080993652,-0.5895605951459117],[110.44358253479004,-0.5845826765364848],[110.44289588928223,-0.5815787579969509],[110.44203758239746,-0.5800338849821571],[110.44195175170898,-0.5781457062804236],[110.44109344482422,-0.5763433532975171],[110.44100761413574,-0.5752276106888559],[110.44023513793945,-0.5743693469952547],[110.4389476776123,-0.5738543887172227],[110.43817520141602,-0.571708728726918],[110.43585777282715,-0.5688764563124806],[110.43508529663086,-0.5686189769330383],[110.43148040771484,-0.5695630679347943],[110.42993545532227,-0.568533150470671],[110.4246997833252,-0.5661300090071819],[110.42375564575195,-0.5660441825078948],[110.4210090637207,-0.5666449679762167],[110.42023658752441,-0.5656150499924308],[110.4195499420166,-0.5651000909319919],[110.41817665100098,-0.5645851318259076],[110.41646003723145,-0.5645851318259076],[110.41465759277344,-0.5638985196135025],[110.41088104248047,-0.561409549665413],[110.41045188903809,-0.5607229370792908],[110.41028022766113,-0.559435538263358],[110.4096794128418,-0.5581481391649561],[110.4085636138916,-0.5574615261972298],[110.40736198425293,-0.5561741266670026],[110.40547370910645,-0.5556591667762518],[110.40427207946777,-0.5562599533110983],[110.40367126464844,-0.5562599533110983],[110.40204048156738,-0.5554875134693589],[110.39998054504395,-0.5531701933389286],[110.39800643920898,-0.5516253127490103],[110.39543151855469,-0.5483638968546387],[110.3950023651123,-0.5454457863900473],[110.39414405822754,-0.5428709818637145],[110.39242744445801,-0.5412402717629732],[110.39122581481934,-0.5393520805723568],[110.38865089416504,-0.5368631003809554],[110.3880500793457,-0.5357473503108139],[110.3880500793457,-0.5337733304585299],[110.38719177246094,-0.5323142718994518],[110.38607597351074,-0.5310268670018132],[110.38530349731445,-0.5305977319763002],[110.38418769836426,-0.5304260779577703],[110.37886619567871,-0.528537883439995]]}},{"type":"Feature","id":"pmtiles:10/826/513:waterway:443070792:0","properties":{"name_int":"Kualan River","name_de":"Sungai Kualan","name":"Sungai Kualan","name:en":"Kualan River","class":"river","name:latin":"Sungai Kualan","name_en":"Kualan River","waterway":"river","kind":"waterway","verification":"verified","source":"OpenMapTiles/OpenStreetMap national PMTiles","sourceId":"10/826/513:waterway:443070792:0","sourceLayer":"waterway","archive":"https://its.hanifahseptiani45.workers.dev/v1/map/archive/indonesia.pmtiles","updatedAt":"2026-07-26T09:41:46.869Z"},"geometry":{"type":"LineString","coordinates":[[110.55868148803711,-0.4888856691230927],[110.55756568908691,-0.4884565312894722],[110.55722236633301,-0.4887140139929329],[110.55705070495605,-0.4895722895998489],[110.55644989013672,-0.4891431518101115],[110.55619239807129,-0.48854235885839614],[110.5565357208252,-0.4875124279590466],[110.55584907531738,-0.48725494520958534],[110.55584907531738,-0.4869116348616558],[110.55404663085938,-0.486654152089244],[110.55387496948242,-0.48553839329527193],[110.55215835571289,-0.48485177240742416],[110.5525016784668,-0.484079323825398],[110.55241584777832,-0.48382184094515424],[110.55172920227051,-0.48365018568622986],[110.55130004882812,-0.4832210475199332],[110.54863929748535,-0.48244859875229906],[110.54855346679688,-0.48176197755189776],[110.54795265197754,-0.4812470116061718],[110.54649353027344,-0.48133283926649995],[110.54666519165039,-0.4811611839447778],[110.54657936096191,-0.4808178732883732],[110.54623603820801,-0.480646217953705],[110.54546356201172,-0.4811611839447778],[110.54451942443848,-0.4802170795981482],[110.5433177947998,-0.47970211353593584],[110.54288864135742,-0.4789296643699572],[110.54194450378418,-0.4781572151169229],[110.54160118103027,-0.47824304281600405],[110.5415153503418,-0.47867218129528055],[110.54194450378418,-0.47961628585512983],[110.54125785827637,-0.4795304581732438],[110.54057121276855,-0.4779855597155631],[110.53997039794922,-0.47755642119336983],[110.53954124450684,-0.4761831777424419],[110.53885459899902,-0.4750674172370992],[110.5363655090332,-0.4740374843030395],[110.53542137145996,-0.47292172345160566],[110.53353309631348,-0.4717201346418278],[110.533447265625,-0.47103351237161917],[110.53224563598633,-0.46948861201647674],[110.53130149841309,-0.46725708867893445],[110.5305290222168,-0.46639881028326613],[110.52855491638184,-0.4655405317829491],[110.52743911743164,-0.46536887607034316],[110.52812576293945,-0.4646822531781538],[110.52769660949707,-0.4640814580927497],[110.52692413330078,-0.4642531138366337],[110.52546501159668,-0.46356649083605816],[110.52520751953125,-0.46279403988083345],[110.52572250366211,-0.4609916539917549],[110.52563667297363,-0.4601333748365306],[110.52529335021973,-0.45979006314549054],[110.52460670471191,-0.45970423522015835],[110.52349090576172,-0.4617641051430468],[110.52323341369629,-0.46159244933889454],[110.52314758300781,-0.4606483423420684],[110.52186012268066,-0.45876012797342014],[110.5213451385498,-0.45833098827462493],[110.52065849304199,-0.4586743000357245],[110.52048683166504,-0.4579018485501223],[110.52108764648438,-0.45721522493749944],[110.52083015441895,-0.4568719131065251],[110.51997184753418,-0.4568719131065251],[110.51962852478027,-0.456442773294782],[110.5195426940918,-0.45592780548687983],[110.5198860168457,-0.45489786976064295],[110.51885604858398,-0.4539537618824312],[110.51834106445312,-0.4529238258747341],[110.51636695861816,-0.45223720178826454],[110.51671028137207,-0.4504348132525422],[110.51636695861816,-0.44931904869740436],[110.51636695861816,-0.44846076815441904],[110.51490783691406,-0.448632424271068],[110.51482200622559,-0.44657255060586465],[110.51465034484863,-0.4464008944410125],[110.51396369934082,-0.44674420676670934],[110.51430702209473,-0.44760248751077825],[110.51396369934082,-0.44777414364754975],[110.51353454589844,-0.44760248751077825],[110.51336288452148,-0.4464008944410125],[110.51233291625977,-0.44588592592239706],[110.51198959350586,-0.4453709573677571],[110.51190376281738,-0.44399770771295266],[110.5103588104248,-0.44331108278984743],[110.5103588104248,-0.44271028592990547],[110.51010131835938,-0.4424528015464517],[110.50941467285156,-0.44253862967526914],[110.50907135009766,-0.44322525466999707],[110.50872802734375,-0.4424528015464517],[110.50872802734375,-0.441594520203779],[110.50778388977051,-0.44185200461700447],[110.50761222839355,-0.44168034834251557],[110.50812721252441,-0.4409078950582881],[110.50812721252441,-0.4400496135373686],[110.50726890563965,-0.4402212698494452],[110.50683975219727,-0.43996378537984526],[110.50606727600098,-0.4400496135373686],[110.50615310668945,-0.4409078950582881],[110.50692558288574,-0.4417661764802432],[110.50641059875488,-0.44228114528586104],[110.50589561462402,-0.44193783275274257],[110.50529479980469,-0.4410795513505974],[110.5045223236084,-0.4411653794952741],[110.5045223236084,-0.4403070980040269],[110.5034065246582,-0.438933847412585],[110.50220489501953,-0.438933847412585],[110.50143241882324,-0.43867636289859036],[110.50108909606934,-0.4382472220222553],[110.50100326538086,-0.437474768382927],[110.50186157226562,-0.43584403266113725],[110.5019474029541,-0.4348999223449681],[110.50100326538086,-0.43524323520088615],[110.49911499023438,-0.4322392471830483],[110.50040245056152,-0.43035102553460547],[110.50048828125,-0.42983605591290086],[110.49954414367676,-0.4288061165653829],[110.49808502197266,-0.4288919448496529],[110.49705505371094,-0.42829114683965486],[110.49525260925293,-0.4251154994346109],[110.4946517944336,-0.4250296711082058],[110.49379348754883,-0.42537298440812776],[110.4935359954834,-0.42468635779302133],[110.49430847167969,-0.4239139027781107],[110.49405097961426,-0.42331310437990055],[110.49370765686035,-0.42331310437990055],[110.49293518066406,-0.4239139027781107],[110.49199104309082,-0.42288396263839445],[110.49139022827148,-0.4225406492281252],[110.49070358276367,-0.4225406492281252],[110.4906177520752,-0.42339893272536244],[110.49027442932129,-0.42382807443836157],[110.48967361450195,-0.42331310437990055],[110.48847198486328,-0.42296979098860277],[110.48864364624023,-0.4222831641604472],[110.49044609069824,-0.42056659682492636],[110.4906177520752,-0.42005162655060246],[110.49044609069824,-0.4197941414007005],[110.48855781555176,-0.42005162655060246],[110.4869270324707,-0.4190216859001765],[110.4865837097168,-0.41824923032346817],[110.48666954040527,-0.41756260308035564],[110.48778533935547,-0.41576020628212973],[110.48727035522461,-0.4150735788220885],[110.4865837097168,-0.41481609350920223],[110.48529624938965,-0.41610351998974693],[110.48220634460449,-0.41593186313779995],[110.48117637634277,-0.41395780907244273],[110.4810905456543,-0.41301369608471816],[110.48169136047363,-0.4113829552055819],[110.4814338684082,-0.4112112982515157],[110.48100471496582,-0.41129712672901064],[110.48040390014648,-0.4123270683868441],[110.47928810119629,-0.41284203916580964],[110.47842979431152,-0.4124987253168655],[110.47654151916504,-0.4094947285082071],[110.47508239746094,-0.4088081005078692],[110.47456741333008,-0.40820730095941826],[110.47388076782227,-0.4080356439373247],[110.47345161437988,-0.4067482161550089],[110.4726791381836,-0.40640490204501134],[110.4715633392334,-0.4065765591018362],[110.47130584716797,-0.40580410231741837],[110.47147750854492,-0.40443084562973297],[110.47130584716797,-0.40408753142148157],[110.47027587890625,-0.4046025027284088],[110.46958923339844,-0.40443084562973297],[110.46924591064453,-0.40408753142148157],[110.46838760375977,-0.4021134744428707],[110.46770095825195,-0.40159850297854405],[110.4671859741211,-0.40074021713259356],[110.46572685241699,-0.40091187430897435],[110.46452522277832,-0.4003969027690175],[110.46435356140137,-0.400654388543046],[110.46478271484375,-0.40142684581654464],[110.4646110534668,-0.4021134744428707],[110.46581268310547,-0.4047741598234751],[110.46478271484375,-0.4059757593870046],[110.46246528625488,-0.4065765591018362],[110.46177864074707,-0.4088081005078692],[110.45860290527344,-0.41078215585022804],[110.45697212219238,-0.41309952454278687],[110.45602798461914,-0.4138719806236537],[110.45431137084961,-0.4143011228583049],[110.45293807983398,-0.4178200883035714],[110.45027732849121,-0.4198799697849438],[110.44873237609863,-0.4198799697849438],[110.44778823852539,-0.42056659682492636],[110.44778823852539,-0.42090991032227976],[110.44856071472168,-0.4210815670652863],[110.44898986816406,-0.4215107089062826],[110.44950485229492,-0.42305561933785896],[110.44890403747559,-0.42331310437990055],[110.44744491577148,-0.42271230593516407],[110.44675827026367,-0.4227981342872482],[110.44650077819824,-0.42322727603351495],[110.44692993164062,-0.42468635779302133],[110.4470157623291,-0.4255446410523689],[110.44675827026367,-0.4257162976927873],[110.44598579406738,-0.4257162976927873],[110.44607162475586,-0.42425721612760015],[110.4452133178711,-0.4237422460976603],[110.44486999511719,-0.42460052946182714],[110.44426918029785,-0.4250296711082058],[110.44375419616699,-0.4248580144525107],[110.44418334960938,-0.42425721612760015],[110.44435501098633,-0.4231414476861488],[110.44384002685547,-0.4222831641604472],[110.44341087341309,-0.4223689925172778],[110.4429817199707,-0.42305561933785896],[110.44169425964355,-0.42365641775600693],[110.4404067993164,-0.423484761069858],[110.43980598449707,-0.4237422460976603],[110.43877601623535,-0.42331310437990055],[110.4371452331543,-0.42211150744392967],[110.43688774108887,-0.4215965372716397],[110.43637275695801,-0.4214248805399734],[110.43594360351562,-0.42185402236204084],[110.4360294342041,-0.4239997311169077],[110.43560028076172,-0.42468635779302133],[110.4356861114502,-0.4257162976927873],[110.43551445007324,-0.4263170959041531],[110.43388366699219,-0.42717537898190017],[110.43328285217285,-0.4279478336699327],[110.43285369873047,-0.4278620053750899],[110.43105125427246,-0.4258021260115612],[110.4301929473877,-0.4263170959041531],[110.42933464050293,-0.427347035585953],[110.42881965637207,-0.4275186921861831],[110.42607307434082,-0.4274328638865512],[110.42444229125977,-0.4259737826462384],[110.4239273071289,-0.42691789406863734],[110.42384147644043,-0.4288061165653829],[110.4232406616211,-0.42983605591290086],[110.423583984375,-0.4315526211832861],[110.42315483093262,-0.4330117013585948],[110.42135238647461,-0.43378415545542737],[110.4210090637207,-0.43412746836204974],[110.41989326477051,-0.4365306582713231],[110.41946411132812,-0.43695979924584094],[110.41671752929688,-0.4370456274378114],[110.41688919067383,-0.43807556566483186],[110.41594505310059,-0.4402212698494452],[110.41319847106934,-0.4403929261575996],[110.41285514831543,-0.44073623876201395],[110.41234016418457,-0.4440835358238644],[110.41285514831543,-0.4445126763634448],[110.41457176208496,-0.44416936393376716],[110.41465759277344,-0.4444268482575211],[110.41414260864258,-0.44545678546269585],[110.41345596313477,-0.4459717540113388],[110.41191101074219,-0.44648672252392885],[110.41131019592285,-0.4464008944410125],[110.41062355041504,-0.44580009783246055],[110.40993690490723,-0.44657255060586465],[110.40925025939941,-0.4464008944410125],[110.40890693664551,-0.44725917522519865],[110.40873527526855,-0.447173347151292],[110.4085636138916,-0.44571426974151507],[110.40770530700684,-0.44580009783246055],[110.40667533874512,-0.44751665944090746],[110.4067611694336,-0.44846076815441904],[110.40616035461426,-0.44906156454509016],[110.40616035461426,-0.449404876746172],[110.40641784667969,-0.44957653284066623],[110.40719032287598,-0.4494907047939307],[110.40701866149902,-0.45009150109991936],[110.40658950805664,-0.4504348132525422],[110.40624618530273,-0.45009150109991936],[110.40392875671387,-0.4502631571782558],[110.40375709533691,-0.4506064693228069],[110.4041862487793,-0.4514647496133648],[110.401611328125,-0.45472621379195743],[110.40118217468262,-0.4580735044430071],[110.40040969848633,-0.46004754691531957],[110.4004955291748,-0.46081999816898644],[110.40075302124023,-0.4609916539917549],[110.40229797363281,-0.4606483423420684],[110.40255546569824,-0.46081999816898644],[110.40264129638672,-0.46142079353060694],[110.39792060852051,-0.46442476957636813],[110.39783477783203,-0.4652830482124699],[110.39843559265137,-0.465712187491377],[110.39852142333984,-0.4662271545915786],[110.39834976196289,-0.46665629381297435],[110.3975772857666,-0.4664846381275538],[110.3972339630127,-0.4667421216541072],[110.39731979370117,-0.46699960517123884],[110.3986930847168,-0.46794371131997536],[110.39920806884766,-0.4691453007800419],[110.39963722229004,-0.46940278420895254],[110.39989471435547,-0.4700035788394956],[110.39972305297852,-0.47034689003376684],[110.39895057678223,-0.47060437341838224],[110.39826393127441,-0.4700894066396444],[110.39714813232422,-0.4700035788394956],[110.39680480957031,-0.4697460954327255],[110.39663314819336,-0.4691453007800419],[110.39594650268555,-0.4691453007800419],[110.39491653442383,-0.4705185456245715],[110.39388656616211,-0.4714626512984239],[110.39474487304688,-0.47429496755093226],[110.39388656616211,-0.47438079529808874],[110.39225578308105,-0.47498158949846925],[110.3920841217041,-0.47463827853320595],[110.39251327514648,-0.4728358956863872],[110.39182662963867,-0.47240675684429334],[110.39148330688477,-0.4717201346418278],[110.3909683227539,-0.47154847908062436],[110.38813591003418,-0.4722351013000292],[110.38753509521484,-0.47197761797569626],[110.38650512695312,-0.47214927352631264],[110.38599014282227,-0.47300755121577254],[110.38590431213379,-0.47420913980269574],[110.38556098937988,-0.4744666230441936],[110.38496017456055,-0.47429496755093226]]}},{"type":"Feature","id":"pmtiles:10/826/513:waterway:1727373042:0","properties":{"name_int":"Sekadau River","name_de":"Sungai Sekadau","name":"Sungai Sekadau","name:en":"Sekadau River","class":"river","name:latin":"Sungai Sekadau","name_en":"Sekadau River","waterway":"river","kind":"waterway","verification":"verified","source":"OpenMapTiles/OpenStreetMap national PMTiles","sourceId":"10/826/513:waterway:1727373042:0","sourceLayer":"waterway","archive":"https://its.hanifahseptiani45.workers.dev/v1/map/archive/indonesia.pmtiles","updatedAt":"2026-07-26T09:41:46.869Z"},"geometry":{"type":"LineString","coordinates":[[110.73566436767578,-0.5121448980401198],[110.73600769042969,-0.5107716617393407],[110.73575019836426,-0.509655907028872],[110.73514938354492,-0.5093125978482789],[110.73489189147949,-0.5086259794322672],[110.73583602905273,-0.5081968428851411],[110.73609352111816,-0.5075960516712854],[110.73763847351074,-0.5067377784118463],[110.73772430419922,-0.5057936776951237],[110.7370376586914,-0.504162957952019],[110.73686599731445,-0.5019314460630397],[110.73626518249512,-0.500987344649829],[110.73643684387207,-0.5006440350113053],[110.73686599731445,-0.500558207598857],[110.73875427246094,-0.501416481672706],[110.7396125793457,-0.5010731720566639],[110.73987007141113,-0.5007298624226166],[110.73995590209961,-0.4995282785619679],[110.7410717010498,-0.49884165911434764],[110.74141502380371,-0.49815503959509044],[110.74141502380371,-0.4957518707149404],[110.74304580688477,-0.49412114847785915],[110.74407577514648,-0.49154632307855195],[110.74630737304688,-0.49137466801659],[110.74639320373535,-0.49025891000631816],[110.74682235717773,-0.4895722895998489],[110.74750900268555,-0.4892289793702673],[110.7476806640625,-0.48879984155855993],[110.74742317199707,-0.486997462450276],[110.74836730957031,-0.4863108417107469]]}},{"type":"Feature","id":"pmtiles:10/826/513:waterway:1727373042:1","properties":{"name_int":"Sekadau River","name_de":"Sungai Sekadau","name":"Sungai Sekadau","name:en":"Sekadau River","class":"river","name:latin":"Sungai Sekadau","name_en":"Sekadau River","waterway":"river","kind":"waterway","verification":"verified","source":"OpenMapTiles/OpenStreetMap national PMTiles","sourceId":"10/826/513:waterway:1727373042:1","sourceLayer":"waterway","archive":"https://its.hanifahseptiani45.workers.dev/v1/map/archive/indonesia.pmtiles","updatedAt":"2026-07-26T09:41:46.869Z"},"geometry":{"type":"LineString","coordinates":[[110.75008392333984,-0.4126703822431921],[110.74750900268555,-0.4121554114530994],[110.74725151062012,-0.4123270683868441],[110.74707984924316,-0.41318535299993187],[110.74647903442383,-0.4133570099114223],[110.74613571166992,-0.41206958298485574],[110.7465648651123,-0.4092372430149567],[110.7462215423584,-0.40863644349860806],[110.74630737304688,-0.4033150743998988],[110.74579238891602,-0.40254261730498797],[110.74527740478516,-0.4024567887343693],[110.7451057434082,-0.4019418172917],[110.74519157409668,-0.40031107417587464],[110.74579238891602,-0.3987661593459393],[110.7451057434082,-0.3967062724552193],[110.74519157409668,-0.39507552830295367],[110.74467658996582,-0.3924148397890832],[110.74467658996582,-0.39104158086982466],[110.7436466217041,-0.38846671979133873],[110.74424743652344,-0.3810854470361136],[110.7421875,-0.37713732179553006],[110.74167251586914,-0.37327502363157805],[110.74193000793457,-0.3705284994597662],[110.74090003967285,-0.3694985526754806],[110.73944091796875,-0.36709534304840474],[110.73823928833008,-0.3634905273981843],[110.73575019836426,-0.3622030928879525],[110.73472023010254,-0.3608298292087966],[110.73429107666016,-0.35962822331947564],[110.73480606079102,-0.35868410429544895],[110.73463439941406,-0.35533677242723627],[110.73437690734863,-0.35490762722798763],[110.73351860046387,-0.3541351658191445],[110.73094367980957,-0.35319104623205533],[110.7308578491211,-0.3528477299947781],[110.73094367980957,-0.35164612306463994],[110.73180198669434,-0.34992954146768795],[110.7315444946289,-0.3483846177618233],[110.73291778564453,-0.3476979849222914],[110.73437690734863,-0.3477838140299667],[110.73686599731445,-0.3457239152308347]]}},{"type":"Feature","id":"pmtiles:8/206/128:mountain_peak:10701638931:0","properties":{"name_int":"Gunung Merawah","name_de":"Gunung Merawah","name":"Gunung Merawah","rank":2,"class":"peak","name:latin":"Gunung Merawah","name_en":"Gunung Merawah","kind":"poi","verification":"verified","source":"OpenMapTiles/OpenStreetMap national PMTiles","sourceId":"8/206/128:mountain_peak:10701638931:0","sourceLayer":"mountain_peak","archive":"https://its.hanifahseptiani45.workers.dev/v1/map/archive/indonesia.pmtiles","updatedAt":"2026-07-26T09:35:32.415Z"},"geometry":{"type":"Point","coordinates":[110.45001983642578,-0.499871588258884]}}]}