{"type":"FeatureCollection","features":[{"type":"Feature","id":"pmtiles:10/866/496:water:20:0","properties":{"class":"ocean","water":"ocean","kind":"waterway","verification":"verified","source":"OpenMapTiles/OpenStreetMap national PMTiles","sourceId":"10/866/496:water:20:0","sourceLayer":"water","archive":"https://its.hanifahseptiani45.workers.dev/v1/map/archive/indonesia.pmtiles","updatedAt":"2026-07-26T09:38:24.454Z"},"geometry":{"type":"Polygon","coordinates":[[[124.4476318359375,5.621452591118839],[124.8101806640625,5.621452591118839],[124.8101806640625,5.260537879550753],[124.4476318359375,5.260537879550753],[124.4476318359375,5.621452591118839]]]}}]}