{"type":"FeatureCollection","features":[{"type":"Feature","id":"pmtiles:10/813/535:water:130:0","properties":{"class":"ocean","water":"ocean","kind":"waterway","verification":"verified","source":"OpenMapTiles/OpenStreetMap national PMTiles","sourceId":"10/813/535:water:130:0","sourceLayer":"water","archive":"https://its.hanifahseptiani45.workers.dev/v1/map/archive/indonesia.pmtiles","updatedAt":"2026-07-26T09:45:47.400Z"},"geometry":{"type":"Polygon","coordinates":[[[105.8148193359375,-8.053790678898523],[106.1773681640625,-8.053790678898523],[106.1773681640625,-8.412602260297831],[105.8148193359375,-8.412602260297831],[105.8148193359375,-8.053790678898523]]]}}]}