{"type":"FeatureCollection","features":[{"type":"Feature","id":"pmtiles:10/869/532:water:710:0","properties":{"class":"ocean","water":"ocean","kind":"waterway","verification":"verified","source":"OpenMapTiles/OpenStreetMap national PMTiles","sourceId":"10/869/532:water:710:0","sourceLayer":"water","archive":"https://its.hanifahseptiani45.workers.dev/v1/map/archive/indonesia.pmtiles","updatedAt":"2026-07-26T09:45:21.785Z"},"geometry":{"type":"Polygon","coordinates":[[[125.5023193359375,-7.008215836663396],[125.8648681640625,-7.008215836663396],[125.8648681640625,-7.367914706747754],[125.5023193359375,-7.367914706747754],[125.5023193359375,-7.008215836663396]]]}}]}