{"type":"FeatureCollection","features":[{"type":"Feature","id":"pmtiles:8/211/136:water:510:0","properties":{"class":"ocean","water":"ocean","kind":"waterway","verification":"verified","source":"OpenMapTiles/OpenStreetMap national PMTiles","sourceId":"8/211/136:water:510:0","sourceLayer":"water","archive":"https://its.hanifahseptiani45.workers.dev/v1/map/archive/indonesia.pmtiles","updatedAt":"2026-07-26T09:35:53.125Z"},"geometry":{"type":"Polygon","coordinates":[[[116.69677734375,-11.156845275211765],[118.14697265625,-11.156845275211765],[118.14697265625,-12.576009912063782],[116.69677734375,-12.576009912063782],[116.69677734375,-11.156845275211765]]]}}]}