{"type":"FeatureCollection","features":[{"type":"Feature","id":"pmtiles:10/891/506:water:890:0","properties":{"class":"ocean","water":"ocean","kind":"waterway","verification":"verified","source":"OpenMapTiles/OpenStreetMap national PMTiles","sourceId":"10/891/506:water:890:0","sourceLayer":"water","archive":"https://its.hanifahseptiani45.workers.dev/v1/map/archive/indonesia.pmtiles","updatedAt":"2026-07-26T09:40:18.099Z"},"geometry":{"type":"Polygon","coordinates":[[[133.2366943359375,2.114388093041839],[133.5992431640625,2.114388093041839],[133.5992431640625,1.7520462233579792],[133.2366943359375,1.7520462233579792],[133.2366943359375,2.114388093041839]]]}}]}