{"type":"FeatureCollection","features":[{"type":"Feature","id":"pmtiles:10/855/533:transportation:4044148380:0","properties":{"class":"ferry","highway":"ferry","kind":"road","verification":"verified","source":"OpenMapTiles/OpenStreetMap national PMTiles","sourceId":"10/855/533:transportation:4044148380:0","sourceLayer":"transportation","archive":"https://its.hanifahseptiani45.workers.dev/v1/map/archive/indonesia.pmtiles","updatedAt":"2026-07-26T09:45:30.917Z"},"geometry":{"type":"LineString","coordinates":[[120.91097831726074,-7.716435112415482],[120.69005012512207,-7.357018957392015]]}},{"type":"Feature","id":"pmtiles:10/855/533:transportation:4044148380:1","properties":{"class":"ferry","highway":"ferry","kind":"road","verification":"verified","source":"OpenMapTiles/OpenStreetMap national PMTiles","sourceId":"10/855/533:transportation:4044148380:1","sourceLayer":"transportation","archive":"https://its.hanifahseptiani45.workers.dev/v1/map/archive/indonesia.pmtiles","updatedAt":"2026-07-26T09:45:30.917Z"},"geometry":{"type":"LineString","coordinates":[[120.6353759765625,-7.716435112415482],[120.5804443359375,-7.66199739725522]]}},{"type":"Feature","id":"pmtiles:10/855/533:water:270:0","properties":{"class":"ocean","water":"ocean","kind":"waterway","verification":"verified","source":"OpenMapTiles/OpenStreetMap national PMTiles","sourceId":"10/855/533:water:270:0","sourceLayer":"water","archive":"https://its.hanifahseptiani45.workers.dev/v1/map/archive/indonesia.pmtiles","updatedAt":"2026-07-26T09:45:30.917Z"},"geometry":{"type":"Polygon","coordinates":[[[120.5804443359375,-7.357018957392015],[120.9429931640625,-7.357018957392015],[120.9429931640625,-7.716435112415482],[120.5804443359375,-7.716435112415482],[120.5804443359375,-7.357018957392015]]]}},{"type":"Feature","id":"pmtiles:8/213/133:transportation:3268321190:8","properties":{"class":"ferry","highway":"ferry","kind":"road","verification":"verified","source":"OpenMapTiles/OpenStreetMap national PMTiles","sourceId":"8/213/133:transportation:3268321190:8","sourceLayer":"transportation","archive":"https://its.hanifahseptiani45.workers.dev/v1/map/archive/indonesia.pmtiles","updatedAt":"2026-07-26T09:35:46.067Z"},"geometry":{"type":"LineString","coordinates":[[120.95947265625,-7.795357339791494],[120.54130554199219,-7.114860724754138],[120.54439544677734,-7.080450846455321],[120.55229187011719,-7.07022959548874],[120.5581283569336,-7.060008118360912],[120.57323455810547,-7.0535343993497435],[120.5859375,-7.0514900482234],[120.59898376464844,-7.052512224914608],[120.61100006103516,-7.059667398565381],[120.60585021972656,-7.053193674788716],[120.5972671508789,-7.048423504616636],[120.59280395507812,-7.044334748242207],[120.58937072753906,-7.037860810251431],[120.58765411376953,-7.02252743913381],[120.59520721435547,-6.991859181483676]]}}]}