{"type":"FeatureCollection","features":[{"type":"Feature","id":"pmtiles:10/885/495:water:80:0","properties":{"class":"ocean","water":"ocean","kind":"waterway","verification":"verified","source":"OpenMapTiles/OpenStreetMap national PMTiles","sourceId":"10/885/495:water:80:0","sourceLayer":"water","archive":"https://its.hanifahseptiani45.workers.dev/v1/map/archive/indonesia.pmtiles","updatedAt":"2026-07-26T09:38:17.170Z"},"geometry":{"type":"Polygon","coordinates":[[[131.1273193359375,5.971217057997222],[131.4898681640625,5.971217057997222],[131.4898681640625,5.61051899590089],[131.1273193359375,5.61051899590089],[131.1273193359375,5.971217057997222]]]}}]}