{"type":"FeatureCollection","features":[{"type":"Feature","id":"pmtiles:10/834/510:mountain_peak:10701619001:0","properties":{"name_int":"Bukit Lujang","name_de":"Bukit Lujang","name":"Bukit Lujang","rank":1,"class":"peak","name:latin":"Bukit Lujang","name_en":"Bukit Lujang","kind":"poi","verification":"verified","source":"OpenMapTiles/OpenStreetMap national PMTiles","sourceId":"10/834/510:mountain_peak:10701619001:0","sourceLayer":"mountain_peak","archive":"https://its.hanifahseptiani45.workers.dev/v1/map/archive/indonesia.pmtiles","updatedAt":"2026-07-26T09:41:04.866Z"},"geometry":{"type":"Point","coordinates":[113.43332290649414,0.3500153705550133]}},{"type":"Feature","id":"pmtiles:10/834/510:mountain_peak:10701911091:0","properties":{"name_int":"Bukit Betikap","name_de":"Bukit Betikap","name":"Bukit Betikap","rank":2,"class":"peak","name:latin":"Bukit Betikap","name_en":"Bukit Betikap","kind":"poi","verification":"verified","source":"OpenMapTiles/OpenStreetMap national PMTiles","sourceId":"10/834/510:mountain_peak:10701911091:0","sourceLayer":"mountain_peak","archive":"https://its.hanifahseptiani45.workers.dev/v1/map/archive/indonesia.pmtiles","updatedAt":"2026-07-26T09:41:04.866Z"},"geometry":{"type":"Point","coordinates":[113.41667175292969,0.2666749862598863]}},{"type":"Feature","id":"pmtiles:10/833/511:mountain_peak:10701884421:0","properties":{"name_int":"Bukit Tutatjaru","name_de":"Bukit Tutatjaru","name":"Bukit Tutatjaru","rank":1,"class":"peak","name:latin":"Bukit Tutatjaru","name_en":"Bukit Tutatjaru","kind":"poi","verification":"verified","source":"OpenMapTiles/OpenStreetMap national PMTiles","sourceId":"10/833/511:mountain_peak:10701884421:0","sourceLayer":"mountain_peak","archive":"https://its.hanifahseptiani45.workers.dev/v1/map/archive/indonesia.pmtiles","updatedAt":"2026-07-26T09:41:14.185Z"},"geometry":{"type":"Point","coordinates":[113.2166862487793,0.2333729966745608]}},{"type":"Feature","id":"pmtiles:10/834/511:landcover:187810333:0","properties":{"subclass":"wood","class":"wood","kind":"green","verification":"verified","source":"OpenMapTiles/OpenStreetMap national PMTiles","sourceId":"10/834/511:landcover:187810333:0","sourceLayer":"landcover","archive":"https://its.hanifahseptiani45.workers.dev/v1/map/archive/indonesia.pmtiles","updatedAt":"2026-07-26T09:41:14.246Z"},"geometry":{"type":"Polygon","coordinates":[[[113.54035377502441,0.017681121545550127],[113.53872299194336,0.01690864538444714],[113.53769302368164,0.0199985500089781],[113.53683471679688,0.02059936479059843],[113.53589057922363,0.020427703424644506],[113.53331565856934,0.016393661275344584],[113.53228569030762,0.016050338535208653],[113.52971076965332,0.016479491960282644],[113.52902412414551,0.017080306753854302],[113.52816581726074,0.019483565908686273],[113.5272216796875,0.020084380692210857],[113.51692199707031,0.0203418727416107],[113.51391792297363,0.026607512471386485],[113.51374626159668,0.029783247560089876],[113.50919723510742,0.03381728929630867],[113.50696563720703,0.040426250918216056],[113.50593566894531,0.041885372245857866],[113.50421905517578,0.04222869490726566],[113.50250244140625,0.04145621891697715],[113.50001335144043,0.03862380688916289],[113.49932670593262,0.0383663148818556],[113.49898338317871,0.03870963755809953],[113.49915504455566,0.04214286424206648],[113.5000991821289,0.042657848231911544],[113.50138664245605,0.04214286424206648],[113.50181579589844,0.042829509561087775],[113.50147247314453,0.0438594775280734],[113.50001335144043,0.04463195349401872],[113.49700927734375,0.044031138854521146],[113.49177360534668,0.04471778415641836],[113.49177360534668,0.04712104266175743],[113.4884262084961,0.05132674484407573],[113.48739624023438,0.05527495480481548],[113.4836196899414,0.05681990645815915],[113.48104476928711,0.05913733386036313],[113.47984313964844,0.06274222073679425],[113.48061561584473,0.06883619559843623],[113.48010063171387,0.069265348729175],[113.4788990020752,0.06917951810332568],[113.47864151000977,0.06969450185602],[113.48147392272949,0.07312772672794665],[113.47855567932129,0.07475850845089838],[113.47709655761719,0.07278440425235999],[113.47709655761719,0.07175443680999649],[113.47615242004395,0.07123945308006796],[113.47477912902832,0.07355687981873871],[113.47452163696289,0.0778484104956334],[113.4726333618164,0.08068082050462522],[113.4726333618164,0.08342739971905644],[113.46962928771973,0.08617397874176902],[113.47005844116211,0.08780475994323922],[113.47271919250488,0.08986469399060582],[113.47289085388184,0.09089466097088916],[113.46920013427734,0.09458537574003856],[113.466796875,0.09784693730287586],[113.4653377532959,0.09853358180237137],[113.46559524536133,0.10136599021213044],[113.46439361572266,0.10153765132000103],[113.46284866333008,0.1041983983741801],[113.46302032470703,0.10479921219423716],[113.46413612365723,0.10522836491578857],[113.4642219543457,0.10617250088239416],[113.46224784851074,0.10771745058363535],[113.46027374267578,0.10771745058363535],[113.45932960510254,0.11054985816502949],[113.4572696685791,0.113124773913853],[113.45658302307129,0.11501304531807932],[113.45340728759766,0.1175879606675636],[113.4517765045166,0.12076368927095871],[113.44928741455078,0.12136450274908839],[113.44877243041992,0.12342443457237096],[113.44679832458496,0.12428273945181445],[113.4462833404541,0.126342671048306],[113.44679832458496,0.12745846726170384],[113.44405174255371,0.13003338141514575],[113.44018936157227,0.13089168607487522],[113.43847274780273,0.1338099216970221],[113.43795776367188,0.13604151340958026],[113.43624114990234,0.13638483519326883],[113.43478202819824,0.13930307015573362],[113.43246459960938,0.141191339645232],[113.43134880065918,0.14316543940208248],[113.42920303344727,0.14471038691944216],[113.4280014038086,0.14711363840355318],[113.42645645141602,0.14780028163738734],[113.4257698059082,0.14951688962885612],[113.42044830322266,0.15209180136395162],[113.41684341430664,0.15320759635405068],[113.41452598571777,0.15312176597225857],[113.4115219116211,0.15423756090874008],[113.41014862060547,0.1538942393960383],[113.40645790100098,0.1571557935419463],[113.4052562713623,0.15706996317616984],[113.40422630310059,0.1581857579037802],[113.40414047241211,0.16015985612077088],[113.40242385864258,0.16204812380266276],[113.40276718139648,0.1634214092790387],[113.40070724487305,0.1653955069866555],[113.39864730834961,0.16900038055314326],[113.3983039855957,0.170631156471444],[113.39658737182617,0.1718327807439266],[113.39598655700684,0.17363521701076934],[113.39315414428711,0.17500850167026272],[113.39229583740234,0.17681093763313527],[113.3887767791748,0.17809839178531206],[113.38748931884766,0.18170326293093808],[113.38620185852051,0.1821324142101588],[113.38354110717773,0.18196075369969833],[113.38225364685059,0.1832482074882762],[113.38045120239258,0.19011462611551622],[113.37830543518066,0.19311868341215188],[113.37899208068848,0.19440613637725335],[113.37701797485352,0.19569358924418623],[113.37658882141113,0.19766768344801733],[113.37530136108398,0.19809683433092573],[113.37521553039551,0.19972760758443542],[113.37427139282227,0.19998509808337417],[113.37238311767578,0.2039332852250908],[113.37178230285645,0.20410494551377667],[113.37058067321777,0.20324664405208637],[113.36989402770996,0.20590737843397733],[113.36577415466309,0.20942641354642433],[113.3682632446289,0.2123446371873854],[113.36663246154785,0.21637865131184242],[113.36491584777832,0.21775193247216862],[113.36337089538574,0.21526286027749109],[113.3624267578125,0.21775193247216862],[113.36019515991211,0.22084181462436447],[113.35521697998047,0.22350254596332775],[113.35315704345703,0.22530497659684556],[113.35324287414551,0.2298539672002562],[113.35238456726074,0.2331155067427204],[113.35272789001465,0.23577623581046225],[113.3514404296875,0.2373211750361861],[113.3510971069336,0.2386944542031273],[113.3503246307373,0.23895194403168318],[113.34989547729492,0.23998190329760405],[113.34809303283691,0.2405827128336142],[113.34277153015137,0.2410118624859905],[113.33925247192383,0.24324344045983537],[113.33830833435059,0.2459899974592048],[113.33539009094238,0.24813574472196365],[113.3353042602539,0.25156893961725757],[113.3335018157959,0.25251306805562024],[113.33272933959961,0.25474464409150244],[113.33333015441895,0.25809200741964844],[113.33187103271484,0.2585211565008194],[113.32818031311035,0.2611818804793984],[113.32500457763672,0.26186851883427664],[113.32466125488281,0.26315596564823807],[113.32388877868652,0.2636709443366527],[113.31676483154297,0.26487256119338554],[113.31753730773926,0.26787660282437287],[113.32380294799805,0.2676191135704471],[113.3283519744873,0.26847741106246303],[113.33075523376465,0.26787660282437287],[113.33418846130371,0.2683057515688887],[113.3360767364502,0.2673616243111354],[113.33770751953125,0.26787660282437287],[113.33916664123535,0.2671041350464094],[113.34122657775879,0.26890655978588995],[113.34620475769043,0.2682199218211707],[113.34783554077148,0.2671041350464094],[113.35006713867188,0.26650332674107347],[113.35126876831055,0.2672757945568094],[113.35221290588379,0.2696790274500245],[113.35427284240723,0.27036566533254813],[113.35487365722656,0.2718247707038586],[113.35762023925781,0.2730263867596818],[113.35865020751953,0.2746571512146829],[113.36071014404297,0.27242557874674844],[113.36577415466309,0.27148145180879624],[113.3682632446289,0.2700223463961322],[113.37023735046387,0.27027983559935365],[113.3722972869873,0.2692498787537829],[113.3734130859375,0.2700223463961322],[113.37478637695312,0.2701081761311457],[113.37701797485352,0.26753328381794006],[113.37950706481934,0.2673616243111354],[113.37985038757324,0.2682199218211707],[113.3840560913086,0.2662458374583849],[113.38457107543945,0.26633166721990165],[113.38482856750488,0.26744745406483617],[113.38663101196289,0.2677049433223573],[113.3902359008789,0.26513005050469474],[113.39178085327148,0.26513005050469474],[113.3953857421875,0.2636709443366527],[113.40002059936523,0.26264098693856397],[113.40396881103516,0.2600660930727514],[113.40731620788574,0.2589503055674669],[113.40791702270508,0.2589503055674669],[113.41006278991699,0.26289847629607266],[113.41109275817871,0.2628126465108238],[113.41169357299805,0.26375677411598986],[113.41349601745605,0.2634992847762163],[113.4147834777832,0.2647009016495616],[113.41667175292969,0.26375677411598986],[113.4177017211914,0.2641859230037795],[113.42087745666504,0.2625551571515672],[113.42388153076172,0.2634992847762163],[113.42551231384277,0.2616968592490849],[113.42714309692383,0.26195434862599143],[113.42894554138184,0.2601519228767728],[113.43160629272461,0.2598944334629749],[113.4323787689209,0.26032358248305343],[113.4341812133789,0.2592936248103541],[113.43564033508301,0.2592936248103541],[113.43667030334473,0.26023775268019733],[113.43795776367188,0.2596369440439048],[113.43873023986816,0.26032358248305343],[113.44061851501465,0.25946528442830186],[113.44267845153809,0.2600660930727514],[113.44156265258789,0.2616968592490849],[113.44147682189941,0.2633276252134209],[113.44482421875,0.2634134549951028],[113.44636917114258,0.26452924210333606],[113.4477424621582,0.2632417954311279],[113.45100402832031,0.2636709443366527],[113.45203399658203,0.2647867314217649],[113.45211982727051,0.26633166721990165],[113.45332145690918,0.2683057515688887],[113.45804214477539,0.2712239626310975],[113.4627628326416,0.2764595748271006],[113.4642219543457,0.27706038263717403],[113.46576690673828,0.28049356953697213],[113.46756935119629,0.2808368881717769],[113.46859931945801,0.2800644212293406],[113.4693717956543,0.2801502508921203],[113.47254753112793,0.2822959922570192],[113.47323417663574,0.28650164418088764],[113.47503662109375,0.28830406596273406],[113.4792423248291,0.2913081016309178],[113.48267555236816,0.2921663973894084],[113.48507881164551,0.2945696251637173],[113.48748207092285,0.29559957976572093],[113.4902286529541,0.29800280679839375],[113.49091529846191,0.29997688575463144],[113.49477767944336,0.30315257724035405],[113.49700927734375,0.3042683605147687],[113.49958419799805,0.3009210103471105],[113.49967002868652,0.2984319544277554],[113.50044250488281,0.2983461249032189],[113.5103988647461,0.30607077940638305],[113.51966857910156,0.31122054599306637],[113.52069854736328,0.31302296370654403],[113.52293014526367,0.31190718134890005],[113.52447509765625,0.312164669595802],[113.52962493896484,0.3164561394452079],[113.5312557220459,0.3193743379301992],[113.53812217712402,0.32332248750151393],[113.54284286499023,0.3240949513690907],[113.54756355285645,0.32761395268492777],[113.5488510131836,0.3295021967847873],[113.55073928833008,0.3301030016507127],[113.55168342590332,0.3316479282819529],[113.55374336242676,0.33319285467204907],[113.55425834655762,0.33456612237101524],[113.55340003967285,0.3393725577986828],[113.55348587036133,0.34804130134831723],[113.5572624206543,0.352504413744839],[113.5587215423584,0.3524185846803789],[113.5601806640625,0.3530193881150012],[113.5601806640625,0.008239746065356712],[113.55940818786621,0.008497238128043705],[113.55623245239258,0.006694793685937839],[113.55091094970703,0.007123947125194263],[113.54541778564453,0.006265640246311932],[113.543701171875,0.008668899503049943],[113.54361534118652,0.012359619044772785],[113.54421615600586,0.014934539625812704],[113.54241371154785,0.016994476069172038],[113.54035377502441,0.017681121545550127]]]}},{"type":"Feature","id":"pmtiles:10/834/511:landcover:187810343:0","properties":{"subclass":"wood","class":"wood","kind":"green","verification":"verified","source":"OpenMapTiles/OpenStreetMap national PMTiles","sourceId":"10/834/511:landcover:187810343:0","sourceLayer":"landcover","archive":"https://its.hanifahseptiani45.workers.dev/v1/map/archive/indonesia.pmtiles","updatedAt":"2026-07-26T09:41:14.246Z"},"geometry":{"type":"Polygon","coordinates":[[[113.280029296875,0.3570533530247104],[113.27822685241699,0.352761900933487],[113.27436447143555,0.35010119964154285],[113.27316284179688,0.34821295955663345],[113.27290534973145,0.3458955734812008],[113.27204704284668,0.34417899083807413],[113.27505111694336,0.3402308495889912],[113.2745361328125,0.33954421616284947],[113.27256202697754,0.33980170370335827],[113.27230453491211,0.3390292410612119],[113.27281951904297,0.33842843674138123],[113.27668190002441,0.3363685359341133],[113.28466415405273,0.3344802931454467],[113.28612327575684,0.3334503423802033],[113.2898998260498,0.3354244145853329],[113.2921314239502,0.3339653177763182],[113.29341888427734,0.3338794885455201],[113.29745292663574,0.3354244145853329],[113.29891204833984,0.3380851199704864],[113.3023452758789,0.33842843674138123],[113.30389022827148,0.33731265719157477],[113.30612182617188,0.336797681971575],[113.30620765686035,0.3343086346920643],[113.30955505371094,0.3326778792355469],[113.3115291595459,0.3301888309143095],[113.31178665161133,0.3286439040563778],[113.31418991088867,0.3288155626079714],[113.31401824951172,0.32632651332180274],[113.31564903259277,0.32332248750151393],[113.31727981567383,0.3244382686246752],[113.31770896911621,0.32666983050143017],[113.32311630249023,0.33096129425331355],[113.32423210144043,0.3326778792355469],[113.32603454589844,0.33353617161475313],[113.33298683166504,0.3354244145853329],[113.33521842956543,0.336711852765589],[113.34088325500488,0.33370783008163585],[113.34620475769043,0.33276370847681846],[113.34869384765625,0.3336220008485782],[113.35066795349121,0.33284953771735104],[113.35118293762207,0.3336220008485782],[113.35058212280273,0.33834260754979084],[113.3514404296875,0.33842843674138123],[113.35281372070312,0.33731265719157477],[113.35495948791504,0.33336451314490034],[113.35607528686523,0.3285580747794796],[113.36079597473145,0.32323665817926894],[113.36886405944824,0.3198893140476571],[113.37281227111816,0.31731443320281016],[113.37684631347656,0.3174860919458098],[113.3785629272461,0.3167136275799578],[113.38105201721191,0.31637031006553684],[113.38225364685059,0.3167136275799578],[113.38362693786621,0.31594116315655185],[113.38517189025879,0.3157695043879727],[113.38620185852051,0.3167136275799578],[113.39341163635254,0.31628448068515524],[113.39478492736816,0.3164561394452079],[113.39590072631836,0.31731443320281016],[113.40027809143066,0.3126796460706771],[113.40448379516602,0.3132804519260759],[113.40585708618164,0.31302296370654403],[113.40680122375488,0.31353794013929814],[113.41083526611328,0.312164669595802],[113.41366767883301,0.3124221578363944],[113.42147827148438,0.3108772282983807],[113.4257698059082,0.3107055694468528],[113.42740058898926,0.3093322985343434],[113.42791557312012,0.30546997314274904],[113.42894554138184,0.30315257724035405],[113.43194961547852,0.3030667477529505],[113.43323707580566,0.3018651348578487],[113.43864440917969,0.3022942823356374],[113.44207763671875,0.3014359873631065],[113.44654083251953,0.3020367938509878],[113.44842910766602,0.3034100656985288],[113.45246315002441,0.3041825310362185],[113.4543514251709,0.304096701556972],[113.45623970031738,0.30220845284144104],[113.45898628234863,0.30100683985143917],[113.46465110778809,0.3019509643547593],[113.46636772155762,0.30169347586198114],[113.46911430358887,0.30263760030568676],[113.47108840942383,0.3046975078972878],[113.47563743591309,0.3076157096438976],[113.47829818725586,0.308216515787052],[113.48267555236816,0.31285130489003166],[113.48464965820312,0.31310879311376993],[113.48739624023438,0.3167136275799578],[113.4898853302002,0.31439623413757545],[113.49091529846191,0.3140529165467285],[113.49220275878906,0.3124221578363944],[113.49752426147461,0.31276547548070255],[113.50069999694824,0.3100189340128594],[113.49803924560547,0.3044400194698369],[113.49735260009766,0.3035817246672252],[113.4968376159668,0.3042683605147687],[113.49452018737793,0.30289508877609705],[113.49091529846191,0.29997688575463144],[113.4902286529541,0.29800280679839375],[113.48859786987305,0.29645787519446287],[113.48507881164551,0.2945696251637173],[113.48267555236816,0.2921663973894084],[113.4792423248291,0.2913081016309178],[113.47503662109375,0.28830406596273406],[113.47323417663574,0.28650164418088764],[113.47254753112793,0.2822959922570192],[113.4693717956543,0.2801502508921203],[113.46859931945801,0.2800644212293406],[113.46756935119629,0.2808368881717769],[113.46576690673828,0.28049356953697213],[113.4642219543457,0.27706038263717403],[113.4627628326416,0.2764595748271006],[113.45804214477539,0.2712239626310975],[113.45332145690918,0.2683057515688887],[113.45211982727051,0.26633166721990165],[113.45203399658203,0.2647867314217649],[113.45100402832031,0.2636709443366527],[113.4477424621582,0.2632417954311279],[113.44636917114258,0.26452924210333606],[113.44482421875,0.2634134549951028],[113.44147682189941,0.2633276252134209],[113.44156265258789,0.2616968592490849],[113.44276428222656,0.26023775268019733],[113.4419059753418,0.2598086036572056],[113.4404468536377,0.25946528442830186],[113.43864440917969,0.26032358248305343],[113.43770027160645,0.2596369440439048],[113.43667030334473,0.26023775268019733],[113.43564033508301,0.2592936248103541],[113.4341812133789,0.2592936248103541],[113.4323787689209,0.26032358248305343],[113.43160629272461,0.2598944334629749],[113.43023300170898,0.2604094122853269],[113.42937469482422,0.2600660930727514],[113.42714309692383,0.26195434862599143],[113.42551231384277,0.2616968592490849],[113.42388153076172,0.2634992847762163],[113.42087745666504,0.2625551571515672],[113.4177017211914,0.2641859230037795],[113.41667175292969,0.26375677411598986],[113.4147834777832,0.2647009016495616],[113.41349601745605,0.2634992847762163],[113.41169357299805,0.26375677411598986],[113.41109275817871,0.2628126465108238],[113.41006278991699,0.26289847629607266],[113.40791702270508,0.2589503055674669],[113.40731620788574,0.2589503055674669],[113.40396881103516,0.2600660930727514],[113.40002059936523,0.26264098693856397],[113.3953857421875,0.2636709443366527],[113.39178085327148,0.26513005050469474],[113.3902359008789,0.26513005050469474],[113.38663101196289,0.2677049433223573],[113.38482856750488,0.26744745406483617],[113.38457107543945,0.26633166721990165],[113.3840560913086,0.2662458374583849],[113.37985038757324,0.2682199218211707],[113.37950706481934,0.2673616243111354],[113.37701797485352,0.26753328381794006],[113.37478637695312,0.2701081761311457],[113.3734130859375,0.2700223463961322],[113.3722972869873,0.2692498787537829],[113.37023735046387,0.27027983559935365],[113.3682632446289,0.2700223463961322],[113.36577415466309,0.27148145180879624],[113.36071014404297,0.27242557874674844],[113.35847854614258,0.2746571512146829],[113.35762023925781,0.2730263867596818],[113.35495948791504,0.2719106004261107],[113.35444450378418,0.2705373247971181],[113.35221290588379,0.2696790274500245],[113.35126876831055,0.2672757945568094],[113.35006713867188,0.26650332674107347],[113.34783554077148,0.2671041350464094],[113.34620475769043,0.2682199218211707],[113.34122657775879,0.26890655978588995],[113.33916664123535,0.2671041350464094],[113.33770751953125,0.26787660282437287],[113.3360767364502,0.2673616243111354],[113.33418846130371,0.2683057515688887],[113.33075523376465,0.26787660282437287],[113.3283519744873,0.26847741106246303],[113.32380294799805,0.2676191135704471],[113.31762313842773,0.26796243257447827],[113.31633567810059,0.2630701358647656],[113.3133316040039,0.26032358248305343],[113.30826759338379,0.2583494968700961],[113.30646514892578,0.2566329004355197],[113.30474853515625,0.25611792146017365],[113.30440521240234,0.25534545295833766],[113.29951286315918,0.2537146859689017],[113.29771041870117,0.25174059933841875],[113.29462051391602,0.2501098318964097],[113.29144477844238,0.24916570328466037],[113.2869815826416,0.24942319291277215],[113.28543663024902,0.24882238377269061],[113.28140258789062,0.24204182159645882],[113.27831268310547,0.2396385835508994],[113.27693939208984,0.2374070049881425],[113.27410697937012,0.23508959609949898],[113.26724052429199,0.23320133672052634],[113.26449394226074,0.2310555871189166],[113.26148986816406,0.2299397971978152],[113.25702667236328,0.22899566719644326],[113.25161933898926,0.22899566719644326],[113.24329376220703,0.23122724709899956],[113.23488235473633,0.2299397971978152],[113.22853088378906,0.23191388699861193],[113.22157859802246,0.2331155067427204],[113.2152271270752,0.2362912155714838],[113.21222305297852,0.23672036535774055],[113.20501327514648,0.23998190329760405],[113.1976318359375,0.2410118624859905],[113.1976318359375,0.3570533530247104],[113.280029296875,0.3570533530247104]]]}},{"type":"Feature","id":"pmtiles:10/834/511:landcover:187810353:0","properties":{"subclass":"wood","class":"wood","kind":"green","verification":"verified","source":"OpenMapTiles/OpenStreetMap national PMTiles","sourceId":"10/834/511:landcover:187810353:0","sourceLayer":"landcover","archive":"https://its.hanifahseptiani45.workers.dev/v1/map/archive/indonesia.pmtiles","updatedAt":"2026-07-26T09:41:14.246Z"},"geometry":{"type":"Polygon","coordinates":[[[113.5601806640625,0.3570533530247104],[113.5601806640625,0.3530193881150012],[113.5587215423584,0.3524185846803789],[113.5572624206543,0.352504413744839],[113.55348587036133,0.34804130134831723],[113.55340003967285,0.3393725577986828],[113.55425834655762,0.33456612237101524],[113.55374336242676,0.33319285467204907],[113.55168342590332,0.3316479282819529],[113.55073928833008,0.3301030016507127],[113.5488510131836,0.3295021967847873],[113.54756355285645,0.32761395268492777],[113.54284286499023,0.3240949513690907],[113.53812217712402,0.32332248750151393],[113.5312557220459,0.3193743379301992],[113.52962493896484,0.3164561394452079],[113.52447509765625,0.312164669595802],[113.52293014526367,0.31190718134890005],[113.52069854736328,0.31302296370654403],[113.51966857910156,0.31122054599306637],[113.5103988647461,0.30607077940638305],[113.50018501281738,0.29826029537801446],[113.49967002868652,0.29860361347481046],[113.49958419799805,0.3009210103471105],[113.49735260009766,0.3035817246672252],[113.49838256835938,0.30478333737175944],[113.50069999694824,0.3101047634445564],[113.49761009216309,0.31276547548070255],[113.49220275878906,0.3124221578363944],[113.49091529846191,0.3140529165467285],[113.4898853302002,0.31439623413757545],[113.48739624023438,0.3167136275799578],[113.48464965820312,0.3131946225202853],[113.48267555236816,0.31285130489003166],[113.47829818725586,0.3083023452333009],[113.47563743591309,0.3076157096438976],[113.47108840942383,0.3046975078972878],[113.46911430358887,0.30263760030568676],[113.46636772155762,0.30169347586198114],[113.46465110778809,0.3020367938509878],[113.45898628234863,0.30100683985143917],[113.45632553100586,0.30220845284144104],[113.4543514251709,0.3041825310362185],[113.45246315002441,0.3042683605147687],[113.44842910766602,0.3034100656985288],[113.44654083251953,0.3020367938509878],[113.44207763671875,0.3014359873631065],[113.43864440917969,0.3022942823356374],[113.43323707580566,0.3018651348578487],[113.43194961547852,0.3030667477529505],[113.42894554138184,0.3032384067270897],[113.42791557312012,0.30546997314274904],[113.42748641967773,0.3093322985343434],[113.4257698059082,0.3107055694468528],[113.42156410217285,0.3108772282983807],[113.41366767883301,0.3124221578363944],[113.41083526611328,0.312164669595802],[113.40680122375488,0.3136237695423034],[113.40585708618164,0.31302296370654403],[113.40448379516602,0.3133662813311986],[113.40027809143066,0.3126796460706771],[113.39590072631836,0.31740026257466525],[113.39478492736816,0.3164561394452079],[113.39341163635254,0.31628448068515524],[113.38620185852051,0.3167994569567867],[113.38517189025879,0.31585533377261754],[113.38362693786621,0.31594116315655185],[113.38225364685059,0.3167994569567867],[113.38105201721191,0.31637031006553684],[113.3785629272461,0.3167136275799578],[113.37684631347656,0.3174860919458098],[113.37281227111816,0.31740026257466525],[113.36886405944824,0.3198893140476571],[113.36079597473145,0.32332248750151393],[113.35607528686523,0.3285580747794796],[113.35495948791504,0.3334503423802033],[113.35281372070312,0.3373984863922601],[113.3514404296875,0.33842843674138123],[113.35049629211426,0.33834260754979084],[113.3510971069336,0.3336220008485782],[113.35066795349121,0.33284953771735104],[113.34869384765625,0.33370783008163585],[113.34620475769043,0.33276370847681846],[113.34088325500488,0.33379365931395455],[113.33521842956543,0.336711852765589],[113.33298683166504,0.3355102438026165],[113.32603454589844,0.33353617161475313],[113.32423210144043,0.3326778792355469],[113.32311630249023,0.33096129425331355],[113.31770896911621,0.32666983050143017],[113.3170223236084,0.32460992724809046],[113.31573486328125,0.3235799754639004],[113.31418991088867,0.3264123426178003],[113.31436157226562,0.3290730504298267],[113.3118724822998,0.32890139188265266],[113.31170082092285,0.330360489439272],[113.30972671508789,0.33284953771735104],[113.30646514892578,0.3344802931454467],[113.30629348754883,0.33696934038125903],[113.30397605895996,0.33757014479137126],[113.30243110656738,0.33860009512227407],[113.3016586303711,0.3388575826879219],[113.29882621765137,0.3382567783574473],[113.29728126525879,0.33559607301916117],[113.29333305358887,0.3341369762356976],[113.29221725463867,0.3341369762356976],[113.2898998260498,0.33568190223493843],[113.28612327575684,0.3336220008485782],[113.28474998474121,0.3346519515958306],[113.28011512756348,0.3355102438026165],[113.27539443969727,0.33714099878794457],[113.27273368835449,0.33877175350014],[113.27264785766602,0.33954421616284947],[113.2745361328125,0.3392867286154484],[113.27522277832031,0.3396300453437675],[113.27530860900879,0.340316678763827],[113.27230453491211,0.34417899083807413],[113.2730770111084,0.34580974435640144],[113.27333450317383,0.34812713045285193],[113.2745361328125,0.34992954146768795],[113.27839851379395,0.35267607187140015],[113.28020095825195,0.3570533530247104],[113.5601806640625,0.3570533530247104]]]}},{"type":"Feature","id":"pmtiles:10/834/511:landcover:187858943:0","properties":{"subclass":"wood","class":"wood","kind":"green","verification":"verified","source":"OpenMapTiles/OpenStreetMap national PMTiles","sourceId":"10/834/511:landcover:187858943:0","sourceLayer":"landcover","archive":"https://its.hanifahseptiani45.workers.dev/v1/map/archive/indonesia.pmtiles","updatedAt":"2026-07-26T09:41:14.247Z"},"geometry":{"type":"Polygon","coordinates":[[[113.39066505432129,0.11338226547624686],[113.38997840881348,0.11303894339255294],[113.3887767791748,0.11372558755589068],[113.38766098022461,0.113124773913853],[113.38517189025879,0.11329643495569997],[113.38457107543945,0.11260979078218725],[113.38191032409668,0.11260979078218725],[113.37821960449219,0.11424057066767546],[113.37736129760742,0.11595718097345298],[113.37684631347656,0.11604301148602758],[113.37573051452637,0.11389724859417072],[113.37444305419922,0.11346809599655217],[113.3737564086914,0.11175148554258385],[113.37246894836426,0.1124381297362902],[113.37246894836426,0.11106484133281924],[113.37135314941406,0.11072151922193996],[113.36920738220215,0.10797494219293924],[113.36774826049805,0.10479921219423716],[113.367919921875,0.10196680408563452],[113.36628913879395,0.10179514298006609],[113.36422920227051,0.09810442899186],[113.36251258850098,0.09767527617582061],[113.36079597473145,0.09449954516840364],[113.35899353027344,0.09467120631146031],[113.35813522338867,0.09218211965490752],[113.35616111755371,0.08986469399060582],[113.35616111755371,0.08806225170542348],[113.35487365722656,0.08686062346676238],[113.35667610168457,0.08033749808966206],[113.35616111755371,0.07810590232259074],[113.35478782653809,0.07690427378334164],[113.3540153503418,0.07089613059028466],[113.3558177947998,0.07029531622700347],[113.35676193237305,0.06171225308251849],[113.35762023925781,0.06059645476791786],[113.36079597473145,0.05956648707250167],[113.35942268371582,0.05862235000142846],[113.35624694824219,0.0576782129144533],[113.35504531860352,0.055789938693777685],[113.35453033447266,0.05141257549806255],[113.35392951965332,0.05021094633193002],[113.35487365722656,0.048837655829345294],[113.35538864135742,0.046691889363174255],[113.35418701171875,0.04317283221830337],[113.35461616516113,0.04059791225226661],[113.35384368896484,0.03896712956436943],[113.35264205932617,0.0383663148818556],[113.35212707519531,0.03707885483376572],[113.35204124450684,0.035190580062888444],[113.35367202758789,0.030641554325512743],[113.35332870483398,0.02935409417486312],[113.35272789001465,0.028924940787973696],[113.35006713867188,0.029611586206200968],[113.34792137145996,0.02935409417486312],[113.3525562286377,0.02875327943277739],[113.35229873657227,0.026865004508792367],[113.35375785827637,0.022830962530576926],[113.35229873657227,0.01905441249056139],[113.35358619689941,0.018367767019384473],[113.35418701171875,0.01673698401489787],[113.35616111755371,0.014076232768559294],[113.35504531860352,0.01210212698519797],[113.35513114929199,0.009355545002378562],[113.35676193237305,0.005493164054087174],[113.36028099060059,0.003261566160347229],[113.36156845092773,0.0015449523923933839],[113.36259841918945,0.001459121703945243],[113.36440086364746,0.002574920653430013],[113.36491584777832,0.00231742858824191],[113.36474418640137,0.0007724761962606408],[113.36294174194336,-0.0021457672114166826],[113.36019515991211,-0.004806518549045791],[113.36019515991211,-0.005493164054087174],[113.3016586303711,-0.005493164054087174],[113.30140113830566,-0.004892349237209714],[113.2994270324707,-0.005407333365994305],[113.29298973083496,0.0008583068847372033],[113.29264640808105,0.00231742858824191],[113.29015731811523,0.0012016296385866099],[113.28723907470703,0.0024890899650387155],[113.28449249267578,0.0020599365229969635],[113.28380584716797,0.0027465820301983968],[113.28492164611816,0.004720687860867656],[113.28354835510254,0.005750656118266306],[113.28226089477539,0.005750656118266306],[113.28234672546387,0.004291534419820664],[113.28191757202148,0.003261566160347229],[113.27316284179688,0.0030040740953012346],[113.27187538146973,0.0024890899650387155],[113.27041625976562,0.0028324127185754833],[113.26852798461914,0.009355545002378562],[113.2693862915039,0.01141548149186633],[113.2661247253418,0.01150131217862338],[113.26784133911133,0.013132095221934037],[113.26672554016113,0.01304626453570279],[113.2638931274414,0.009527206377001107],[113.26088905334473,0.009183883627670753],[113.25857162475586,0.006952285749534326],[113.2577133178711,0.006952285749534326],[113.2565975189209,0.009098052940288426],[113.25136184692383,0.012617111104077594],[113.25058937072754,0.013647079338738877],[113.24835777282715,0.013303756594325478],[113.24801445007324,0.013732910024771172],[113.24732780456543,0.017938613598531106],[113.24878692626953,0.021028518204659008],[113.24784278869629,0.021543502299991246],[113.2412338256836,0.02205848639357555],[113.23925971984863,0.023517607982213917],[113.23883056640625,0.02557754431649073],[113.24097633361816,0.02703666586674558],[113.24028968811035,0.028152464687522638],[113.2390022277832,0.02798080333116104],[113.23548316955566,0.02497672955561825],[113.23050498962402,0.025920867035722495],[113.22793006896973,0.02755164993916992],[113.2302474975586,0.02901077146547948],[113.2305908203125,0.030984877029780478],[113.22818756103516,0.031671522434947974],[113.22690010070801,0.03124236905723876],[113.22458267211914,0.026607512471386485],[113.2236385345459,0.0257492056762203],[113.22140693664551,0.02995490891372299],[113.21763038635254,0.030384062296604952],[113.21024894714355,0.02986907823694196],[113.20921897888184,0.03021240094363975],[113.20887565612793,0.03244399851030266],[113.2075023651123,0.032615659859615675],[113.20261001586914,0.030984877029780478],[113.2005500793457,0.030899046353823678],[113.1976318359375,0.028581618077296866],[113.1976318359375,0.029783247560089876],[113.19806098937988,0.02995490891372299],[113.1976318359375,0.03270149053413718],[113.1976318359375,0.2410118624859905],[113.20501327514648,0.23998190329760405],[113.21222305297852,0.23672036535774055],[113.2152271270752,0.2362912155714838],[113.22157859802246,0.2331155067427204],[113.22853088378906,0.23191388699861193],[113.23488235473633,0.2299397971978152],[113.24329376220703,0.23122724709899956],[113.25161933898926,0.22899566719644326],[113.25702667236328,0.22899566719644326],[113.26423645019531,0.23088392713673045],[113.26724052429199,0.23320133672052634],[113.27410697937012,0.23508959609949898],[113.27693939208984,0.2374070049881425],[113.27831268310547,0.2396385835508994],[113.28140258789062,0.24204182159645882],[113.28543663024902,0.24882238377269061],[113.2869815826416,0.24942319291277215],[113.29144477844238,0.24916570328466037],[113.29736709594727,0.25148310975583854],[113.29951286315918,0.2537146859689017],[113.30440521240234,0.25534545295833766],[113.30474853515625,0.25611792146017365],[113.30646514892578,0.2566329004355197],[113.30826759338379,0.2583494968700961],[113.3133316040039,0.26032358248305343],[113.31633567810059,0.2630701358647656],[113.31676483154297,0.26487256119338554],[113.32448959350586,0.2633276252134209],[113.32500457763672,0.2617826890419792],[113.32818031311035,0.2610960506824114],[113.33187103271484,0.2585211565008194],[113.33333015441895,0.25809200741964844],[113.33264350891113,0.2548304739313352],[113.33341598510742,0.25242723820042556],[113.3353042602539,0.25148310975583854],[113.3353042602539,0.24813574472196365],[113.33830833435059,0.2459899974592048],[113.33925247192383,0.24324344045983537],[113.34277153015137,0.2410118624859905],[113.34800720214844,0.2404968829015104],[113.34980964660645,0.23989607336173435],[113.3503246307373,0.23886611408937597],[113.35101127624512,0.2386944542031273],[113.35135459899902,0.2373211750361861],[113.35272789001465,0.23577623581046225],[113.35229873657227,0.2331155067427204],[113.35315704345703,0.2298539672002562],[113.35307121276855,0.2252191465717317],[113.35521697998047,0.2234167159276268],[113.36019515991211,0.22075598457323053],[113.3624267578125,0.21766610240331374],[113.36337089538574,0.21517703019452483],[113.36491584777832,0.21766610240331374],[113.36663246154785,0.21637865131184242],[113.36817741394043,0.2123446371873854],[113.36568832397461,0.20934058343107154],[113.36980819702148,0.20582154829953936],[113.3704948425293,0.20316081390340912],[113.37238311767578,0.20384745508005153],[113.37418556213379,0.1998992679175018],[113.37512969970703,0.199641777417213],[113.37530136108398,0.19809683433092573],[113.37658882141113,0.19758185327012256],[113.37693214416504,0.1956077590561307],[113.37882041931152,0.1943203061826182],[113.37813377380371,0.19303285321099395],[113.38027954101562,0.190028795899309],[113.38208198547363,0.18316237723857398],[113.38354110717773,0.18170326293093808],[113.38611602783203,0.18196075369969833],[113.38740348815918,0.1815316024163991],[113.38860511779785,0.17792673123686598],[113.39212417602539,0.17663927707275207],[113.39298248291016,0.17492267138197803],[113.39581489562988,0.17346355642129652],[113.39641571044922,0.17174695044124633],[113.39813232421875,0.17054532616339202],[113.39847564697266,0.16891455023784374],[113.4005355834961,0.16530967665561036],[113.40259552001953,0.16324974859961117],[113.40216636657715,0.16196229345727886],[113.40414047241211,0.1596448739954468],[113.40405464172363,0.15809992754223856],[113.40508460998535,0.15689830244353686],[113.4063720703125,0.15698413281002388],[113.41006278991699,0.15372257863759842],[113.4115219116211,0.15406590015308552],[113.4144401550293,0.15295010520762276],[113.41684341430664,0.15295010520762276],[113.42036247253418,0.15192014059110193],[113.42559814453125,0.14934522883571333],[113.42628479003906,0.14771445123430738],[113.42782974243164,0.1470278079978442],[113.42903137207031,0.14453872608935114],[113.43117713928223,0.1429937785603812],[113.43229293823242,0.1410196787888509],[113.43461036682129,0.1392172397207787],[113.43606948852539,0.1362131743020285],[113.4378719329834,0.13586985251589567],[113.43830108642578,0.13372409124247042],[113.44001770019531,0.1307200251452798],[113.44396591186523,0.12986172047970967],[113.44654083251953,0.1273726367854664],[113.44611167907715,0.12642850152795404],[113.44662666320801,0.12419690896511781],[113.44860076904297,0.12325277359316544],[113.4492015838623,0.12119284175670941],[113.45160484313965,0.12067785877300707],[113.4532356262207,0.11750213015970701],[113.45641136169434,0.11492721480239254],[113.45709800720215,0.11303894339255294],[113.45915794372559,0.11046402763619767],[113.4601879119873,0.10754578950955818],[113.46207618713379,0.10754578950955818],[113.46405029296875,0.10608667034117047],[113.46267700195312,0.10411256782751366],[113.4642219543457,0.10145182076617232],[113.46542358398438,0.1012801596578754],[113.46516609191895,0.09844775124071248],[113.46671104431152,0.09776110673945482],[113.46902847290039,0.09441371459656978],[113.4726333618164,0.09080883039031562],[113.47254753112793,0.09003635515600195],[113.46988677978516,0.08789059053081871],[113.4693717956543,0.08608814815029575],[113.47246170043945,0.08334156912148671],[113.47246170043945,0.08059498990114378],[113.47434997558594,0.07776257988629709],[113.47460746765137,0.0734710492009043],[113.4763240814209,0.07106779183551737],[113.47726821899414,0.07158277556733594],[113.47735404968262,0.07269857363306187],[113.47846984863281,0.07441518598790253],[113.48113059997559,0.07329938796475233],[113.48078727722168,0.0721835899138199],[113.47915649414062,0.07098196121297917],[113.47846984863281,0.06969450185602],[113.47881317138672,0.0690078568512007],[113.48044395446777,0.06875036497181952],[113.47958564758301,0.06411551091085244],[113.47752571105957,0.06325720455633643],[113.47718238830566,0.0637721883707627],[113.47786903381348,0.06488798661764861],[113.4766674041748,0.06497381725101548],[113.47477912902832,0.06634710736483385],[113.47289085388184,0.06411551091085244],[113.4726333618164,0.06265639009968993],[113.47040176391602,0.0636863577353779],[113.46868515014648,0.0660037848399071],[113.46490859985352,0.06351469646418195],[113.46362113952637,0.06463049471669535],[113.4624195098877,0.06454466408274584],[113.46199035644531,0.06531713978299081],[113.46259117126465,0.06608961547136971],[113.46190452575684,0.06917951810332568],[113.46113204956055,0.06995199373022842],[113.45958709716797,0.06875036497181952],[113.45924377441406,0.07029531622700347],[113.45993041992188,0.07175443680999649],[113.45941543579102,0.07269857363306187],[113.45769882202148,0.07441518598790253],[113.45598220825195,0.07390020228838523],[113.45409393310547,0.07467267783539455],[113.45220565795898,0.07707593500532539],[113.45014572143555,0.07604596766314842],[113.45005989074707,0.07415769413888995],[113.44799995422363,0.07184026743107097],[113.44619750976562,0.0713252837021372],[113.44259262084961,0.0673770749252185],[113.44164848327637,0.06686209114772623],[113.44010353088379,0.0673770749252185],[113.43864440917969,0.06531713978299081],[113.43727111816406,0.06531713978299081],[113.4367561340332,0.0660037848399071],[113.43727111816406,0.06711958303715448],[113.43709945678711,0.06823538120893602],[113.43598365783691,0.06875036497181952],[113.43469619750977,0.06857870371814556],[113.43340873718262,0.06935117935483959],[113.43280792236328,0.07201192867276518],[113.43117713928223,0.07355687981873871],[113.42988967895508,0.07338521858291358],[113.42954635620117,0.07467267783539455],[113.4280014038086,0.07527349214035439],[113.4283447265625,0.07596013705017413],[113.42619895935059,0.07707593500532539],[113.42662811279297,0.07793424110478497],[113.42585563659668,0.07844922475608485],[113.42534065246582,0.08068082050462522],[113.42113494873047,0.08316990792575041],[113.41821670532227,0.08608814815029575],[113.41727256774902,0.08600231755859511],[113.4162425994873,0.08763309876746916],[113.41486930847168,0.08789059053081871],[113.41212272644043,0.0904655080659893],[113.40594291687012,0.09467120631146031],[113.40568542480469,0.09664530939500082],[113.40723037719727,0.09870524292503546],[113.40723037719727,0.09973520964238958],[113.40611457824707,0.10076517632751347],[113.40285301208496,0.1018809735329711],[113.39744567871094,0.11338226547624686],[113.39418411254883,0.1138114180751586],[113.39221000671387,0.11321060443489728],[113.39066505432129,0.11338226547624686]]]}},{"type":"Feature","id":"pmtiles:10/834/511:landcover:187882843:1","properties":{"subclass":"wood","class":"wood","kind":"green","verification":"verified","source":"OpenMapTiles/OpenStreetMap national PMTiles","sourceId":"10/834/511:landcover:187882843:1","sourceLayer":"landcover","archive":"https://its.hanifahseptiani45.workers.dev/v1/map/archive/indonesia.pmtiles","updatedAt":"2026-07-26T09:41:14.247Z"},"geometry":{"type":"Polygon","coordinates":[[[113.1976318359375,-0.005493164054087174],[113.1976318359375,0.027894972652887873],[113.2002067565918,0.030384062296604952],[113.20226669311523,0.030641554325512743],[113.20681571960449,0.03244399851030266],[113.20878982543945,0.032272337160733855],[113.20904731750488,0.030126570267086095],[113.21024894714355,0.029611586206200968],[113.21763038635254,0.03021240094363975],[113.22132110595703,0.029783247560089876],[113.22355270385742,0.02557754431649073],[113.22466850280762,0.02652168179214698],[113.22707176208496,0.031070707705666223],[113.22818756103516,0.03149986108407177],[113.23033332824707,0.031070707705666223],[113.23050498962402,0.030126570267086095],[113.23007583618164,0.02909660214292842],[113.22775840759277,0.02737998858194146],[113.23041915893555,0.0257492056762203],[113.23548316955566,0.02480506819487971],[113.23908805847168,0.027894972652887873],[113.24020385742188,0.02798080333116104],[113.24080467224121,0.02695083518779029],[113.23857307434082,0.02532005227647005],[113.23908805847168,0.02343177730095647],[113.2412338256836,0.021886825029227452],[113.24861526489258,0.020856856839174043],[113.2470703125,0.018024444282787044],[113.24784278869629,0.013647079338738877],[113.24827194213867,0.013132095221934037],[113.25050354003906,0.01347541796658902],[113.25127601623535,0.012445449731231406],[113.25642585754395,0.009012222252877677],[113.25754165649414,0.006780624373831756],[113.25874328613281,0.006780624373831756],[113.2609748840332,0.009012222252877677],[113.26397895812988,0.009355545002378562],[113.26569557189941,0.011243820118266967],[113.2686996459961,0.01150131217862338],[113.26912879943848,0.010900497370769813],[113.26827049255371,0.009269714315038868],[113.27033042907715,0.0026607513418213102],[113.27187538146973,0.00231742858824191],[113.27316284179688,0.0028324127185754833],[113.28191757202148,0.0030899047836641103],[113.28269004821777,0.005750656118266306],[113.28466415405273,0.004892349237223925],[113.28354835510254,0.0027465820301983968],[113.2844066619873,0.0018024444577235954],[113.28723907470703,0.0022315978998364017],[113.28921318054199,0.0010299682616619066],[113.29024314880371,0.0009441375731995549],[113.29256057739258,0.0020599365229969635],[113.29281806945801,0.0006866455077982891],[113.29916954040527,-0.005493164054087174],[113.1976318359375,-0.005493164054087174]]]}},{"type":"Feature","id":"pmtiles:10/834/511:landcover:13649788122:0","properties":{"subclass":"wood","class":"wood","kind":"green","verification":"verified","source":"OpenMapTiles/OpenStreetMap national PMTiles","sourceId":"10/834/511:landcover:13649788122:0","sourceLayer":"landcover","archive":"https://its.hanifahseptiani45.workers.dev/v1/map/archive/indonesia.pmtiles","updatedAt":"2026-07-26T09:41:14.247Z"},"geometry":{"type":"Polygon","coordinates":[[[113.36036682128906,-0.005493164054087174],[113.36036682128906,-0.004892349237209714],[113.36285591125488,-0.002574920653430013],[113.36508750915527,0.0012016296385866099],[113.36491584777832,0.0027465820301983968],[113.36174011230469,0.0017166137692754546],[113.36036682128906,0.003433227537001926],[113.35693359375,0.005578994742165833],[113.35530281066895,0.009355545002378562],[113.35521697998047,0.01210212698519797],[113.35633277893066,0.014162063454421059],[113.35367202758789,0.018539428387427392],[113.35247039794922,0.01905441249056139],[113.35392951965332,0.022830962530576926],[113.35247039794922,0.026865004508792367],[113.35272789001465,0.02875327943277739],[113.35384368896484,0.030641554325512743],[113.35221290588379,0.035190580062888444],[113.35229873657227,0.03707885483376572],[113.35478782653809,0.04051208158529107],[113.3543586730957,0.04317283221830337],[113.35556030273438,0.046691889363174255],[113.35504531860352,0.0489234864865864],[113.35410118103027,0.050296776987394765],[113.35470199584961,0.05141257549806255],[113.35504531860352,0.054845801560588825],[113.35633277893066,0.05750655162422902],[113.3595085144043,0.05845068871407477],[113.3609676361084,0.059480656430338286],[113.36079597473145,0.059995640281286455],[113.35770606994629,0.060682285408333314],[113.35693359375,0.06179808372114337],[113.35598945617676,0.07046697747445307],[113.35418701171875,0.07089613059028466],[113.35487365722656,0.07690427378334164],[113.35633277893066,0.07793424110478497],[113.35684776306152,0.08033749808966206],[113.35495948791504,0.08677479287682388],[113.35633277893066,0.08797642111822768],[113.35624694824219,0.089778863407588],[113.35830688476562,0.09209628907740353],[113.35907936096191,0.09449954516840364],[113.36088180541992,0.09441371459656978],[113.36268424987793,0.09750361504785587],[113.36431503295898,0.09793276786608374],[113.36637496948242,0.10162348187357395],[113.36800575256348,0.10179514298006609],[113.367919921875,0.10471338164921917],[113.36929321289062,0.10788911165673198],[113.37135314941406,0.11046402763619767],[113.37255477905273,0.11106484133281924],[113.37255477905273,0.11226646868936996],[113.37324142456055,0.1114939939657944],[113.37384223937988,0.11166565501723369],[113.3745288848877,0.11338226547624686],[113.37581634521484,0.1138114180751586],[113.37693214416504,0.11595718097345298],[113.37821960449219,0.11415474014970073],[113.38242530822754,0.1124381297362902],[113.38457107543945,0.11252396025936662],[113.38534355163574,0.11321060443489728],[113.38766098022461,0.11303894339255294],[113.3887767791748,0.11355392651657326],[113.39006423950195,0.11295311287098286],[113.3942699432373,0.11372558755589068],[113.39735984802246,0.11329643495569997],[113.40276718139648,0.10179514298006609],[113.40611457824707,0.10076517632751347],[113.40723037719727,0.09973520964238958],[113.40723037719727,0.09870524292503546],[113.40568542480469,0.09664530939500082],[113.40594291687012,0.09467120631146031],[113.41203689575195,0.0904655080659893],[113.41486930847168,0.08780475994323922],[113.41615676879883,0.0875472681792786],[113.4173583984375,0.08591648696672394],[113.41813087463379,0.08600231755859511],[113.42104911804199,0.08308407732761225],[113.42525482177734,0.08059498990114378],[113.4257698059082,0.07844922475608485],[113.42654228210449,0.07793424110478497],[113.42619895935059,0.07707593500532539],[113.4283447265625,0.07596013705017413],[113.42791557312012,0.07518766152587375],[113.42954635620117,0.07467267783539455],[113.42988967895508,0.07329938796475233],[113.43117713928223,0.0734710492009043],[113.4327220916748,0.07192609805200334],[113.43332290649414,0.069265348729175],[113.43469619750977,0.0684928730910741],[113.43598365783691,0.0686645343450607],[113.43701362609863,0.06814955058123928],[113.43718528747559,0.06711958303715448],[113.43667030334473,0.0660037848399071],[113.43718528747559,0.06531713978299081],[113.43873023986816,0.06523130915020658],[113.44018936157227,0.0672912442960154],[113.44164848327637,0.06677626051761365],[113.44267845153809,0.0672912442960154],[113.4462833404541,0.07123945308006796],[113.44799995422363,0.07184026743107097],[113.45014572143555,0.07415769413888995],[113.45023155212402,0.07596013705017413],[113.45220565795898,0.07699010439441167],[113.45409393310547,0.07458684721973441],[113.45589637756348,0.07381437167121874],[113.45769882202148,0.0743293553717308],[113.45932960510254,0.07261274301359322],[113.4598445892334,0.07175443680999649],[113.45915794372559,0.07029531622700347],[113.45950126647949,0.06875036497181952],[113.46113204956055,0.06986616310564386],[113.46181869506836,0.069265348729175],[113.46250534057617,0.06608961547136971],[113.46190452575684,0.06531713978299081],[113.46233367919922,0.06445883344864001],[113.46362113952637,0.06454466408274584],[113.46490859985352,0.06342886582838503],[113.46868515014648,0.06591795420830238],[113.47040176391602,0.06360052709986519],[113.4726333618164,0.06257055946247192],[113.47314834594727,0.06437300281442049],[113.47434997558594,0.0660037848399071],[113.47512245178223,0.066175446102676],[113.4766674041748,0.06488798661764861],[113.477783203125,0.06480215598413963],[113.47709655761719,0.0638580190060054],[113.4774398803711,0.06317137392009897],[113.47958564758301,0.063943849641106],[113.47984313964844,0.061540591804870814],[113.48138809204102,0.05836485807017766],[113.48353385925293,0.056562414518765536],[113.48722457885742,0.055189124156200364],[113.48825454711914,0.05124091418998944],[113.49151611328125,0.0470352120022568],[113.49160194396973,0.04454612283154802],[113.49700927734375,0.043773646864707416],[113.49992752075195,0.04437446150627977],[113.50130081176758,0.04368781620122775],[113.50130081176758,0.04240035623740823],[113.5000991821289,0.042829509561087775],[113.49898338317871,0.04222869490726566],[113.49889755249023,0.0382804842125779],[113.50018501281738,0.0383663148818556],[113.50130081176758,0.04008292824904913],[113.50361824035645,0.04179954158027499],[113.50507736206055,0.04214286424206648],[113.50576400756836,0.04171371091459264],[113.50722312927246,0.03896712956436943],[113.50868225097656,0.033903119969806994],[113.51348876953125,0.02969741688316674],[113.51374626159668,0.02652168179214698],[113.51640701293945,0.0203418727416107],[113.51889610290527,0.019741057959024033],[113.52713584899902,0.0198268886423989],[113.52790832519531,0.01931190454156706],[113.52876663208008,0.01690864538444714],[113.52962493896484,0.016221999905340567],[113.5323715209961,0.015707015794475865],[113.53357315063477,0.016221999905340567],[113.53606224060059,0.02017021137538677],[113.53717803955078,0.02017021137538677],[113.53846549987793,0.016651153330059287],[113.54129791259766,0.017251968123105144],[113.54395866394043,0.014848708940235156],[113.5433578491211,0.012359619044772785],[113.5433578491211,0.008668899503049943],[113.54533195495605,0.005922317494338358],[113.55091094970703,0.006780624373831756],[113.55631828308105,0.006351470934262693],[113.5601806640625,0.008068084690137312],[113.5601806640625,-0.005493164054087174],[113.36036682128906,-0.005493164054087174]]]}},{"type":"Feature","id":"pmtiles:10/834/511:mountain_peak:10701884421:0","properties":{"name_int":"Bukit Tutatjaru","name_de":"Bukit Tutatjaru","name":"Bukit Tutatjaru","rank":1,"class":"peak","name:latin":"Bukit Tutatjaru","name_en":"Bukit Tutatjaru","kind":"poi","verification":"verified","source":"OpenMapTiles/OpenStreetMap national PMTiles","sourceId":"10/834/511:mountain_peak:10701884421:0","sourceLayer":"mountain_peak","archive":"https://its.hanifahseptiani45.workers.dev/v1/map/archive/indonesia.pmtiles","updatedAt":"2026-07-26T09:41:14.247Z"},"geometry":{"type":"Point","coordinates":[113.2166862487793,0.2333729966745608]}},{"type":"Feature","id":"pmtiles:10/834/511:mountain_peak:10701619001:0","properties":{"name_int":"Bukit Lujang","name_de":"Bukit Lujang","name":"Bukit Lujang","rank":1,"class":"peak","name:latin":"Bukit Lujang","name_en":"Bukit Lujang","kind":"poi","verification":"verified","source":"OpenMapTiles/OpenStreetMap national PMTiles","sourceId":"10/834/511:mountain_peak:10701619001:0","sourceLayer":"mountain_peak","archive":"https://its.hanifahseptiani45.workers.dev/v1/map/archive/indonesia.pmtiles","updatedAt":"2026-07-26T09:41:14.247Z"},"geometry":{"type":"Point","coordinates":[113.43332290649414,0.3500153705550133]}},{"type":"Feature","id":"pmtiles:10/834/511:mountain_peak:10701911091:0","properties":{"name_int":"Bukit Betikap","name_de":"Bukit Betikap","name":"Bukit Betikap","rank":2,"class":"peak","name:latin":"Bukit Betikap","name_en":"Bukit Betikap","kind":"poi","verification":"verified","source":"OpenMapTiles/OpenStreetMap national PMTiles","sourceId":"10/834/511:mountain_peak:10701911091:0","sourceLayer":"mountain_peak","archive":"https://its.hanifahseptiani45.workers.dev/v1/map/archive/indonesia.pmtiles","updatedAt":"2026-07-26T09:41:14.247Z"},"geometry":{"type":"Point","coordinates":[113.41667175292969,0.2666749862598863]}},{"type":"Feature","id":"pmtiles:10/834/511:waterway:566306000:0","properties":{"name":"Sungai Joloi","name_int":"Sungai Joloi","class":"river","name:latin":"Sungai Joloi","name_de":"Sungai Joloi","name_en":"Sungai Joloi","waterway":"river","kind":"waterway","verification":"verified","source":"OpenMapTiles/OpenStreetMap national PMTiles","sourceId":"10/834/511:waterway:566306000:0","sourceLayer":"waterway","archive":"https://its.hanifahseptiani45.workers.dev/v1/map/archive/indonesia.pmtiles","updatedAt":"2026-07-26T09:41:14.247Z"},"geometry":{"type":"LineString","coordinates":[[113.34749221801758,0.2404968829015104],[113.34809303283691,0.2405827128336142],[113.34877967834473,0.24006773323293373],[113.3499813079834,0.23981024342532464],[113.35015296936035,0.239123603914706],[113.35101127624512,0.2386944542031273],[113.35135459899902,0.2373211750361861],[113.35272789001465,0.23577623581046225],[113.3525562286377,0.23474627623133415],[113.35272789001465,0.23423129641331286],[113.35229873657227,0.2331155067427204],[113.35315704345703,0.2302831171828359],[113.35298538208008,0.2290814971991324],[113.35332870483398,0.22787987711467395],[113.35281372070312,0.22616327682028725],[113.35307121276855,0.2252191465717317],[113.35461616516113,0.2238458661011009],[113.35641860961914,0.2229875657416045],[113.35856437683105,0.22135679492086524],[113.36019515991211,0.22084181462436447],[113.36122512817383,0.21912521350741088],[113.3624267578125,0.21766610240331374],[113.36337089538574,0.21526286027749109],[113.3638858795166,0.2155203505234482],[113.36491584777832,0.21775193247216862],[113.3653450012207,0.21766610240331374],[113.36620330810547,0.21689363176156462],[113.36800575256348,0.21354625852693232],[113.36817741394043,0.2123446371873854],[113.36800575256348,0.21182965658466912],[113.36577415466309,0.20985556411611128],[113.36568832397461,0.20934058343107154],[113.36989402770996,0.20582154829953936],[113.37023735046387,0.20530656748314868],[113.3704948425293,0.20316081390340912],[113.37100982666016,0.20316081390340912],[113.37186813354492,0.2040191153696611],[113.37238311767578,0.20384745508005153],[113.37246894836426,0.2029891536046904],[113.3734130859375,0.2023025123915687],[113.37418556213379,0.19998509808337417],[113.37512969970703,0.19972760758443542],[113.37504386901855,0.19878347572046096],[113.37530136108398,0.19809683433092573],[113.37658882141113,0.19758185327012256],[113.37701797485352,0.1964660609169755],[113.37701797485352,0.1956077590561307],[113.37873458862305,0.19457779676520204],[113.37890625,0.19389115520294808],[113.37830543518066,0.19354783441137613],[113.37821960449219,0.19311868341215188],[113.37899208068848,0.19260370219878098],[113.37942123413086,0.1920028907635043],[113.37976455688477,0.190715437616916],[113.3803653717041,0.19011462611551622],[113.38216781616211,0.18316237723857398],[113.3829402923584,0.18221824446477797],[113.38354110717773,0.18187492344385703],[113.38620185852051,0.18204658395512752],[113.38740348815918,0.18161743267386043],[113.38774681091309,0.18093079060265893],[113.38809013366699,0.17921418531116728],[113.38869094848633,0.17801256151129508],[113.3895492553711,0.17749757985878034],[113.39221000671387,0.17672510735314972],[113.39306831359863,0.17492267138197803],[113.39375495910645,0.17440768964405606],[113.39590072631836,0.17354938671623188],[113.3965015411377,0.1718327807439266],[113.39693069458008,0.17140362922668828],[113.39761734008789,0.1712319686171071],[113.39813232421875,0.170631156471444],[113.39856147766113,0.16900038055314326],[113.40062141418457,0.16530967665561036],[113.4019947052002,0.1637647306335026],[113.40268135070801,0.16333557893950967],[113.40276718139648,0.16273476655253205],[113.4023380279541,0.16239144518051774],[113.4023380279541,0.16196229345727886],[113.40431213378906,0.1596448739954468],[113.40414047241211,0.1581857579037802],[113.40517044067383,0.15698413281002388],[113.40551376342773,0.1568124720767088],[113.40645790100098,0.15706996317616984],[113.40851783752441,0.1548383735426455],[113.41014862060547,0.1538084090169889],[113.4115219116211,0.15415173053108333],[113.41246604919434,0.1535509178777943],[113.41375350952148,0.15346508749738064],[113.4144401550293,0.1530359355901112],[113.41684341430664,0.1530359355901112],[113.42044830322266,0.1520059709776831],[113.42568397521973,0.14943105923245525],[113.42637062072754,0.14780028163738734],[113.42748641967773,0.1474569600231206],[113.42791557312012,0.1470278079978442],[113.42825889587402,0.14608367351324603],[113.42894554138184,0.14539703022677486],[113.42911720275879,0.14462455650455297],[113.4312629699707,0.14307960898138106],[113.4323787689209,0.141105509217212],[113.43469619750977,0.1392172397207787],[113.43538284301758,0.13715730918866598],[113.43615531921387,0.1362990047478121],[113.43667030334473,0.13604151340958026],[113.43770027160645,0.13604151340958026],[113.43812942504883,0.13569819162098895],[113.43838691711426,0.1338099216970221],[113.43907356262207,0.13277995622256356],[113.43950271606445,0.1314066688566271],[113.44010353088379,0.13080585561021962],[113.44285011291504,0.13003338141514575],[113.44396591186523,0.12994755094759114],[113.44662666320801,0.12745846726170384],[113.44671249389648,0.1270293148776318],[113.44619750976562,0.12642850152795404],[113.4462833404541,0.12514104430336204],[113.44671249389648,0.12419690896511781],[113.44722747802734,0.12376775652748506],[113.44868659973145,0.12333860408291741],[113.44928741455078,0.12127867225304101],[113.4499740600586,0.12136450274908839],[113.4506607055664,0.12093535026608038],[113.45169067382812,0.12067785877300707],[113.45203399658203,0.1193045707689464],[113.4528923034668,0.11853209623647842],[113.45332145690918,0.11750213015970701],[113.45443725585938,0.11647216404496419],[113.45555305480957,0.11595718097345298],[113.45649719238281,0.11492721480239254],[113.45718383789062,0.11303894339255294],[113.45795631408691,0.11218063816554036],[113.4583854675293,0.11115067185991734],[113.45924377441406,0.11046402763619767],[113.4601879119873,0.10763162004673177],[113.46104621887207,0.10745995897217142],[113.46147537231445,0.10771745058363535],[113.46216201782227,0.10763162004673177],[113.46284866333008,0.10685914520365714],[113.46413612365723,0.10608667034117047],[113.46405029296875,0.10531419545939968],[113.46267700195312,0.1046275511039596],[113.46319198608398,0.10291094014986868],[113.46396446228027,0.10222429574227476],[113.46430778503418,0.10145182076617232],[113.46550941467285,0.10136599021213044],[113.46508026123047,0.10016436243179783],[113.46525192260742,0.09844775124071248],[113.466796875,0.09776110673945482],[113.46911430358887,0.09449954516840364],[113.47271919250488,0.09080883039031562],[113.4726333618164,0.08995052457341046],[113.46997261047363,0.08789059053081871],[113.46945762634277,0.08608814815029575],[113.47254753112793,0.08342739971905644],[113.47254753112793,0.08059498990114378],[113.47443580627441,0.07776257988629709],[113.47434997558594,0.07441518598790253],[113.4752082824707,0.07252691239396825],[113.47615242004395,0.07115362245787082],[113.47718238830566,0.07166860618873727],[113.47726821899414,0.07278440425235999],[113.4781265258789,0.0743293553717308],[113.47864151000977,0.07458684721973441],[113.47967147827148,0.07372854105389592],[113.48121643066406,0.07338521858291358],[113.48121643066406,0.07269857363306187],[113.48087310791016,0.0720977592933707],[113.4792423248291,0.07098196121297917],[113.47855567932129,0.06969450185602],[113.4788990020752,0.06909368747733424],[113.48010063171387,0.06917951810332568],[113.48052978515625,0.06875036497181952],[113.47975730895996,0.06445883344864001],[113.48001480102539,0.061540591804870814],[113.48095893859863,0.05905150321753183],[113.48147392272949,0.05845068871407477],[113.48250389099121,0.05802153549336708],[113.4836196899414,0.05664824516536271],[113.48679542541504,0.055704108045929956],[113.4873104095459,0.05527495480481548],[113.48834037780762,0.05132674484407573],[113.49160194396973,0.0470352120022568],[113.49151611328125,0.04506110680493691],[113.4916877746582,0.04463195349401872],[113.49486351013184,0.04446029216894942],[113.49700927734375,0.0438594775280734],[113.50001335144043,0.04446029216894942],[113.50138664245605,0.043773646864707416],[113.50172996520996,0.042829509561087775],[113.50138664245605,0.04231452557239379],[113.5000991821289,0.0427436788965565],[113.4994125366211,0.04257201756716711],[113.49906921386719,0.04214286424206648],[113.49881172180176,0.03862380688916289],[113.49932670593262,0.0382804842125779],[113.5000991821289,0.038452145551048034],[113.5012149810791,0.04016875891649363],[113.50258827209473,0.041370388250925316],[113.50430488586426,0.04214286424206648],[113.50507736206055,0.04222869490726566],[113.50584983825684,0.04179954158027499],[113.50687980651855,0.040340420251069986],[113.50893974304199,0.03407478131656205],[113.50945472717285,0.03330230525379818],[113.51297378540039,0.030727385001682705],[113.5136604309082,0.029783247560089876],[113.51383209228516,0.02652168179214698],[113.5147762298584,0.023946761387790616],[113.5165786743164,0.020427703424644506],[113.51778030395508,0.01991271932570271],[113.51889610290527,0.0198268886423989],[113.52087020874023,0.02017021137538677],[113.52713584899902,0.0199985500089781],[113.52799415588379,0.019397735225140877],[113.52825164794922,0.018711089755313992],[113.5286808013916,0.01845359770342725],[113.52885246276855,0.016994476069172038],[113.52971076965332,0.016393661275344584],[113.5323715209961,0.015878677164906208],[113.53340148925781,0.01630783059034968],[113.53408813476562,0.018024444282787044],[113.53511810302734,0.019397735225140877],[113.53597640991211,0.020256042058520052],[113.53683471679688,0.02051353410764989],[113.53760719299316,0.01991271932570271],[113.53863716125488,0.016822814699693822],[113.5393238067627,0.016651153330059287],[113.53975296020508,0.017251968123105144],[113.5407829284668,0.01750946017669719],[113.54232788085938,0.01690864538444714],[113.5440444946289,0.014934539625812704],[113.5440444946289,0.013818740710760835],[113.54352951049805,0.012359619044772785],[113.54352951049805,0.008668899503049943],[113.54421615600586,0.007209777813017126],[113.54533195495605,0.006093978870353567],[113.5466194152832,0.006437301622213454],[113.55091094970703,0.006952285749534326],[113.55528831481934,0.006437301622213454],[113.55631828308105,0.006523132310121582],[113.55949401855469,0.008325576752937991],[113.56026649475098,0.008239746065356712]]}},{"type":"Feature","id":"pmtiles:10/834/511:waterway:13644793302:0","properties":{"name":"Sungai Manday","name_int":"Sungai Manday","class":"river","name:latin":"Sungai Manday","name_de":"Sungai Manday","name_en":"Sungai Manday","waterway":"river","kind":"waterway","verification":"verified","source":"OpenMapTiles/OpenStreetMap national PMTiles","sourceId":"10/834/511:waterway:13644793302:0","sourceLayer":"waterway","archive":"https://its.hanifahseptiani45.workers.dev/v1/map/archive/indonesia.pmtiles","updatedAt":"2026-07-26T09:41:14.247Z"},"geometry":{"type":"LineString","coordinates":[[113.31727981567383,0.32503907379388863],[113.3170223236084,0.32426660999833246],[113.31573486328125,0.32340831682303417],[113.31530570983887,0.3235799754639004],[113.31401824951172,0.3265840012076211],[113.3144474029541,0.3284722455018283],[113.31427574157715,0.32890139188265266],[113.3118724822998,0.32872973333253697],[113.31170082092285,0.32890139188265266],[113.31161499023438,0.3302746601771531],[113.30938339233398,0.3330211961961993],[113.30740928649902,0.3336220008485782],[113.3063793182373,0.3343944639191392],[113.30620765686035,0.336797681971575],[113.30389022827148,0.3373984863922601],[113.3023452758789,0.33851426593221845],[113.30157279968262,0.33877175350014],[113.29891204833984,0.3381709491643363],[113.29779624938965,0.3365401943513575],[113.29736709594727,0.3355102438026165],[113.2935905456543,0.3340511470063774],[113.2921314239502,0.3340511470063774],[113.29058647155762,0.3353385853672819],[113.2898998260498,0.3355102438026165],[113.28912734985352,0.3353385853672819],[113.2869815826416,0.3338794885455201],[113.28612327575684,0.33353617161475313],[113.28466415405273,0.33456612237101524],[113.280029296875,0.3353385853672819],[113.27805519104004,0.3361968775138564],[113.27539443969727,0.33696934038125903],[113.27281951904297,0.33851426593221845],[113.27239036560059,0.3390292410612119],[113.27264785766602,0.3396300453437675],[113.2745361328125,0.3394583869811356],[113.27496528625488,0.3396300453437675],[113.27522277832031,0.3402308495889912],[113.27230453491211,0.3436640159848139],[113.27213287353516,0.34417899083807413],[113.27230453491211,0.34503728219834784],[113.27299118041992,0.34580974435640144],[113.27324867248535,0.34812713045285193],[113.27445030212402,0.3500153705550133],[113.27831268310547,0.352761900933487],[113.280029296875,0.3564525498519657],[113.28071594238281,0.3584266172719879]]}},{"type":"Feature","id":"pmtiles:10/834/512:landcover:187858943:0","properties":{"subclass":"wood","class":"wood","kind":"green","verification":"verified","source":"OpenMapTiles/OpenStreetMap national PMTiles","sourceId":"10/834/512:landcover:187858943:0","sourceLayer":"landcover","archive":"https://its.hanifahseptiani45.workers.dev/v1/map/archive/indonesia.pmtiles","updatedAt":"2026-07-26T09:41:23.970Z"},"geometry":{"type":"Polygon","coordinates":[[[113.26964378356934,0.005493164054087174],[113.28226089477539,0.005493164054087174],[113.28234672546387,0.004291534419820664],[113.28191757202148,0.003261566160347229],[113.27316284179688,0.0030040740953012346],[113.27187538146973,0.0024890899650387155],[113.27041625976562,0.0028324127185754833],[113.26964378356934,0.005493164054087174]]]}},{"type":"Feature","id":"pmtiles:8/208/127:mountain_peak:10701619001:0","properties":{"name_int":"Bukit Lujang","name_de":"Bukit Lujang","name":"Bukit Lujang","rank":1,"class":"peak","name:latin":"Bukit Lujang","name_en":"Bukit Lujang","kind":"poi","verification":"verified","source":"OpenMapTiles/OpenStreetMap national PMTiles","sourceId":"8/208/127:mountain_peak:10701619001:0","sourceLayer":"mountain_peak","archive":"https://its.hanifahseptiani45.workers.dev/v1/map/archive/indonesia.pmtiles","updatedAt":"2026-07-26T09:35:29.994Z"},"geometry":{"type":"Point","coordinates":[113.4334945678711,0.349843712379581]}},{"type":"Feature","id":"pmtiles:8/208/127:mountain_peak:10701911091:0","properties":{"name_int":"Bukit Betikap","name_de":"Bukit Betikap","name":"Bukit Betikap","rank":4,"class":"peak","name:latin":"Bukit Betikap","name_en":"Bukit Betikap","kind":"poi","verification":"verified","source":"OpenMapTiles/OpenStreetMap national PMTiles","sourceId":"8/208/127:mountain_peak:10701911091:0","sourceLayer":"mountain_peak","archive":"https://its.hanifahseptiani45.workers.dev/v1/map/archive/indonesia.pmtiles","updatedAt":"2026-07-26T09:35:29.994Z"},"geometry":{"type":"Point","coordinates":[113.41667175292969,0.2667608160183903]}},{"type":"Feature","id":"pmtiles:8/208/128:mountain_peak:10701619001:0","properties":{"name_int":"Bukit Lujang","name_de":"Bukit Lujang","name":"Bukit Lujang","rank":1,"class":"peak","name:latin":"Bukit Lujang","name_en":"Bukit Lujang","kind":"poi","verification":"verified","source":"OpenMapTiles/OpenStreetMap national PMTiles","sourceId":"8/208/128:mountain_peak:10701619001:0","sourceLayer":"mountain_peak","archive":"https://its.hanifahseptiani45.workers.dev/v1/map/archive/indonesia.pmtiles","updatedAt":"2026-07-26T09:35:32.657Z"},"geometry":{"type":"Point","coordinates":[113.4334945678711,0.349843712379581]}},{"type":"Feature","id":"pmtiles:8/208/128:mountain_peak:10701911091:0","properties":{"name_int":"Bukit Betikap","name_de":"Bukit Betikap","name":"Bukit Betikap","rank":4,"class":"peak","name:latin":"Bukit Betikap","name_en":"Bukit Betikap","kind":"poi","verification":"verified","source":"OpenMapTiles/OpenStreetMap national PMTiles","sourceId":"8/208/128:mountain_peak:10701911091:0","sourceLayer":"mountain_peak","archive":"https://its.hanifahseptiani45.workers.dev/v1/map/archive/indonesia.pmtiles","updatedAt":"2026-07-26T09:35:32.657Z"},"geometry":{"type":"Point","coordinates":[113.41667175292969,0.2667608160183903]}}]}