{"type":"FeatureCollection","features":[{"type":"Feature","id":"pmtiles:10/888/527:landuse:1502744970:0","properties":{"class":"residential","kind":"green","verification":"verified","source":"OpenMapTiles/OpenStreetMap national PMTiles","sourceId":"10/888/527:landuse:1502744970:0","sourceLayer":"landuse","archive":"https://its.hanifahseptiani45.workers.dev/v1/map/archive/indonesia.pmtiles","updatedAt":"2026-07-26T09:44:34.142Z"},"geometry":{"type":"Polygon","coordinates":[[[132.31779098510742,-5.60650426493784],[132.3171043395996,-5.607700145134672],[132.31590270996094,-5.606333424709689],[132.31513023376465,-5.606931365289455],[132.31341361999512,-5.607016785322259],[132.31830596923828,-5.601806140448176],[132.32105255126953,-5.599926880070683],[132.32173919677734,-5.6006956691375365],[132.32131004333496,-5.601293615490164],[132.32165336608887,-5.602404085664176],[132.3204517364502,-5.60308745087579],[132.3207950592041,-5.603343712623996],[132.32019424438477,-5.604027076736131],[132.31779098510742,-5.60650426493784]]]}},{"type":"Feature","id":"pmtiles:10/888/527:landuse:1502744970:1","properties":{"class":"residential","kind":"green","verification":"verified","source":"OpenMapTiles/OpenStreetMap national PMTiles","sourceId":"10/888/527:landuse:1502744970:1","sourceLayer":"landuse","archive":"https://its.hanifahseptiani45.workers.dev/v1/map/archive/indonesia.pmtiles","updatedAt":"2026-07-26T09:44:34.142Z"},"geometry":{"type":"Polygon","coordinates":[[[132.35358238220215,-5.553285123170667],[132.3537540435791,-5.552772555827303],[132.3574447631836,-5.553455978852725],[132.36207962036133,-5.5519182759310866],[132.35650062561035,-5.55533538808541],[132.35349655151367,-5.554224828808884],[132.35358238220215,-5.553285123170667]]]}},{"type":"Feature","id":"pmtiles:10/888/527:landuse:1502744970:2","properties":{"class":"residential","kind":"green","verification":"verified","source":"OpenMapTiles/OpenStreetMap national PMTiles","sourceId":"10/888/527:landuse:1502744970:2","sourceLayer":"landuse","archive":"https://its.hanifahseptiani45.workers.dev/v1/map/archive/indonesia.pmtiles","updatedAt":"2026-07-26T09:44:34.142Z"},"geometry":{"type":"Polygon","coordinates":[[[132.3127269744873,-5.52253029491267],[132.31401443481445,-5.521761403718244],[132.3156452178955,-5.521932268514334],[132.31796264648438,-5.521163376544038],[132.31813430786133,-5.5216759713017325],[132.31796264648438,-5.522444862607003],[132.3167610168457,-5.523128320707528],[132.3134994506836,-5.522444862607003],[132.31324195861816,-5.523213752914671],[132.3127269744873,-5.52253029491267]]]}},{"type":"Feature","id":"pmtiles:10/888/527:mountain_peak:10701965131:0","properties":{"name_int":"Gunung Raja","name_de":"Gunung Raja","name":"Gunung Raja","rank":1,"class":"peak","name:latin":"Gunung Raja","name_en":"Gunung Raja","kind":"poi","verification":"verified","source":"OpenMapTiles/OpenStreetMap national PMTiles","sourceId":"10/888/527:mountain_peak:10701965131:0","sourceLayer":"mountain_peak","archive":"https://its.hanifahseptiani45.workers.dev/v1/map/archive/indonesia.pmtiles","updatedAt":"2026-07-26T09:44:34.142Z"},"geometry":{"type":"Point","coordinates":[132.31444358825684,-5.533465528288772]}},{"type":"Feature","id":"pmtiles:10/888/527:park:191994813:0","properties":{"name":"Kawasan Konservasi Perairan Maluku Tenggara","name_int":"Southeast Maluku Marine Protected Area","class":"protected_area","name:latin":"Kawasan Konservasi Perairan Maluku Tenggara","name_de":"Kawasan Konservasi Perairan Maluku Tenggara","name_en":"Southeast Maluku Marine Protected Area","kind":"green","verification":"verified","source":"OpenMapTiles/OpenStreetMap national PMTiles","sourceId":"10/888/527:park:191994813:0","sourceLayer":"park","archive":"https://its.hanifahseptiani45.workers.dev/v1/map/archive/indonesia.pmtiles","updatedAt":"2026-07-26T09:44:34.142Z"},"geometry":{"type":"Polygon","coordinates":[[[132.50996589660645,-5.621452591118839],[132.51940727233887,-5.594801593783927],[132.5445556640625,-5.594801593783927],[132.5445556640625,-5.621452591118839],[132.50996589660645,-5.621452591118839]]]}},{"type":"Feature","id":"pmtiles:10/888/527:transportation:10294303050:0","properties":{"class":"ferry","highway":"ferry","kind":"road","verification":"verified","source":"OpenMapTiles/OpenStreetMap national PMTiles","sourceId":"10/888/527:transportation:10294303050:0","sourceLayer":"transportation","archive":"https://its.hanifahseptiani45.workers.dev/v1/map/archive/indonesia.pmtiles","updatedAt":"2026-07-26T09:44:34.142Z"},"geometry":{"type":"LineString","coordinates":[[132.1820068359375,-5.313611967214229],[132.4120330810547,-5.3987260585541605],[132.5445556640625,-5.482802947231022]]}},{"type":"Feature","id":"pmtiles:10/888/527:transportation:10294303050:1","properties":{"class":"ferry","highway":"ferry","kind":"road","verification":"verified","source":"OpenMapTiles/OpenStreetMap national PMTiles","sourceId":"10/888/527:transportation:10294303050:1","sourceLayer":"transportation","archive":"https://its.hanifahseptiani45.workers.dev/v1/map/archive/indonesia.pmtiles","updatedAt":"2026-07-26T09:44:34.142Z"},"geometry":{"type":"LineString","coordinates":[[132.1820068359375,-5.3338660923786705],[132.4098014831543,-5.403596686043301],[132.5445556640625,-5.487416581737122]]}},{"type":"Feature","id":"pmtiles:10/888/527:transportation:10294303050:2","properties":{"class":"ferry","highway":"ferry","kind":"road","verification":"verified","source":"OpenMapTiles/OpenStreetMap national PMTiles","sourceId":"10/888/527:transportation:10294303050:2","sourceLayer":"transportation","archive":"https://its.hanifahseptiani45.workers.dev/v1/map/archive/indonesia.pmtiles","updatedAt":"2026-07-26T09:44:34.142Z"},"geometry":{"type":"LineString","coordinates":[[132.1820068359375,-5.446917908314248],[132.30525970458984,-5.554224828808884],[132.30749130249023,-5.5550791053612585],[132.31006622314453,-5.555249960523071],[132.31427192687988,-5.55473739488896],[132.3091220855713,-5.554822822525608],[132.30749130249023,-5.554566539578474],[132.3057746887207,-5.553797690068208],[132.29633331298828,-5.545425708271694],[132.2926425933838,-5.540897954333474],[132.29126930236816,-5.536626456534549],[132.29066848754883,-5.532269496978884],[132.2911834716797,-5.52757077914093],[132.29719161987305,-5.518344097454204],[132.30448722839355,-5.511082256276069],[132.31521606445312,-5.506297935908165],[132.32714653015137,-5.504247501101958],[132.3383903503418,-5.503649456284762],[132.34963417053223,-5.505101849797356],[132.5445556640625,-5.525007826418815]]}},{"type":"Feature","id":"pmtiles:10/888/527:transportation:10294303050:3","properties":{"class":"ferry","highway":"ferry","kind":"road","verification":"verified","source":"OpenMapTiles/OpenStreetMap national PMTiles","sourceId":"10/888/527:transportation:10294303050:3","sourceLayer":"transportation","archive":"https://its.hanifahseptiani45.workers.dev/v1/map/archive/indonesia.pmtiles","updatedAt":"2026-07-26T09:44:34.142Z"},"geometry":{"type":"LineString","coordinates":[[132.5445556640625,-5.480068924768915],[132.41314888000488,-5.396931606982051],[132.1820068359375,-5.311389955096345]]}},{"type":"Feature","id":"pmtiles:10/888/527:water:980:0","properties":{"class":"ocean","water":"ocean","kind":"waterway","verification":"verified","source":"OpenMapTiles/OpenStreetMap national PMTiles","sourceId":"10/888/527:water:980:0","sourceLayer":"water","archive":"https://its.hanifahseptiani45.workers.dev/v1/map/archive/indonesia.pmtiles","updatedAt":"2026-07-26T09:44:34.142Z"},"geometry":{"type":"Polygon","coordinates":[[[132.1820068359375,-5.6155587254349655],[132.1820068359375,-5.260537879550753],[132.18707084655762,-5.260537879550753],[132.18792915344238,-5.260537879550753],[132.5445556640625,-5.260537879550753],[132.5445556640625,-5.6155587254349655],[132.5445556640625,-5.616412912562637],[132.5445556640625,-5.621452591118839],[132.31667518615723,-5.621452591118839],[132.3149585723877,-5.620598411382531],[132.3141860961914,-5.619744230392982],[132.3138427734375,-5.617010842806906],[132.31367111206055,-5.616412912562637],[132.3134994506836,-5.616071237861846],[132.31289863586426,-5.6155587254349655],[132.31143951416016,-5.614704537055147],[132.31109619140625,-5.61427744239576],[132.31032371520996,-5.61111693219101],[132.30517387390137,-5.610775254385999],[132.30448722839355,-5.610433576380828],[132.30371475219727,-5.609408541164385],[132.30337142944336,-5.607956404858015],[132.30337142944336,-5.6059917441033775],[132.3039722442627,-5.60368539478003],[132.3072338104248,-5.597364242543861],[132.30714797973633,-5.5965100275384145],[132.30637550354004,-5.593691109167409],[132.30663299560547,-5.591555555903568],[132.3068904876709,-5.590872177213157],[132.3068904876709,-5.590359642671743],[132.30663299560547,-5.590359642671743],[132.30380058288574,-5.592238933795997],[132.30182647705078,-5.593178577094946],[132.30122566223145,-5.593178577094946],[132.30045318603516,-5.592238933795997],[132.30002403259277,-5.592153511603087],[132.29650497436523,-5.593520265193149],[132.29427337646484,-5.595057859165266],[132.28689193725586,-5.596595449095119],[132.28448867797852,-5.596595449095119],[132.28337287902832,-5.596339184387574],[132.28225708007812,-5.59591207629208],[132.28079795837402,-5.594801593783927],[132.27933883666992,-5.592666044573491],[132.27899551391602,-5.591299288988168],[132.27916717529297,-5.588224077252477],[132.27813720703125,-5.5868573112967255],[132.2775363922119,-5.584465463200431],[132.2761631011963,-5.583269535490899],[132.27496147155762,-5.582671570721018],[132.27290153503418,-5.582500723531865],[132.27118492126465,-5.581902757977716],[132.26972579956055,-5.581048520413788],[132.26852416992188,-5.579681737722964],[132.2680950164795,-5.579596313699028],[132.26423263549805,-5.581048520413788],[132.26243019104004,-5.581390215588712],[132.26165771484375,-5.580963096588945],[132.26011276245117,-5.581390215588712],[132.25547790527344,-5.584038346441474],[132.25384712219238,-5.585148849367215],[132.25298881530762,-5.586088504045023],[132.25281715393066,-5.587199003084677],[132.25401878356934,-5.58677188831858],[132.25461959838867,-5.58677188831858],[132.25582122802734,-5.5873698489039185],[132.25616455078125,-5.587967808878744],[132.25616455078125,-5.589761685139578],[132.25650787353516,-5.591384711305778],[132.2530746459961,-5.591640978183776],[132.2523021697998,-5.591811822706745],[132.25221633911133,-5.592068089397699],[132.25642204284668,-5.591982667179849],[132.25702285766602,-5.592153511603087],[132.25873947143555,-5.595143280934096],[132.25916862487793,-5.596168341186811],[132.25934028625488,-5.597876770948034],[132.25976943969727,-5.598730983956386],[132.2610569000244,-5.599756037918482],[132.2629451751709,-5.600268564225274],[132.2665500640869,-5.600951931935029],[132.2692108154297,-5.600866511015013],[132.27041244506836,-5.600183143205356],[132.27401733398438,-5.598816405188572],[132.27676391601562,-5.59804761364957],[132.2783088684082,-5.59804761364957],[132.2808837890625,-5.598474720184967],[132.28260040283203,-5.5993289323194375],[132.2834587097168,-5.600183143205356],[132.28483200073242,-5.602745768369942],[132.28543281555176,-5.606845945244132],[132.28466033935547,-5.608212664468823],[132.28440284729004,-5.609408541164385],[132.2838020324707,-5.609664800137367],[132.2834587097168,-5.610091898175483],[132.2826862335205,-5.6128253182130265],[132.28277206420898,-5.613081575684603],[132.28448867797852,-5.613508671220231],[132.28551864624023,-5.6140211854499],[132.28543281555176,-5.614619118148326],[132.28483200073242,-5.615217050233284],[132.2852611541748,-5.616412912562637],[132.28543281555176,-5.616840005656883],[132.28543281555176,-5.6194025576463105],[132.2856903076172,-5.621452591118839],[132.2512722015381,-5.621452591118839],[132.2512722015381,-5.621110919374715],[132.25152969360352,-5.620854665435019],[132.2511863708496,-5.620427575284879],[132.2501564025879,-5.620000484821418],[132.24886894226074,-5.619231721197792],[132.24843978881836,-5.618035864654942],[132.24732398986816,-5.617437935462789],[132.24586486816406,-5.61709626136313],[132.24552154541016,-5.616840005656883],[132.2450065612793,-5.61709626136313],[132.244234085083,-5.617779609362032],[132.2431182861328,-5.617950446236492],[132.2420883178711,-5.6189754664310385],[132.2416591644287,-5.621452591118839],[132.18792915344238,-5.621452591118839],[132.18707084655762,-5.621452591118839],[132.1820068359375,-5.621452591118839],[132.1820068359375,-5.616412912562637],[132.1820068359375,-5.6155587254349655]],[[132.33427047729492,-5.616412912562637],[132.33607292175293,-5.613935766442921],[132.33641624450684,-5.612398222176779],[132.3358154296875,-5.610177317745581],[132.33495712280273,-5.608725183352789],[132.33452796936035,-5.607358465328488],[132.3335838317871,-5.606589685033171],[132.332124710083,-5.60590632392055],[132.33006477355957,-5.6054792228189],[132.32731819152832,-5.603770815287788],[132.3262882232666,-5.6035145537269955],[132.32542991638184,-5.602745768369942],[132.32491493225098,-5.601891561230801],[132.32525825500488,-5.601549878025381],[132.32474327087402,-5.601037352842539],[132.3244857788086,-5.6012081946201135],[132.32422828674316,-5.600951931935029],[132.32379913330078,-5.6012081946201135],[132.32139587402344,-5.599756037918482],[132.3207950592041,-5.599841459000828],[132.32053756713867,-5.600524827210094],[132.32019424438477,-5.600866511015013],[132.31916427612305,-5.6012081946201135],[132.31830596923828,-5.601806140448176],[132.3153018951416,-5.605222962007929],[132.3134994506836,-5.606675105115997],[132.31324195861816,-5.607700145134672],[132.31427192687988,-5.608127244611055],[132.31470108032227,-5.609408541164385],[132.3145294189453,-5.610006478592879],[132.31358528137207,-5.611544029165742],[132.3149585723877,-5.612569060628829],[132.31839179992676,-5.612654479836081],[132.3207950592041,-5.613423252138119],[132.32311248779297,-5.615217050233284],[132.3233699798584,-5.6155587254349655],[132.32354164123535,-5.6158149817047445],[132.3248291015625,-5.616412912562637],[132.32465744018555,-5.616412912562637],[132.3248291015625,-5.616498331206529],[132.32688903808594,-5.618890048150405],[132.328519821167,-5.6194025576463105],[132.33015060424805,-5.619658812225111],[132.33118057250977,-5.6194025576463105],[132.3328971862793,-5.618121283060873],[132.33427047729492,-5.616412912562637]],[[132.34010696411133,-5.583354958979669],[132.34654426574707,-5.579425465613824],[132.3508358001709,-5.577887830607551],[132.35392570495605,-5.576948162786408],[132.3556423187256,-5.5767773139299806],[132.3566722869873,-5.575410521287893],[132.3570156097412,-5.573445751288929],[132.35684394836426,-5.573274901413072],[132.35761642456055,-5.572249801113898],[132.35787391662598,-5.570455871284992],[132.35830307006836,-5.569601617060016],[132.3584747314453,-5.568661935977985],[132.35907554626465,-5.567807679145005],[132.35916137695312,-5.567380550262897],[132.3607063293457,-5.565501179494603],[132.36242294311523,-5.563023817940547],[132.3676586151123,-5.55841077207694],[132.37109184265137,-5.556189663027283],[132.37220764160156,-5.555762525711216],[132.37555503845215,-5.555762525711216],[132.37692832946777,-5.55533538808541],[132.37709999084473,-5.55448111190465],[132.3775291442871,-5.554139401085521],[132.37744331359863,-5.553455978852725],[132.37855911254883,-5.553028839554713],[132.3779582977295,-5.552089132009385],[132.37744331359863,-5.548672001035413],[132.3786449432373,-5.544485988612024],[132.37890243530273,-5.540812524680149],[132.37787246704102,-5.538420489371248],[132.3776149749756,-5.536968177494742],[132.3764991760254,-5.535430431618167],[132.37589836120605,-5.53517414024985],[132.37555503845215,-5.535345001174406],[132.37555503845215,-5.535601292468655],[132.37589836120605,-5.535943014021484],[132.37555503845215,-5.536711886793114],[132.37598419189453,-5.537907909116498],[132.376070022583,-5.539103929019234],[132.37546920776367,-5.540299946500781],[132.37383842468262,-5.541923109209321],[132.37049102783203,-5.544058842817577],[132.36903190612793,-5.54559656623087],[132.36637115478516,-5.547476000516539],[132.36534118652344,-5.548757429551102],[132.36276626586914,-5.551063994796735],[132.36139297485352,-5.552003703976425],[132.3585605621338,-5.553114267439085],[132.35735893249512,-5.553455978852725],[132.35607147216797,-5.553455978852725],[132.3559856414795,-5.553199695311079],[132.3559856414795,-5.553370551017878],[132.35529899597168,-5.553370551017878],[132.3515224456787,-5.551747419803249],[132.34954833984375,-5.5518328478733565],[132.34671592712402,-5.551063994796735],[132.3442268371582,-5.549013715023932],[132.34285354614258,-5.546963428123277],[132.3420810699463,-5.5444005594778645],[132.34225273132324,-5.5390184991064615],[132.34293937683105,-5.532440358742647],[132.34362602233887,-5.529621133330636],[132.3435401916504,-5.529023114092283],[132.3427677154541,-5.5291085454490485],[132.33847618103027,-5.532013204240698],[132.33718872070312,-5.532611220457056],[132.33409881591797,-5.533123805304157],[132.33135223388672,-5.532952943737811],[132.32860565185547,-5.531927773303295],[132.32542991638184,-5.5299628583383935],[132.32422828674316,-5.528595957123542],[132.3233699798584,-5.527058189483938],[132.32173919677734,-5.523128320707528],[132.31976509094238,-5.5220177008938975],[132.3186492919922,-5.520992511526316],[132.31573104858398,-5.521932268514334],[132.31470108032227,-5.5220177008938975],[132.31410026550293,-5.5216759713017325],[132.31375694274902,-5.521932268514334],[132.31341361999512,-5.5218468361224495],[132.31289863586426,-5.52253029491267],[132.31229782104492,-5.52270115948707],[132.3116111755371,-5.522273997958706],[132.31040954589844,-5.5221031332611545],[132.3098087310791,-5.523897210128311],[132.3086929321289,-5.5244952345434655],[132.30826377868652,-5.525691281562587],[132.30706214904785,-5.526374735917656],[132.306547164917,-5.527229052752247],[132.30586051940918,-5.527399915971245],[132.30448722839355,-5.529279408125561],[132.3035430908203,-5.528937682723196],[132.30277061462402,-5.529364839445321],[132.3025131225586,-5.530902601092251],[132.30268478393555,-5.532269496978884],[132.30388641357422,-5.536113874723824],[132.30534553527832,-5.538335059359682],[132.30680465698242,-5.540043657244297],[132.3098087310791,-5.542093968182286],[132.3130702972412,-5.544656846843253],[132.31581687927246,-5.5475614292054445],[132.3164176940918,-5.548672001035413],[132.31693267822266,-5.5503805689979515],[132.31693267822266,-5.552089132009385],[132.3171901702881,-5.552516271988452],[132.317533493042,-5.5555062431729],[132.31839179992676,-5.555677098210836],[132.31907844543457,-5.556531372657119],[132.31950759887695,-5.557812782003111],[132.32036590576172,-5.559606750402381],[132.32062339782715,-5.560717299528733],[132.32105255126953,-5.5611444332501065],[132.32122421264648,-5.561827846559396],[132.32096672058105,-5.5619986997626825],[132.32122421264648,-5.5619986997626825],[132.32216835021973,-5.560973579798741],[132.32319831848145,-5.560290165497349],[132.32491493225098,-5.561656993306485],[132.32568740844727,-5.56319467079652],[132.32542991638184,-5.565159475073102],[132.32457160949707,-5.565757457680391],[132.32328414916992,-5.565672031630868],[132.3219108581543,-5.566270013716874],[132.3186492919922,-5.566355439679512],[132.31684684753418,-5.566782569306497],[132.3164176940918,-5.569687042538405],[132.31693267822266,-5.5703704459184],[132.3167610168457,-5.5712246990254215],[132.3186492919922,-5.5707975726271854],[132.32122421264648,-5.5707975726271854],[132.321138381958,-5.5712246990254215],[132.32062339782715,-5.571737250293296],[132.3215675354004,-5.573360326357218],[132.32234001159668,-5.575923068901702],[132.32345581054688,-5.579425465613824],[132.32319831848145,-5.579681737722964],[132.3248291015625,-5.580706825039741],[132.3277473449707,-5.581304791813636],[132.32980728149414,-5.582756994296915],[132.33186721801758,-5.58352580591982],[132.33349800109863,-5.583440382455976],[132.33478546142578,-5.5838674996507365],[132.33684539794922,-5.584038346441474],[132.3379611968994,-5.583952923052323],[132.34010696411133,-5.583354958979669]]]}},{"type":"Feature","id":"pmtiles:10/888/528:mountain_peak:10701965131:0","properties":{"name_int":"Gunung Raja","name_de":"Gunung Raja","name":"Gunung Raja","rank":1,"class":"peak","name:latin":"Gunung Raja","name_en":"Gunung Raja","kind":"poi","verification":"verified","source":"OpenMapTiles/OpenStreetMap national PMTiles","sourceId":"10/888/528:mountain_peak:10701965131:0","sourceLayer":"mountain_peak","archive":"https://its.hanifahseptiani45.workers.dev/v1/map/archive/indonesia.pmtiles","updatedAt":"2026-07-26T09:44:44.198Z"},"geometry":{"type":"Point","coordinates":[132.31444358825684,-5.533465528288772]}},{"type":"Feature","id":"pmtiles:8/221/131:mountain_peak:10701965131:0","properties":{"name_int":"Gunung Raja","name_de":"Gunung Raja","name":"Gunung Raja","rank":1,"class":"peak","name:latin":"Gunung Raja","name_en":"Gunung Raja","kind":"poi","verification":"verified","source":"OpenMapTiles/OpenStreetMap national PMTiles","sourceId":"8/221/131:mountain_peak:10701965131:0","sourceLayer":"mountain_peak","archive":"https://its.hanifahseptiani45.workers.dev/v1/map/archive/indonesia.pmtiles","updatedAt":"2026-07-26T09:35:41.304Z"},"geometry":{"type":"Point","coordinates":[132.3145294189453,-5.533294666821149]}},{"type":"Feature","id":"pmtiles:8/222/131:mountain_peak:10701965131:0","properties":{"name_int":"Gunung Raja","name_de":"Gunung Raja","name":"Gunung Raja","rank":1,"class":"peak","name:latin":"Gunung Raja","name_en":"Gunung Raja","kind":"poi","verification":"verified","source":"OpenMapTiles/OpenStreetMap national PMTiles","sourceId":"8/222/131:mountain_peak:10701965131:0","sourceLayer":"mountain_peak","archive":"https://its.hanifahseptiani45.workers.dev/v1/map/archive/indonesia.pmtiles","updatedAt":"2026-07-26T09:35:41.361Z"},"geometry":{"type":"Point","coordinates":[132.3145294189453,-5.533294666821149]}},{"type":"Feature","id":"pmtiles:8/222/131:transportation:10282115330:0","properties":{"class":"ferry","highway":"ferry","kind":"road","verification":"verified","source":"OpenMapTiles/OpenStreetMap national PMTiles","sourceId":"8/222/131:transportation:10282115330:0","sourceLayer":"transportation","archive":"https://its.hanifahseptiani45.workers.dev/v1/map/archive/indonesia.pmtiles","updatedAt":"2026-07-26T09:35:41.361Z"},"geometry":{"type":"LineString","coordinates":[[132.16552734375,-5.307373220555007],[132.4120330810547,-5.39864060859972],[132.6262664794922,-5.534661557179916],[132.67742156982422,-5.568832787195589],[132.68428802490234,-5.569857893457922],[132.7100372314453,-5.567124272784639],[132.72823333740234,-5.566782569306497],[132.73578643798828,-5.570199595147926],[132.73921966552734,-5.59070133241589],[132.7371597290039,-5.61086067385601],[132.7375030517578,-5.6194025576463105],[132.73921966552734,-5.63033598603856],[132.74127960205078,-5.6334109757321045],[132.73956298828125,-5.63033598603856],[132.7375030517578,-5.61086067385601],[132.73956298828125,-5.59070133241589],[132.7361297607422,-5.569857893457922],[132.72823333740234,-5.566099161754366],[132.7096939086914,-5.566440865629744],[132.68428802490234,-5.569174489481739],[132.67742156982422,-5.568149382027215],[132.61322021484375,-5.523384617291981],[132.4130630493164,-5.396931606982051],[132.16552734375,-5.305322111975045]]}},{"type":"Feature","id":"pmtiles:8/222/131:transportation:10282115330:1","properties":{"class":"ferry","highway":"ferry","kind":"road","verification":"verified","source":"OpenMapTiles/OpenStreetMap national PMTiles","sourceId":"8/222/131:transportation:10282115330:1","sourceLayer":"transportation","archive":"https://its.hanifahseptiani45.workers.dev/v1/map/archive/indonesia.pmtiles","updatedAt":"2026-07-26T09:35:41.362Z"},"geometry":{"type":"LineString","coordinates":[[132.16552734375,-5.328909448322193],[132.40962982177734,-5.403425787495934],[132.6767349243164,-5.569516191569193],[132.68463134765625,-5.570541296639178],[132.7096939086914,-5.567807679145005],[132.72823333740234,-5.567807679145005],[132.73509979248047,-5.57088299793169],[132.73784637451172,-5.59070133241589],[132.7361297607422,-5.61086067385601],[132.73681640625,-5.6194025576463105],[132.74059295654297,-5.62862765140035],[132.7426528930664,-5.631019318487901],[132.7371597290039,-5.6194025576463105],[132.7364730834961,-5.61086067385601],[132.73853302001953,-5.59070133241589],[132.73544311523438,-5.570541296639178],[132.72823333740234,-5.567124272784639],[132.7100372314453,-5.567465976064156],[132.68463134765625,-5.570199595147926],[132.55966186523438,-5.59719339964262],[132.55348205566406,-5.60163529884548],[132.5335693359375,-5.6378525987708485]]}},{"type":"Feature","id":"pmtiles:8/221/132:mountain_peak:10701965131:0","properties":{"name_int":"Gunung Raja","name_de":"Gunung Raja","name":"Gunung Raja","rank":1,"class":"peak","name:latin":"Gunung Raja","name_en":"Gunung Raja","kind":"poi","verification":"verified","source":"OpenMapTiles/OpenStreetMap national PMTiles","sourceId":"8/221/132:mountain_peak:10701965131:0","sourceLayer":"mountain_peak","archive":"https://its.hanifahseptiani45.workers.dev/v1/map/archive/indonesia.pmtiles","updatedAt":"2026-07-26T09:35:43.756Z"},"geometry":{"type":"Point","coordinates":[132.3145294189453,-5.533294666821149]}},{"type":"Feature","id":"pmtiles:8/222/132:mountain_peak:10701965131:0","properties":{"name_int":"Gunung Raja","name_de":"Gunung Raja","name":"Gunung Raja","rank":1,"class":"peak","name:latin":"Gunung Raja","name_en":"Gunung Raja","kind":"poi","verification":"verified","source":"OpenMapTiles/OpenStreetMap national PMTiles","sourceId":"8/222/132:mountain_peak:10701965131:0","sourceLayer":"mountain_peak","archive":"https://its.hanifahseptiani45.workers.dev/v1/map/archive/indonesia.pmtiles","updatedAt":"2026-07-26T09:35:44.048Z"},"geometry":{"type":"Point","coordinates":[132.3145294189453,-5.533294666821149]}}]}