{"type":"FeatureCollection","features":[{"type":"Feature","id":"pmtiles:10/829/542:water:2710:0","properties":{"class":"ocean","water":"ocean","kind":"waterway","verification":"verified","source":"OpenMapTiles/OpenStreetMap national PMTiles","sourceId":"10/829/542:water:2710:0","sourceLayer":"water","archive":"https://its.hanifahseptiani45.workers.dev/v1/map/archive/indonesia.pmtiles","updatedAt":"2026-07-26T09:47:19.468Z"},"geometry":{"type":"Polygon","coordinates":[[[111.4398193359375,-10.482410441586666],[111.8023681640625,-10.482410441586666],[111.8023681640625,-10.838701200796791],[111.4398193359375,-10.838701200796791],[111.4398193359375,-10.482410441586666]]]}}]}