{"type":"FeatureCollection","features":[{"type":"Feature","id":"pmtiles:10/824/543:water:2670:0","properties":{"class":"ocean","water":"ocean","kind":"waterway","verification":"verified","source":"OpenMapTiles/OpenStreetMap national PMTiles","sourceId":"10/824/543:water:2670:0","sourceLayer":"water","archive":"https://its.hanifahseptiani45.workers.dev/v1/map/archive/indonesia.pmtiles","updatedAt":"2026-07-26T09:47:28.238Z"},"geometry":{"type":"Polygon","coordinates":[[[109.6820068359375,-10.827910669267112],[110.0445556640625,-10.827910669267112],[110.0445556640625,-11.183790773046624],[109.6820068359375,-11.183790773046624],[109.6820068359375,-10.827910669267112]]]}}]}