{"type":"FeatureCollection","features":[{"type":"Feature","id":"pmtiles:10/861/523:landcover:3548056502:1","properties":{"subclass":"forest","class":"wood","kind":"green","verification":"verified","source":"OpenMapTiles/OpenStreetMap national PMTiles","sourceId":"10/861/523:landcover:3548056502:1","sourceLayer":"landcover","archive":"https://its.hanifahseptiani45.workers.dev/v1/map/archive/indonesia.pmtiles","updatedAt":"2026-07-26T09:43:54.414Z"},"geometry":{"type":"Polygon","coordinates":[[[123.0520248413086,-4.16640725671661],[123.0523681640625,-4.165808029475002],[123.0523681640625,-4.173426741818091],[123.05193901062012,-4.173341138718996],[123.05005073547363,-4.172228297581583],[123.04919242858887,-4.171029851516423],[123.04970741271973,-4.169831403623149],[123.05159568786621,-4.16897536829471],[123.0520248413086,-4.16640725671661]]]}},{"type":"Feature","id":"pmtiles:10/861/523:mountain_peak:10701825411:0","properties":{"name_int":"Wawo Landaka","name_de":"Wawo Landaka","name":"Wawo Landaka","rank":1,"class":"peak","name:latin":"Wawo Landaka","name_en":"Wawo Landaka","kind":"poi","verification":"verified","source":"OpenMapTiles/OpenStreetMap national PMTiles","sourceId":"10/861/523:mountain_peak:10701825411:0","sourceLayer":"mountain_peak","archive":"https://its.hanifahseptiani45.workers.dev/v1/map/archive/indonesia.pmtiles","updatedAt":"2026-07-26T09:43:54.415Z"},"geometry":{"type":"Point","coordinates":[123.05683135986328,-4.037391770045886]}},{"type":"Feature","id":"pmtiles:10/861/523:mountain_peak:10701774591:0","properties":{"name_int":"Wawo Lawatuapi","name_de":"Wawo Lawatuapi","name":"Wawo Lawatuapi","rank":1,"class":"peak","name:latin":"Wawo Lawatuapi","name_en":"Wawo Lawatuapi","kind":"poi","verification":"verified","source":"OpenMapTiles/OpenStreetMap national PMTiles","sourceId":"10/861/523:mountain_peak:10701774591:0","sourceLayer":"mountain_peak","archive":"https://its.hanifahseptiani45.workers.dev/v1/map/archive/indonesia.pmtiles","updatedAt":"2026-07-26T09:43:54.415Z"},"geometry":{"type":"Point","coordinates":[123.08747291564941,-4.178562910678636]}},{"type":"Feature","id":"pmtiles:10/861/523:mountain_peak:10701820331:0","properties":{"name_int":"Wawo Lantambaga","name_de":"Wawo Lantambaga","name":"Wawo Lantambaga","rank":2,"class":"peak","name:latin":"Wawo Lantambaga","name_en":"Wawo Lantambaga","kind":"poi","verification":"verified","source":"OpenMapTiles/OpenStreetMap national PMTiles","sourceId":"10/861/523:mountain_peak:10701820331:0","sourceLayer":"mountain_peak","archive":"https://its.hanifahseptiani45.workers.dev/v1/map/archive/indonesia.pmtiles","updatedAt":"2026-07-26T09:43:54.415Z"},"geometry":{"type":"Point","coordinates":[123.09442520141602,-4.161527821621306]}},{"type":"Feature","id":"pmtiles:10/861/523:park:3548056502:0","properties":{"class":"nature_reserve","kind":"green","verification":"verified","source":"OpenMapTiles/OpenStreetMap national PMTiles","sourceId":"10/861/523:park:3548056502:0","sourceLayer":"park","archive":"https://its.hanifahseptiani45.workers.dev/v1/map/archive/indonesia.pmtiles","updatedAt":"2026-07-26T09:43:54.416Z"},"geometry":{"type":"Polygon","coordinates":[[[123.0523681640625,-4.100147093747722],[123.0523681640625,-4.105026906607094],[123.0512523651123,-4.101260036146471],[123.05159568786621,-4.100403926746523],[123.05193901062012,-4.100147093747722],[123.0523681640625,-4.100147093747722]]]}},{"type":"Feature","id":"pmtiles:10/861/523:park:3548056502:2","properties":{"class":"nature_reserve","kind":"green","verification":"verified","source":"OpenMapTiles/OpenStreetMap national PMTiles","sourceId":"10/861/523:park:3548056502:2","sourceLayer":"park","archive":"https://its.hanifahseptiani45.workers.dev/v1/map/archive/indonesia.pmtiles","updatedAt":"2026-07-26T09:43:54.416Z"},"geometry":{"type":"Polygon","coordinates":[[[123.0520248413086,-4.16640725671661],[123.0523681640625,-4.165808029475002],[123.0523681640625,-4.173426741818091],[123.05193901062012,-4.173341138718996],[123.05005073547363,-4.172228297581583],[123.04919242858887,-4.171029851516423],[123.04927825927734,-4.170259420937725],[123.04970741271973,-4.169831403623149],[123.05159568786621,-4.16897536829471],[123.0520248413086,-4.16640725671661]]]}},{"type":"Feature","id":"pmtiles:10/862/523:landcover:119912003:0","properties":{"subclass":"wetland","class":"wetland","kind":"green","verification":"verified","source":"OpenMapTiles/OpenStreetMap national PMTiles","sourceId":"10/862/523:landcover:119912003:0","sourceLayer":"landcover","archive":"https://its.hanifahseptiani45.workers.dev/v1/map/archive/indonesia.pmtiles","updatedAt":"2026-07-26T09:43:54.489Z"},"geometry":{"type":"Polygon","coordinates":[[[123.14626693725586,-4.013504085527629],[123.14635276794434,-4.012990364191737],[123.14695358276367,-4.012819123674632],[123.14661026000977,-4.0114491982454155],[123.1472110748291,-4.010764234669395],[123.14858436584473,-4.012391022224804],[123.15098762512207,-4.012048540903379],[123.15519332885742,-4.011363577829812],[123.16154479980469,-4.009051823217604],[123.16283226013184,-4.009479926416887],[123.16463470458984,-4.008538099082557],[123.16969871520996,-4.007938753850368],[123.17278861999512,-4.008281236893993],[123.17476272583008,-4.00939430579497],[123.17596435546875,-4.008966202550852],[123.18171501159668,-4.009822408814884],[123.18695068359375,-4.009137443875403],[123.18961143493652,-4.01016489106938],[123.18901062011719,-4.011620439049707],[123.18832397460938,-4.011363577829812],[123.18746566772461,-4.011791679818089],[123.18660736083984,-4.011277957405241],[123.18240165710449,-4.012048540903379],[123.18291664123535,-4.012562262831665],[123.1816291809082,-4.015473347654236],[123.17605018615723,-4.014788387453322],[123.17544937133789,-4.015644587614659],[123.1706428527832,-4.015644587614659],[123.1688404083252,-4.016586406754698],[123.16858291625977,-4.017356985242529],[123.16446304321289,-4.017356985242529],[123.16420555114746,-4.01632954709703],[123.1622314453125,-4.015730207581399],[123.1618881225586,-4.014617147313288],[123.15879821777344,-4.014360287035899],[123.1570816040039,-4.015045247596021],[123.15519332885742,-4.014617147313288],[123.15176010131836,-4.015558967638938],[123.14626693725586,-4.013504085527629]]]}},{"type":"Feature","id":"pmtiles:10/862/523:landcover:119912003:1","properties":{"subclass":"wetland","class":"wetland","kind":"green","verification":"verified","source":"OpenMapTiles/OpenStreetMap national PMTiles","sourceId":"10/862/523:landcover:119912003:1","sourceLayer":"landcover","archive":"https://its.hanifahseptiani45.workers.dev/v1/map/archive/indonesia.pmtiles","updatedAt":"2026-07-26T09:43:54.490Z"},"geometry":{"type":"Polygon","coordinates":[[[123.12721252441406,-4.017956323563226],[123.12661170959473,-4.017870703830084],[123.13098907470703,-4.01487400750986],[123.13227653503418,-4.013332845118242],[123.13244819641113,-4.011962920550587],[123.13742637634277,-4.008966202550852],[123.13828468322754,-4.009223064524235],[123.14000129699707,-4.008366857632467],[123.14223289489746,-4.008794961190432],[123.14600944519043,-4.010336132142797],[123.14635276794434,-4.01110671652917],[123.14566612243652,-4.013161604672931],[123.14352035522461,-4.012048540903379],[123.14034461975098,-4.011877300188829],[123.14360618591309,-4.01324722490007],[123.13751220703125,-4.015558967638938],[123.1333065032959,-4.01632954709703],[123.13107490539551,-4.015473347654236],[123.12875747680664,-4.017442605029601],[123.12721252441406,-4.017956323563226]]]}},{"type":"Feature","id":"pmtiles:10/862/523:landcover:119912013:0","properties":{"subclass":"wetland","class":"wetland","kind":"green","verification":"verified","source":"OpenMapTiles/OpenStreetMap national PMTiles","sourceId":"10/862/523:landcover:119912013:0","sourceLayer":"landcover","archive":"https://its.hanifahseptiani45.workers.dev/v1/map/archive/indonesia.pmtiles","updatedAt":"2026-07-26T09:43:54.490Z"},"geometry":{"type":"Polygon","coordinates":[[[123.21561813354492,-4.0241209207191275],[123.21510314941406,-4.023350348624902],[123.21527481079102,-4.022665395040335],[123.21484565734863,-4.022494156554217],[123.2142448425293,-4.02309349109818],[123.21304321289062,-4.021723582921311],[123.21364402770996,-4.022151679473993],[123.21304321289062,-4.02138110551725],[123.21415901184082,-4.020182433469756],[123.21587562561035,-4.020353672441601],[123.21742057800293,-4.0212098667612395],[123.21870803833008,-4.0230078719046105],[123.22136878967285,-4.024206539795713],[123.22454452514648,-4.027631295475956],[123.22591781616211,-4.030799181647694],[123.22591781616211,-4.032425929210433],[123.22531700134277,-4.0335389651406075],[123.22591781616211,-4.036878063781359],[123.22437286376953,-4.035850650277169],[123.22437286376953,-4.035080089295974],[123.22239875793457,-4.032682783791159],[123.2211971282959,-4.029343667911675],[123.21845054626465,-4.026261394932831],[123.21561813354492,-4.0241209207191275]]]}},{"type":"Feature","id":"pmtiles:10/862/523:landcover:119912013:1","properties":{"subclass":"wetland","class":"wetland","kind":"green","verification":"verified","source":"OpenMapTiles/OpenStreetMap national PMTiles","sourceId":"10/862/523:landcover:119912013:1","sourceLayer":"landcover","archive":"https://its.hanifahseptiani45.workers.dev/v1/map/archive/indonesia.pmtiles","updatedAt":"2026-07-26T09:43:54.490Z"},"geometry":{"type":"Polygon","coordinates":[[[123.1922721862793,-4.013418465327405],[123.19201469421387,-4.012819123674632],[123.19295883178711,-4.011962920550587],[123.19879531860352,-4.015216487646256],[123.2120132446289,-4.019069379276104],[123.21287155151367,-4.020524911377464],[123.2127857208252,-4.021980440879915],[123.20806503295898,-4.019668716338401],[123.20772171020508,-4.019925574944551],[123.19639205932617,-4.01590144748792],[123.1922721862793,-4.013418465327405]]]}},{"type":"Feature","id":"pmtiles:10/862/523:landcover:119912023:0","properties":{"subclass":"wetland","class":"wetland","kind":"green","verification":"verified","source":"OpenMapTiles/OpenStreetMap national PMTiles","sourceId":"10/862/523:landcover:119912023:0","sourceLayer":"landcover","archive":"https://its.hanifahseptiani45.workers.dev/v1/map/archive/indonesia.pmtiles","updatedAt":"2026-07-26T09:43:54.490Z"},"geometry":{"type":"Polygon","coordinates":[[[123.23904991149902,-4.050833634964931],[123.24016571044922,-4.051261716169492],[123.24093818664551,-4.052374726241169],[123.2405948638916,-4.05357335075918],[123.24136734008789,-4.055114436814023],[123.24411392211914,-4.05545689998273],[123.24488639831543,-4.056141825884765],[123.24557304382324,-4.05793975361496],[123.24763298034668,-4.058196600106868],[123.24926376342773,-4.05922398525756],[123.24926376342773,-4.059823292658393],[123.24737548828125,-4.058710292845603],[123.24634552001953,-4.058967139092445],[123.24780464172363,-4.0593952159889],[123.24883460998535,-4.061193136475197],[123.25055122375488,-4.061878057511663],[123.25338363647461,-4.065645112816682],[123.25381278991699,-4.067785477307368],[123.25355529785156,-4.068898464595534],[123.25424194335938,-4.06949776480603],[123.25329780578613,-4.070953206317469],[123.25252532958984,-4.070525135557801],[123.25226783752441,-4.067956706221025],[123.24892044067383,-4.065217039236487],[123.24909210205078,-4.063419127717722],[123.24857711791992,-4.0632478978402276],[123.24849128723145,-4.062306132864194],[123.24737548828125,-4.061963672600342],[123.24814796447754,-4.060765060532205],[123.24548721313477,-4.0616212121911275],[123.24437141418457,-4.0636759724658305],[123.2431697845459,-4.062391747907455],[123.24334144592285,-4.06127875163655],[123.24256896972656,-4.059138369878255],[123.23982238769531,-4.056826751206202],[123.23956489562988,-4.05545689998273],[123.23870658874512,-4.054857589342234],[123.2387924194336,-4.0539158145808045],[123.23759078979492,-4.051775413315966],[123.23904991149902,-4.050833634964931]]]}},{"type":"Feature","id":"pmtiles:10/862/523:landcover:8058046222:0","properties":{"subclass":"wetland","class":"wetland","kind":"green","verification":"verified","source":"OpenMapTiles/OpenStreetMap national PMTiles","sourceId":"10/862/523:landcover:8058046222:0","sourceLayer":"landcover","archive":"https://its.hanifahseptiani45.workers.dev/v1/map/archive/indonesia.pmtiles","updatedAt":"2026-07-26T09:43:54.490Z"},"geometry":{"type":"Polygon","coordinates":[[[123.1922721862793,-4.013675325901104],[123.1948471069336,-4.015216487646256],[123.19458961486816,-4.0169288861724795],[123.19639205932617,-4.017699464336857],[123.19647789001465,-4.016158307280335],[123.20119857788086,-4.017956323563226],[123.20085525512695,-4.019583096785055],[123.19725036621094,-4.018726900757002],[123.19141387939453,-4.0185556614435285],[123.19124221801758,-4.017699464336857],[123.18995475769043,-4.0170145060044575],[123.18463325500488,-4.01590144748792],[123.18463325500488,-4.012904743937668],[123.18549156188965,-4.012562262831665],[123.18737983703613,-4.012476642532718],[123.1885814666748,-4.013332845118242],[123.1885814666748,-4.015216487646256],[123.1922721862793,-4.013675325901104]]]}},{"type":"Feature","id":"pmtiles:10/862/523:landcover:3548056502:0","properties":{"subclass":"forest","class":"wood","kind":"green","verification":"verified","source":"OpenMapTiles/OpenStreetMap national PMTiles","sourceId":"10/862/523:landcover:3548056502:0","sourceLayer":"landcover","archive":"https://its.hanifahseptiani45.workers.dev/v1/map/archive/indonesia.pmtiles","updatedAt":"2026-07-26T09:43:54.490Z"},"geometry":{"type":"Polygon","coordinates":[[[123.13064575195312,-4.087990237492477],[123.12626838684082,-4.089616869799286],[123.12609672546387,-4.091585946594975],[123.12317848205566,-4.097150702665061],[123.12704086303711,-4.099633427502511],[123.1281566619873,-4.098862927515853],[123.12987327575684,-4.096208977434756],[123.1333065032959,-4.095695308660055],[123.13536643981934,-4.096380200286347],[123.1362247467041,-4.0982636492350935],[123.13467979431152,-4.103571526944279],[123.13519477844238,-4.105112517092891],[123.13613891601562,-4.105112517092891],[123.13837051391602,-4.103657137586097],[123.14034461975098,-4.104770075094677],[123.14128875732422,-4.104770075094677],[123.14274787902832,-4.103571526944279],[123.14377784729004,-4.101003203422792],[123.14188957214355,-4.093726241969364],[123.14231872558594,-4.091585946594975],[123.15227508544922,-4.08884636017072],[123.15450668334961,-4.089959318285281],[123.15407752990723,-4.098006815548715],[123.15510749816895,-4.0977499817798275],[123.15648078918457,-4.098777316360383],[123.15716743469238,-4.102116144629193],[123.15836906433105,-4.104427632949552],[123.15999984741211,-4.105112517092891],[123.16102981567383,-4.106396673277885],[123.16266059875488,-4.106139842206176],[123.1636905670166,-4.106910335173353],[123.16437721252441,-4.112646203868692],[123.1633472442627,-4.1145296144387515],[123.16128730773926,-4.116327411282938],[123.15587997436523,-4.118724467426475],[123.15304756164551,-4.1206078636162715],[123.15073013305664,-4.12300490686151],[123.14206123352051,-4.128740659560577],[123.14120292663574,-4.130538424265836],[123.14343452453613,-4.1343907634860955],[123.14497947692871,-4.13567487239979],[123.1497859954834,-4.136873372175117],[123.15373420715332,-4.136702158032492],[123.16248893737793,-4.140297647254286],[123.1636905670166,-4.142009779239302],[123.16463470458984,-4.148087817852598],[123.16386222839355,-4.153652178400918],[123.16308975219727,-4.156391541489086],[123.16197395324707,-4.156733961206001],[123.15759658813477,-4.150313566777868],[123.15424919128418,-4.15108401686733],[123.15399169921875,-4.153224152059053],[123.15579414367676,-4.154765045802975],[123.15622329711914,-4.155877911634832],[123.15536499023438,-4.157418800193682],[123.15244674682617,-4.158360452830195],[123.15201759338379,-4.159901336535512],[123.15296173095703,-4.160757381736204],[123.15725326538086,-4.159045290404578],[123.15914154052734,-4.159730127383739],[123.15776824951172,-4.164010345011647],[123.1563949584961,-4.165893633394603],[123.15373420715332,-4.166578464416091],[123.15004348754883,-4.165551217660294],[123.14729690551758,-4.1671776910707194],[123.14566612243652,-4.166664068251833],[123.14394950866699,-4.1670064835016944],[123.1428337097168,-4.16640725671661],[123.14034461975098,-4.167520106096944],[123.13828468322754,-4.1696601966320515],[123.13802719116211,-4.171457868178138],[123.14369201660156,-4.171201058209093],[123.14394950866699,-4.1725707104072],[123.1428337097168,-4.17445397827926],[123.14128875732422,-4.175053198927529],[123.13862800598145,-4.173769154121146],[123.13682556152344,-4.173940360216676],[123.13158988952637,-4.180959777971097],[123.12704086303711,-4.181644595851438],[123.12283515930176,-4.1866951092307545],[123.12077522277832,-4.187208718935949],[123.12051773071289,-4.188920748851942],[123.12240600585938,-4.1938000135518365],[123.12077522277832,-4.195255226951332],[123.12249183654785,-4.198165645616143],[123.12317848205566,-4.200819253176476],[123.12274932861328,-4.203044852557213],[123.12189102172852,-4.204072050128829],[123.11656951904297,-4.205698443515288],[123.11545372009277,-4.20689683646988],[123.11614036560059,-4.207838429640816],[123.11511039733887,-4.2082664261603355],[123.11373710632324,-4.210577603300209],[123.10961723327637,-4.211947186514976],[123.10575485229492,-4.214686345710703],[123.10515403747559,-4.216655110422295],[123.10592651367188,-4.217511093523953],[123.10575485229492,-4.218709468281929],[123.10704231262207,-4.220250233111145],[123.10704231262207,-4.2204214290145785],[123.10077667236328,-4.2204214290145785],[123.1014633178711,-4.220250233111145],[123.101806640625,-4.219565449120012],[123.10060501098633,-4.218110281134031],[123.09845924377441,-4.21802468293231],[123.09897422790527,-4.213915958162019],[123.0933952331543,-4.212803174799902],[123.09296607971191,-4.213487964749632],[123.09399604797363,-4.216740708774893],[123.0937385559082,-4.217511093523953],[123.08901786804199,-4.217596691782262],[123.0879020690918,-4.217083102090982],[123.08695793151855,-4.214943141390634],[123.08738708496094,-4.209379216010134],[123.08661460876465,-4.20741043288605],[123.08558464050293,-4.2065544386709774],[123.08395385742188,-4.20638323971508],[123.08163642883301,-4.208608823206603],[123.07863235473633,-4.209550414307387],[123.07511329650879,-4.206725637589244],[123.07253837585449,-4.20646883919774],[123.07133674621582,-4.205612843947989],[123.07107925415039,-4.203130452406555],[123.07185173034668,-4.200391252567485],[123.07245254516602,-4.194056816113417],[123.07193756103516,-4.1906327750212],[123.0703067779541,-4.187979132861713],[123.07056427001953,-4.184726268905706],[123.06747436523438,-4.182586219459708],[123.06429862976074,-4.178905320740455],[123.06000709533691,-4.17539561052115],[123.05193901062012,-4.173341138718996],[123.05005073547363,-4.172228297581583],[123.04919242858887,-4.171029851516423],[123.04970741271973,-4.169831403623149],[123.05159568786621,-4.16897536829471],[123.0520248413086,-4.16640725671661],[123.05288314819336,-4.164951989766607],[123.05648803710938,-4.1628974906668645],[123.05580139160156,-4.161442217226849],[123.05399894714355,-4.160500568273676],[123.05219650268555,-4.160757381736204],[123.05142402648926,-4.1628118864213235],[123.04936408996582,-4.163496720124954],[123.04996490478516,-4.166578464416091],[123.04696083068848,-4.168204935702036],[123.04601669311523,-4.168204935702036],[123.04524421691895,-4.1672632948412485],[123.046875,-4.164695177672456],[123.04670333862305,-4.163154303347611],[123.04533004760742,-4.163239907555919],[123.0413818359375,-4.165979237304896],[123.0413818359375,-4.089017584596647],[123.04610252380371,-4.094411135280794],[123.04601669311523,-4.106653504266944],[123.0472183227539,-4.109821079667498],[123.04936408996582,-4.111276447930678],[123.05082321166992,-4.110591569078949],[123.05262565612793,-4.108365708748082],[123.05279731750488,-4.106567893946448],[123.0512523651123,-4.101260036146471],[123.05193901062012,-4.100147093747722],[123.05571556091309,-4.100489537727796],[123.06009292602539,-4.099975871702668],[123.06138038635254,-4.100746370616562],[123.0630111694336,-4.100917592496543],[123.06644439697266,-4.098349260445559],[123.06944847106934,-4.0973219253151],[123.07245254516602,-4.098691705195748],[123.07897567749023,-4.104427632949552],[123.08258056640625,-4.106567893946448],[123.09433937072754,-4.104855685607987],[123.09451103210449,-4.10399958006164],[123.09279441833496,-4.10177370134619],[123.09090614318848,-4.097150702665061],[123.08403968811035,-4.0950104164475505],[123.08197975158691,-4.093555018549949],[123.08034896850586,-4.091157886833699],[123.079833984375,-4.08884636017072],[123.08043479919434,-4.086449214367818],[123.08283805847168,-4.083195933604017],[123.0842113494873,-4.082425417807073],[123.08738708496094,-4.08208296610438],[123.0908203125,-4.08362399761603],[123.09691429138184,-4.088161462101283],[123.09760093688965,-4.090815438859991],[123.09880256652832,-4.091414722717914],[123.10798645019531,-4.091671558519778],[123.11347961425781,-4.092527677264499],[123.11562538146973,-4.0868772766439605],[123.1171703338623,-4.086449214367818],[123.12008857727051,-4.088075849801442],[123.12077522277832,-4.087390951073715],[123.12283515930176,-4.079428960456582],[123.12352180480957,-4.078829667645024],[123.12438011169434,-4.079086507476134],[123.12704086303711,-4.082596643603651],[123.1307315826416,-4.086021151863179],[123.13107490539551,-4.087305338691607],[123.13064575195312,-4.087990237492477]]]}},{"type":"Feature","id":"pmtiles:10/862/523:landuse:8820931802:0","properties":{"class":"residential","kind":"green","verification":"verified","source":"OpenMapTiles/OpenStreetMap national PMTiles","sourceId":"10/862/523:landuse:8820931802:0","sourceLayer":"landuse","archive":"https://its.hanifahseptiani45.workers.dev/v1/map/archive/indonesia.pmtiles","updatedAt":"2026-07-26T09:43:54.490Z"},"geometry":{"type":"Polygon","coordinates":[[[123.23192596435547,-4.141752959677731],[123.23381423950195,-4.140554467288183],[123.23287010192871,-4.139612793423211],[123.23458671569824,-4.140040827137071],[123.23596000671387,-4.137986263200034],[123.23647499084473,-4.13832869089309],[123.2332992553711,-4.1424378116567055],[123.23269844055176,-4.142780237423892],[123.23192596435547,-4.141752959677731]]]}},{"type":"Feature","id":"pmtiles:10/862/523:mountain_peak:10701825411:0","properties":{"name_int":"Wawo Landaka","name_de":"Wawo Landaka","name":"Wawo Landaka","rank":1,"class":"peak","name:latin":"Wawo Landaka","name_en":"Wawo Landaka","kind":"poi","verification":"verified","source":"OpenMapTiles/OpenStreetMap national PMTiles","sourceId":"10/862/523:mountain_peak:10701825411:0","sourceLayer":"mountain_peak","archive":"https://its.hanifahseptiani45.workers.dev/v1/map/archive/indonesia.pmtiles","updatedAt":"2026-07-26T09:43:54.490Z"},"geometry":{"type":"Point","coordinates":[123.05683135986328,-4.037391770045886]}},{"type":"Feature","id":"pmtiles:10/862/523:mountain_peak:10701889601:0","properties":{"name_int":"Wawo Keuwatu","name_de":"Wawo Keuwatu","name":"Wawo Keuwatu","rank":1,"class":"peak","name:latin":"Wawo Keuwatu","name_en":"Wawo Keuwatu","kind":"poi","verification":"verified","source":"OpenMapTiles/OpenStreetMap national PMTiles","sourceId":"10/862/523:mountain_peak:10701889601:0","sourceLayer":"mountain_peak","archive":"https://its.hanifahseptiani45.workers.dev/v1/map/archive/indonesia.pmtiles","updatedAt":"2026-07-26T09:43:54.490Z"},"geometry":{"type":"Point","coordinates":[123.14987182617188,-4.042015111792722]}},{"type":"Feature","id":"pmtiles:10/862/523:mountain_peak:10701774591:0","properties":{"name_int":"Wawo Lawatuapi","name_de":"Wawo Lawatuapi","name":"Wawo Lawatuapi","rank":1,"class":"peak","name:latin":"Wawo Lawatuapi","name_en":"Wawo Lawatuapi","kind":"poi","verification":"verified","source":"OpenMapTiles/OpenStreetMap national PMTiles","sourceId":"10/862/523:mountain_peak:10701774591:0","sourceLayer":"mountain_peak","archive":"https://its.hanifahseptiani45.workers.dev/v1/map/archive/indonesia.pmtiles","updatedAt":"2026-07-26T09:43:54.490Z"},"geometry":{"type":"Point","coordinates":[123.08747291564941,-4.178562910678636]}},{"type":"Feature","id":"pmtiles:10/862/523:mountain_peak:10701820331:0","properties":{"name_int":"Wawo Lantambaga","name_de":"Wawo Lantambaga","name":"Wawo Lantambaga","rank":2,"class":"peak","name:latin":"Wawo Lantambaga","name_en":"Wawo Lantambaga","kind":"poi","verification":"verified","source":"OpenMapTiles/OpenStreetMap national PMTiles","sourceId":"10/862/523:mountain_peak:10701820331:0","sourceLayer":"mountain_peak","archive":"https://its.hanifahseptiani45.workers.dev/v1/map/archive/indonesia.pmtiles","updatedAt":"2026-07-26T09:43:54.490Z"},"geometry":{"type":"Point","coordinates":[123.09442520141602,-4.161527821621306]}},{"type":"Feature","id":"pmtiles:10/862/523:park:3548056502:0","properties":{"class":"nature_reserve","kind":"green","verification":"verified","source":"OpenMapTiles/OpenStreetMap national PMTiles","sourceId":"10/862/523:park:3548056502:0","sourceLayer":"park","archive":"https://its.hanifahseptiani45.workers.dev/v1/map/archive/indonesia.pmtiles","updatedAt":"2026-07-26T09:43:54.490Z"},"geometry":{"type":"Polygon","coordinates":[[[123.0413818359375,-4.166150445097529],[123.0413818359375,-4.089531257654912],[123.04369926452637,-4.091500334661021],[123.04533004760742,-4.0931269598412],[123.04610252380371,-4.094411135280794],[123.04636001586914,-4.096123365995197],[123.04584503173828,-4.100746370616562],[123.04601669311523,-4.106653504266944],[123.04644584655762,-4.108280098611303],[123.0472183227539,-4.109821079667498],[123.04859161376953,-4.111019618430234],[123.04936408996582,-4.111276447930678],[123.05013656616211,-4.111105228272905],[123.05082321166992,-4.110591569078949],[123.05262565612793,-4.108365708748082],[123.05279731750488,-4.106567893946448],[123.0512523651123,-4.101260036146471],[123.05159568786621,-4.100403926746523],[123.05193901062012,-4.100147093747722],[123.05279731750488,-4.100061482729785],[123.05434226989746,-4.100489537727796],[123.05571556091309,-4.100489537727796],[123.06009292602539,-4.099975871702668],[123.06138038635254,-4.100746370616562],[123.0630111694336,-4.100917592496543],[123.06644439697266,-4.098349260445559],[123.06944847106934,-4.0973219253151],[123.07073593139648,-4.097664370505214],[123.07245254516602,-4.098691705195748],[123.07494163513184,-4.10108881433986],[123.07743072509766,-4.102972252194505],[123.07897567749023,-4.104427632949552],[123.0812931060791,-4.105968621445783],[123.08258056640625,-4.106567893946448],[123.08395385742188,-4.106653504266944],[123.08661460876465,-4.106054231830555],[123.09090614318848,-4.105711790236313],[123.09356689453125,-4.105198127569494],[123.09433937072754,-4.104855685607987],[123.09459686279297,-4.1045132434996106],[123.09451103210449,-4.10399958006164],[123.09408187866211,-4.1030578629005845],[123.09279441833496,-4.10177370134619],[123.09210777282715,-4.099290983155683],[123.09090614318848,-4.097150702665061],[123.0904769897461,-4.096808257255049],[123.08575630187988,-4.095780920145415],[123.08403968811035,-4.0950104164475505],[123.08197975158691,-4.093555018549949],[123.08034896850586,-4.091157886833699],[123.079833984375,-4.08884636017072],[123.08043479919434,-4.086449214367818],[123.08283805847168,-4.083195933604017],[123.0842113494873,-4.082425417807073],[123.08575630187988,-4.0821685790437385],[123.08738708496094,-4.08208296610438],[123.0908203125,-4.08362399761603],[123.09691429138184,-4.088161462101283],[123.09760093688965,-4.090815438859991],[123.09880256652832,-4.091414722717914],[123.10798645019531,-4.091671558519778],[123.11347961425781,-4.092527677264499],[123.11450958251953,-4.089274421166934],[123.11562538146973,-4.0868772766439605],[123.11674118041992,-4.086363601885168],[123.1171703338623,-4.086449214367818],[123.1179428100586,-4.086706051760942],[123.11965942382812,-4.087990237492477],[123.12008857727051,-4.088075849801442],[123.12077522277832,-4.087390951073715],[123.12111854553223,-4.086706051760942],[123.1223201751709,-4.082767869363693],[123.12283515930176,-4.079428960456582],[123.12352180480957,-4.078829667645024],[123.12438011169434,-4.079086507476134],[123.12704086303711,-4.082596643603651],[123.1307315826416,-4.086021151863179],[123.13107490539551,-4.087305338691607],[123.13064575195312,-4.087990237492477],[123.12952995300293,-4.08858952346327],[123.12652587890625,-4.089360033338735],[123.12626838684082,-4.089616869799286],[123.12609672546387,-4.091585946594975],[123.12498092651367,-4.093383795093914],[123.12317848205566,-4.097150702665061],[123.12575340270996,-4.099205372046043],[123.12704086303711,-4.099633427502511],[123.1281566619873,-4.098862927515853],[123.12901496887207,-4.097236313994671],[123.12987327575684,-4.096208977434756],[123.1333065032959,-4.095695308660055],[123.13459396362305,-4.095952143088624],[123.13536643981934,-4.096380200286347],[123.13596725463867,-4.0970650913263],[123.1362247467041,-4.0982636492350935],[123.13467979431152,-4.103571526944279],[123.134765625,-4.104855685607987],[123.13519477844238,-4.105112517092891],[123.13613891601562,-4.105112517092891],[123.13759803771973,-4.10399958006164],[123.13837051391602,-4.103657137586097],[123.1387996673584,-4.103742748218764],[123.14034461975098,-4.104770075094677],[123.14128875732422,-4.104770075094677],[123.14214706420898,-4.104256411821936],[123.14274787902832,-4.103571526944279],[123.14377784729004,-4.101003203422792],[123.14249038696289,-4.097150702665061],[123.14188957214355,-4.093726241969364],[123.14180374145508,-4.092784512709429],[123.14231872558594,-4.091585946594975],[123.14300537109375,-4.091157886833699],[123.14824104309082,-4.090301766624947],[123.15133094787598,-4.088931972388252],[123.15227508544922,-4.08884636017072],[123.15304756164551,-4.089017584596647],[123.15450668334961,-4.089959318285281],[123.15459251403809,-4.09132911076567],[123.15390586853027,-4.097236313994671],[123.15407752990723,-4.098006815548715],[123.15442085266113,-4.098178038015462],[123.15510749816895,-4.0977499817798275],[123.15545082092285,-4.098178038015462],[123.15648078918457,-4.098777316360383],[123.1570816040039,-4.100489537727796],[123.15716743469238,-4.102116144629193],[123.1581974029541,-4.103657137586097],[123.15836906433105,-4.104427632949552],[123.15999984741211,-4.105112517092891],[123.16102981567383,-4.106396673277885],[123.16266059875488,-4.106139842206176],[123.16308975219727,-4.106311062929819],[123.1636905670166,-4.106910335173353],[123.16437721252441,-4.109992299601075],[123.16437721252441,-4.112646203868692],[123.1633472442627,-4.1145296144387515],[123.16128730773926,-4.116327411282938],[123.1581974029541,-4.118039594979294],[123.15587997436523,-4.118724467426475],[123.15304756164551,-4.1206078636162715],[123.15073013305664,-4.12300490686151],[123.14206123352051,-4.128740659560577],[123.14120292663574,-4.130538424265836],[123.14343452453613,-4.1343907634860955],[123.14497947692871,-4.13567487239979],[123.1497859954834,-4.136873372175117],[123.15133094787598,-4.136958979232531],[123.15373420715332,-4.136702158032492],[123.15982818603516,-4.139270366285473],[123.16128730773926,-4.139612793423211],[123.16248893737793,-4.140297647254286],[123.1636905670166,-4.142009779239302],[123.16386222839355,-4.1451772136429526],[123.16463470458984,-4.148087817852598],[123.16446304321289,-4.150912805801312],[123.16386222839355,-4.153652178400918],[123.16308975219727,-4.156391541489086],[123.16240310668945,-4.156819566112006],[123.16197395324707,-4.156733961206001],[123.15759658813477,-4.150313566777868],[123.15630912780762,-4.150313566777868],[123.15502166748047,-4.150655989132673],[123.15424919128418,-4.15108401686733],[123.15390586853027,-4.151854466204867],[123.15399169921875,-4.153224152059053],[123.15579414367676,-4.154765045802975],[123.15622329711914,-4.155449886500733],[123.15622329711914,-4.155877911634832],[123.15596580505371,-4.156733961206001],[123.15536499023438,-4.157418800193682],[123.15244674682617,-4.158360452830195],[123.15193176269531,-4.159130895059533],[123.15201759338379,-4.159901336535512],[123.15296173095703,-4.160757381736204],[123.15407752990723,-4.160500568273676],[123.15725326538086,-4.159045290404578],[123.15862655639648,-4.159130895059533],[123.15914154052734,-4.159730127383739],[123.15888404846191,-4.161442217226849],[123.15776824951172,-4.164010345011647],[123.1563949584961,-4.165893633394603],[123.1556224822998,-4.166321652852901],[123.15373420715332,-4.166578464416091],[123.15279006958008,-4.166492860571012],[123.15133094787598,-4.165636821607833],[123.15004348754883,-4.165551217660294],[123.14884185791016,-4.166236048979883],[123.14815521240234,-4.166920879703213],[123.14729690551758,-4.1671776910707194],[123.14566612243652,-4.166664068251833],[123.14394950866699,-4.1670064835016944],[123.1428337097168,-4.16640725671661],[123.14034461975098,-4.167520106096944],[123.13922882080078,-4.168461746650152],[123.13828468322754,-4.1696601966320515],[123.13802719116211,-4.171457868178138],[123.14369201660156,-4.171201058209093],[123.14394950866699,-4.171543471482522],[123.14394950866699,-4.1725707104072],[123.1428337097168,-4.17445397827926],[123.14214706420898,-4.174967596005786],[123.14128875732422,-4.175053198927529],[123.13862800598145,-4.173769154121146],[123.1376838684082,-4.17359794798827],[123.13682556152344,-4.173940360216676],[123.13536643981934,-4.175566816261949],[123.13313484191895,-4.179247730652747],[123.13158988952637,-4.180959777971097],[123.13081741333008,-4.18138778921643],[123.12798500061035,-4.18138778921643],[123.12704086303711,-4.181644595851438],[123.12283515930176,-4.1866951092307545],[123.12077522277832,-4.187208718935949],[123.12051773071289,-4.187551125218818],[123.12051773071289,-4.188920748851942],[123.12163352966309,-4.192259196410191],[123.12240600585938,-4.1938000135518365],[123.12137603759766,-4.194313618590584],[123.12077522277832,-4.195255226951332],[123.12249183654785,-4.198165645616143],[123.12317848205566,-4.200819253176476],[123.12326431274414,-4.201247253550633],[123.12274932861328,-4.203044852557213],[123.12189102172852,-4.204072050128829],[123.11905860900879,-4.204756847757878],[123.11656951904297,-4.205698443515288],[123.11553955078125,-4.20646883919774],[123.11545372009277,-4.20689683646988],[123.11562538146973,-4.2072392341182905],[123.11605453491211,-4.207324833506888],[123.11614036560059,-4.207838429640816],[123.11588287353516,-4.20809522758077],[123.11511039733887,-4.2082664261603355],[123.11459541320801,-4.209550414307387],[123.11373710632324,-4.210577603300209],[123.10961723327637,-4.211947186514976],[123.10807228088379,-4.212888773576594],[123.10575485229492,-4.214686345710703],[123.10515403747559,-4.216655110422295],[123.10592651367188,-4.217511093523953],[123.10575485229492,-4.218709468281929],[123.10704231262207,-4.220250233111145],[123.10704231262207,-4.2204214290145785],[123.10000419616699,-4.2204214290145785],[123.1014633178711,-4.220250233111145],[123.101806640625,-4.219993439185245],[123.101806640625,-4.219565449120012],[123.10111999511719,-4.21905186073036],[123.10060501098633,-4.218110281134031],[123.09966087341309,-4.217939084721152],[123.09880256652832,-4.218195879326302],[123.09845924377441,-4.21802468293231],[123.09828758239746,-4.216740708774893],[123.09914588928223,-4.214686345710703],[123.0992317199707,-4.214258352722339],[123.09897422790527,-4.213915958162019],[123.09588432312012,-4.213487964749632],[123.09425354003906,-4.212888773576594],[123.0933952331543,-4.212803174799902],[123.09305191040039,-4.212974372343851],[123.09296607971191,-4.213487964749632],[123.09399604797363,-4.216740708774893],[123.0937385559082,-4.217511093523953],[123.09236526489258,-4.217682290031135],[123.0908203125,-4.217425495256222],[123.08901786804199,-4.217596691782262],[123.0879020690918,-4.217083102090982],[123.08730125427246,-4.216227118517878],[123.08695793151855,-4.214943141390634],[123.08738708496094,-4.209379216010134],[123.08661460876465,-4.20741043288605],[123.08558464050293,-4.2065544386709774],[123.08472633361816,-4.2062976402230134],[123.08395385742188,-4.20638323971508],[123.08163642883301,-4.208608823206603],[123.07957649230957,-4.2094648151634715],[123.07863235473633,-4.209550414307387],[123.07511329650879,-4.206725637589244],[123.07382583618164,-4.20638323971508],[123.07253837585449,-4.20646883919774],[123.07202339172363,-4.2062976402230134],[123.07133674621582,-4.205612843947989],[123.07116508483887,-4.205270445584787],[123.07107925415039,-4.203130452406555],[123.07185173034668,-4.200391252567485],[123.07193756103516,-4.198593647445875],[123.07236671447754,-4.196796038184033],[123.07245254516602,-4.194056816113417],[123.07193756103516,-4.1906327750212],[123.07073593139648,-4.188835147445118],[123.0703067779541,-4.187979132861713],[123.0703067779541,-4.1866951092307545],[123.07073593139648,-4.185582287046714],[123.07056427001953,-4.184726268905706],[123.06944847106934,-4.183699045901335],[123.06747436523438,-4.182586219459708],[123.06532859802246,-4.180531766492052],[123.06429862976074,-4.178905320740455],[123.06000709533691,-4.17539561052115],[123.05777549743652,-4.175138801839935],[123.05193901062012,-4.173341138718996],[123.05005073547363,-4.172228297581583],[123.04919242858887,-4.171029851516423],[123.04927825927734,-4.170259420937725],[123.04970741271973,-4.169831403623149],[123.05159568786621,-4.16897536829471],[123.0520248413086,-4.16640725671661],[123.05288314819336,-4.164951989766607],[123.05597305297852,-4.163496720124954],[123.05648803710938,-4.1628974906668645],[123.05657386779785,-4.162469469346078],[123.05580139160156,-4.161442217226849],[123.05520057678223,-4.160928590664696],[123.05399894714355,-4.160500568273676],[123.05314064025879,-4.160500568273676],[123.05219650268555,-4.160757381736204],[123.05176734924316,-4.161527821621306],[123.05142402648926,-4.1628118864213235],[123.04953575134277,-4.163068699130008],[123.04936408996582,-4.163496720124954],[123.0494499206543,-4.164352761416552],[123.05005073547363,-4.165636821607833],[123.04996490478516,-4.166578464416091],[123.04910659790039,-4.1672632948412485],[123.04696083068848,-4.168204935702036],[123.04601669311523,-4.168204935702036],[123.0454158782959,-4.167605709830198],[123.04524421691895,-4.1672632948412485],[123.0454158782959,-4.166749672078282],[123.046875,-4.164695177672456],[123.04704666137695,-4.163411115944584],[123.04670333862305,-4.163154303347611],[123.04533004760742,-4.163239907555919],[123.04266929626465,-4.165380009737234],[123.0413818359375,-4.166150445097529]]]}},{"type":"Feature","id":"pmtiles:10/862/523:water:450:0","properties":{"class":"ocean","water":"ocean","kind":"waterway","verification":"verified","source":"OpenMapTiles/OpenStreetMap national PMTiles","sourceId":"10/862/523:water:450:0","sourceLayer":"water","archive":"https://its.hanifahseptiani45.workers.dev/v1/map/archive/indonesia.pmtiles","updatedAt":"2026-07-26T09:43:54.490Z"},"geometry":{"type":"Polygon","coordinates":[[[123.0413818359375,-3.992698113375482],[123.0413818359375,-3.8587739225726523],[123.4039306640625,-3.8587739225726523],[123.4039306640625,-4.2204214290145785],[123.15828323364258,-4.2204214290145785],[123.1593132019043,-4.218195879326302],[123.16145896911621,-4.214515148543626],[123.16497802734375,-4.209293616847376],[123.16617965698242,-4.207068035312901],[123.17072868347168,-4.203644051305147],[123.17296028137207,-4.203301652077002],[123.17407608032227,-4.202445653348789],[123.17527770996094,-4.202103253594373],[123.17536354064941,-4.201846453679892],[123.17519187927246,-4.200819253176476],[123.17605018615723,-4.200220052258132],[123.17699432373047,-4.199963251723673],[123.17785263061523,-4.200476852708064],[123.1787109375,-4.200391252567485],[123.17956924438477,-4.200562452839264],[123.18111419677734,-4.199706451104703],[123.18205833435059,-4.199963251723673],[123.18265914916992,-4.199620850879583],[123.18489074707031,-4.196624837086077],[123.18643569946289,-4.1938000135518365],[123.18746566772461,-4.19328640817551],[123.18634986877441,-4.1897767624050175],[123.18549156188965,-4.185839092306523],[123.18574905395508,-4.184983074446279],[123.18806648254395,-4.183442239939723],[123.19072723388672,-4.183271035918551],[123.19107055664062,-4.1833566379338265],[123.19167137145996,-4.184726268905706],[123.19364547729492,-4.186010295766252],[123.19441795349121,-4.1861814991885495],[123.19536209106445,-4.185753490562618],[123.19913864135742,-4.180274959492451],[123.20403099060059,-4.176166036060593],[123.20660591125488,-4.172057091112791],[123.20694923400879,-4.170173817493463],[123.20694923400879,-4.168889764710599],[123.2065200805664,-4.167605709830198],[123.2065200805664,-4.166664068251833],[123.20686340332031,-4.164695177672456],[123.20900917053223,-4.158702871691773],[123.20978164672852,-4.15724759050255],[123.21106910705566,-4.155449886500733],[123.2127857208252,-4.153737783641432],[123.21450233459473,-4.153052941457275],[123.21553230285645,-4.153309757345994],[123.21553230285645,-4.153823388872652],[123.21621894836426,-4.154080204510578],[123.21742057800293,-4.153994599307225],[123.21896553039551,-4.1533953626236695],[123.22076797485352,-4.153908994094579],[123.22128295898438,-4.152025677066632],[123.22085380554199,-4.1514264388879525],[123.22128295898438,-4.150399172380489],[123.22068214416504,-4.149115087366738],[123.22059631347656,-4.148173423696477],[123.22093963623047,-4.147146152957845],[123.22188377380371,-4.146546911076911],[123.22368621826172,-4.146033274817327],[123.22471618652344,-4.147060547002667],[123.22505950927734,-4.1464613050568175],[123.22729110717773,-4.145519638223959],[123.22857856750488,-4.14569085045882],[123.23115348815918,-4.14569085045882],[123.23184013366699,-4.143636301193283],[123.2347583770752,-4.140982500492811],[123.23827743530273,-4.135503657998186],[123.23896408081055,-4.134048334091091],[123.24274063110352,-4.129767954176572],[123.24454307556152,-4.128141403753901],[123.24711799621582,-4.124117817339794],[123.2475471496582,-4.122234429463688],[123.24934959411621,-4.1191525124066],[123.25098037719727,-4.115471318053821],[123.25192451477051,-4.1114476675516585],[123.25218200683594,-4.111190838106381],[123.25278282165527,-4.111276447930678],[123.25278282165527,-4.110420349274094],[123.25321197509766,-4.109992299601075],[123.2530403137207,-4.1085369289940985],[123.25183868408203,-4.108708149203352],[123.25115203857422,-4.108451318875694],[123.25055122375488,-4.107338386500331],[123.25003623962402,-4.107081555731696],[123.25037956237793,-4.105968621445783],[123.25063705444336,-4.105711790236313],[123.25140953063965,-4.105797400648655],[123.25286865234375,-4.105283738036917],[123.25286865234375,-4.105026906607094],[123.25235366821289,-4.1045132434996106],[123.25192451477051,-4.104770075094677],[123.2515811920166,-4.1045132434996106],[123.25080871582031,-4.103400305633087],[123.25029373168945,-4.103571526944279],[123.24960708618164,-4.1025441985265445],[123.24917793273926,-4.102886641479273],[123.24892044067383,-4.102801030754847],[123.24934959411621,-4.101859312180707],[123.2490062713623,-4.101602479649642],[123.24934959411621,-4.101345647036027],[123.24926376342773,-4.101516868787613],[123.2504653930664,-4.10177370134619],[123.25080871582031,-4.100489537727796],[123.25501441955566,-4.0931269598412],[123.2552719116211,-4.092698900903613],[123.25638771057129,-4.092698900903613],[123.25655937194824,-4.0931269598412],[123.2570743560791,-4.093383795093914],[123.25861930847168,-4.0923564535887635],[123.25947761535645,-4.089445645501399],[123.25913429260254,-4.0891031967958895],[123.2581901550293,-4.0891888089859805],[123.25767517089844,-4.08884636017072],[123.25681686401367,-4.087305338691607],[123.25690269470215,-4.086962889071771],[123.25638771057129,-4.086277989393395],[123.25690269470215,-4.08550747655606],[123.25690269470215,-4.0839664486612435],[123.25733184814453,-4.08302470793528],[123.25733184814453,-4.0821685790437385],[123.25690269470215,-4.0814836752731765],[123.25690269470215,-4.079771413291027],[123.25630187988281,-4.075747583269248],[123.25484275817871,-4.070696363888985],[123.2544994354248,-4.070610749727948],[123.25432777404785,-4.069240921913277],[123.25458526611328,-4.068641621511674],[123.25407028198242,-4.067357404864026],[123.25372695922852,-4.065302653970718],[123.25312614440918,-4.065217039236487],[123.25243949890137,-4.0636759724658305],[123.25201034545898,-4.063419127717722],[123.25149536132812,-4.062477362941621],[123.25072288513184,-4.062134902750444],[123.25089454650879,-4.061878057511663],[123.24969291687012,-4.060936290936652],[123.24969291687012,-4.06016575383056],[123.24823379516602,-4.0590527544898976],[123.24737548828125,-4.058710292845603],[123.24651718139648,-4.058795908270298],[123.24634552001953,-4.058967139092445],[123.24823379516602,-4.059737677342667],[123.2486629486084,-4.060422599614313],[123.24883460998535,-4.061193136475197],[123.24952125549316,-4.061107521304763],[123.2497787475586,-4.061535597066097],[123.25055122375488,-4.061878057511663],[123.25072288513184,-4.062391747907455],[123.25175285339355,-4.063419127717722],[123.2526969909668,-4.06513142449316],[123.25338363647461,-4.065645112816682],[123.25346946716309,-4.066843717631841],[123.25381278991699,-4.067785477307368],[123.25355529785156,-4.068898464595534],[123.25424194335938,-4.06949776480603],[123.25329780578613,-4.070953206317469],[123.2530403137207,-4.071038820442098],[123.25243949890137,-4.070353907190196],[123.25261116027832,-4.06949776480603],[123.25226783752441,-4.067956706221025],[123.25140953063965,-4.0671005612888536],[123.24995040893555,-4.066158800812872],[123.24986457824707,-4.065645112816682],[123.24892044067383,-4.065217039236487],[123.24909210205078,-4.063419127717722],[123.24857711791992,-4.0632478978402276],[123.24849128723145,-4.062306132864194],[123.24737548828125,-4.061963672600342],[123.24746131896973,-4.061364366788823],[123.24831962585449,-4.061107521304763],[123.24814796447754,-4.060765060532205],[123.2475471496582,-4.060679445316353],[123.24677467346191,-4.061193136475197],[123.24548721313477,-4.0616212121911275],[123.24462890625,-4.0635047426428486],[123.24411392211914,-4.0635047426428486],[123.24368476867676,-4.0625629779667065],[123.2431697845459,-4.062391747907455],[123.24291229248047,-4.061963672600342],[123.24299812316895,-4.061449981932],[123.24334144592285,-4.06127875163655],[123.24256896972656,-4.059138369878255],[123.24213981628418,-4.058881523685898],[123.24196815490723,-4.058196600106868],[123.23982238769531,-4.056826751206202],[123.23939323425293,-4.055713747264036],[123.23956489562988,-4.05545689998273],[123.2394790649414,-4.055200052619796],[123.23870658874512,-4.054857589342234],[123.2387924194336,-4.0539158145808045],[123.23844909667969,-4.052888422680724],[123.23810577392578,-4.052802806630126],[123.23759078979492,-4.051775413315966],[123.23904991149902,-4.050833634964931],[123.2380199432373,-4.0491213078818475],[123.23724746704102,-4.048265142981762],[123.23664665222168,-4.048008293335172],[123.23673248291016,-4.047837060192165],[123.23630332946777,-4.047408977176218],[123.23647499084473,-4.047237743906479],[123.23604583740234,-4.0462959602757],[123.23493003845215,-4.044669240516129],[123.23381423950195,-4.04338498576746],[123.23098182678223,-4.041244556664822],[123.2296085357666,-4.040987704792826],[123.2292652130127,-4.041501408455474],[123.22857856750488,-4.040987704792826],[123.2266902923584,-4.040388383441808],[123.22643280029297,-4.040730852839474],[123.22608947753906,-4.040645235503604],[123.22583198547363,-4.04013153129867],[123.22600364685059,-4.0385047991704255],[123.22548866271973,-4.036449974979277],[123.22514533996582,-4.03602188595147],[123.22437286376953,-4.035850650277169],[123.22437286376953,-4.035080089295974],[123.2241153717041,-4.035080089295974],[123.22394371032715,-4.034737617514111],[123.2241153717041,-4.034651999546071],[123.22239875793457,-4.032682783791159],[123.2215404510498,-4.0310560367424415],[123.2211971282959,-4.029343667911675],[123.21845054626465,-4.026261394932831],[123.2127857208252,-4.022237298757531],[123.20806503295898,-4.019668716338401],[123.20772171020508,-4.019925574944551],[123.2032585144043,-4.018384422094101],[123.20308685302734,-4.018041943287358],[123.19639205932617,-4.01590144748792],[123.18986892700195,-4.012048540903379],[123.1893539428711,-4.011534818652038],[123.18952560424805,-4.011277957405241],[123.18926811218262,-4.011192336971703],[123.18901062011719,-4.011620439049707],[123.18832397460938,-4.011363577829812],[123.18746566772461,-4.011791679818089],[123.18660736083984,-4.011277957405241],[123.18437576293945,-4.011791679818089],[123.18283081054688,-4.011791679818089],[123.18231582641602,-4.012305401907909],[123.18291664123535,-4.012562262831665],[123.1816291809082,-4.015473347654236],[123.17896842956543,-4.014959627557445],[123.17708015441895,-4.015045247596021],[123.17605018615723,-4.014788387453322],[123.17570686340332,-4.01487400750986],[123.17544937133789,-4.015644587614659],[123.1706428527832,-4.015644587614659],[123.1688404083252,-4.016586406754698],[123.16858291625977,-4.017356985242529],[123.16446304321289,-4.017356985242529],[123.16420555114746,-4.01632954709703],[123.1622314453125,-4.015730207581399],[123.1618881225586,-4.014617147313288],[123.15879821777344,-4.014360287035899],[123.1570816040039,-4.015045247596021],[123.15519332885742,-4.014617147313288],[123.15253257751465,-4.015558967638938],[123.15176010131836,-4.015558967638938],[123.1509017944336,-4.015387727660553],[123.14858436584473,-4.014103426677693],[123.14703941345215,-4.013932186393987],[123.14600944519043,-4.013504085527629],[123.14652442932129,-4.011962920550587],[123.14626693725586,-4.011877300188829],[123.14583778381348,-4.013504085527629],[123.14566612243652,-4.013161604672931],[123.14352035522461,-4.012048540903379],[123.14034461975098,-4.011877300188829],[123.14034461975098,-4.012134161247204],[123.14360618591309,-4.01324722490007],[123.14334869384766,-4.013675325901104],[123.13751220703125,-4.015558967638938],[123.1333065032959,-4.01632954709703],[123.13107490539551,-4.015473347654236],[123.12952995300293,-4.016586406754698],[123.12875747680664,-4.017442605029601],[123.1281566619873,-4.017356985242529],[123.12626838684082,-4.018898140034537],[123.12455177307129,-4.0188125204002745],[123.12103271484375,-4.019154998883408],[123.12051773071289,-4.018983759659818],[123.12043190002441,-4.019326238071031],[123.11957359313965,-4.019839955418163],[123.1194019317627,-4.020353672441601],[123.11888694763184,-4.020268052960162],[123.11923027038574,-4.019497477222714],[123.11854362487793,-4.019154998883408],[123.11588287353516,-4.019839955418163],[123.11287879943848,-4.019839955418163],[123.10944557189941,-4.020268052960162],[123.1061840057373,-4.0200111944619294],[123.10154914855957,-4.020867389141301],[123.09957504272461,-4.021980440879915],[123.0988883972168,-4.0227510142699],[123.0963134765625,-4.0230078719046105],[123.0959701538086,-4.023264729458333],[123.09545516967773,-4.022922252702031],[123.09451103210449,-4.02309349109818],[123.0937385559082,-4.022922252702031],[123.09064865112305,-4.021980440879915],[123.08807373046875,-4.022237298757531],[123.08687210083008,-4.021980440879915],[123.08549880981445,-4.020696150277374],[123.08464050292969,-4.020610530831917],[123.08163642883301,-4.019240618481703],[123.08026313781738,-4.018041943287358],[123.08009147644043,-4.018127563002537],[123.07931900024414,-4.0176138445767435],[123.07339668273926,-4.011706059438396],[123.07039260864258,-4.0081099953901],[123.06833267211914,-4.00656882024164],[123.06541442871094,-4.005198884338711],[123.06378364562988,-4.004770778898674],[123.06172370910645,-4.0048564000045985],[123.06017875671387,-4.004171430906382],[123.05502891540527,-4.00126030584525],[123.05116653442383,-3.9972360865200898],[123.05056571960449,-3.9976641958981105],[123.04910659790039,-3.9974929521737295],[123.04850578308105,-3.9978354395867086],[123.0479907989502,-3.9976641958981105],[123.04455757141113,-3.994753047720451],[123.0413818359375,-3.992698113375482]]]}},{"type":"Feature","id":"pmtiles:10/861/524:mountain_peak:10701774591:0","properties":{"name_int":"Wawo Lawatuapi","name_de":"Wawo Lawatuapi","name":"Wawo Lawatuapi","rank":1,"class":"peak","name:latin":"Wawo Lawatuapi","name_en":"Wawo Lawatuapi","kind":"poi","verification":"verified","source":"OpenMapTiles/OpenStreetMap national PMTiles","sourceId":"10/861/524:mountain_peak:10701774591:0","sourceLayer":"mountain_peak","archive":"https://its.hanifahseptiani45.workers.dev/v1/map/archive/indonesia.pmtiles","updatedAt":"2026-07-26T09:44:04.393Z"},"geometry":{"type":"Point","coordinates":[123.08747291564941,-4.178562910678636]}},{"type":"Feature","id":"pmtiles:10/861/524:mountain_peak:10701820331:0","properties":{"name_int":"Wawo Lantambaga","name_de":"Wawo Lantambaga","name":"Wawo Lantambaga","rank":2,"class":"peak","name:latin":"Wawo Lantambaga","name_en":"Wawo Lantambaga","kind":"poi","verification":"verified","source":"OpenMapTiles/OpenStreetMap national PMTiles","sourceId":"10/861/524:mountain_peak:10701820331:0","sourceLayer":"mountain_peak","archive":"https://its.hanifahseptiani45.workers.dev/v1/map/archive/indonesia.pmtiles","updatedAt":"2026-07-26T09:44:04.393Z"},"geometry":{"type":"Point","coordinates":[123.09442520141602,-4.161527821621306]}},{"type":"Feature","id":"pmtiles:10/862/524:mountain_peak:10701774591:0","properties":{"name_int":"Wawo Lawatuapi","name_de":"Wawo Lawatuapi","name":"Wawo Lawatuapi","rank":1,"class":"peak","name:latin":"Wawo Lawatuapi","name_en":"Wawo Lawatuapi","kind":"poi","verification":"verified","source":"OpenMapTiles/OpenStreetMap national PMTiles","sourceId":"10/862/524:mountain_peak:10701774591:0","sourceLayer":"mountain_peak","archive":"https://its.hanifahseptiani45.workers.dev/v1/map/archive/indonesia.pmtiles","updatedAt":"2026-07-26T09:44:04.467Z"},"geometry":{"type":"Point","coordinates":[123.08747291564941,-4.178562910678636]}},{"type":"Feature","id":"pmtiles:10/862/524:mountain_peak:10701820331:0","properties":{"name_int":"Wawo Lantambaga","name_de":"Wawo Lantambaga","name":"Wawo Lantambaga","rank":2,"class":"peak","name:latin":"Wawo Lantambaga","name_en":"Wawo Lantambaga","kind":"poi","verification":"verified","source":"OpenMapTiles/OpenStreetMap national PMTiles","sourceId":"10/862/524:mountain_peak:10701820331:0","sourceLayer":"mountain_peak","archive":"https://its.hanifahseptiani45.workers.dev/v1/map/archive/indonesia.pmtiles","updatedAt":"2026-07-26T09:44:04.467Z"},"geometry":{"type":"Point","coordinates":[123.09442520141602,-4.161527821621306]}},{"type":"Feature","id":"pmtiles:10/862/524:park:3548056502:0","properties":{"class":"nature_reserve","kind":"green","verification":"verified","source":"OpenMapTiles/OpenStreetMap national PMTiles","sourceId":"10/862/524:park:3548056502:0","sourceLayer":"park","archive":"https://its.hanifahseptiani45.workers.dev/v1/map/archive/indonesia.pmtiles","updatedAt":"2026-07-26T09:44:04.467Z"},"geometry":{"type":"Polygon","coordinates":[[[123.07846069335938,-4.2094648151634715],[123.07957649230957,-4.2094648151634715],[123.07863235473633,-4.209550414307387],[123.07846069335938,-4.2094648151634715]]]}},{"type":"Feature","id":"pmtiles:8/215/130:landcover:119912003:0","properties":{"subclass":"wetland","class":"wetland","kind":"green","verification":"verified","source":"OpenMapTiles/OpenStreetMap national PMTiles","sourceId":"8/215/130:landcover:119912003:0","sourceLayer":"landcover","archive":"https://its.hanifahseptiani45.workers.dev/v1/map/archive/indonesia.pmtiles","updatedAt":"2026-07-26T09:35:38.499Z"},"geometry":{"type":"Polygon","coordinates":[[[123.14643859863281,-4.013589705718843],[123.14712524414062,-4.0108498551477965],[123.1509017944336,-4.012219781582047],[123.16978454589844,-4.007767512274768],[123.189697265625,-4.01016489106938],[123.18248748779297,-4.012219781582047],[123.18145751953125,-4.015644587614659],[123.17596435546875,-4.014617147313288],[123.16875457763672,-4.017356985242529],[123.16463470458984,-4.017356985242529],[123.1618881225586,-4.014617147313288],[123.15193176269531,-4.015644587614659],[123.14643859863281,-4.013589705718843]]]}},{"type":"Feature","id":"pmtiles:8/215/130:landcover:3548056500:5","properties":{"subclass":"forest","class":"wood","kind":"green","verification":"verified","source":"OpenMapTiles/OpenStreetMap national PMTiles","sourceId":"8/215/130:landcover:3548056500:5","sourceLayer":"landcover","archive":"https://its.hanifahseptiani45.workers.dev/v1/map/archive/indonesia.pmtiles","updatedAt":"2026-07-26T09:35:38.500Z"},"geometry":{"type":"Polygon","coordinates":[[[123.13064575195312,-4.0879046251743745],[123.12618255615234,-4.089616869799286],[123.12309265136719,-4.097150702665061],[123.12686920166016,-4.099547816429563],[123.12995910644531,-4.096123365995197],[123.13545227050781,-4.096465811698408],[123.1351089477539,-4.105026906607094],[123.14266204833984,-4.103657137586097],[123.14231872558594,-4.091671558519778],[123.15227508544922,-4.088931972388252],[123.15467834472656,-4.089959318285281],[123.15399169921875,-4.098178038015462],[123.1563949584961,-4.098862927515853],[123.15845489501953,-4.104342022390341],[123.16360473632812,-4.107081555731696],[123.16326141357422,-4.114615223904309],[123.14128875732422,-4.130709639739607],[123.14506530761719,-4.135503657998186],[123.1625747680664,-4.140297647254286],[123.16394805908203,-4.153652178400918],[123.1618881225586,-4.156733961206001],[123.15742492675781,-4.150227961165967],[123.15433502197266,-4.150912805801312],[123.15605163574219,-4.155706701609077],[123.15193176269531,-4.159815731964272],[123.15914154052734,-4.159815731964272],[123.1563949584961,-4.165979237304896],[123.1402587890625,-4.16769131355413],[123.13819885253906,-4.171457868178138],[123.14369201660156,-4.171115454867419],[123.14266204833984,-4.174539581257008],[123.13682556152344,-4.173854757173572],[123.13167572021484,-4.181045380238871],[123.12721252441406,-4.1817301980443915],[123.12068939208984,-4.187208718935949],[123.12274932861328,-4.202959252698491],[123.10592651367188,-4.2146007471318825],[123.1069564819336,-4.221790994882966],[123.10386657714844,-4.223160558334783],[123.09940338134766,-4.2207638207082],[123.101806640625,-4.219394253027858],[123.09837341308594,-4.21802468293231],[123.09906005859375,-4.213915958162019],[123.09322357177734,-4.212888773576594],[123.09356689453125,-4.217682290031135],[123.08773040771484,-4.216997503776113],[123.0856704711914,-4.20638323971508],[123.07846069335938,-4.2094648151634715],[123.07125091552734,-4.205698443515288],[123.07228088378906,-4.194056816113417],[123.07056427001953,-4.1848118707619335],[123.05992126464844,-4.175566816261949],[123.04927825927734,-4.171115454867419],[123.05580139160156,-4.161527821621306],[123.0523681640625,-4.160842986205097],[123.04927825927734,-4.163582324296016],[123.04996490478516,-4.166664068251833],[123.046875,-4.168376143010107],[123.04515838623047,-4.167348898602469],[123.046875,-4.163239907555919],[123.03932189941406,-4.167348898602469],[123.03485870361328,-4.165636821607833],[123.03211212158203,-4.151940071640382],[123.03417205810547,-4.1464613050568175],[123.0307388305664,-4.143721907519264],[123.02284240722656,-4.147488576685802],[123.02009582519531,-4.144064332730508],[123.02421569824219,-4.135503657998186],[123.02112579345703,-4.132764222542463],[123.02043914794922,-4.1262580254167744],[123.02867889404297,-4.121463951319157],[123.03245544433594,-4.110163519497846],[123.02764892578125,-4.103314694963714],[123.03897857666016,-4.0872197263003756],[123.04618835449219,-4.094411135280794],[123.04584503173828,-4.106739114578261],[123.04927825927734,-4.111190838106381],[123.0527114868164,-4.108451318875694],[123.0520248413086,-4.100232704756493],[123.0630111694336,-4.100917592496543],[123.06953430175781,-4.097150702665061],[123.08258056640625,-4.106739114578261],[123.09425354003906,-4.104684464572159],[123.0908203125,-4.097150702665061],[123.08395385742188,-4.095096028006168],[123.0801773071289,-4.090986662865149],[123.08052062988281,-4.08653482684133],[123.08429718017578,-4.082425417807073],[123.0908203125,-4.083795223156912],[123.09871673583984,-4.09132911076567],[123.11347961425781,-4.092698900903613],[123.11553955078125,-4.0868772766439605],[123.12068939208984,-4.087562175810504],[123.1234359741211,-4.079000894208235],[123.13064575195312,-4.0879046251743745]]]}},{"type":"Feature","id":"pmtiles:8/215/130:park:3548056502:0","properties":{"class":"nature_reserve","kind":"green","verification":"verified","source":"OpenMapTiles/OpenStreetMap national PMTiles","sourceId":"8/215/130:park:3548056502:0","sourceLayer":"park","archive":"https://its.hanifahseptiani45.workers.dev/v1/map/archive/indonesia.pmtiles","updatedAt":"2026-07-26T09:35:38.501Z"},"geometry":{"type":"Polygon","coordinates":[[[123.13064575195312,-4.0879046251743745],[123.12618255615234,-4.089616869799286],[123.12618255615234,-4.091671558519778],[123.12309265136719,-4.097150702665061],[123.12686920166016,-4.099547816429563],[123.12995910644531,-4.096123365995197],[123.13339233398438,-4.095780920145415],[123.13545227050781,-4.096465811698408],[123.13613891601562,-4.098178038015462],[123.134765625,-4.103657137586097],[123.1351089477539,-4.105026906607094],[123.13854217529297,-4.103657137586097],[123.14128875732422,-4.104684464572159],[123.14266204833984,-4.103657137586097],[123.14369201660156,-4.100917592496543],[123.14197540283203,-4.093726241969364],[123.14231872558594,-4.091671558519778],[123.15227508544922,-4.088931972388252],[123.15467834472656,-4.089959318285281],[123.15399169921875,-4.098178038015462],[123.15502166748047,-4.097835593045303],[123.1563949584961,-4.098862927515853],[123.15845489501953,-4.104342022390341],[123.16085815429688,-4.106396673277885],[123.1625747680664,-4.106054231830555],[123.16360473632812,-4.107081555731696],[123.16429138183594,-4.112560594191521],[123.16326141357422,-4.114615223904309],[123.15296173095703,-4.12077908123058],[123.14197540283203,-4.128655051615894],[123.14128875732422,-4.130709639739607],[123.14506530761719,-4.135503657998186],[123.14987182617188,-4.136873372175117],[123.15364837646484,-4.136873372175117],[123.1625747680664,-4.140297647254286],[123.16360473632812,-4.142009779239302],[123.16463470458984,-4.148173423696477],[123.16394805908203,-4.153652178400918],[123.16291809082031,-4.156391541489086],[123.1618881225586,-4.156733961206001],[123.15742492675781,-4.150227961165967],[123.15433502197266,-4.150912805801312],[123.15399169921875,-4.153309757345994],[123.15605163574219,-4.155706701609077],[123.15536499023438,-4.157418800193682],[123.15227508544922,-4.158446057559544],[123.15193176269531,-4.159815731964272],[123.15296173095703,-4.160842986205097],[123.15742492675781,-4.159130895059533],[123.15914154052734,-4.159815731964272],[123.1563949584961,-4.165979237304896],[123.15364837646484,-4.166664068251833],[123.14987182617188,-4.165636821607833],[123.14712524414062,-4.167348898602469],[123.14266204833984,-4.166321652852901],[123.1402587890625,-4.16769131355413],[123.13819885253906,-4.169745800132276],[123.13819885253906,-4.171457868178138],[123.14369201660156,-4.171115454867419],[123.14403533935547,-4.172485107214783],[123.14266204833984,-4.174539581257008],[123.14128875732422,-4.17522440474302],[123.13854217529297,-4.173854757173572],[123.13682556152344,-4.173854757173572],[123.13167572021484,-4.181045380238871],[123.12721252441406,-4.1817301980443915],[123.12274932861328,-4.186523905920808],[123.12068939208984,-4.187208718935949],[123.12034606933594,-4.188920748851942],[123.12240600585938,-4.193714412679228],[123.12068939208984,-4.195426428349535],[123.12309265136719,-4.200904853270089],[123.12274932861328,-4.202959252698491],[123.12171936035156,-4.203986450382885],[123.11656951904297,-4.205698443515288],[123.11553955078125,-4.206725637589244],[123.11622619628906,-4.207752830308678],[123.11382293701172,-4.2104920042692555],[123.10970306396484,-4.211861587634672],[123.10592651367188,-4.2146007471318825],[123.10523986816406,-4.216655110422295],[123.1069564819336,-4.221790994882966],[123.10661315917969,-4.223160558334783],[123.10386657714844,-4.223160558334783],[123.09940338134766,-4.2207638207082],[123.101806640625,-4.219394253027858],[123.10043334960938,-4.21802468293231],[123.09837341308594,-4.21802468293231],[123.09906005859375,-4.213915958162019],[123.09322357177734,-4.212888773576594],[123.09356689453125,-4.217682290031135],[123.08773040771484,-4.216997503776113],[123.08704376220703,-4.214943141390634],[123.08738708496094,-4.2094648151634715],[123.0856704711914,-4.20638323971508],[123.08395385742188,-4.20638323971508],[123.08155059814453,-4.208437624702299],[123.07846069335938,-4.2094648151634715],[123.07502746582031,-4.206725637589244],[123.07125091552734,-4.205698443515288],[123.07228088378906,-4.194056816113417],[123.07193756103516,-4.1906327750212],[123.07022094726562,-4.187893531351861],[123.07056427001953,-4.1848118707619335],[123.05992126464844,-4.175566816261949],[123.0520248413086,-4.173169932492797],[123.04927825927734,-4.171115454867419],[123.04962158203125,-4.169745800132276],[123.05168151855469,-4.169060971869513],[123.05305480957031,-4.164951989766607],[123.05648803710938,-4.1628974906668645],[123.05580139160156,-4.161527821621306],[123.05408477783203,-4.160500568273676],[123.0523681640625,-4.160842986205097],[123.05133819580078,-4.1628974906668645],[123.04927825927734,-4.163582324296016],[123.04996490478516,-4.166664068251833],[123.046875,-4.168376143010107],[123.04515838623047,-4.167348898602469],[123.046875,-4.164609573622457],[123.046875,-4.163239907555919],[123.04550170898438,-4.163239907555919],[123.03932189941406,-4.167348898602469],[123.0362319946289,-4.165636821607833],[123.03485870361328,-4.165636821607833],[123.03348541259766,-4.1628974906668645],[123.03348541259766,-4.157418800193682],[123.03211212158203,-4.151940071640382],[123.03382873535156,-4.149543115936652],[123.03417205810547,-4.1464613050568175],[123.0307388305664,-4.143721907519264],[123.02421569824219,-4.147488576685802],[123.02284240722656,-4.147488576685802],[123.02009582519531,-4.144064332730508],[123.02009582519531,-4.142009779239302],[123.02421569824219,-4.135503657998186],[123.02112579345703,-4.132764222542463],[123.02043914794922,-4.131394501265234],[123.02146911621094,-4.130024777622793],[123.02043914794922,-4.1262580254167744],[123.02146911621094,-4.124545859416443],[123.02627563476562,-4.123518558045134],[123.02867889404297,-4.121463951319157],[123.02902221679688,-4.118382031276553],[123.03108215332031,-4.116327411282938],[123.03142547607422,-4.113930347922164],[123.03108215332031,-4.111533277348357],[123.03245544433594,-4.110163519497846],[123.02764892578125,-4.105026906607094],[123.02764892578125,-4.103314694963714],[123.03897857666016,-4.0872197263003756],[123.04035186767578,-4.0879046251743745],[123.04618835449219,-4.094411135280794],[123.04584503173828,-4.106739114578261],[123.0472183227539,-4.109821079667498],[123.04927825927734,-4.111190838106381],[123.0527114868164,-4.108451318875694],[123.05133819580078,-4.101260036146471],[123.0520248413086,-4.100232704756493],[123.05992126464844,-4.0998902606663705],[123.0630111694336,-4.100917592496543],[123.06644439697266,-4.098178038015462],[123.06953430175781,-4.097150702665061],[123.07262420654297,-4.0985204828389925],[123.08258056640625,-4.106739114578261],[123.09425354003906,-4.104684464572159],[123.0908203125,-4.097150702665061],[123.08395385742188,-4.095096028006168],[123.0801773071289,-4.090986662865149],[123.08052062988281,-4.08653482684133],[123.08429718017578,-4.082425417807073],[123.08738708496094,-4.08208296610438],[123.0908203125,-4.083795223156912],[123.09700012207031,-4.0882470743919725],[123.09768676757812,-4.090986662865149],[123.09871673583984,-4.09132911076567],[123.11347961425781,-4.092698900903613],[123.11553955078125,-4.0868772766439605],[123.11725616455078,-4.08653482684133],[123.12000274658203,-4.0879046251743745],[123.12068939208984,-4.087562175810504],[123.1234359741211,-4.079000894208235],[123.13064575195312,-4.0861923768924555],[123.13064575195312,-4.0879046251743745]]]}},{"type":"Feature","id":"pmtiles:8/215/131:landcover:52989460:26","properties":{"subclass":"forest","class":"wood","kind":"green","verification":"verified","source":"OpenMapTiles/OpenStreetMap national PMTiles","sourceId":"8/215/131:landcover:52989460:26","sourceLayer":"landcover","archive":"https://its.hanifahseptiani45.workers.dev/v1/map/archive/indonesia.pmtiles","updatedAt":"2026-07-26T09:35:40.901Z"},"geometry":{"type":"Polygon","coordinates":[[[123.12137603759766,-4.193029605360749],[123.12274932861328,-4.202959252698491],[123.10592651367188,-4.2146007471318825],[123.1069564819336,-4.221790994882966],[123.10386657714844,-4.223160558334783],[123.09940338134766,-4.2207638207082],[123.101806640625,-4.219394253027858],[123.09837341308594,-4.21802468293231],[123.09906005859375,-4.213915958162019],[123.09322357177734,-4.212888773576594],[123.09356689453125,-4.217682290031135],[123.08773040771484,-4.216997503776113],[123.0856704711914,-4.20638323971508],[123.07846069335938,-4.2094648151634715],[123.07125091552734,-4.205698443515288],[123.07228088378906,-4.194056816113417],[123.07228088378906,-4.193029605360749],[123.12137603759766,-4.193029605360749]]]}},{"type":"Feature","id":"pmtiles:8/215/131:park:3548056502:0","properties":{"class":"nature_reserve","kind":"green","verification":"verified","source":"OpenMapTiles/OpenStreetMap national PMTiles","sourceId":"8/215/131:park:3548056502:0","sourceLayer":"park","archive":"https://its.hanifahseptiani45.workers.dev/v1/map/archive/indonesia.pmtiles","updatedAt":"2026-07-26T09:35:40.906Z"},"geometry":{"type":"Polygon","coordinates":[[[123.12206268310547,-4.193029605360749],[123.12240600585938,-4.193714412679228],[123.12068939208984,-4.195426428349535],[123.12309265136719,-4.200904853270089],[123.12274932861328,-4.202959252698491],[123.12171936035156,-4.203986450382885],[123.11656951904297,-4.205698443515288],[123.11553955078125,-4.206725637589244],[123.11622619628906,-4.207752830308678],[123.11382293701172,-4.2104920042692555],[123.10970306396484,-4.211861587634672],[123.10592651367188,-4.2146007471318825],[123.10523986816406,-4.216655110422295],[123.1069564819336,-4.221790994882966],[123.10661315917969,-4.223160558334783],[123.10386657714844,-4.223160558334783],[123.09940338134766,-4.2207638207082],[123.101806640625,-4.219394253027858],[123.10043334960938,-4.21802468293231],[123.09837341308594,-4.21802468293231],[123.09906005859375,-4.213915958162019],[123.09322357177734,-4.212888773576594],[123.09356689453125,-4.217682290031135],[123.08773040771484,-4.216997503776113],[123.08704376220703,-4.214943141390634],[123.08738708496094,-4.2094648151634715],[123.0856704711914,-4.20638323971508],[123.08395385742188,-4.20638323971508],[123.08155059814453,-4.208437624702299],[123.07846069335938,-4.2094648151634715],[123.07502746582031,-4.206725637589244],[123.07125091552734,-4.205698443515288],[123.07228088378906,-4.194056816113417],[123.07228088378906,-4.193029605360749],[123.12206268310547,-4.193029605360749]]]}}]}