{"type":"FeatureCollection","features":[{"type":"Feature","id":"pmtiles:10/832/497:water:880:0","properties":{"class":"ocean","water":"ocean","kind":"waterway","verification":"verified","source":"OpenMapTiles/OpenStreetMap national PMTiles","sourceId":"10/832/497:water:880:0","sourceLayer":"water","archive":"https://its.hanifahseptiani45.workers.dev/v1/map/archive/indonesia.pmtiles","updatedAt":"2026-07-26T09:38:31.381Z"},"geometry":{"type":"Polygon","coordinates":[[[112.4945068359375,5.271477837928373],[112.8570556640625,5.271477837928373],[112.8570556640625,4.910359820532264],[112.4945068359375,4.910359820532264],[112.4945068359375,5.271477837928373]]]}}]}