{"type":"FeatureCollection","features":[{"type":"Feature","id":"pmtiles:10/889/518:landuse:5479126890:0","properties":{"class":"residential","kind":"green","verification":"verified","source":"OpenMapTiles/OpenStreetMap national PMTiles","sourceId":"10/889/518:landuse:5479126890:0","sourceLayer":"landuse","archive":"https://its.hanifahseptiani45.workers.dev/v1/map/archive/indonesia.pmtiles","updatedAt":"2026-07-26T09:42:50.228Z"},"geometry":{"type":"Polygon","coordinates":[[[132.67321586608887,-2.249644913532279],[132.66969680786133,-2.246128563278333],[132.66626358032227,-2.243727148483856],[132.66669273376465,-2.2427837344497163],[132.67210006713867,-2.244413267399139],[132.67321586608887,-2.242697969507361],[132.6741600036621,-2.244155972843643],[132.67510414123535,-2.243727148483856],[132.67587661743164,-2.244670561909359],[132.67501831054688,-2.24578550426358],[132.67518997192383,-2.247157739839153],[132.67321586608887,-2.249644913532279]]]}},{"type":"Feature","id":"pmtiles:10/889/518:transportation:10393900222:0","properties":{"class":"ferry","highway":"ferry","kind":"road","verification":"verified","source":"OpenMapTiles/OpenStreetMap national PMTiles","sourceId":"10/889/518:transportation:10393900222:0","sourceLayer":"transportation","archive":"https://its.hanifahseptiani45.workers.dev/v1/map/archive/indonesia.pmtiles","updatedAt":"2026-07-26T09:42:50.228Z"},"geometry":{"type":"LineString","coordinates":[[132.5335693359375,-2.356760824243267],[132.8961181640625,-2.365165091507592]]}},{"type":"Feature","id":"pmtiles:10/889/518:water:1540:0","properties":{"class":"ocean","water":"ocean","kind":"waterway","verification":"verified","source":"OpenMapTiles/OpenStreetMap national PMTiles","sourceId":"10/889/518:water:1540:0","sourceLayer":"water","archive":"https://its.hanifahseptiani45.workers.dev/v1/map/archive/indonesia.pmtiles","updatedAt":"2026-07-26T09:42:50.228Z"},"geometry":{"type":"Polygon","coordinates":[[[132.5335693359375,-2.4656692707025485],[132.5335693359375,-2.193896907880358],[132.5383758544922,-2.192953462062647],[132.5533103942871,-2.1914096403505994],[132.5555419921875,-2.190551960933803],[132.55571365356445,-2.190037353047998],[132.5566577911377,-2.190037353047998],[132.5573444366455,-2.1904661929651184],[132.55828857421875,-2.190637728897599],[132.56043434143066,-2.190637728897599],[132.5734806060791,-2.1894369769578077],[132.58000373840332,-2.1895227449854104],[132.58541107177734,-2.190037353047998],[132.59339332580566,-2.193468068946075],[132.59888648986816,-2.1991287329705784],[132.606782913208,-2.210535763355878],[132.61090278625488,-2.217654392059103],[132.61570930480957,-2.22683136887116],[132.61699676513672,-2.2332637951957963],[132.6170825958252,-2.236179819190653],[132.61785507202148,-2.237980889939962],[132.6167392730713,-2.237209002746795],[132.6156234741211,-2.2336926226170277],[132.61545181274414,-2.229147045587183],[132.61467933654785,-2.2271744323180656],[132.61090278625488,-2.220656213179879],[132.60995864868164,-2.218597822210853],[132.60952949523926,-2.2182547567707473],[132.60841369628906,-2.2182547567707473],[132.60772705078125,-2.2186835885584486],[132.6075553894043,-2.2191124202217907],[132.60781288146973,-2.223057665685971],[132.6090145111084,-2.2270886664638283],[132.60987281799316,-2.2287182168404343],[132.61184692382812,-2.2348075733262647],[132.61510848999023,-2.2411541996852264],[132.61862754821777,-2.247157739839153],[132.6192283630371,-2.2509313810199387],[132.62240409851074,-2.2581355779507817],[132.62317657470703,-2.261480371533878],[132.626953125,-2.268770279533456],[132.6303005218506,-2.2736587854985544],[132.63450622558594,-2.277346594831542],[132.63742446899414,-2.2807771066669886],[132.6408576965332,-2.2858370966886383],[132.6426601409912,-2.2876381057838984],[132.6441192626953,-2.288324203892074],[132.6474666595459,-2.2887530150429853],[132.65081405639648,-2.2885814905980197],[132.65175819396973,-2.2876381057838984],[132.65347480773926,-2.2848937100700937],[132.6537322998047,-2.283349985175761],[132.65347480773926,-2.2812059200714856],[132.65158653259277,-2.279319140135783],[132.6521873474121,-2.277346594831542],[132.65759468078613,-2.2800052422168307],[132.66386032104492,-2.2807771066669886],[132.6675510406494,-2.282492359517775],[132.66935348510742,-2.2836930352956415],[132.67218589782715,-2.286265908583019],[132.67355918884277,-2.288324203892074],[132.67364501953125,-2.2891818260656294],[132.67450332641602,-2.290897068873008],[132.67579078674316,-2.2926123096262074],[132.67845153808594,-2.2929553575302037],[132.68085479736328,-2.2928695955619105],[132.68214225769043,-2.2930411194933527],[132.6852321624756,-2.2939845007486923],[132.69441604614258,-2.2955282141878968],[132.70557403564453,-2.2981868278687188],[132.71063804626465,-2.298529874434749],[132.71321296691895,-2.29827258951795],[132.7156162261963,-2.297157687676034],[132.71767616271973,-2.2949278813818097],[132.71801948547363,-2.2932126434042317],[132.71862030029297,-2.292783833588487],[132.71939277648926,-2.2915831654208745],[132.72042274475098,-2.2908113067814213],[132.7225685119629,-2.2881526793958074],[132.72531509399414,-2.283349985175761],[132.7279758453369,-2.2798337167272393],[132.7334690093994,-2.2737445486133936],[132.7342414855957,-2.2724581013557383],[132.73527145385742,-2.2716004692137943],[132.7361297607422,-2.2717719956829256],[132.7375030517578,-2.2713431794719128],[132.74394035339355,-2.2667977198137947],[132.74617195129395,-2.2658543207365938],[132.75424003601074,-2.261737663028711],[132.76514053344727,-2.2566775885940302],[132.7726936340332,-2.253847369787536],[132.78264999389648,-2.249644913532279],[132.79020309448242,-2.24784385714338],[132.79449462890625,-2.2465573869334747],[132.79595375061035,-2.2465573869334747],[132.8034210205078,-2.244756326736038],[132.81801223754883,-2.242869499387055],[132.8254795074463,-2.2426122045599612],[132.82625198364258,-2.24235490968762],[132.83818244934082,-2.2427837344497163],[132.83869743347168,-2.2426122045599612],[132.84685134887695,-2.2440702079817356],[132.85311698913574,-2.2455282099496543],[132.85337448120117,-2.245356680381846],[132.85380363464355,-2.2456997394972973],[132.85792350769043,-2.2470719751534602],[132.86144256591797,-2.2484442095200308],[132.8642749786377,-2.2499879716399676],[132.86873817443848,-2.2528181979478745],[132.87208557128906,-2.2559057112837877],[132.8756046295166,-2.259679329792732],[132.87680625915527,-2.261651899202178],[132.87809371948242,-2.2645678664590463],[132.8789520263672,-2.2683414624318914],[132.87972450256348,-2.26997096674134],[132.88161277770996,-2.272286574968092],[132.88229942321777,-2.272886917235681],[132.88787841796875,-2.27477370559383],[132.8953456878662,-2.275288283808692],[132.8961181640625,-2.275545572847278],[132.8961181640625,-2.4656692707025485],[132.5335693359375,-2.4656692707025485]]]}},{"type":"Feature","id":"pmtiles:10/889/518:water:118048693:0","properties":{"intermittent":0,"class":"river","id":11804869,"water":"river","kind":"waterway","verification":"verified","source":"OpenMapTiles/OpenStreetMap national PMTiles","sourceId":"10/889/518:water:118048693:0","sourceLayer":"water","archive":"https://its.hanifahseptiani45.workers.dev/v1/map/archive/indonesia.pmtiles","updatedAt":"2026-07-26T09:42:50.228Z"},"geometry":{"type":"Polygon","coordinates":[[[132.65896797180176,-2.2570206450448325],[132.659912109375,-2.2559914754495907],[132.66042709350586,-2.255048069347538],[132.66111373901367,-2.2526466692372225],[132.66051292419434,-2.246042798532187],[132.66094207763672,-2.244584797077664],[132.6620578765869,-2.2435556187047325],[132.66411781311035,-2.2431267941688873],[132.66531944274902,-2.2433840889054864],[132.66712188720703,-2.244155972843643],[132.66961097717285,-2.246042798532187],[132.67192840576172,-2.2493018553439015],[132.672700881958,-2.2497306780667685],[132.67373085021973,-2.249387619898556],[132.6752758026123,-2.247157739839153],[132.67613410949707,-2.2464716222125247],[132.67699241638184,-2.2442417377005057],[132.6775074005127,-2.243812913365872],[132.67905235290527,-2.242869499387055],[132.68162727355957,-2.2424406746500978],[132.68179893493652,-2.244155972843643],[132.6797389984131,-2.2443275025523377],[132.67802238464355,-2.2451851507939296],[132.67767906188965,-2.245613974725984],[132.67724990844727,-2.2469862104627083],[132.67518997192383,-2.2487015033201203],[132.67518997192383,-2.250416794161083],[132.6745891571045,-2.251102909932513],[132.67227172851562,-2.250845616556063],[132.67175674438477,-2.2505883231342096],[132.66823768615723,-2.2470719751534602],[132.66626358032227,-2.2454424451682655],[132.66420364379883,-2.244584797077664],[132.66351699829102,-2.244499032240924],[132.66222953796387,-2.244756326736038],[132.66180038452148,-2.245356680381846],[132.66162872314453,-2.246128563278333],[132.66265869140625,-2.252217847372208],[132.66240119934082,-2.255305361981513],[132.66197204589844,-2.256334532062283],[132.66034126281738,-2.2587359260842703],[132.65896797180176,-2.2570206450448325]]]}},{"type":"Feature","id":"pmtiles:10/889/518:water:8646993102:0","properties":{"intermittent":0,"class":"river","id":864699310,"water":"river","kind":"waterway","verification":"verified","source":"OpenMapTiles/OpenStreetMap national PMTiles","sourceId":"10/889/518:water:8646993102:0","sourceLayer":"water","archive":"https://its.hanifahseptiani45.workers.dev/v1/map/archive/indonesia.pmtiles","updatedAt":"2026-07-26T09:42:50.229Z"},"geometry":{"type":"Polygon","coordinates":[[[132.68162727355957,-2.2424406746500978],[132.6841163635254,-2.2424406746500978],[132.68729209899902,-2.242869499387055],[132.68875122070312,-2.2434698538076105],[132.69021034240723,-2.245013621185862],[132.69081115722656,-2.245099385992418],[132.69089698791504,-2.2449278563742894],[132.69098281860352,-2.2442417377005057],[132.68943786621094,-2.2398677235899243],[132.68943786621094,-2.2384097159827974],[132.68978118896484,-2.2369517069254528],[132.69038200378418,-2.235579461782848],[132.69132614135742,-2.2342072153572445],[132.69570350646973,-2.2318057810275462],[132.69664764404297,-2.2308623593245756],[132.6976776123047,-2.2284609195324236],[132.69776344299316,-2.2263167735510194],[132.69707679748535,-2.223572262143378],[132.69596099853516,-2.2216854075892343],[132.68909454345703,-2.2163678954282204],[132.6881504058838,-2.215338697318529],[132.6873779296875,-2.213880665438978],[132.68763542175293,-2.213709132182359],[132.68754959106445,-2.2131087656278936],[132.68857955932617,-2.2116507315549967],[132.6899528503418,-2.2107072969794928],[132.69158363342285,-2.2103642297124395],[132.69330024719238,-2.2104499965366244],[132.69493103027344,-2.210964597377753],[132.6962184906006,-2.2119937985246168],[132.6972484588623,-2.2132802989539755],[132.69819259643555,-2.2161963624596126],[132.69879341125488,-2.2161963624596126],[132.6991367340088,-2.215767529951165],[132.6998233795166,-2.2137948988131484],[132.6994800567627,-2.210278462883281],[132.69845008850098,-2.207962756623729],[132.69536018371582,-2.203331333282833],[132.694673538208,-2.2017875223001795],[132.69407272338867,-2.1995575702798362],[132.69372940063477,-2.1993002679090665],[132.6939868927002,-2.1991287329705784],[132.69415855407715,-2.1981852904563794],[132.69450187683105,-2.1974133825012245],[132.6957893371582,-2.19646993890305],[132.6965618133545,-2.19646993890305],[132.70076751708984,-2.1980137553897237],[132.70214080810547,-2.198099522925517],[132.70368576049805,-2.1978422203033716],[132.7049732208252,-2.1971560797608305],[132.7060031890869,-2.1962126360001406],[132.7072048187256,-2.193639604534539],[132.70729064941406,-2.1921815514056675],[132.7071189880371,-2.190809264810426],[132.70488739013672,-2.186092020054275],[132.7060890197754,-2.185320105863653],[132.70737648010254,-2.1854058741266584],[132.70849227905273,-2.190037353047998],[132.7085781097412,-2.192696158554554],[132.70849227905273,-2.193982675652464],[132.70797729492188,-2.1950976562421403],[132.7064323425293,-2.197756452752799],[132.70411491394043,-2.1990429654939305],[132.70256996154785,-2.199386035370935],[132.7009391784668,-2.1993002679090665],[132.6965618133545,-2.197927987849013],[132.69518852233887,-2.198356825503325],[132.69527435302734,-2.199386035370935],[132.69707679748535,-2.2032455660479826],[132.70033836364746,-2.207962756623729],[132.70136833190918,-2.2101926960491767],[132.70179748535156,-2.2126799322258393],[132.70102500915527,-2.215338697318529],[132.69939422607422,-2.2172255599730732],[132.69845008850098,-2.217568625651836],[132.69750595092773,-2.216968260661801],[132.6965618133545,-2.214824097995475],[132.69604682922363,-2.2143094984936766],[132.69536018371582,-2.213623365546624],[132.69424438476562,-2.2131087656278936],[132.6920986175537,-2.2128514656015454],[132.69089698791504,-2.2131087656278936],[132.69021034240723,-2.213451832260219],[132.68909454345703,-2.214652564848066],[132.68926620483398,-2.2150813976793557],[132.69003868103027,-2.215767529951165],[132.6920986175537,-2.2168824942147722],[132.69647598266602,-2.2197985506244464],[132.6980209350586,-2.2217711737576593],[132.6987075805664,-2.223143431774673],[132.6990509033203,-2.2243441564929896],[132.6990509033203,-2.2288039825997714],[132.69853591918945,-2.229918937016464],[132.69776344299316,-2.2312911874464163],[132.69673347473145,-2.2322346088742364],[132.6932144165039,-2.234721807917154],[132.69278526306152,-2.235322165675754],[132.69235610961914,-2.236265584514584],[132.69244194030762,-2.2414114947686556],[132.6917552947998,-2.2430410292466405],[132.69201278686523,-2.2433840889054864],[132.6921844482422,-2.2431267941688873],[132.69227027893066,-2.243212559086132],[132.6920986175537,-2.243812913365872],[132.6925277709961,-2.2454424451682655],[132.69227027893066,-2.2458712690248035],[132.69166946411133,-2.24621432801942],[132.69089698791504,-2.24638585748653],[132.69021034240723,-2.24630009275549],[132.68840789794922,-2.245099385992418],[132.6873779296875,-2.244756326736038],[132.68179893493652,-2.244155972843643],[132.68162727355957,-2.2424406746500978]]]}},{"type":"Feature","id":"pmtiles:10/889/518:water:8646993162:0","properties":{"intermittent":0,"class":"river","id":864699316,"water":"river","kind":"waterway","verification":"verified","source":"OpenMapTiles/OpenStreetMap national PMTiles","sourceId":"10/889/518:water:8646993162:0","sourceLayer":"water","archive":"https://its.hanifahseptiani45.workers.dev/v1/map/archive/indonesia.pmtiles","updatedAt":"2026-07-26T09:42:50.229Z"},"geometry":{"type":"Polygon","coordinates":[[[132.6745891571045,-2.251102909932513],[132.6745891571045,-2.2513602032635447],[132.67579078674316,-2.2529039622956333],[132.67905235290527,-2.2565918244686713],[132.68059730529785,-2.2587359260842703],[132.6830005645752,-2.2631956473040162],[132.6844596862793,-2.264224811792104],[132.68548965454102,-2.264053284428172],[132.68583297729492,-2.2636244659295244],[132.68617630004883,-2.2637102296394005],[132.6862621307373,-2.264139048112682],[132.6866054534912,-2.263881757043933],[132.6866912841797,-2.2634529384945523],[132.68583297729492,-2.260622732888237],[132.68231391906738,-2.2558199471129257],[132.68051147460938,-2.2526466692372225],[132.68351554870605,-2.2564202962027906],[132.68463134765625,-2.2572779373298033],[132.681884765625,-2.252560904874315],[132.68197059631348,-2.252560904874315],[132.6844596862793,-2.256248767916702],[132.6844596862793,-2.2565918244686713],[132.68471717834473,-2.2565918244686713],[132.6848030090332,-2.256248767916702],[132.6851463317871,-2.2571921732398863],[132.68583297729492,-2.257964049867084],[132.68694877624512,-2.2597650937358367],[132.68780708312988,-2.262681064785994],[132.68746376037598,-2.264139048112682],[132.68609046936035,-2.2649109210447733],[132.6848030090332,-2.2649109210447733],[132.68351554870605,-2.264224811792104],[132.68197059631348,-2.262938356067849],[132.67905235290527,-2.258907454076848],[132.6734733581543,-2.252217847372208],[132.67390251159668,-2.252217847372208],[132.67330169677734,-2.2509313810199387],[132.6745891571045,-2.251102909932513]]]}},{"type":"Feature","id":"pmtiles:10/889/518:water:8646993172:0","properties":{"intermittent":0,"class":"river","id":864699317,"water":"river","kind":"waterway","verification":"verified","source":"OpenMapTiles/OpenStreetMap national PMTiles","sourceId":"10/889/518:water:8646993172:0","sourceLayer":"water","archive":"https://its.hanifahseptiani45.workers.dev/v1/map/archive/indonesia.pmtiles","updatedAt":"2026-07-26T09:42:50.229Z"},"geometry":{"type":"Polygon","coordinates":[[[132.6526165008545,-2.264396339135729],[132.65175819396973,-2.2649966846785077],[132.6522731781006,-2.2651682119307566],[132.6515007019043,-2.265511266374304],[132.65064239501953,-2.2683414624318914],[132.64995574951172,-2.269542149995857],[132.64901161193848,-2.270399783359622],[132.64841079711914,-2.270657073269504],[132.64695167541504,-2.270742836562647],[132.6442050933838,-2.269627913355123],[132.64386177062988,-2.2702282567275773],[132.64480590820312,-2.2716004692137943],[132.64798164367676,-2.2746879425401687],[132.65047073364258,-2.2765747285424425],[132.6521873474121,-2.277346594831542],[132.65158653259277,-2.279319140135783],[132.64772415161133,-2.2770893061144477],[132.6456642150879,-2.275288283808692],[132.64437675476074,-2.2737445486133936],[132.6430892944336,-2.272286574968092],[132.64257431030273,-2.271000126411451],[132.64248847961426,-2.26997096674134],[132.6426601409912,-2.26919909650789],[132.64317512512207,-2.268598752708087],[132.6437759399414,-2.2683414624318914],[132.64532089233398,-2.268512989287771],[132.64703750610352,-2.2693706232620485],[132.64772415161133,-2.269284859887506],[132.6485824584961,-2.268856042938509],[132.6496982574463,-2.267226537372906],[132.6503849029541,-2.262938356067849],[132.6511573791504,-2.261651899202178],[132.65235900878906,-2.2608800245351546],[132.65707969665527,-2.2586501620804],[132.65896797180176,-2.2570206450448325],[132.66034126281738,-2.2587359260842703],[132.65819549560547,-2.260708496775621],[132.65725135803223,-2.2610515522744095],[132.6526165008545,-2.261994954477913],[132.65201568603516,-2.2627668285516904],[132.65141487121582,-2.264310575466453],[132.65167236328125,-2.2645678664590463],[132.65235900878906,-2.264224811792104],[132.65338897705078,-2.264053284428172],[132.65356063842773,-2.264139048112682],[132.6526165008545,-2.264396339135729]]]}},{"type":"Feature","id":"pmtiles:10/889/518:waterway:516956850:0","properties":{"name":"Kamundan","name_int":"Kamundan","class":"river","name:latin":"Kamundan","name_de":"Kamundan","name_en":"Kamundan","waterway":"river","kind":"waterway","verification":"verified","source":"OpenMapTiles/OpenStreetMap national PMTiles","sourceId":"10/889/518:waterway:516956850:0","sourceLayer":"waterway","archive":"https://its.hanifahseptiani45.workers.dev/v1/map/archive/indonesia.pmtiles","updatedAt":"2026-07-26T09:42:50.229Z"},"geometry":{"type":"LineString","coordinates":[[132.6672077178955,-2.102036839765745],[132.6675510406494,-2.1036665246264334],[132.66918182373047,-2.106754343902523],[132.66926765441895,-2.1074405251328443],[132.66901016235352,-2.108126706060787],[132.66815185546875,-2.109155976885475],[132.66746520996094,-2.1095848395281394],[132.6636028289795,-2.110271019510435],[132.66274452209473,-2.1112145164916427],[132.6628303527832,-2.1120722405230197],[132.66334533691406,-2.1127584194071716],[132.66729354858398,-2.1155889040987006],[132.6702117919922,-2.1171328026628373],[132.6723575592041,-2.1174758910238154],[132.67501831054688,-2.1171328026628373],[132.6775074005127,-2.116360853572928],[132.6797389984131,-2.11653239784836],[132.68171310424805,-2.1182478395582933],[132.6822280883789,-2.1193628756511487],[132.6822280883789,-2.12022059517615],[132.68145561218262,-2.122279120096323],[132.6796531677246,-2.124080327153294],[132.67802238464355,-2.124766500717911],[132.6767349243164,-2.1248522723920615],[132.67553329467773,-2.1245949573553418],[132.6712417602539,-2.1228795226818846],[132.6701259613037,-2.122279120096323],[132.66703605651855,-2.1197917354730578],[132.6647186279297,-2.118934015710451],[132.66300201416016,-2.119191331689123],[132.66162872314453,-2.1201348232450385],[132.66119956970215,-2.1209067704538995],[132.66094207763672,-2.1229652944607977],[132.66145706176758,-2.1242518705730333],[132.66291618347168,-2.1257957604931477],[132.66883850097656,-2.1256242172449333],[132.6708984375,-2.1263103901234217],[132.67184257507324,-2.127253877333146],[132.67321586608887,-2.129398164299559],[132.6752758026123,-2.131628219579312],[132.67682075500488,-2.1344586697045145],[132.67733573913574,-2.136517175613619],[132.67733573913574,-2.1378037404058574],[132.6770782470703,-2.139090304119705],[132.67630577087402,-2.140634179151874],[132.67364501953125,-2.14294998878421],[132.6716709136963,-2.143893465778646],[132.66935348510742,-2.144665401068792],[132.6683235168457,-2.145951959020124],[132.66806602478027,-2.146723893271357],[132.66815185546875,-2.148010449490343],[132.66935348510742,-2.1498116263763904],[132.67004013061523,-2.1503262479535152],[132.6738166809082,-2.1519558818025217],[132.67759323120117,-2.154100134213266],[132.6793098449707,-2.1543574442997766],[132.68274307250977,-2.1540143641747704],[132.68394470214844,-2.154100134213266],[132.68566131591797,-2.1553866842110665],[132.68840789794922,-2.156501693329716],[132.68926620483398,-2.156587463228064],[132.69003868103027,-2.156330153518468],[132.6935577392578,-2.153928594131443],[132.69441604614258,-2.1540143641747704],[132.6950168609619,-2.1545289843332966],[132.69553184509277,-2.1579597809442106],[132.69553184509277,-2.159503636894385],[132.6950168609619,-2.1615621090542874],[132.69381523132324,-2.163363269904494],[132.69287109375,-2.1643067342582185],[132.69055366516113,-2.1659363531225324],[132.68926620483398,-2.1662794305548516],[132.6881504058838,-2.166965585186361],[132.68763542175293,-2.1675659702338805],[132.6873779296875,-2.168423662745809],[132.68746376037598,-2.1696244314457402],[132.68797874450684,-2.1708251991922936],[132.68832206726074,-2.171254044584913],[132.6906394958496,-2.1725405800325177],[132.69184112548828,-2.1742559589244337],[132.6920986175537,-2.175542491813914],[132.69201278686523,-2.1764001797972554],[132.69149780273438,-2.1775151734461247],[132.68840789794922,-2.180860149440818],[132.68832206726074,-2.1812889919794713],[132.68875122070312,-2.182060908240942],[132.6902961730957,-2.182832824106171],[132.69295692443848,-2.183090129306507],[132.6951026916504,-2.182403982007756],[132.69596099853516,-2.1814605289606988],[132.69630432128906,-2.1806886123911227],[132.69630432128906,-2.1798309268493625],[132.694673538208,-2.1768290236059613],[132.69424438476562,-2.1738271143841956],[132.69475936889648,-2.171339813648828],[132.69527435302734,-2.1701390463110357],[132.69716262817383,-2.167823278038483],[132.69896507263184,-2.1667940465576407],[132.70068168640137,-2.166622507909466],[132.70377159118652,-2.1681663550432546],[132.705659866333,-2.1703963536779867],[132.70634651184082,-2.1730551939047302],[132.7064323425293,-2.1751994164839914],[132.70557403564453,-2.182232445134133],[132.7060890197754,-2.185320105863653],[132.7078914642334,-2.190895032759471],[132.70806312561035,-2.192953462062647],[132.7071189880371,-2.1957837977301153],[132.7060031890869,-2.1973276149260386],[132.70359992980957,-2.198614128036766],[132.7001667022705,-2.198614128036766],[132.69776344299316,-2.197584917636874],[132.6961326599121,-2.197241847345893],[132.69493103027344,-2.1978422203033716],[132.69450187683105,-2.1988714305258554],[132.69493103027344,-2.2001579423056796],[132.69716262817383,-2.2047036083683196],[132.69999504089355,-2.209249260546997],[132.70076751708984,-2.211564964800189],[132.70068168640137,-2.213880665438978],[132.6998233795166,-2.215939062969454],[132.69879341125488,-2.216710961305793],[132.6976776123047,-2.2163678954282204],[132.69733428955078,-2.214909864561733],[132.69596099853516,-2.2131087656278936],[132.69295692443848,-2.211822265049719],[132.69003868103027,-2.2121653319796764],[132.68892288208008,-2.2128514656015454],[132.68832206726074,-2.2143952650897205],[132.68892288208008,-2.2155959969130095],[132.69278526306152,-2.218083224020859],[132.69733428955078,-2.2222000045249786],[132.69853591918945,-2.2250302844646512],[132.69887924194336,-2.227603261514375],[132.6975917816162,-2.2305192967370857],[132.6925277709961,-2.234721807917154],[132.69089698791504,-2.2381524203721597],[132.6917552947998,-2.244584797077664],[132.69124031066895,-2.245613974725984],[132.68978118896484,-2.2455282099496543],[132.6881504058838,-2.2442417377005057],[132.68179893493652,-2.243212559086132],[132.6796531677246,-2.2435556187047325],[132.67767906188965,-2.244756326736038],[132.67682075500488,-2.2465573869334747],[132.67510414123535,-2.248101151049326],[132.6741600036621,-2.249559148992759],[132.67252922058105,-2.2501595006635426],[132.6708984375,-2.2491303262194577],[132.6687526702881,-2.24638585748653],[132.6654052734375,-2.244155972843643],[132.66308784484863,-2.2440702079817356],[132.66162872314453,-2.244584797077664],[132.6610279083252,-2.2468146810661267],[132.66180038452148,-2.2531612553085836],[132.66128540039062,-2.255305361981513],[132.6595687866211,-2.257964049867084],[132.65716552734375,-2.2598508576738823],[132.6537322998047,-2.2610515522744095],[132.65201568603516,-2.261909190666586],[132.65098571777344,-2.263538702214575],[132.65047073364258,-2.266969246852682],[132.6496124267578,-2.26919909650789],[132.64806747436523,-2.26997096674134],[132.64617919921875,-2.2697994400584207],[132.64506340026855,-2.26919909650789],[132.64351844787598,-2.269284859887506],[132.64326095581055,-2.2705713099713165],[132.64472007751465,-2.2730584435519887],[132.65192985534668,-2.2782899864010915]]}},{"type":"Feature","id":"pmtiles:8/222/129:transportation:10324238640:0","properties":{"class":"ferry","highway":"ferry","kind":"road","verification":"verified","source":"OpenMapTiles/OpenStreetMap national PMTiles","sourceId":"8/222/129:transportation:10324238640:0","sourceLayer":"transportation","archive":"https://its.hanifahseptiani45.workers.dev/v1/map/archive/indonesia.pmtiles","updatedAt":"2026-07-26T09:35:36.491Z"},"geometry":{"type":"LineString","coordinates":[[132.16552734375,-2.3339489864369938],[132.35023498535156,-2.352472913224105],[133.24390411376953,-2.3733977937460367],[133.38329315185547,-2.3943223575350743],[133.45848083496094,-2.432740394833388],[133.4567642211914,-2.505114246203007],[133.45367431640625,-2.5335824914418907]]}},{"type":"Feature","id":"pmtiles:8/222/129:water:8646993102:0","properties":{"intermittent":0,"class":"river","id":864699310,"water":"river","kind":"waterway","verification":"verified","source":"OpenMapTiles/OpenStreetMap national PMTiles","sourceId":"8/222/129:water:8646993102:0","sourceLayer":"water","archive":"https://its.hanifahseptiani45.workers.dev/v1/map/archive/indonesia.pmtiles","updatedAt":"2026-07-26T09:35:36.496Z"},"geometry":{"type":"Polygon","coordinates":[[[132.6815414428711,-2.24235490968762],[132.6873779296875,-2.2430410292466405],[132.69081115722656,-2.244756326736038],[132.68943786621094,-2.2399534886980916],[132.68978118896484,-2.236865941641639],[132.69115447998047,-2.2341214499130615],[132.69664764404297,-2.230690828040835],[132.6976776123047,-2.2262310076468452],[132.69596099853516,-2.2217711737576593],[132.68909454345703,-2.2162821289464034],[132.6873779296875,-2.2131945322934143],[132.68978118896484,-2.2107930637838678],[132.6932144165039,-2.2104499965366244],[132.69630432128906,-2.211822265049719],[132.6983642578125,-2.2162821289464034],[132.6990509033203,-2.2155959969130095],[132.69939422607422,-2.2104499965366244],[132.69390106201172,-2.199471802827844],[132.69596099853516,-2.196384171273678],[132.70214080810547,-2.198099522925517],[132.70591735839844,-2.196041100706907],[132.70729064941406,-2.192267319276098],[132.70488739013672,-2.186092020054275],[132.70729064941406,-2.1854058741266584],[132.7086639404297,-2.1926103907087082],[132.70626068115234,-2.197756452752799],[132.70248413085938,-2.199471802827844],[132.69664764404297,-2.198099522925517],[132.69527435302734,-2.1984425930193936],[132.69699096679688,-2.2032455660479826],[132.70145416259766,-2.210106929210113],[132.70179748535156,-2.2125083988302947],[132.70111083984375,-2.215252930777112],[132.6983642578125,-2.217654392059103],[132.69424438476562,-2.2131945322934143],[132.69081115722656,-2.2131945322934143],[132.68909454345703,-2.2145667982669153],[132.69630432128906,-2.2197127843415387],[132.6990509033203,-2.2245156885158224],[132.6987075805664,-2.230004702705841],[132.6925277709961,-2.236179819190653],[132.6925277709961,-2.2413257297458813],[132.69184112548828,-2.2430410292466405],[132.6925277709961,-2.2454424451682655],[132.69081115722656,-2.2464716222125247],[132.6873779296875,-2.244756326736038],[132.681884765625,-2.2440702079817356],[132.6815414428711,-2.24235490968762]]]}}]}