{"type":"FeatureCollection","features":[{"type":"Feature","id":"pmtiles:10/826/544:water:2700:0","properties":{"class":"ocean","water":"ocean","kind":"waterway","verification":"verified","source":"OpenMapTiles/OpenStreetMap national PMTiles","sourceId":"10/826/544:water:2700:0","sourceLayer":"water","archive":"https://its.hanifahseptiani45.workers.dev/v1/map/archive/indonesia.pmtiles","updatedAt":"2026-07-26T09:47:38.293Z"},"geometry":{"type":"Polygon","coordinates":[[[110.3851318359375,-11.173012874215061],[110.7476806640625,-11.173012874215061],[110.7476806640625,-11.52846990075463],[110.3851318359375,-11.52846990075463],[110.3851318359375,-11.173012874215061]]]}}]}