{"type":"FeatureCollection","features":[{"type":"Feature","id":"pmtiles:10/875/494:water:340:0","properties":{"class":"ocean","water":"ocean","kind":"waterway","verification":"verified","source":"OpenMapTiles/OpenStreetMap national PMTiles","sourceId":"10/875/494:water:340:0","sourceLayer":"water","archive":"https://its.hanifahseptiani45.workers.dev/v1/map/archive/indonesia.pmtiles","updatedAt":"2026-07-26T09:38:07.108Z"},"geometry":{"type":"Polygon","coordinates":[[[127.6116943359375,6.320758338986863],[127.9742431640625,6.320758338986863],[127.9742431640625,5.960290229693385],[127.6116943359375,5.960290229693385],[127.6116943359375,6.320758338986863]]]}}]}