{"type":"FeatureCollection","features":[{"type":"Feature","id":"pmtiles:10/848/511:water:1160:0","properties":{"class":"ocean","water":"ocean","kind":"waterway","verification":"verified","source":"OpenMapTiles/OpenStreetMap national PMTiles","sourceId":"10/848/511:water:1160:0","sourceLayer":"water","archive":"https://its.hanifahseptiani45.workers.dev/v1/map/archive/indonesia.pmtiles","updatedAt":"2026-07-26T09:41:15.250Z"},"geometry":{"type":"Polygon","coordinates":[[[118.1195068359375,0.3570533530247104],[118.4820556640625,0.3570533530247104],[118.4820556640625,-0.005493164054087174],[118.1195068359375,-0.005493164054087174],[118.1195068359375,0.3570533530247104]]]}}]}