{"type":"FeatureCollection","features":[{"type":"Feature","id":"pmtiles:12/3572/1973:water:400:0","properties":{"class":"ocean","water":"ocean","kind":"waterway","verification":"verified","source":"OpenMapTiles/OpenStreetMap national PMTiles","sourceId":"12/3572/1973:water:400:0","sourceLayer":"water","archive":"https://its.hanifahseptiani45.workers.dev/v1/map/archive/indonesia.pmtiles","updatedAt":"2026-07-26T10:34:15.189Z"},"geometry":{"type":"Polygon","coordinates":[[[133.94393920898438,6.578667368565007],[134.03457641601562,6.578667368565007],[134.03457641601562,6.488618840362278],[133.94393920898438,6.488618840362278],[133.94393920898438,6.578667368565007]]]}},{"type":"Feature","id":"pmtiles:12/3573/1973:water:400:0","properties":{"class":"ocean","water":"ocean","kind":"waterway","verification":"verified","source":"OpenMapTiles/OpenStreetMap national PMTiles","sourceId":"12/3573/1973:water:400:0","sourceLayer":"water","archive":"https://its.hanifahseptiani45.workers.dev/v1/map/archive/indonesia.pmtiles","updatedAt":"2026-07-26T10:34:15.248Z"},"geometry":{"type":"Polygon","coordinates":[[[134.03182983398438,6.578667368565007],[134.12246704101562,6.578667368565007],[134.12246704101562,6.488618840362278],[134.03182983398438,6.488618840362278],[134.03182983398438,6.578667368565007]]]}},{"type":"Feature","id":"pmtiles:12/3574/1973:water:400:0","properties":{"class":"ocean","water":"ocean","kind":"waterway","verification":"verified","source":"OpenMapTiles/OpenStreetMap national PMTiles","sourceId":"12/3574/1973:water:400:0","sourceLayer":"water","archive":"https://its.hanifahseptiani45.workers.dev/v1/map/archive/indonesia.pmtiles","updatedAt":"2026-07-26T10:34:15.355Z"},"geometry":{"type":"Polygon","coordinates":[[[134.11972045898438,6.578667368565007],[134.21035766601562,6.578667368565007],[134.21035766601562,6.488618840362278],[134.11972045898438,6.488618840362278],[134.11972045898438,6.578667368565007]]]}},{"type":"Feature","id":"pmtiles:12/3575/1973:water:400:0","properties":{"class":"ocean","water":"ocean","kind":"waterway","verification":"verified","source":"OpenMapTiles/OpenStreetMap national PMTiles","sourceId":"12/3575/1973:water:400:0","sourceLayer":"water","archive":"https://its.hanifahseptiani45.workers.dev/v1/map/archive/indonesia.pmtiles","updatedAt":"2026-07-26T10:34:15.422Z"},"geometry":{"type":"Polygon","coordinates":[[[134.20761108398438,6.578667368565007],[134.29824829101562,6.578667368565007],[134.29824829101562,6.488618840362278],[134.20761108398438,6.488618840362278],[134.20761108398438,6.578667368565007]]]}},{"type":"Feature","id":"pmtiles:12/3572/1974:water:400:0","properties":{"class":"ocean","water":"ocean","kind":"waterway","verification":"verified","source":"OpenMapTiles/OpenStreetMap national PMTiles","sourceId":"12/3572/1974:water:400:0","sourceLayer":"water","archive":"https://its.hanifahseptiani45.workers.dev/v1/map/archive/indonesia.pmtiles","updatedAt":"2026-07-26T10:34:47.406Z"},"geometry":{"type":"Polygon","coordinates":[[[133.94393920898438,6.491347821282432],[134.03457641601562,6.491347821282432],[134.03457641601562,6.4012836786624945],[133.94393920898438,6.4012836786624945],[133.94393920898438,6.491347821282432]]]}},{"type":"Feature","id":"pmtiles:12/3573/1974:water:400:0","properties":{"class":"ocean","water":"ocean","kind":"waterway","verification":"verified","source":"OpenMapTiles/OpenStreetMap national PMTiles","sourceId":"12/3573/1974:water:400:0","sourceLayer":"water","archive":"https://its.hanifahseptiani45.workers.dev/v1/map/archive/indonesia.pmtiles","updatedAt":"2026-07-26T10:34:47.474Z"},"geometry":{"type":"Polygon","coordinates":[[[134.03182983398438,6.491347821282432],[134.12246704101562,6.491347821282432],[134.12246704101562,6.4012836786624945],[134.03182983398438,6.4012836786624945],[134.03182983398438,6.491347821282432]]]}},{"type":"Feature","id":"pmtiles:12/3574/1974:water:400:0","properties":{"class":"ocean","water":"ocean","kind":"waterway","verification":"verified","source":"OpenMapTiles/OpenStreetMap national PMTiles","sourceId":"12/3574/1974:water:400:0","sourceLayer":"water","archive":"https://its.hanifahseptiani45.workers.dev/v1/map/archive/indonesia.pmtiles","updatedAt":"2026-07-26T10:34:47.531Z"},"geometry":{"type":"Polygon","coordinates":[[[134.11972045898438,6.491347821282432],[134.21035766601562,6.491347821282432],[134.21035766601562,6.4012836786624945],[134.11972045898438,6.4012836786624945],[134.11972045898438,6.491347821282432]]]}},{"type":"Feature","id":"pmtiles:12/3575/1974:water:400:0","properties":{"class":"ocean","water":"ocean","kind":"waterway","verification":"verified","source":"OpenMapTiles/OpenStreetMap national PMTiles","sourceId":"12/3575/1974:water:400:0","sourceLayer":"water","archive":"https://its.hanifahseptiani45.workers.dev/v1/map/archive/indonesia.pmtiles","updatedAt":"2026-07-26T10:34:47.592Z"},"geometry":{"type":"Polygon","coordinates":[[[134.20761108398438,6.491347821282432],[134.29824829101562,6.491347821282432],[134.29824829101562,6.4012836786624945],[134.20761108398438,6.4012836786624945],[134.20761108398438,6.491347821282432]]]}},{"type":"Feature","id":"pmtiles:12/3572/1975:water:400:0","properties":{"class":"ocean","water":"ocean","kind":"waterway","verification":"verified","source":"OpenMapTiles/OpenStreetMap national PMTiles","sourceId":"12/3572/1975:water:400:0","sourceLayer":"water","archive":"https://its.hanifahseptiani45.workers.dev/v1/map/archive/indonesia.pmtiles","updatedAt":"2026-07-26T10:35:18.745Z"},"geometry":{"type":"Polygon","coordinates":[[[133.94393920898438,6.40401312961761],[134.03457641601562,6.40401312961761],[134.03457641601562,6.31393357916707],[133.94393920898438,6.31393357916707],[133.94393920898438,6.40401312961761]]]}},{"type":"Feature","id":"pmtiles:12/3573/1975:water:400:0","properties":{"class":"ocean","water":"ocean","kind":"waterway","verification":"verified","source":"OpenMapTiles/OpenStreetMap national PMTiles","sourceId":"12/3573/1975:water:400:0","sourceLayer":"water","archive":"https://its.hanifahseptiani45.workers.dev/v1/map/archive/indonesia.pmtiles","updatedAt":"2026-07-26T10:35:18.809Z"},"geometry":{"type":"Polygon","coordinates":[[[134.03182983398438,6.40401312961761],[134.12246704101562,6.40401312961761],[134.12246704101562,6.31393357916707],[134.03182983398438,6.31393357916707],[134.03182983398438,6.40401312961761]]]}},{"type":"Feature","id":"pmtiles:12/3574/1975:water:400:0","properties":{"class":"ocean","water":"ocean","kind":"waterway","verification":"verified","source":"OpenMapTiles/OpenStreetMap national PMTiles","sourceId":"12/3574/1975:water:400:0","sourceLayer":"water","archive":"https://its.hanifahseptiani45.workers.dev/v1/map/archive/indonesia.pmtiles","updatedAt":"2026-07-26T10:35:18.869Z"},"geometry":{"type":"Polygon","coordinates":[[[134.11972045898438,6.40401312961761],[134.21035766601562,6.40401312961761],[134.21035766601562,6.31393357916707],[134.11972045898438,6.31393357916707],[134.11972045898438,6.40401312961761]]]}},{"type":"Feature","id":"pmtiles:12/3575/1975:water:400:0","properties":{"class":"ocean","water":"ocean","kind":"waterway","verification":"verified","source":"OpenMapTiles/OpenStreetMap national PMTiles","sourceId":"12/3575/1975:water:400:0","sourceLayer":"water","archive":"https://its.hanifahseptiani45.workers.dev/v1/map/archive/indonesia.pmtiles","updatedAt":"2026-07-26T10:35:18.938Z"},"geometry":{"type":"Polygon","coordinates":[[[134.20761108398438,6.40401312961761],[134.29824829101562,6.40401312961761],[134.29824829101562,6.31393357916707],[134.20761108398438,6.31393357916707],[134.20761108398438,6.40401312961761]]]}},{"type":"Feature","id":"pmtiles:10/893/493:water:400:0","properties":{"class":"ocean","water":"ocean","kind":"waterway","verification":"verified","source":"OpenMapTiles/OpenStreetMap national PMTiles","sourceId":"10/893/493:water:400:0","sourceLayer":"water","archive":"https://its.hanifahseptiani45.workers.dev/v1/map/archive/indonesia.pmtiles","updatedAt":"2026-07-26T09:37:52.751Z"},"geometry":{"type":"Polygon","coordinates":[[[133.9398193359375,6.670063575977281],[134.3023681640625,6.670063575977281],[134.3023681640625,6.309838680093364],[133.9398193359375,6.309838680093364],[133.9398193359375,6.670063575977281]]]}}]}