{"type":"FeatureCollection","features":[{"type":"Feature","id":"pmtiles:10/803/537:water:2640:0","properties":{"class":"ocean","water":"ocean","kind":"waterway","verification":"verified","source":"OpenMapTiles/OpenStreetMap national PMTiles","sourceId":"10/803/537:water:2640:0","sourceLayer":"water","archive":"https://its.hanifahseptiani45.workers.dev/v1/map/archive/indonesia.pmtiles","updatedAt":"2026-07-26T09:46:12.047Z"},"geometry":{"type":"Polygon","coordinates":[[[102.2991943359375,-8.74936550084881],[102.6617431640625,-8.74936550084881],[102.6617431640625,-9.107520691827688],[102.2991943359375,-9.107520691827688],[102.2991943359375,-8.74936550084881]]]}}]}