{"type":"FeatureCollection","features":[{"type":"Feature","id":"pmtiles:10/809/519:landcover:7089435742:0","properties":{"subclass":"farmland","class":"farmland","kind":"green","verification":"verified","source":"OpenMapTiles/OpenStreetMap national PMTiles","sourceId":"10/809/519:landcover:7089435742:0","sourceLayer":"landcover","archive":"https://its.hanifahseptiani45.workers.dev/v1/map/archive/indonesia.pmtiles","updatedAt":"2026-07-26T09:42:53.649Z"},"geometry":{"type":"Polygon","coordinates":[[[104.55937385559082,-2.8039128870531584],[104.54160690307617,-2.803484247315211],[104.54160690307617,-2.8017696867933637],[104.53937530517578,-2.8017696867933637],[104.5404052734375,-2.7867671752878636],[104.55954551696777,-2.787195821132272],[104.55937385559082,-2.8039128870531584]]]}},{"type":"Feature","id":"pmtiles:10/809/519:landcover:7089435752:0","properties":{"subclass":"farmland","class":"farmland","kind":"green","verification":"verified","source":"OpenMapTiles/OpenStreetMap national PMTiles","sourceId":"10/809/519:landcover:7089435752:0","sourceLayer":"landcover","archive":"https://its.hanifahseptiani45.workers.dev/v1/map/archive/indonesia.pmtiles","updatedAt":"2026-07-26T09:42:53.649Z"},"geometry":{"type":"Polygon","coordinates":[[[104.53765869140625,-2.8017696867933637],[104.53757286071777,-2.803312791376058],[104.51388359069824,-2.8030556074202337],[104.51431274414062,-2.7859956123745775],[104.5404052734375,-2.7867671752878636],[104.53937530517578,-2.8017696867933637],[104.53765869140625,-2.8017696867933637]]]}},{"type":"Feature","id":"pmtiles:10/809/519:landuse:7089435732:0","properties":{"class":"residential","kind":"green","verification":"verified","source":"OpenMapTiles/OpenStreetMap national PMTiles","sourceId":"10/809/519:landuse:7089435732:0","sourceLayer":"landuse","archive":"https://its.hanifahseptiani45.workers.dev/v1/map/archive/indonesia.pmtiles","updatedAt":"2026-07-26T09:42:53.649Z"},"geometry":{"type":"Polygon","coordinates":[[[104.53765869140625,-2.8017696867933637],[104.54160690307617,-2.8017696867933637],[104.5415210723877,-2.8035699752753658],[104.53765869140625,-2.8035699752753658],[104.53765869140625,-2.8017696867933637]]]}},{"type":"Feature","id":"pmtiles:10/809/519:transportation:431154950:0","properties":{"class":"trunk","highway":"trunk","kind":"road","verification":"verified","source":"OpenMapTiles/OpenStreetMap national PMTiles","sourceId":"10/809/519:transportation:431154950:0","sourceLayer":"transportation","archive":"https://its.hanifahseptiani45.workers.dev/v1/map/archive/indonesia.pmtiles","updatedAt":"2026-07-26T09:42:53.649Z"},"geometry":{"type":"LineString","coordinates":[[104.7711181640625,-2.532810770123845],[104.76665496826172,-2.540184977237061],[104.76536750793457,-2.542843111343828],[104.7535228729248,-2.5693384058552198],[104.74682807922363,-2.586572914303545],[104.74021911621094,-2.59488998146432],[104.72897529602051,-2.6107522773058776],[104.7286319732666,-2.6116954345473857],[104.72871780395508,-2.613581746905581],[104.73326683044434,-2.6487352290564132],[104.7425365447998,-2.718353314213104],[104.74905967712402,-2.771250090805921],[104.73936080932617,-2.8017696867933637],[104.73824501037598,-2.805027349636731],[104.73584175109863,-2.81051391917012],[104.7355842590332,-2.816857733037736]]}},{"type":"Feature","id":"pmtiles:10/809/519:water:116511063:0","properties":{"intermittent":0,"class":"river","id":11651106,"water":"river","kind":"waterway","verification":"verified","source":"OpenMapTiles/OpenStreetMap national PMTiles","sourceId":"10/809/519:water:116511063:0","sourceLayer":"water","archive":"https://its.hanifahseptiani45.workers.dev/v1/map/archive/indonesia.pmtiles","updatedAt":"2026-07-26T09:42:53.649Z"},"geometry":{"type":"Polygon","coordinates":[[[104.49088096618652,-2.791739457479949],[104.4906234741211,-2.791482270985739],[104.49079513549805,-2.7889961319736756],[104.49268341064453,-2.78402383818829],[104.49517250061035,-2.780594657832168],[104.49886322021484,-2.777851306369598],[104.50238227844238,-2.776222438422778],[104.50641632080078,-2.774936488457456],[104.5103645324707,-2.77407918770335],[104.51276779174805,-2.7738219973559097],[104.51508522033691,-2.773993457593761],[104.51886177062988,-2.774936488457456],[104.52160835266113,-2.7748507584100253],[104.52495574951172,-2.7741649178067433],[104.52787399291992,-2.7729646957938314],[104.5308780670166,-2.771164360491312],[104.5334529876709,-2.7691925615420985],[104.53662872314453,-2.766363452969415],[104.54066276550293,-2.761305332945966],[104.54315185546875,-2.7567615796454277],[104.54409599304199,-2.754275367663155],[104.5447826385498,-2.7472453608844063],[104.54461097717285,-2.744073271097051],[104.54366683959961,-2.7415870326763923],[104.5429801940918,-2.7405582428529556],[104.54049110412598,-2.7380719971296514],[104.53963279724121,-2.7366145403410087],[104.53825950622559,-2.731213361502853],[104.53825950622559,-2.728812829775322],[104.53800201416016,-2.7277840289957993],[104.53851699829102,-2.726155092628346],[104.5389461517334,-2.7238402845236322],[104.5400619506836,-2.714323804499898],[104.54255104064941,-2.7037784283088655],[104.54486846923828,-2.696405183982634],[104.54838752746582,-2.688688950208899],[104.55010414123535,-2.6861168614327795],[104.55559730529785,-2.6791721946932228],[104.56014633178711,-2.674027971707744],[104.56332206726074,-2.6706842151969283],[104.56881523132324,-2.665711432272772],[104.5942211151123,-2.6461630567177252],[104.59859848022461,-2.6417903514967804],[104.60512161254883,-2.63347359517239],[104.61155891418457,-2.626871594424216],[104.61902618408203,-2.6215556723480944],[104.62924003601074,-2.615468056429009],[104.63687896728516,-2.6114382099153772],[104.65353012084961,-2.604407382929935],[104.66614723205566,-2.6005489855827193],[104.67146873474121,-2.60003453171106],[104.67704772949219,-2.6001202740375646],[104.6821117401123,-2.6012349237519174],[104.69198226928711,-2.604235898854242],[104.69927787780762,-2.6060364804845335],[104.70271110534668,-2.605779254694994],[104.70545768737793,-2.6047503510113046],[104.70949172973633,-2.6026925411226074],[104.7165298461914,-2.59574740796036],[104.72356796264648,-2.5857154815951873],[104.72545623779297,-2.5815997965321884],[104.72674369812012,-2.5777413296790854],[104.7275161743164,-2.5696813834215817],[104.72708702087402,-2.560420956828466],[104.72545623779297,-2.539499006256662],[104.72554206848145,-2.5256937629805236],[104.72743034362793,-2.5183194734814123],[104.73086357116699,-2.5081154459382446],[104.73695755004883,-2.494567118345927],[104.74202156066895,-2.4817904030461904],[104.74536895751953,-2.469185066262483],[104.74639892578125,-2.462153465852822],[104.74631309509277,-2.454693068753784],[104.75661277770996,-2.454693068753784],[104.75584030151367,-2.466612533838344],[104.754638671875,-2.480504149687235],[104.75326538085938,-2.487707152367591],[104.74717140197754,-2.5110308905159684],[104.74596977233887,-2.517119003794946],[104.74287986755371,-2.535383172728473],[104.74236488342285,-2.539499006256662],[104.73978996276855,-2.553818574762147],[104.73910331726074,-2.561792876108413],[104.73755836486816,-2.573539874691022],[104.73515510559082,-2.5821142578944745],[104.73275184631348,-2.588459264221271],[104.73112106323242,-2.591031555038569],[104.72665786743164,-2.5972050316684943],[104.7227954864502,-2.601920861548024],[104.72082138061523,-2.6037214464870715],[104.71412658691406,-2.608522993739541],[104.7110366821289,-2.6104093108607174],[104.7077751159668,-2.6120384006414383],[104.70279693603516,-2.6134102640810397],[104.69704627990723,-2.6146106433608054],[104.68743324279785,-2.6151250912720485],[104.67970848083496,-2.613838971098474],[104.67138290405273,-2.6118669176061218],[104.66288566589355,-2.6116954345473857],[104.63129997253418,-2.6258427080450417],[104.61885452270508,-2.634416735282173],[104.6088981628418,-2.643848097049812],[104.59559440612793,-2.654994159422259],[104.59121704101562,-2.658080743550798],[104.57722663879395,-2.665711432272772],[104.56563949584961,-2.674027971707744],[104.55808639526367,-2.6814870879880175],[104.55096244812012,-2.6903179369628845],[104.54718589782715,-2.6984628380625395],[104.54581260681152,-2.7027496062063534],[104.5433235168457,-2.712180442794349],[104.54117774963379,-2.726583760307321],[104.54049110412598,-2.728469896279961],[104.54014778137207,-2.7305274957844006],[104.54092025756836,-2.734985615950748],[104.54212188720703,-2.7373004025800043],[104.54486846923828,-2.7401295801655294],[104.54581260681152,-2.7427872863523532],[104.54607009887695,-2.7475025569844576],[104.5455551147461,-2.7539324414650963],[104.54469680786133,-2.756332922777574],[104.5433235168457,-2.7591620552509255],[104.53877449035645,-2.7655918767323584],[104.5360279083252,-2.7684209871466265],[104.53147888183594,-2.7720216633579184],[104.5283031463623,-2.7736505370932036],[104.52624320983887,-2.774593568230415],[104.52238082885742,-2.775622328613082],[104.52023506164551,-2.775793788589823],[104.51834678649902,-2.7757080586045646],[104.51457023620605,-2.7747650283563843],[104.51251029968262,-2.774507838158115],[104.50907707214355,-2.775022218498677],[104.50401306152344,-2.7764796282479267],[104.5016098022461,-2.777422657127701],[104.49714660644531,-2.779823090877869],[104.49525833129883,-2.781451953856191],[104.49337005615234,-2.78402383818829],[104.49165344238281,-2.7877959250521513],[104.49122428894043,-2.789853421882057],[104.49113845825195,-2.791482270985739],[104.49088096618652,-2.791739457479949]]]}},{"type":"Feature","id":"pmtiles:10/809/519:water:116511073:0","properties":{"intermittent":0,"class":"river","id":11651107,"water":"river","kind":"waterway","verification":"verified","source":"OpenMapTiles/OpenStreetMap national PMTiles","sourceId":"10/809/519:water:116511073:0","sourceLayer":"water","archive":"https://its.hanifahseptiani45.workers.dev/v1/map/archive/indonesia.pmtiles","updatedAt":"2026-07-26T09:42:53.649Z"},"geometry":{"type":"Polygon","coordinates":[[[104.4085693359375,-2.5330680106142864],[104.4085693359375,-2.532210542114143],[104.41277503967285,-2.530752844361544],[104.41595077514648,-2.529209397895727],[104.41723823547363,-2.5282661797068755],[104.41835403442383,-2.5268084775210724],[104.42238807678223,-2.5192626988876157],[104.42376136779785,-2.517376247392278],[104.42728042602539,-2.5148895571583694],[104.4331169128418,-2.5113738835681403],[104.43620681762695,-2.5092301755150714],[104.43869590759277,-2.506486224078728],[104.44504737854004,-2.497225345548671],[104.44693565368652,-2.495253112977352],[104.45096969604492,-2.491994635291988],[104.45517539978027,-2.4895936465730273],[104.45714950561523,-2.488821899269851],[104.46212768554688,-2.4880501515148126],[104.46324348449707,-2.4876214025668446],[104.46393013000488,-2.4870211538055145],[104.46719169616699,-2.4811901516343795],[104.46925163269043,-2.478789143262901],[104.47259902954102,-2.4757021261000034],[104.47525978088379,-2.474072864141988],[104.48976516723633,-2.466355280322176],[104.50349807739258,-2.4600096778542593],[104.51216697692871,-2.454693068753784],[104.52315330505371,-2.454693068753784],[104.5224666595459,-2.4549503245201123],[104.52023506164551,-2.456236602608854],[104.5034122467041,-2.4674700451994767],[104.49585914611816,-2.4712430886158785],[104.47912216186523,-2.477245635580914],[104.47543144226074,-2.4791321447255967],[104.47225570678711,-2.4817046528611826],[104.47131156921387,-2.4828194048322842],[104.47028160095215,-2.4845344060282315],[104.46976661682129,-2.4854776557366733],[104.46770668029785,-2.4934523763067062],[104.46633338928223,-2.496625101166373],[104.46298599243164,-2.502370286140362],[104.447021484375,-2.5227783511989514],[104.4418716430664,-2.528609168218523],[104.43526268005371,-2.5346971992003944],[104.43131446838379,-2.537526837659371],[104.42547798156738,-2.540870947853108],[104.41895484924316,-2.5437863189042815],[104.40874099731445,-2.5476448881019707],[104.4085693359375,-2.5478163797980926],[104.4085693359375,-2.544300795464707],[104.4096851348877,-2.5437005727909394],[104.4169807434082,-2.541128186740181],[104.42341804504395,-2.5382128096867262],[104.42788124084473,-2.535468919393921],[104.43500518798828,-2.530495603411495],[104.43921089172363,-2.5264654885335744],[104.44290161132812,-2.5222638660881955],[104.45860862731934,-2.5017700441108985],[104.46144104003906,-2.4967965995892882],[104.46307182312012,-2.4923376333230607],[104.46367263793945,-2.489507896895006],[104.46358680725098,-2.4891648981270578],[104.46341514587402,-2.489079148421112],[104.45878028869629,-2.4898508955736673],[104.45594787597656,-2.490708391879707],[104.45225715637207,-2.4926806312647614],[104.44933891296387,-2.494824366374644],[104.44624900817871,-2.4975683422154162],[104.44384574890137,-2.500826806080937],[104.44032669067383,-2.5060574811470104],[104.43706512451172,-2.50974466576848],[104.43449020385742,-2.5118026247567116],[104.4279670715332,-2.515661289117773],[104.42479133605957,-2.51789073443463],[104.42324638366699,-2.5197771851848643],[104.4198989868164,-2.5260367521718337],[104.41801071166992,-2.528694915332281],[104.41689491271973,-2.529723880255119],[104.41286087036133,-2.5316960607416377],[104.4085693359375,-2.5330680106142864]]]}},{"type":"Feature","id":"pmtiles:10/809/519:water:117597453:0","properties":{"intermittent":0,"class":"river","id":11759745,"water":"river","kind":"waterway","verification":"verified","source":"OpenMapTiles/OpenStreetMap national PMTiles","sourceId":"10/809/519:water:117597453:0","sourceLayer":"water","archive":"https://its.hanifahseptiani45.workers.dev/v1/map/archive/indonesia.pmtiles","updatedAt":"2026-07-26T09:42:53.649Z"},"geometry":{"type":"Polygon","coordinates":[[[104.76759910583496,-2.738672125880285],[104.76931571960449,-2.7381577298267246],[104.77017402648926,-2.7364430747199293],[104.7711181640625,-2.7354142804785226],[104.7711181640625,-2.7452735222773015],[104.76897239685059,-2.74295875106489],[104.76202011108398,-2.7393579869413713],[104.76081848144531,-2.737643333552299],[104.7597885131836,-2.73550001336568],[104.75918769836426,-2.7330137571501183],[104.75875854492188,-2.72864136303987],[104.75875854492188,-2.726155092628346],[104.7575569152832,-2.7164671624041574],[104.75747108459473,-2.712694849950182],[104.75807189941406,-2.7037784283088655],[104.7597885131836,-2.698205631492968],[104.76176261901855,-2.6941760548021563],[104.76493835449219,-2.685859652257136],[104.76639747619629,-2.683716240354144],[104.76845741271973,-2.6794294052755134],[104.77025985717773,-2.6771145080902414],[104.7711181640625,-2.6761714005755977],[104.7711181640625,-2.6829446111488267],[104.76716995239258,-2.690232200872174],[104.76433753967285,-2.6961479769778833],[104.76227760314941,-2.701635047944521],[104.76167678833008,-2.704121368815848],[104.76116180419922,-2.7079794428361197],[104.76150512695312,-2.71552408539479],[104.76193428039551,-2.717153036130199],[104.76244926452637,-2.722211342819591],[104.76262092590332,-2.7325850917647045],[104.7630500793457,-2.7350713488685585],[104.76365089416504,-2.7366145403410087],[104.76425170898438,-2.737214669821597],[104.76699829101562,-2.7385863932200323],[104.76759910583496,-2.738672125880285]]]}},{"type":"Feature","id":"pmtiles:10/809/519:water:117597453:1","properties":{"intermittent":0,"class":"river","id":11759745,"water":"river","kind":"waterway","verification":"verified","source":"OpenMapTiles/OpenStreetMap national PMTiles","sourceId":"10/809/519:water:117597453:1","sourceLayer":"water","archive":"https://its.hanifahseptiani45.workers.dev/v1/map/archive/indonesia.pmtiles","updatedAt":"2026-07-26T09:42:53.649Z"},"geometry":{"type":"Polygon","coordinates":[[[104.76922988891602,-2.7950828767801],[104.7711181640625,-2.794997148199016],[104.7711181640625,-2.7965402616998745],[104.76725578308105,-2.7965402616998745],[104.75558280944824,-2.795254333923438],[104.75335121154785,-2.7953400624857068],[104.75163459777832,-2.7956829766721825],[104.74605560302734,-2.797569002906016],[104.74390983581543,-2.798683471527454],[104.74322319030762,-2.799455026106145],[104.74382400512695,-2.8003123083754957],[104.74734306335449,-2.803227063397074],[104.7517204284668,-2.8085421862104454],[104.75335121154785,-2.809913826882749],[104.75489616394043,-2.810771101484548],[104.75987434387207,-2.8123141941807006],[104.76133346557617,-2.8132571942678766],[104.76279258728027,-2.814628829396767],[104.76399421691895,-2.81634337103759],[104.7641658782959,-2.816857733037736],[104.76347923278809,-2.816857733037736],[104.76330757141113,-2.8164290980533906],[104.76116180419922,-2.8139430120340734],[104.75953102111816,-2.813000012501533],[104.75532531738281,-2.811714102819167],[104.75335121154785,-2.810771101484548],[104.75189208984375,-2.809742371886827],[104.74725723266602,-2.804427254531376],[104.74245071411133,-2.7998836673192358],[104.74056243896484,-2.8005694929339597],[104.73824501037598,-2.801083861881466],[104.73532676696777,-2.8030556074202337],[104.73094940185547,-2.80468443818566],[104.72803115844727,-2.806056083386565],[104.72185134887695,-2.811114011148959],[104.71721649169922,-2.815914735863956],[104.71661567687988,-2.816857733037736],[104.71549987792969,-2.816857733037736],[104.71567153930664,-2.8164290980533906],[104.72090721130371,-2.810771101484548],[104.72442626953125,-2.8076849099721812],[104.72674369812012,-2.8058846278244545],[104.72768783569336,-2.805198805324565],[104.73043441772461,-2.8039128870531584],[104.73498344421387,-2.802112599098649],[104.73678588867188,-2.8007409492748963],[104.73609924316406,-2.800483764754077],[104.73498344421387,-2.799455026106145],[104.7341251373291,-2.798169101526142],[104.73335266113281,-2.796454533225301],[104.73309516906738,-2.7950828767801],[104.73326683044434,-2.793711218731673],[104.73386764526367,-2.7925967453874136],[104.73472595214844,-2.791139355572554],[104.73575592041016,-2.7901106087326895],[104.7367000579834,-2.7883960286659857],[104.73687171936035,-2.787110091975876],[104.73652839660645,-2.786424258499949],[104.73584175109863,-2.785824153880739],[104.73506927490234,-2.785481236818157],[104.73438262939453,-2.785481236818157],[104.73197937011719,-2.7865957169063904],[104.73077774047852,-2.7875387376953853],[104.7286319732666,-2.7883960286659857],[104.7245979309082,-2.7893390480120104],[104.72296714782715,-2.7893390480120104],[104.7216796875,-2.7891675900053485],[104.72004890441895,-2.788224570521834],[104.71738815307617,-2.7852240489556834],[104.71627235412598,-2.7820520607022132],[104.7161865234375,-2.779651631486175],[104.71695899963379,-2.77656535817718],[104.71781730651855,-2.775107948533673],[104.72064971923828,-2.7715072817124735],[104.72090721130371,-2.7704785177509734],[104.72073554992676,-2.769449752895582],[104.72013473510742,-2.7688496396505826],[104.71695899963379,-2.7678208733805576],[104.71532821655273,-2.7664491836314227],[104.71343994140625,-2.767563681673508],[104.71223831176758,-2.7679066039371776],[104.71138000488281,-2.7678208733805576],[104.71000671386719,-2.7665349142872344],[104.70974922180176,-2.7665349142872344],[104.70854759216309,-2.7691925615420985],[104.70743179321289,-2.7701355962318104],[104.70734596252441,-2.7717644725631487],[104.70623016357422,-2.7737362672276618],[104.70245361328125,-2.778880063915267],[104.70202445983887,-2.779308712628037],[104.70236778259277,-2.781709142541885],[104.70305442810059,-2.782909355666675],[104.70322608947754,-2.7835094617708194],[104.70339775085449,-2.7842810263128115],[104.70322608947754,-2.785481236818157],[104.70391273498535,-2.78736727942632],[104.70365524291992,-2.787710195939482],[104.70348358154297,-2.7875387376953853],[104.70339775085449,-2.786424258499949],[104.70296859741211,-2.785824153880739],[104.70296859741211,-2.7835951911893346],[104.70211029052734,-2.781794872091311],[104.70159530639648,-2.779651631486175],[104.70202445983887,-2.77870860438658],[104.70245361328125,-2.7785371448329954],[104.70511436462402,-2.7743363779948567],[104.70571517944336,-2.7738219973559097],[104.70708847045898,-2.7715072817124735],[104.70691680908203,-2.770307057003791],[104.70717430114746,-2.7698784050272565],[104.70837593078613,-2.768935370132766],[104.7095775604248,-2.7661062609461737],[104.71026420593262,-2.7661919916267834],[104.71095085144043,-2.767135028704388],[104.71189498901367,-2.767563681673508],[104.71386909484863,-2.766963567473354],[104.71524238586426,-2.7661919916267834],[104.71489906311035,-2.765163223050436],[104.71489906311035,-2.7642201844050334],[104.71532821655273,-2.762934221408159],[104.7158432006836,-2.761991180991828],[104.71713066101074,-2.7625055667663077],[104.71610069274902,-2.7637915302275644],[104.71592903137207,-2.764391646032678],[104.71592903137207,-2.765163223050436],[104.71627235412598,-2.765677607450158],[104.72090721130371,-2.768163795569805],[104.72150802612305,-2.769106831078531],[104.72185134887695,-2.7705642481152353],[104.72159385681152,-2.7720216633579184],[104.72099304199219,-2.773050425977985],[104.71893310546875,-2.7755365986154032],[104.71790313720703,-2.777251197387372],[104.71747398376465,-2.7785371448329954],[104.71721649169922,-2.7797373611851413],[104.7173023223877,-2.781880601634512],[104.7176456451416,-2.7835094617708194],[104.71816062927246,-2.7846239437248386],[104.71970558166504,-2.7865957169063904],[104.72090721130371,-2.78762446682056],[104.72185134887695,-2.788138841440386],[104.72288131713867,-2.7883960286659857],[104.72519874572754,-2.7880531123526993],[104.72768783569336,-2.7872815502824295],[104.73283767700195,-2.7848811317183504],[104.7341251373291,-2.784538214381186],[104.7352409362793,-2.784538214381186],[104.7367000579834,-2.7852240489556834],[104.73747253417969,-2.7859956123745775],[104.7378158569336,-2.786852904469228],[104.73790168762207,-2.7888246739169915],[104.73678588867188,-2.790882168946993],[104.73464012145996,-2.793282575262893],[104.73429679870605,-2.7939684047378393],[104.7341251373291,-2.7955115195914715],[104.73429679870605,-2.7963688047444606],[104.73515510559082,-2.797826188066537],[104.73695755004883,-2.7991978413030125],[104.73798751831055,-2.7995407543613027],[104.73867416381836,-2.7995407543613027],[104.74021911621094,-2.798683471527454],[104.74227905273438,-2.797911916440839],[104.74425315856934,-2.796625990168195],[104.74923133850098,-2.794654233812139],[104.75309371948242,-2.793711218731673],[104.75558280944824,-2.7935397613629505],[104.75987434387207,-2.793796947406662],[104.76691246032715,-2.7949114196116938],[104.76922988891602,-2.7950828767801]]]}},{"type":"Feature","id":"pmtiles:10/809/519:water:5088243812:0","properties":{"intermittent":0,"class":"river","id":508824381,"water":"river","kind":"waterway","verification":"verified","source":"OpenMapTiles/OpenStreetMap national PMTiles","sourceId":"10/809/519:water:5088243812:0","sourceLayer":"water","archive":"https://its.hanifahseptiani45.workers.dev/v1/map/archive/indonesia.pmtiles","updatedAt":"2026-07-26T09:42:53.649Z"},"geometry":{"type":"Polygon","coordinates":[[[104.73326683044434,-2.5871731168545153],[104.74459648132324,-2.587859062279179],[104.76081848144531,-2.5883735211040886],[104.7711181640625,-2.588887979720184],[104.7711181640625,-2.5898311533071876],[104.76330757141113,-2.5894881811749713],[104.76099014282227,-2.589145208949901],[104.74923133850098,-2.588887979720184],[104.73996162414551,-2.588459264221271],[104.73275184631348,-2.588459264221271],[104.73326683044434,-2.5871731168545153]]]}},{"type":"Feature","id":"pmtiles:10/809/519:waterway:440184182:0","properties":{"name_int":"Air Calik","name_de":"Air Calik","name":"Air Calik","name:id":"Air Calik","class":"river","name:latin":"Air Calik","name_en":"Air Calik","waterway":"river","kind":"waterway","verification":"verified","source":"OpenMapTiles/OpenStreetMap national PMTiles","sourceId":"10/809/519:waterway:440184182:0","sourceLayer":"waterway","archive":"https://its.hanifahseptiani45.workers.dev/v1/map/archive/indonesia.pmtiles","updatedAt":"2026-07-26T09:42:53.649Z"},"geometry":{"type":"LineString","coordinates":[[104.4056510925293,-2.5472161587617705],[104.41157341003418,-2.54455803366794],[104.41835403442383,-2.542242887991776],[104.4235897064209,-2.53975624541701],[104.4305419921875,-2.5358119059988695],[104.43354606628418,-2.5336682382266247],[104.4363784790039,-2.5312673261085052],[104.43929672241211,-2.528609168218523],[104.4444465637207,-2.5233785835708744],[104.4576644897461,-2.5063147269228807],[104.46375846862793,-2.4961106057633202],[104.46676254272461,-2.4872784033081103],[104.46762084960938,-2.485563405676743],[104.47019577026367,-2.4812759018527544],[104.47285652160645,-2.478446141711302],[104.47508811950684,-2.477074134616288],[104.49319839477539,-2.468327556007594],[104.5184326171875,-2.4540070531348164]]}},{"type":"Feature","id":"pmtiles:10/809/519:waterway:8390507530:0","properties":{"name":"Air Puntian","name_int":"Air Puntian","class":"river","name:latin":"Air Puntian","name_de":"Air Puntian","name_en":"Air Puntian","waterway":"river","kind":"waterway","verification":"verified","source":"OpenMapTiles/OpenStreetMap national PMTiles","sourceId":"10/809/519:waterway:8390507530:0","sourceLayer":"waterway","archive":"https://its.hanifahseptiani45.workers.dev/v1/map/archive/indonesia.pmtiles","updatedAt":"2026-07-26T09:42:53.649Z"},"geometry":{"type":"LineString","coordinates":[[104.59653854370117,-2.647534882629486],[104.59911346435547,-2.6498498354111746],[104.60014343261719,-2.65285069368484],[104.60391998291016,-2.6570518830319116],[104.60391998291016,-2.658337958546511],[104.60246086120605,-2.6605671529297297],[104.60357666015625,-2.660995843695332],[104.60700988769531,-2.6610815818305724],[104.61207389831543,-2.6620247009244906],[104.61524963378906,-2.663139295286726],[104.61936950683594,-2.665282743148296],[104.62374687194824,-2.668283563882696],[104.62760925292969,-2.6711129024380256],[104.62898254394531,-2.672999124520757],[104.62915420532227,-2.6738564972364856],[104.62838172912598,-2.675571240870255],[104.62469100952148,-2.679257931559988],[104.62288856506348,-2.6820015081254667],[104.62237358093262,-2.68491655148307],[104.622802734375,-2.6903179369628845],[104.62271690368652,-2.6966623909329996],[104.6231460571289,-2.6993201929014106],[104.62383270263672,-2.70077769473923],[104.62486267089844,-2.701549312651224],[104.62615013122559,-2.702063724320169],[104.63018417358398,-2.702578135771148],[104.63301658630371,-2.703692693166971],[104.63584899902344,-2.7058360698962787],[104.63790893554688,-2.70849385177749],[104.63911056518555,-2.7096941384575786],[104.64056968688965,-2.710551485357655],[104.64177131652832,-2.710637220014263],[104.64340209960938,-2.7098656078861865],[104.64743614196777,-2.7059218048866427],[104.65258598327637,-2.7028353414148825],[104.65790748596191,-2.7002632825255404],[104.6609115600586,-2.699491663796607],[104.66288566589355,-2.699491663796607],[104.66468811035156,-2.7000918117392274],[104.66597557067871,-2.700863430086983],[104.66794967651367,-2.702578135771148],[104.66983795166016,-2.703864163444706],[104.67438697814941,-2.7054073948534807],[104.67790603637695,-2.7070363592096385],[104.67876434326172,-2.7079794428361197],[104.67910766601562,-2.7091797300260936],[104.67893600463867,-2.710294281351395],[104.67850685119629,-2.711323097048435],[104.67644691467285,-2.714323804499898],[104.67584609985352,-2.7164671624041574],[104.67558860778809,-2.7192106549699844],[104.67593193054199,-2.721696939718683],[104.67790603637695,-2.728812829775322],[104.67867851257324,-2.729755896383068],[104.67979431152344,-2.7300988295115047],[104.68108177185059,-2.7300988295115047],[104.68185424804688,-2.7296701630856717],[104.68297004699707,-2.72864136303987],[104.68425750732422,-2.7249548223148707],[104.68494415283203,-2.72401175194328],[104.68666076660156,-2.7227257457009273],[104.69000816345215,-2.7224685442877075],[104.69369888305664,-2.7238402845236322],[104.69635963439941,-2.725383490421379],[104.69953536987305,-2.7276125621136345],[104.70219612121582,-2.729070029832627],[104.70459938049316,-2.7307846954747106],[104.70657348632812,-2.733099490208815],[104.70743179321289,-2.734814150096753],[104.70743179321289,-2.7370432042863797],[104.70700263977051,-2.7380719971296514],[104.70614433288574,-2.738929323824209],[104.70468521118164,-2.739700917324612],[104.70356941223145,-2.7397866499050707],[104.69807624816895,-2.7393579869413713],[104.69670295715332,-2.7399581150475854],[104.69558715820312,-2.7412441028335195],[104.69490051269531,-2.742615821615246],[104.69464302062988,-2.744844861279873],[104.69507217407227,-2.7466452364355547],[104.69610214233398,-2.748960000504624],[104.69884872436523,-2.7540181730238515],[104.70030784606934,-2.7554756085787346],[104.70142364501953,-2.756075728582772],[104.7026252746582,-2.756332922777574],[104.70417022705078,-2.756332922777574],[104.7118091583252,-2.754532562246922],[104.71464157104492,-2.7547040252718915],[104.71549987792969,-2.754961219763061],[104.71695899963379,-2.755647071467905],[104.71790313720703,-2.7565901169168114],[104.71850395202637,-2.7577046242110868],[104.71850395202637,-2.7595907110991362],[104.71798896789551,-2.7607052155810123],[104.71575736999512,-2.7636200685132195],[104.71558570861816,-2.7641344535819314],[104.71567153930664,-2.765420415278186],[104.71627235412598,-2.766277722301183],[104.71713066101074,-2.766877836848522],[104.71996307373047,-2.7680780650318013],[104.72064971923828,-2.7686781786676136],[104.7213363647461,-2.770307057003791],[104.72082138061523,-2.772107393610426],[104.71824645996094,-2.7755365986154032],[104.71713066101074,-2.7777655765336675],[104.71670150756836,-2.781023305922062],[104.71687316894531,-2.7824807082623835],[104.71738815307617,-2.7841952969442048],[104.71833229064941,-2.785738424624455],[104.7205638885498,-2.787967383258774],[104.7220230102539,-2.7887389448792845],[104.72288131713867,-2.7888246739169915],[104.72485542297363,-2.788653215835339],[104.72785949707031,-2.787881654158582],[104.73034858703613,-2.786852904469228],[104.7323226928711,-2.7856526953619323],[104.7341251373291,-2.7850525903495083],[104.73489761352539,-2.7849668610370486],[104.73618507385254,-2.7853955075369043],[104.73730087280273,-2.7867671752878636],[104.73738670349121,-2.788310299597029],[104.73678588867188,-2.789681963950386],[104.73395347595215,-2.7933683039691743],[104.73369598388672,-2.7940541333940416],[104.73369598388672,-2.7958544337278397],[104.73446846008301,-2.7977404596859685],[104.73515510559082,-2.7987691998390574],[104.73618507385254,-2.799712210852803],[104.73790168762207,-2.800483764754077]]}},{"type":"Feature","id":"pmtiles:10/809/519:waterway:8497560000:0","properties":{"name":"Air Banyu Asin","name_int":"Air Banyu Asin","class":"river","name:latin":"Air Banyu Asin","name_de":"Air Banyu Asin","name_en":"Air Banyu Asin","waterway":"river","kind":"waterway","verification":"verified","source":"OpenMapTiles/OpenStreetMap national PMTiles","sourceId":"10/809/519:waterway:8497560000:0","sourceLayer":"waterway","archive":"https://its.hanifahseptiani45.workers.dev/v1/map/archive/indonesia.pmtiles","updatedAt":"2026-07-26T09:42:53.649Z"},"geometry":{"type":"LineString","coordinates":[[104.53911781311035,-2.7276125621136345],[104.54023361206055,-2.7237545508046423],[104.54160690307617,-2.7164671624041574],[104.54237937927246,-2.710465750694979],[104.54358100891113,-2.7053216598267227],[104.54667091369629,-2.695890769918762],[104.54958915710449,-2.689546311929547],[104.55156326293945,-2.6865455432717766],[104.556884765625,-2.679943826277963],[104.56452369689941,-2.6717130643241376],[104.57010269165039,-2.666826023297446],[104.57688331604004,-2.6615102724172743],[104.5832347869873,-2.656966144616618],[104.59053039550781,-2.6521647838640234],[104.59653854370117,-2.647534882629486],[104.6004867553711,-2.6441053150040403],[104.60349082946777,-2.6405899983492844],[104.60546493530273,-2.637503370645689],[104.60786819458008,-2.63484543509594],[104.61370468139648,-2.6295295469794837],[104.62142944335938,-2.623870673450085],[104.63919639587402,-2.6142676779694654],[104.6476936340332,-2.610923760493364],[104.65790748596191,-2.607494092298978],[104.66683387756348,-2.605779254694994],[104.67533111572266,-2.6061222224027034],[104.68528747558594,-2.6086944772311256],[104.69361305236816,-2.6094661526539085],[104.70185279846191,-2.6092089275656036],[104.70691680908203,-2.607751317738021],[104.71163749694824,-2.6051790609816834],[104.71970558166504,-2.5985769112690065],[104.72554206848145,-2.591031555038569],[104.72768783569336,-2.5877733191213963],[104.7297477722168,-2.5833146669295957],[104.73180770874023,-2.577484098139408],[104.73318099975586,-2.5694241502554576],[104.73352432250977,-2.5615356413553485],[104.73352432250977,-2.5488453294951228],[104.73318099975586,-2.537612584182696],[104.73369598388672,-2.531353073046475],[104.73567008972168,-2.518233725683345],[104.73764419555664,-2.5102591558193836],[104.74202156066895,-2.499454822281322],[104.74674224853516,-2.485649155611256],[104.7491455078125,-2.4749303706852857],[104.75069046020508,-2.462067714399069],[104.75086212158203,-2.45520758023693],[104.7502613067627,-2.4486904201598207]]}},{"type":"Feature","id":"pmtiles:10/809/519:waterway:8497560012:0","properties":{"name":"Air Bertak","name_int":"Air Bertak","class":"river","name:latin":"Air Bertak","name_de":"Air Bertak","name_en":"Air Bertak","waterway":"river","kind":"waterway","verification":"verified","source":"OpenMapTiles/OpenStreetMap national PMTiles","sourceId":"10/809/519:waterway:8497560012:0","sourceLayer":"waterway","archive":"https://its.hanifahseptiani45.workers.dev/v1/map/archive/indonesia.pmtiles","updatedAt":"2026-07-26T09:42:53.649Z"},"geometry":{"type":"LineString","coordinates":[[104.40444946289062,-2.5340112253087597],[104.4129467010498,-2.5310958322155415],[104.41612243652344,-2.529552386157988],[104.41749572753906,-2.528523421099109],[104.41861152648926,-2.527065719202227],[104.42273139953613,-2.519434194342608],[104.42410469055176,-2.5176334909388487],[104.42753791809082,-2.5152325491966963],[104.43337440490723,-2.511716876530244],[104.43646430969238,-2.509487420667085],[104.4389533996582,-2.506743469770356],[104.44547653198242,-2.4975683422154162],[104.44882392883301,-2.4943956196321437],[104.45208549499512,-2.491994635291988],[104.45551872253418,-2.4901081445240862],[104.45826530456543,-2.4892506478274044],[104.46375846862793,-2.488221651054971],[104.4664192199707,-2.4881359012876914]]}},{"type":"Feature","id":"pmtiles:10/809/519:waterway:8595021040:0","properties":{"name":"Air Senda","name_int":"Air Senda","class":"river","name:latin":"Air Senda","name_de":"Air Senda","name_en":"Air Senda","waterway":"river","kind":"waterway","verification":"verified","source":"OpenMapTiles/OpenStreetMap national PMTiles","sourceId":"10/809/519:waterway:8595021040:0","sourceLayer":"waterway","archive":"https://its.hanifahseptiani45.workers.dev/v1/map/archive/indonesia.pmtiles","updatedAt":"2026-07-26T09:42:53.650Z"},"geometry":{"type":"LineString","coordinates":[[104.42702293395996,-2.6654542188160093],[104.4195556640625,-2.6555085906460505],[104.41672325134277,-2.6492496628832782],[104.4151782989502,-2.6471061871951775],[104.41251754760742,-2.6450484470466336],[104.40230369567871,-2.638875206126812]]}},{"type":"Feature","id":"pmtiles:10/809/519:waterway:8595137522:0","properties":{"name":"Air Kenfen","name_int":"Air Kenfen","class":"river","name:latin":"Air Kenfen","name_de":"Air Kenfen","name_en":"Air Kenfen","waterway":"river","kind":"waterway","verification":"verified","source":"OpenMapTiles/OpenStreetMap national PMTiles","sourceId":"10/809/519:waterway:8595137522:0","sourceLayer":"waterway","archive":"https://its.hanifahseptiani45.workers.dev/v1/map/archive/indonesia.pmtiles","updatedAt":"2026-07-26T09:42:53.650Z"},"geometry":{"type":"LineString","coordinates":[[104.76605415344238,-2.8223442468940902],[104.76365089416504,-2.8166005520660633],[104.76167678833008,-2.8139430120340734],[104.75961685180664,-2.812657103391544],[104.7557544708252,-2.8115426480877517],[104.75360870361328,-2.8105996466145626],[104.75232124328613,-2.80965664437943],[104.7465705871582,-2.8031413354117944],[104.7433090209961,-2.8003123083754957],[104.74236488342285,-2.7990263847362513]]}},{"type":"Feature","id":"pmtiles:10/809/519:waterway:8595137552:0","properties":{"name":"Air Gasing","name_int":"Air Gasing","class":"river","name:latin":"Air Gasing","name_de":"Air Gasing","name_en":"Air Gasing","waterway":"river","kind":"waterway","verification":"verified","source":"OpenMapTiles/OpenStreetMap national PMTiles","sourceId":"10/809/519:waterway:8595137552:0","sourceLayer":"waterway","archive":"https://its.hanifahseptiani45.workers.dev/v1/map/archive/indonesia.pmtiles","updatedAt":"2026-07-26T09:42:53.650Z"},"geometry":{"type":"LineString","coordinates":[[104.71567153930664,-2.8177150025330633],[104.7161865234375,-2.8165148250628818],[104.72099304199219,-2.811114011148959],[104.72451210021973,-2.808027820542989],[104.72777366638184,-2.805627444434151],[104.73506927490234,-2.802541239339021],[104.73790168762207,-2.800483764754077]]}},{"type":"Feature","id":"pmtiles:10/809/519:waterway:8595141952:0","properties":{"name":"Sungai Sebalik","name_int":"Sungai Sebalik","class":"river","name:latin":"Sungai Sebalik","name_de":"Sungai Sebalik","name_en":"Sungai Sebalik","waterway":"river","kind":"waterway","verification":"verified","source":"OpenMapTiles/OpenStreetMap national PMTiles","sourceId":"10/809/519:waterway:8595141952:0","sourceLayer":"waterway","archive":"https://its.hanifahseptiani45.workers.dev/v1/map/archive/indonesia.pmtiles","updatedAt":"2026-07-26T09:42:53.650Z"},"geometry":{"type":"LineString","coordinates":[[104.73790168762207,-2.800483764754077],[104.74236488342285,-2.7990263847362513],[104.7439956665039,-2.797654731299133],[104.74674224853516,-2.796454533225301],[104.75077629089355,-2.794997148199016],[104.75335121154785,-2.794482776581134],[104.75764274597168,-2.794568505199763],[104.76811408996582,-2.7957687052031446],[104.77034568786621,-2.7958544337278397],[104.77283477783203,-2.7955972481349534]]}},{"type":"Feature","id":"pmtiles:10/810/519:waterway:7222167100:1","properties":{"name":"Air Telang","name_int":"Air Telang","class":"river","name:latin":"Air Telang","name_de":"Air Telang","name_en":"Air Telang","waterway":"river","kind":"waterway","verification":"verified","source":"OpenMapTiles/OpenStreetMap national PMTiles","sourceId":"10/810/519:waterway:7222167100:1","sourceLayer":"waterway","archive":"https://its.hanifahseptiani45.workers.dev/v1/map/archive/indonesia.pmtiles","updatedAt":"2026-07-26T09:42:53.715Z"},"geometry":{"type":"LineString","coordinates":[[104.76905822753906,-2.740729707884938],[104.7652816772461,-2.7394437195463865],[104.76313591003418,-2.7378147990016544],[104.76184844970703,-2.73550001336568],[104.76107597351074,-2.7289842964863027],[104.76081848144531,-2.7222970766484025],[104.75996017456055,-2.716724365097079]]}},{"type":"Feature","id":"pmtiles:8/202/129:landcover:7089435742:0","properties":{"subclass":"farmland","class":"farmland","kind":"green","verification":"verified","source":"OpenMapTiles/OpenStreetMap national PMTiles","sourceId":"8/202/129:landcover:7089435742:0","sourceLayer":"landcover","archive":"https://its.hanifahseptiani45.workers.dev/v1/map/archive/indonesia.pmtiles","updatedAt":"2026-07-26T09:35:34.649Z"},"geometry":{"type":"Polygon","coordinates":[[[104.55928802490234,-2.8038271591181285],[104.54143524169922,-2.803484247315211],[104.53937530517578,-2.8017696867933637],[104.5404052734375,-2.7866814461002605],[104.55963134765625,-2.7870243628132414],[104.55928802490234,-2.8038271591181285]]]}},{"type":"Feature","id":"pmtiles:8/202/129:landcover:7089435752:0","properties":{"subclass":"farmland","class":"farmland","kind":"green","verification":"verified","source":"OpenMapTiles/OpenStreetMap national PMTiles","sourceId":"8/202/129:landcover:7089435752:0","sourceLayer":"landcover","archive":"https://its.hanifahseptiani45.workers.dev/v1/map/archive/indonesia.pmtiles","updatedAt":"2026-07-26T09:35:34.649Z"},"geometry":{"type":"Polygon","coordinates":[[[104.53765869140625,-2.8017696867933637],[104.53765869140625,-2.803484247315211],[104.51396942138672,-2.8031413354117944],[104.51431274414062,-2.7859956123745775],[104.5404052734375,-2.7866814461002605],[104.53937530517578,-2.8017696867933637],[104.53765869140625,-2.8017696867933637]]]}},{"type":"Feature","id":"pmtiles:8/202/129:water:116511063:0","properties":{"intermittent":0,"class":"river","id":11651106,"water":"river","kind":"waterway","verification":"verified","source":"OpenMapTiles/OpenStreetMap national PMTiles","sourceId":"8/202/129:water:116511063:0","sourceLayer":"water","archive":"https://its.hanifahseptiani45.workers.dev/v1/map/archive/indonesia.pmtiles","updatedAt":"2026-07-26T09:35:34.658Z"},"geometry":{"type":"Polygon","coordinates":[[[104.490966796875,-2.7918251862988512],[104.4906234741211,-2.7890818609926242],[104.49268341064453,-2.7839381088009674],[104.49508666992188,-2.780508928195502],[104.49886322021484,-2.7777655765336675],[104.51019287109375,-2.773993457593761],[104.51499938964844,-2.773993457593761],[104.5187759399414,-2.775022218498677],[104.52495574951172,-2.773993457593761],[104.53353881835938,-2.7691925615420985],[104.5407485961914,-2.761305332945966],[104.54418182373047,-2.7544468307251577],[104.54452514648438,-2.7441590033641887],[104.54383850097656,-2.741415567767234],[104.53971862792969,-2.7366145403410087],[104.53800201416016,-2.7276982955577864],[104.54246520996094,-2.703692693166971],[104.54830169677734,-2.6886032140036775],[104.56340789794922,-2.6707699526571247],[104.59430694580078,-2.646077317547835],[104.6114730834961,-2.626871594424216],[104.61902618408203,-2.621384190614563],[104.63687896728516,-2.6114382099153772],[104.65370178222656,-2.604578866982294],[104.66606140136719,-2.600463243285347],[104.67704772949219,-2.6001202740375646],[104.6993637084961,-2.6059507385605087],[104.7055435180664,-2.604578866982294],[104.70932006835938,-2.602864025408337],[104.7165298461914,-2.5956616653369196],[104.72339630126953,-2.5857154815951873],[104.7268295288086,-2.5778270735140865],[104.7275161743164,-2.5695956390386385],[104.72545623779297,-2.539413259858506],[104.72545623779297,-2.5256937629805236],[104.73094940185547,-2.5082011944009537],[104.74193572998047,-2.4817904030461904],[104.74639892578125,-2.462239217301047],[104.74639892578125,-2.4540070531348164],[104.73575592041016,-2.4313683408148563],[104.7323226928711,-2.4217639236659636],[104.72923278808594,-2.4001537365332837],[104.73060607910156,-2.3864328052843007],[104.72888946533203,-2.381630446955157],[104.73884582519531,-2.3692814487448857],[104.76287841796875,-2.3167969846896312],[104.7762680053711,-2.2955282141878968],[104.7817611694336,-2.28798115487902],[104.79789733886719,-2.2722008117666377],[104.82330322265625,-2.2536758411981026],[104.83360290527344,-2.2485299741250913],[104.84699249267578,-2.285579809490514],[104.84115600585938,-2.2934699292320033],[104.83634948730469,-2.3037613243448476],[104.84115600585938,-2.3157678579634506],[104.84355926513672,-2.3171400267655287],[104.84390258789062,-2.3233147699082224],[104.8428726196289,-2.326745171103937],[104.84390258789062,-2.3288034078165083],[104.8428726196289,-2.3308616415221763],[104.83875274658203,-2.3377223987906888],[104.82330322265625,-2.3552171777965754],[104.798583984375,-2.3768280718846597],[104.78107452392578,-2.3854037299105215],[104.76974487304688,-2.387461879887809],[104.75738525390625,-2.3860897802452854],[104.754638671875,-2.392950264750297],[104.75189208984375,-2.407700190065441],[104.75601196289062,-2.42690915562369],[104.75738525390625,-2.438571608829676],[104.754638671875,-2.4804183994188094],[104.74605560302734,-2.517119003794946],[104.73987579345703,-2.553818574762147],[104.73747253417969,-2.573368386438034],[104.732666015625,-2.588459264221271],[104.72270965576172,-2.6018351193439173],[104.71412658691406,-2.6086944772311256],[104.70760345458984,-2.6121241421503356],[104.69696044921875,-2.6145249020217705],[104.68734741210938,-2.615210832570071],[104.67121124267578,-2.611781176079674],[104.66297149658203,-2.611781176079674],[104.63138580322266,-2.6258427080450417],[104.61868286132812,-2.634416735282173],[104.5956802368164,-2.654994159422259],[104.57714080810547,-2.66562569445982],[104.56581115722656,-2.6738564972364856],[104.55825805664062,-2.6814013512774153],[104.5510482788086,-2.6903179369628845],[104.5458984375,-2.7026638709917847],[104.5400619506836,-2.730441762542057],[104.54109191894531,-2.734899883026813],[104.54486846923828,-2.7400438476096127],[104.5458984375,-2.7427872863523532],[104.5455551147461,-2.7537609783290264],[104.54315185546875,-2.7592477864329368],[104.53594207763672,-2.7685067176598324],[104.52838897705078,-2.7736505370932036],[104.52014923095703,-2.7757080586045646],[104.5125961303711,-2.7743363779948567],[104.50916290283203,-2.775022218498677],[104.5016098022461,-2.777422657127701],[104.49714660644531,-2.779823090877869],[104.49337005615234,-2.7839381088009674],[104.490966796875,-2.7918251862988512]],[[104.75360870361328,-2.3445831225216835],[104.75017547607422,-2.352129879772747],[104.75189208984375,-2.354188079215092],[104.7597885131836,-2.3535020130719033],[104.76219177246094,-2.351786846237019],[104.765625,-2.3456122281826453],[104.77043151855469,-2.3301755639545547],[104.7714614868164,-2.321256525190279],[104.7714614868164,-2.3188552358980843],[104.77043151855469,-2.3174830687582926],[104.76871490478516,-2.3171400267655287],[104.7659683227539,-2.3185121942378686],[104.75601196289062,-2.3425249089296614],[104.75360870361328,-2.3445831225216835]]]}},{"type":"Feature","id":"pmtiles:8/202/130:landcover:7089435742:0","properties":{"subclass":"farmland","class":"farmland","kind":"green","verification":"verified","source":"OpenMapTiles/OpenStreetMap national PMTiles","sourceId":"8/202/130:landcover:7089435742:0","sourceLayer":"landcover","archive":"https://its.hanifahseptiani45.workers.dev/v1/map/archive/indonesia.pmtiles","updatedAt":"2026-07-26T09:35:37.517Z"},"geometry":{"type":"Polygon","coordinates":[[[104.55928802490234,-2.8038271591181285],[104.54143524169922,-2.803484247315211],[104.53937530517578,-2.8017696867933637],[104.5400619506836,-2.7894247770059906],[104.55963134765625,-2.7894247770059906],[104.55928802490234,-2.8038271591181285]]]}},{"type":"Feature","id":"pmtiles:8/202/130:landcover:7089435752:0","properties":{"subclass":"farmland","class":"farmland","kind":"green","verification":"verified","source":"OpenMapTiles/OpenStreetMap national PMTiles","sourceId":"8/202/130:landcover:7089435752:0","sourceLayer":"landcover","archive":"https://its.hanifahseptiani45.workers.dev/v1/map/archive/indonesia.pmtiles","updatedAt":"2026-07-26T09:35:37.517Z"},"geometry":{"type":"Polygon","coordinates":[[[104.53765869140625,-2.8017696867933637],[104.53765869140625,-2.803484247315211],[104.51396942138672,-2.8031413354117944],[104.51431274414062,-2.7894247770059906],[104.5400619506836,-2.7894247770059906],[104.53937530517578,-2.8017696867933637],[104.53765869140625,-2.8017696867933637]]]}}]}