{"type":"FeatureCollection","features":[{"type":"Feature","id":"pmtiles:10/840/495:water:760:0","properties":{"class":"ocean","water":"ocean","kind":"waterway","verification":"verified","source":"OpenMapTiles/OpenStreetMap national PMTiles","sourceId":"10/840/495:water:760:0","sourceLayer":"water","archive":"https://its.hanifahseptiani45.workers.dev/v1/map/archive/indonesia.pmtiles","updatedAt":"2026-07-26T09:38:13.685Z"},"geometry":{"type":"Polygon","coordinates":[[[115.3070068359375,5.616412912562637],[115.3070068359375,5.971217057997222],[115.31207084655762,5.971217057997222],[115.31292915344238,5.971217057997222],[115.6695556640625,5.971217057997222],[115.6695556640625,5.714977648060454],[115.66895484924316,5.716087899936667],[115.66646575927734,5.7188208184565354],[115.66492080688477,5.719931062876654],[115.6596851348877,5.725055239961591],[115.65925598144531,5.726507081784575],[115.65959930419922,5.7271903001895055],[115.65951347351074,5.728471332496369],[115.6600284576416,5.7298377637901154],[115.6600284576416,5.730777183407881],[115.65942764282227,5.731802003046141],[115.6582260131836,5.732997623632016],[115.65796852111816,5.7336808342707855],[115.65702438354492,5.733766235543115],[115.65633773803711,5.734620247563456],[115.65264701843262,5.734961852013669],[115.65093040466309,5.7348764509202965],[115.64775466918945,5.734107840504635],[115.64526557922363,5.734364044091578],[115.64397811889648,5.734961852013669],[115.64217567443848,5.736669871196341],[115.63977241516113,5.738121683479932],[115.63899993896484,5.73889028848653],[115.63736915588379,5.739146489925133],[115.63633918762207,5.739061089458389],[115.63539505004883,5.73889028848653],[115.63427925109863,5.738292484682049],[115.63385009765625,5.737609279566598],[115.63247680664062,5.736584470358679],[115.6322193145752,5.735559659309345],[115.63213348388672,5.732143609183382],[115.63179016113281,5.731204191814058],[115.63187599182129,5.730179371102693],[115.63204765319824,5.7298377637901154],[115.63496589660645,5.726677886462397],[115.63573837280273,5.725567655143848],[115.6365966796875,5.724884434798739],[115.63857078552246,5.7241158109342365],[115.64080238342285,5.723603394450336],[115.6472396850586,5.723005574638606],[115.64835548400879,5.722663963036936],[115.64981460571289,5.721809933139809],[115.65221786499023,5.719077028898553],[115.65350532531738,5.717027342149933],[115.65462112426758,5.714636031665378],[115.65444946289062,5.712500924578563],[115.65556526184082,5.709170141631446],[115.65762519836426,5.706010150171579],[115.6582260131836,5.705668528429982],[115.65925598144531,5.706095555575175],[115.66028594970703,5.706095555575175],[115.66234588623047,5.705497717482871],[115.66492080688477,5.705668528429982],[115.66672325134277,5.704899878767321],[115.66646575927734,5.704387445086553],[115.66569328308105,5.7039604166695455],[115.66680908203125,5.704387445086553],[115.6669807434082,5.705839339326218],[115.66766738891602,5.7084869017107565],[115.66826820373535,5.709597166168251],[115.6695556640625,5.710536619029114],[115.6695556640625,5.616412912562637],[115.6695556640625,5.6155587254349655],[115.6695556640625,5.61051899590089],[115.62037467956543,5.61051899590089],[115.6201171875,5.613337833043531],[115.62088966369629,5.614448280297097],[115.62003135681152,5.615302469052494],[115.61994552612305,5.6155587254349655],[115.61985969543457,5.6155587254349655],[115.6197738647461,5.615985819155341],[115.61960220336914,5.616412912562637],[115.61968803405762,5.616412912562637],[115.61960220336914,5.6166691684567525],[115.61985969543457,5.617779609362046],[115.61874389648438,5.619317139428318],[115.61857223510742,5.620342157217252],[115.61771392822266,5.621794262662419],[115.61737060546875,5.623417199755295],[115.61556816101074,5.62375887014548],[115.61367988586426,5.623588034975469],[115.61213493347168,5.623673452566749],[115.60981750488281,5.624356792845546],[115.60732841491699,5.625381801758834],[115.60243606567383,5.628627651400336],[115.60149192810059,5.629481819347049],[115.60003280639648,5.631360984411259],[115.59823036193848,5.6299089028497065],[115.59711456298828,5.629652652785779],[115.59617042541504,5.630165152800686],[115.5952262878418,5.6299943195125906],[115.59428215026855,5.630165152800686],[115.59393882751465,5.630506819226213],[115.59325218200684,5.631873482919602],[115.5929946899414,5.631190151474698],[115.59290885925293,5.629567236072688],[115.59350967407227,5.629396402608862],[115.59342384338379,5.628627651400336],[115.59205055236816,5.62640680886598],[115.59093475341797,5.623502617371656],[115.59033393859863,5.622904693793856],[115.58956146240234,5.6226484406438715],[115.5900764465332,5.621879680516969],[115.59136390686035,5.621879680516969],[115.59162139892578,5.6207692474300615],[115.59136390686035,5.619744230392996],[115.58999061584473,5.617608772437464],[115.58835983276367,5.616412912562637],[115.58853149414062,5.616412912562637],[115.587158203125,5.6155587254349655],[115.5856990814209,5.61051899590089],[115.31292915344238,5.61051899590089],[115.31207084655762,5.61051899590089],[115.3070068359375,5.61051899590089],[115.3070068359375,5.6155587254349655],[115.3070068359375,5.616412912562637]]]}}]}