{"type":"FeatureCollection","features":[{"type":"Feature","id":"pmtiles:10/857/495:water:360:1","properties":{"class":"ocean","water":"ocean","kind":"waterway","verification":"verified","source":"OpenMapTiles/OpenStreetMap national PMTiles","sourceId":"10/857/495:water:360:1","sourceLayer":"water","archive":"https://its.hanifahseptiani45.workers.dev/v1/map/archive/indonesia.pmtiles","updatedAt":"2026-07-26T09:38:14.653Z"},"geometry":{"type":"Polygon","coordinates":[[[121.2835693359375,5.616412912562637],[121.2835693359375,5.855962268833778],[121.28631591796875,5.856218417125859],[121.28837585449219,5.8568160960172975],[121.28846168518066,5.857072243917827],[121.28829002380371,5.857328391700904],[121.2879467010498,5.857413774269162],[121.28811836242676,5.857072243917827],[121.2879467010498,5.856986861297358],[121.28751754760742,5.8572430091196],[121.28768920898438,5.857840686914628],[121.28700256347656,5.858865275932175],[121.28700256347656,5.859206805186886],[121.28631591796875,5.860060627409695],[121.28588676452637,5.862024413565948],[121.28631591796875,5.863305139944941],[121.28700256347656,5.863646666482879],[121.28691673278809,5.8631343765976],[121.28751754760742,5.8627928497461],[121.28768920898438,5.86236594088777],[121.2879467010498,5.862280559076908],[121.28803253173828,5.862536704470301],[121.28820419311523,5.8621951772529854],[121.28846168518066,5.862280559076908],[121.28837585449219,5.862536704470301],[121.2887191772461,5.8627928497461],[121.28889083862305,5.863902811249105],[121.28854751586914,5.864842007719076],[121.2887191772461,5.8654396773765995],[121.28889083862305,5.864500481912955],[121.28957748413086,5.8643297189314865],[121.28974914550781,5.864073574361257],[121.29043579101562,5.864158955897736],[121.29086494445801,5.865354296036159],[121.2905216217041,5.863988192811718],[121.29095077514648,5.8629636131979765],[121.29137992858887,5.862451322685573],[121.29215240478516,5.86262208624197],[121.29240989685059,5.862280559076908],[121.29301071166992,5.862024413565948],[121.29404067993164,5.86262208624197],[121.29464149475098,5.86262208624197],[121.29472732543945,5.862280559076908],[121.29386901855469,5.86142674024984],[121.2948989868164,5.861341358295292],[121.29515647888184,5.860658302188668],[121.29532814025879,5.860658302188668],[121.29575729370117,5.8610852123532595],[121.29627227783203,5.861170594347001],[121.29730224609375,5.862451322685573],[121.29944801330566,5.866805777045826],[121.29927635192871,5.8671473014402125],[121.29927635192871,5.866720395914541],[121.2985897064209,5.865268914682659],[121.29807472229004,5.865951965144717],[121.29773139953613,5.866037346393654],[121.29661560058594,5.8647566262871464],[121.29678726196289,5.865695821319491],[121.29618644714355,5.8662934900620485],[121.29627227783203,5.866635014770182],[121.29575729370117,5.866635014770182],[121.29558563232422,5.8674034445987076],[121.29652976989746,5.867744968626994],[121.29730224609375,5.8683426351730645],[121.29730224609375,5.868171873368155],[121.29678726196289,5.867744968626994],[121.2971305847168,5.8674034445987076],[121.29687309265137,5.866549633612763],[121.29755973815918,5.8662934900620485],[121.29798889160156,5.866720395914541],[121.29773139953613,5.867232682506113],[121.29764556884766,5.8684280160559155],[121.29738807678223,5.868940301078368],[121.29704475402832,5.868940301078368],[121.29695892333984,5.8697941084028145],[121.29661560058594,5.8697941084028145],[121.29661560058594,5.869964869710742],[121.29618644714355,5.8701356309663595],[121.29592895507812,5.869964869710742],[121.2956714630127,5.86936720490408],[121.29618644714355,5.8683426351730645],[121.2956714630127,5.868001111510907],[121.29541397094727,5.868171873368155],[121.29464149475098,5.867488825625401],[121.29429817199707,5.866720395914541],[121.29335403442383,5.866464252442256],[121.29386901855469,5.866891158164023],[121.2945556640625,5.868171873368155],[121.2942123413086,5.868598777782381],[121.29361152648926,5.868257254277154],[121.29404067993164,5.8691964434130455],[121.29472732543945,5.869964869710742],[121.29584312438965,5.870306392169638],[121.2960147857666,5.870818675465529],[121.29661560058594,5.871074816936854],[121.29678726196289,5.8714163387154485],[121.2971305847168,5.8714163387154485],[121.29738807678223,5.872355522527187],[121.29704475402832,5.872697043520688],[121.29549980163574,5.872355522527187],[121.29386901855469,5.8714163387154485],[121.29326820373535,5.870647914419223],[121.29043579101562,5.870477153320593],[121.28931999206543,5.870050250345088],[121.28889083862305,5.869537966342804],[121.28734588623047,5.870050250345088],[121.28674507141113,5.869964869710742],[121.28657341003418,5.869452585629986],[121.28674507141113,5.868854920273989],[121.28726005554199,5.868684158625996],[121.28786087036133,5.868854920273989],[121.28880500793457,5.868257254277154],[121.28889083862305,5.867744968626994],[121.28854751586914,5.867574206639006],[121.28768920898438,5.868171873368155],[121.28623008728027,5.868598777782381],[121.28631591796875,5.8696233470425625],[121.28537178039551,5.8711601974011245],[121.2835693359375,5.871587099526266],[121.2835693359375,5.8748315449857245],[121.2839126586914,5.874575405241885],[121.28477096557617,5.874575405241885],[121.28545761108398,5.875856102782819],[121.28562927246094,5.875856102782819],[121.28605842590332,5.875429203929826],[121.28691673278809,5.875429203929826],[121.28863334655762,5.874660785169581],[121.28931999206543,5.8755145837265985],[121.28966331481934,5.8755145837265985],[121.29060745239258,5.874746165084218],[121.29283905029297,5.874404645347198],[121.29318237304688,5.8744900253011],[121.29395484924316,5.875599963510311],[121.29429817199707,5.875685343280907],[121.29464149475098,5.875002304749501],[121.29592895507812,5.875429203929826],[121.29687309265137,5.875087684611756],[121.29755973815918,5.87517306446091],[121.29790306091309,5.875599963510311],[121.29987716674805,5.8759414825141505],[121.30107879638672,5.8767952791071565],[121.30228042602539,5.876453760627086],[121.3029670715332,5.877392935943078],[121.30468368530273,5.878075971541165],[121.30476951599121,5.879100523366418],[121.3055419921875,5.88208878874687],[121.30837440490723,5.883540226138692],[121.30777359008789,5.884223254188541],[121.31163597106934,5.888406782679326],[121.3139533996582,5.890028958721047],[121.31558418273926,5.890797356245059],[121.31592750549316,5.890711978794897],[121.31721496582031,5.8922487708893385],[121.31978988647461,5.894297820397696],[121.32408142089844,5.8959199792266475],[121.32562637329102,5.897542133312854],[121.32691383361816,5.897627509712308],[121.32914543151855,5.899164282655022],[121.3304328918457,5.899420411064781],[121.33094787597656,5.899249658804763],[121.33137702941895,5.89959116327222],[121.3326644897461,5.89959116327222],[121.33360862731934,5.900103419579054],[121.33584022521973,5.900018043560777],[121.33781433105469,5.901469434083282],[121.33875846862793,5.902750069623636],[121.33841514587402,5.902664694012998],[121.33790016174316,5.902237815762575],[121.3381576538086,5.903262323011191],[121.33875846862793,5.904286828365642],[121.33953094482422,5.904799080332452],[121.34047508239746,5.905055206138243],[121.34124755859375,5.906079708177117],[121.3425350189209,5.907274958160684],[121.34356498718262,5.907701832529597],[121.34407997131348,5.907531082821521],[121.34459495544434,5.909580075842925],[121.3454532623291,5.909750824919058],[121.34631156921387,5.910263071831395],[121.34777069091797,5.911543687038005],[121.3494873046875,5.912568177069417],[121.35017395019531,5.913934160826884],[121.35025978088379,5.914617151440638],[121.34974479675293,5.91547088852171],[121.3509464263916,5.9164099977885485],[121.35197639465332,5.916666118220846],[121.35300636291504,5.9173491054602465],[121.3538646697998,5.918800450542079],[121.35498046875,5.917946718602522],[121.35583877563477,5.918202838322841],[121.35695457458496,5.919141942948642],[121.35729789733887,5.919227316017313],[121.35738372802734,5.918544331098673],[121.35764122009277,5.918202838322841],[121.35798454284668,5.918202838322841],[121.3590145111084,5.918544331098673],[121.35961532592773,5.917775972056376],[121.3608169555664,5.918032091855807],[121.36038780212402,5.9184589579245],[121.3604736328125,5.918715077407455],[121.36227607727051,5.9175198521382555],[121.36322021484375,5.9164099977885485],[121.36399269104004,5.9162392507677595],[121.36442184448242,5.915812382985109],[121.3648509979248,5.915812382985109],[121.3656234741211,5.9162392507677595],[121.36588096618652,5.917007611946019],[121.36622428894043,5.916324624284741],[121.3674259185791,5.915300141210949],[121.36914253234863,5.914873272703346],[121.37060165405273,5.914702525208057],[121.37154579162598,5.914873272703346],[121.37248992919922,5.915300141210949],[121.37351989746094,5.916324624284741],[121.37429237365723,5.9164099977885485],[121.37540817260742,5.916836865109801],[121.37626647949219,5.916153877237591],[121.37652397155762,5.914702525208057],[121.37703895568848,5.913934160826884],[121.37832641601562,5.91367803912928],[121.3795280456543,5.914104908559395],[121.38030052185059,5.915214767535787],[121.38030052185059,5.915556262157338],[121.37995719909668,5.916153877237591],[121.38030052185059,5.917178358729501],[121.38167381286621,5.9175198521382555],[121.3839054107666,5.919227316017313],[121.38484954833984,5.920337164709764],[121.38545036315918,5.921959247249973],[121.38519287109375,5.923495952631001],[121.38467788696289,5.924008186807782],[121.38407707214355,5.924008186807782],[121.38339042663574,5.923666697409402],[121.38201713562012,5.923752069778786],[121.38004302978516,5.924605792746789],[121.37978553771973,5.925032653735784],[121.38004302978516,5.925971746749767],[121.37978553771973,5.92622786274903],[121.37892723083496,5.92622786274903],[121.37884140014648,5.9266547224837325],[121.37935638427734,5.927593812737982],[121.37909889221191,5.92810604311218],[121.37875556945801,5.928191414794981],[121.37824058532715,5.929130502434035],[121.37875556945801,5.929813474258452],[121.37961387634277,5.9302403312193235],[121.37849807739258,5.931606271274148],[121.37875556945801,5.932033126847472],[121.38150215148926,5.932203868984288],[121.38193130493164,5.9327160950775095],[121.38227462768555,5.932630724095006],[121.3824462890625,5.932289240032873],[121.38296127319336,5.9324599820903785],[121.38253211975098,5.932972207945653],[121.3824462890625,5.934167399757229],[121.38373374938965,5.935191847818871],[121.38399124145508,5.935960182615432],[121.38373374938965,5.936130923535856],[121.38296127319336,5.935960182615432],[121.38261795043945,5.936045553082266],[121.3827896118164,5.936728516340722],[121.38253211975098,5.9373261084974445],[121.38304710388184,5.937838329830143],[121.38330459594727,5.9385212908662055],[121.38433456420898,5.938777401036418],[121.3839054107666,5.939801840526329],[121.38433456420898,5.940655538645515],[121.3850212097168,5.941082387208766],[121.38545036315918,5.940826278110535],[121.38570785522461,5.941338496187882],[121.3868236541748,5.940997017522605],[121.38768196105957,5.941423865821122],[121.38931274414062,5.941253126541412],[121.39214515686035,5.941509235441089],[121.39240264892578,5.941423865821122],[121.39266014099121,5.940911647823171],[121.39326095581055,5.941679974641374],[121.39472007751465,5.942021452883054],[121.39592170715332,5.942704408730918],[121.39686584472656,5.943216625060728],[121.39720916748047,5.944155687093911],[121.39789581298828,5.944497163799582],[121.39849662780762,5.944497163799582],[121.39918327331543,5.944838640293341],[121.39935493469238,5.945180116575202],[121.39986991882324,5.944838640293341],[121.39978408813477,5.944411794643017],[121.40021324157715,5.9443264254732355],[121.40244483947754,5.945009378460767],[121.4029598236084,5.9443264254732355],[121.4047622680664,5.94347273304686],[121.4055347442627,5.9428751475604855],[121.40527725219727,5.942704408730918],[121.40398979187012,5.9428751475604855],[121.4040756225586,5.942619039296275],[121.40467643737793,5.942362930912893],[121.40647888183594,5.9424483003872695],[121.40742301940918,5.942106822410366],[121.40828132629395,5.943216625060728],[121.40862464904785,5.943387363731389],[121.40913963317871,5.943301994402674],[121.40982627868652,5.943728840913835],[121.41094207763672,5.94389957942559],[121.41257286071777,5.945350854636644],[121.41343116760254,5.9455215926451075],[121.41308784484863,5.9459484374344385],[121.41368865966797,5.9463752818925855],[121.41446113586426,5.947485075933628],[121.41600608825684,5.947911919199285],[121.41471862792969,5.94680212601952],[121.4154052734375,5.947058232336673],[121.4165210723877,5.947997287812655],[121.4197826385498,5.951582757605507],[121.4205551147461,5.951838861695819],[121.42132759094238,5.953631586986106],[121.42192840576172,5.954058425478806],[121.4220142364502,5.9546559988114325],[121.42304420471191,5.95602187827339],[121.4238166809082,5.956534082195859],[121.42407417297363,5.95721702001596],[121.42484664916992,5.9581560581316495],[121.42544746398926,5.959607295696472],[121.42596244812012,5.962680491989275],[121.42587661743164,5.963875619231871],[121.42690658569336,5.965668305212631],[121.42579078674316,5.96908292895958],[121.42621994018555,5.971217057997222],[121.57341957092285,5.971217057997222],[121.57341957092285,5.9707902328547675],[121.57367706298828,5.9702780422448285],[121.57676696777344,5.970448772501342],[121.57814025878906,5.971217057997222],[121.57899856567383,5.971217057997222],[121.5776252746582,5.9702780422448285],[121.58037185668945,5.970021946760298],[121.58208847045898,5.9678024475472995],[121.58268928527832,5.967631716466286],[121.58208847045898,5.967460985332096],[121.58088684082031,5.96908292895958],[121.58071517944336,5.968997563625194],[121.58123016357422,5.967717082013436],[121.58105850219727,5.967717082013436],[121.57994270324707,5.968912198277479],[121.58037185668945,5.969339024883013],[121.57994270324707,5.969765851156069],[121.5776252746582,5.969851216370785],[121.57685279846191,5.969595120686748],[121.57659530639648,5.969339024883013],[121.57599449157715,5.969424390164207],[121.57590866088867,5.969595120686748],[121.57487869262695,5.969424390164207],[121.57462120056152,5.968997563625194],[121.57470703125,5.968143909549767],[121.57444953918457,5.9679731785751216],[121.57384872436523,5.968656102154583],[121.57333374023438,5.968912198277479],[121.57187461853027,5.96908292895958],[121.57110214233398,5.970363407379736],[121.57041549682617,5.970448772501342],[121.56990051269531,5.968912198277479],[121.56878471374512,5.967887813067847],[121.56904220581055,5.967460985332096],[121.56835556030273,5.967460985332096],[121.56766891479492,5.966863425943629],[121.56689643859863,5.965753671065542],[121.56672477722168,5.964729279953602],[121.56543731689453,5.964302449758833],[121.56166076660156,5.960204862990253],[121.55994415283203,5.957899956986651],[121.55831336975098,5.955509673873195],[121.55771255493164,5.951838861695819],[121.55745506286621,5.945094747524607],[121.55762672424316,5.94389957942559],[121.56123161315918,5.939887210397799],[121.56174659729004,5.9380090701685475],[121.56475067138672,5.9357040711356035],[121.56698226928711,5.934252770501757],[121.5688705444336,5.933142949791673],[121.57093048095703,5.932289240032873],[121.57290458679199,5.932374611068241],[121.57539367675781,5.933228320694852],[121.58028602600098,5.9366431459797155],[121.58329010009766,5.939374990970435],[121.59616470336914,5.952180333630594],[121.5970230102539,5.953716954711169],[121.59753799438477,5.955424306426735],[121.59753799438477,5.956363347608104],[121.59710884094238,5.957558488607489],[121.59719467163086,5.96122926255147],[121.59384727478027,5.965753671065542],[121.59307479858398,5.967460985332096],[121.59307479858398,5.968400005912017],[121.59213066101074,5.969253659588503],[121.59170150756836,5.970021946760298],[121.59170150756836,5.971217057997222],[121.6461181640625,5.971217057997222],[121.6461181640625,5.616412912562637],[121.6461181640625,5.6155587254349655],[121.6461181640625,5.61051899590089],[121.2835693359375,5.61051899590089],[121.2835693359375,5.6155587254349655],[121.2835693359375,5.616412912562637]],[[121.41343116760254,5.9455215926451075],[121.41377449035645,5.9455215926451075],[121.4142894744873,5.946204544149083],[121.41343116760254,5.9455215926451075]],[[121.38751029968262,5.917092985344354],[121.38802528381348,5.9190565698667825],[121.38879776000977,5.921361638447166],[121.38845443725586,5.921788501943709],[121.38785362243652,5.921617756584681],[121.38742446899414,5.92093477462079],[121.38751029968262,5.920507910464579],[121.38673782348633,5.920337164709764],[121.3864803314209,5.9195688081600935],[121.38622283935547,5.919824927128701],[121.38579368591309,5.9196541811628265],[121.38570785522461,5.918629704259658],[121.38527870178223,5.9184589579245],[121.38519287109375,5.918032091855807],[121.38442039489746,5.917690598763514],[121.38433456420898,5.916922238534511],[121.38373374938965,5.916068503694248],[121.38313293457031,5.915983130137704],[121.38321876525879,5.916495371279154],[121.38287544250488,5.916580744756601],[121.3824462890625,5.916153877237591],[121.38270378112793,5.915300141210949],[121.38201713562012,5.915300141210949],[121.3824462890625,5.915556262157338],[121.38236045837402,5.916068503694248],[121.38184547424316,5.91547088852171],[121.38167381286621,5.914787898962288],[121.38150215148926,5.91547088852171],[121.38107299804688,5.914958646431231],[121.38124465942383,5.914446403866279],[121.3821029663086,5.914019534699719],[121.38201713562012,5.913592665203737],[121.38150215148926,5.913165795378347],[121.38150215148926,5.912568177069417],[121.38175964355469,5.91214130645352],[121.38287544250488,5.91214130645352],[121.38519287109375,5.914104908559395],[121.38751029968262,5.917092985344354]],[[121.37678146362305,5.911714435508287],[121.37686729431152,5.911372938515001],[121.37703895568848,5.911116815631729],[121.376953125,5.910775318269643],[121.37592315673828,5.910604569509573],[121.37506484985352,5.90940932671414],[121.37515068054199,5.908897079011737],[121.3754940032959,5.908897079011737],[121.37523651123047,5.9086409549828005],[121.37600898742676,5.9083848308353595],[121.37626647949219,5.907701832529597],[121.37600898742676,5.907701832529597],[121.37609481811523,5.90736033306078],[121.37643814086914,5.907189583247401],[121.3766098022461,5.90736033306078],[121.37712478637695,5.906848083462691],[121.37781143188477,5.907274958160684],[121.37738227844238,5.906591958485933],[121.37824058532715,5.9064212084356456],[121.37858390808105,5.905823582845059],[121.37875556945801,5.905908957968904],[121.37875556945801,5.905652832557877],[121.37918472290039,5.905652832557877],[121.37918472290039,5.905311331825601],[121.38012886047363,5.905311331825601],[121.38090133666992,5.905652832557877],[121.38184547424316,5.905482082218043],[121.3821029663086,5.905738207708055],[121.38330459594727,5.90599433307959],[121.38347625732422,5.906250458332707],[121.38330459594727,5.906677333491359],[121.38399124145508,5.907274958160684],[121.38484954833984,5.907274958160684],[121.38484954833984,5.9077872073638815],[121.38527870178223,5.907701832529597],[121.38570785522461,5.908214081337903],[121.38605117797852,5.908214081337903],[121.38519287109375,5.908726329672277],[121.38605117797852,5.908897079011737],[121.38587951660156,5.909153202922198],[121.38545036315918,5.9090678282985465],[121.3853645324707,5.910433820696824],[121.38605117797852,5.910604569509573],[121.3868236541748,5.910177697378927],[121.38733863830566,5.910177697378927],[121.38742446899414,5.910348446270689],[121.38690948486328,5.9106899438961875],[121.38673782348633,5.911116815631729],[121.38785362243652,5.9106899438961875],[121.38819694519043,5.912055932290826],[121.38776779174805,5.912312054739402],[121.38708114624023,5.912226680603041],[121.38673782348633,5.91239742886259],[121.38639450073242,5.912055932290826],[121.38630867004395,5.9126535511530705],[121.38519287109375,5.91248280297259],[121.38373374938965,5.911543687038005],[121.3827896118164,5.911202189939331],[121.3809871673584,5.911629061279726],[121.3798713684082,5.91214130645352],[121.37918472290039,5.911970558114945],[121.37789726257324,5.912312054739402],[121.37721061706543,5.912226680603041],[121.37738227844238,5.912055932290826],[121.37678146362305,5.911714435508287]],[[121.37772560119629,5.903774575925212],[121.37832641601562,5.903603825006485],[121.38141632080078,5.904286828365642],[121.38193130493164,5.904286828365642],[121.38304710388184,5.903859951364836],[121.38476371765137,5.904116077604783],[121.38493537902832,5.904372203726339],[121.38373374938965,5.904799080332452],[121.38218879699707,5.904713705037537],[121.38141632080078,5.905140581380522],[121.38090133666992,5.904884455614209],[121.37927055358887,5.904884455614209],[121.3784122467041,5.903945326791302],[121.3780689239502,5.904030702204608],[121.37824058532715,5.904799080332452],[121.37781143188477,5.904030702204608],[121.37763977050781,5.904799080332452],[121.37721061706543,5.905055206138243],[121.37755393981934,5.904542954408257],[121.37772560119629,5.903774575925212]],[[121.38493537902832,5.904372203726339],[121.38527870178223,5.904799080332452],[121.38527870178223,5.904969830882806],[121.38493537902832,5.904372203726339]],[[121.37961387634277,5.913763413041664],[121.37892723083496,5.913080421373735],[121.37875556945801,5.9126535511530705],[121.37815475463867,5.91248280297259],[121.37824058532715,5.912312054739402],[121.37909889221191,5.912055932290826],[121.37995719909668,5.912226680603041],[121.38141632080078,5.911799809723675],[121.38158798217773,5.911885183925904],[121.3813304901123,5.91248280297259],[121.38150215148926,5.9132511693697865],[121.38193130493164,5.913848786940861],[121.38081550598145,5.914617151440638],[121.38064384460449,5.913934160826884],[121.37961387634277,5.913763413041664]],[[121.28751754760742,5.870989436459482],[121.28897666931152,5.8714163387154485],[121.28897666931152,5.871843240644338],[121.28837585449219,5.871928620990857],[121.2876033782959,5.872611663291934],[121.28683090209961,5.872867803938945],[121.2864875793457,5.872611663291934],[121.28674507141113,5.871330958290429],[121.28708839416504,5.871074816936854],[121.28751754760742,5.870989436459482]]]}}]}