{"type":"FeatureCollection","features":[{"type":"Feature","id":"pmtiles:12/3436/1980:water:360:0","properties":{"class":"ocean","water":"ocean","kind":"waterway","verification":"verified","source":"OpenMapTiles/OpenStreetMap national PMTiles","sourceId":"12/3436/1980:water:360:0","sourceLayer":"water","archive":"https://its.hanifahseptiani45.workers.dev/v1/map/archive/indonesia.pmtiles","updatedAt":"2026-07-26T10:37:53.847Z"},"geometry":{"type":"Polygon","coordinates":[[[121.99081420898438,5.967119522904156],[122.08145141601562,5.967119522904156],[122.08145141601562,5.87696603826862],[121.99081420898438,5.87696603826862],[121.99081420898438,5.967119522904156]]]}},{"type":"Feature","id":"pmtiles:12/3437/1980:water:360:0","properties":{"class":"ocean","water":"ocean","kind":"waterway","verification":"verified","source":"OpenMapTiles/OpenStreetMap national PMTiles","sourceId":"12/3437/1980:water:360:0","sourceLayer":"water","archive":"https://its.hanifahseptiani45.workers.dev/v1/map/archive/indonesia.pmtiles","updatedAt":"2026-07-26T10:37:53.918Z"},"geometry":{"type":"Polygon","coordinates":[[[122.07870483398438,5.967119522904156],[122.16934204101562,5.967119522904156],[122.16934204101562,5.87696603826862],[122.07870483398438,5.87696603826862],[122.07870483398438,5.967119522904156]]]}},{"type":"Feature","id":"pmtiles:12/3438/1980:water:360:0","properties":{"class":"ocean","water":"ocean","kind":"waterway","verification":"verified","source":"OpenMapTiles/OpenStreetMap national PMTiles","sourceId":"12/3438/1980:water:360:0","sourceLayer":"water","archive":"https://its.hanifahseptiani45.workers.dev/v1/map/archive/indonesia.pmtiles","updatedAt":"2026-07-26T10:37:53.999Z"},"geometry":{"type":"Polygon","coordinates":[[[122.16659545898438,5.967119522904156],[122.25723266601562,5.967119522904156],[122.25723266601562,5.87696603826862],[122.16659545898438,5.87696603826862],[122.16659545898438,5.967119522904156]]]}},{"type":"Feature","id":"pmtiles:12/3439/1980:water:360:0","properties":{"class":"ocean","water":"ocean","kind":"waterway","verification":"verified","source":"OpenMapTiles/OpenStreetMap national PMTiles","sourceId":"12/3439/1980:water:360:0","sourceLayer":"water","archive":"https://its.hanifahseptiani45.workers.dev/v1/map/archive/indonesia.pmtiles","updatedAt":"2026-07-26T10:37:54.076Z"},"geometry":{"type":"Polygon","coordinates":[[[122.25448608398438,5.967119522904156],[122.34512329101562,5.967119522904156],[122.34512329101562,5.87696603826862],[122.25448608398438,5.87696603826862],[122.25448608398438,5.967119522904156]]]}},{"type":"Feature","id":"pmtiles:12/3436/1981:water:360:0","properties":{"class":"ocean","water":"ocean","kind":"waterway","verification":"verified","source":"OpenMapTiles/OpenStreetMap national PMTiles","sourceId":"12/3436/1981:water:360:0","sourceLayer":"water","archive":"https://its.hanifahseptiani45.workers.dev/v1/map/archive/indonesia.pmtiles","updatedAt":"2026-07-26T10:38:29.100Z"},"geometry":{"type":"Polygon","coordinates":[[[121.99081420898438,5.879698177726667],[122.08145141601562,5.879698177726667],[122.08145141601562,5.789530528448793],[121.99081420898438,5.789530528448793],[121.99081420898438,5.879698177726667]]]}},{"type":"Feature","id":"pmtiles:12/3437/1981:water:360:0","properties":{"class":"ocean","water":"ocean","kind":"waterway","verification":"verified","source":"OpenMapTiles/OpenStreetMap national PMTiles","sourceId":"12/3437/1981:water:360:0","sourceLayer":"water","archive":"https://its.hanifahseptiani45.workers.dev/v1/map/archive/indonesia.pmtiles","updatedAt":"2026-07-26T10:38:29.165Z"},"geometry":{"type":"Polygon","coordinates":[[[122.07870483398438,5.879698177726667],[122.16934204101562,5.879698177726667],[122.16934204101562,5.789530528448793],[122.07870483398438,5.789530528448793],[122.07870483398438,5.879698177726667]]]}},{"type":"Feature","id":"pmtiles:12/3438/1981:water:360:0","properties":{"class":"ocean","water":"ocean","kind":"waterway","verification":"verified","source":"OpenMapTiles/OpenStreetMap national PMTiles","sourceId":"12/3438/1981:water:360:0","sourceLayer":"water","archive":"https://its.hanifahseptiani45.workers.dev/v1/map/archive/indonesia.pmtiles","updatedAt":"2026-07-26T10:38:29.224Z"},"geometry":{"type":"Polygon","coordinates":[[[122.16659545898438,5.879698177726667],[122.25723266601562,5.879698177726667],[122.25723266601562,5.789530528448793],[122.16659545898438,5.789530528448793],[122.16659545898438,5.879698177726667]]]}},{"type":"Feature","id":"pmtiles:12/3439/1981:water:360:0","properties":{"class":"ocean","water":"ocean","kind":"waterway","verification":"verified","source":"OpenMapTiles/OpenStreetMap national PMTiles","sourceId":"12/3439/1981:water:360:0","sourceLayer":"water","archive":"https://its.hanifahseptiani45.workers.dev/v1/map/archive/indonesia.pmtiles","updatedAt":"2026-07-26T10:38:29.303Z"},"geometry":{"type":"Polygon","coordinates":[[[122.25448608398438,5.879698177726667],[122.34512329101562,5.879698177726667],[122.34512329101562,5.789530528448793],[122.25448608398438,5.789530528448793],[122.25448608398438,5.879698177726667]]]}},{"type":"Feature","id":"pmtiles:12/3436/1982:water:360:0","properties":{"class":"ocean","water":"ocean","kind":"waterway","verification":"verified","source":"OpenMapTiles/OpenStreetMap national PMTiles","sourceId":"12/3436/1982:water:360:0","sourceLayer":"water","archive":"https://its.hanifahseptiani45.workers.dev/v1/map/archive/indonesia.pmtiles","updatedAt":"2026-07-26T10:39:00.958Z"},"geometry":{"type":"Polygon","coordinates":[[[121.99081420898438,5.792263093990954],[122.08145141601562,5.792263093990954],[122.08145141601562,5.702081487858422],[121.99081420898438,5.702081487858422],[121.99081420898438,5.792263093990954]]]}},{"type":"Feature","id":"pmtiles:12/3437/1982:water:360:0","properties":{"class":"ocean","water":"ocean","kind":"waterway","verification":"verified","source":"OpenMapTiles/OpenStreetMap national PMTiles","sourceId":"12/3437/1982:water:360:0","sourceLayer":"water","archive":"https://its.hanifahseptiani45.workers.dev/v1/map/archive/indonesia.pmtiles","updatedAt":"2026-07-26T10:39:01.028Z"},"geometry":{"type":"Polygon","coordinates":[[[122.07870483398438,5.792263093990954],[122.16934204101562,5.792263093990954],[122.16934204101562,5.702081487858422],[122.07870483398438,5.702081487858422],[122.07870483398438,5.792263093990954]]]}},{"type":"Feature","id":"pmtiles:12/3438/1982:water:360:0","properties":{"class":"ocean","water":"ocean","kind":"waterway","verification":"verified","source":"OpenMapTiles/OpenStreetMap national PMTiles","sourceId":"12/3438/1982:water:360:0","sourceLayer":"water","archive":"https://its.hanifahseptiani45.workers.dev/v1/map/archive/indonesia.pmtiles","updatedAt":"2026-07-26T10:39:01.095Z"},"geometry":{"type":"Polygon","coordinates":[[[122.16659545898438,5.792263093990954],[122.25723266601562,5.792263093990954],[122.25723266601562,5.702081487858422],[122.16659545898438,5.702081487858422],[122.16659545898438,5.792263093990954]]]}},{"type":"Feature","id":"pmtiles:12/3439/1982:water:360:0","properties":{"class":"ocean","water":"ocean","kind":"waterway","verification":"verified","source":"OpenMapTiles/OpenStreetMap national PMTiles","sourceId":"12/3439/1982:water:360:0","sourceLayer":"water","archive":"https://its.hanifahseptiani45.workers.dev/v1/map/archive/indonesia.pmtiles","updatedAt":"2026-07-26T10:39:01.176Z"},"geometry":{"type":"Polygon","coordinates":[[[122.25448608398438,5.792263093990954],[122.34512329101562,5.792263093990954],[122.34512329101562,5.702081487858422],[122.25448608398438,5.702081487858422],[122.25448608398438,5.792263093990954]]]}},{"type":"Feature","id":"pmtiles:12/3436/1983:water:360:0","properties":{"class":"ocean","water":"ocean","kind":"waterway","verification":"verified","source":"OpenMapTiles/OpenStreetMap national PMTiles","sourceId":"12/3436/1983:water:360:0","sourceLayer":"water","archive":"https://its.hanifahseptiani45.workers.dev/v1/map/archive/indonesia.pmtiles","updatedAt":"2026-07-26T10:39:36.380Z"},"geometry":{"type":"Polygon","coordinates":[[[121.99081420898438,5.70481447318565],[122.08145141601562,5.70481447318565],[122.08145141601562,5.61461911814834],[121.99081420898438,5.61461911814834],[121.99081420898438,5.70481447318565]]]}},{"type":"Feature","id":"pmtiles:12/3437/1983:water:360:0","properties":{"class":"ocean","water":"ocean","kind":"waterway","verification":"verified","source":"OpenMapTiles/OpenStreetMap national PMTiles","sourceId":"12/3437/1983:water:360:0","sourceLayer":"water","archive":"https://its.hanifahseptiani45.workers.dev/v1/map/archive/indonesia.pmtiles","updatedAt":"2026-07-26T10:39:36.469Z"},"geometry":{"type":"Polygon","coordinates":[[[122.07870483398438,5.70481447318565],[122.16934204101562,5.70481447318565],[122.16934204101562,5.61461911814834],[122.07870483398438,5.61461911814834],[122.07870483398438,5.70481447318565]]]}},{"type":"Feature","id":"pmtiles:12/3438/1983:water:360:0","properties":{"class":"ocean","water":"ocean","kind":"waterway","verification":"verified","source":"OpenMapTiles/OpenStreetMap national PMTiles","sourceId":"12/3438/1983:water:360:0","sourceLayer":"water","archive":"https://its.hanifahseptiani45.workers.dev/v1/map/archive/indonesia.pmtiles","updatedAt":"2026-07-26T10:39:36.554Z"},"geometry":{"type":"Polygon","coordinates":[[[122.16659545898438,5.70481447318565],[122.25723266601562,5.70481447318565],[122.25723266601562,5.61461911814834],[122.16659545898438,5.61461911814834],[122.16659545898438,5.70481447318565]]]}},{"type":"Feature","id":"pmtiles:12/3439/1983:water:360:0","properties":{"class":"ocean","water":"ocean","kind":"waterway","verification":"verified","source":"OpenMapTiles/OpenStreetMap national PMTiles","sourceId":"12/3439/1983:water:360:0","sourceLayer":"water","archive":"https://its.hanifahseptiani45.workers.dev/v1/map/archive/indonesia.pmtiles","updatedAt":"2026-07-26T10:39:36.632Z"},"geometry":{"type":"Polygon","coordinates":[[[122.25448608398438,5.70481447318565],[122.34512329101562,5.70481447318565],[122.34512329101562,5.61461911814834],[122.25448608398438,5.61461911814834],[122.25448608398438,5.70481447318565]]]}},{"type":"Feature","id":"pmtiles:10/859/495:water:360:0","properties":{"class":"ocean","water":"ocean","kind":"waterway","verification":"verified","source":"OpenMapTiles/OpenStreetMap national PMTiles","sourceId":"10/859/495:water:360:0","sourceLayer":"water","archive":"https://its.hanifahseptiani45.workers.dev/v1/map/archive/indonesia.pmtiles","updatedAt":"2026-07-26T09:38:14.848Z"},"geometry":{"type":"Polygon","coordinates":[[[121.9866943359375,5.971217057997222],[122.3492431640625,5.971217057997222],[122.3492431640625,5.61051899590089],[121.9866943359375,5.61051899590089],[121.9866943359375,5.971217057997222]]]}}]}