{"type":"FeatureCollection","features":[{"type":"Feature","id":"pmtiles:10/880/502:water:80:0","properties":{"class":"ocean","water":"ocean","kind":"waterway","verification":"verified","source":"OpenMapTiles/OpenStreetMap national PMTiles","sourceId":"10/880/502:water:80:0","sourceLayer":"water","archive":"https://its.hanifahseptiani45.workers.dev/v1/map/archive/indonesia.pmtiles","updatedAt":"2026-07-26T09:39:40.455Z"},"geometry":{"type":"Polygon","coordinates":[[[129.3695068359375,3.5189038690258627],[129.7320556640625,3.5189038690258627],[129.7320556640625,3.156970717063345],[129.3695068359375,3.156970717063345],[129.3695068359375,3.5189038690258627]]]}}]}