{"type":"FeatureCollection","features":[{"type":"Feature","id":"pmtiles:10/865/527:park:5402716662:0","properties":{"name":"Taman Nasional Wakatobi","name_int":"Wakatobi National Park","class":"national_park","name:latin":"Taman Nasional Wakatobi","name_de":"Taman Nasional Wakatobi","name_en":"Wakatobi National Park","kind":"green","verification":"verified","source":"OpenMapTiles/OpenStreetMap national PMTiles","sourceId":"10/865/527:park:5402716662:0","sourceLayer":"park","archive":"https://its.hanifahseptiani45.workers.dev/v1/map/archive/indonesia.pmtiles","updatedAt":"2026-07-26T09:44:32.286Z"},"geometry":{"type":"Polygon","coordinates":[[[124.0960693359375,-5.260537879550753],[124.4586181640625,-5.260537879550753],[124.4586181640625,-5.621452591118839],[124.0960693359375,-5.621452591118839],[124.0960693359375,-5.260537879550753]]]}},{"type":"Feature","id":"pmtiles:10/865/527:water:710:0","properties":{"class":"ocean","water":"ocean","kind":"waterway","verification":"verified","source":"OpenMapTiles/OpenStreetMap national PMTiles","sourceId":"10/865/527:water:710:0","sourceLayer":"water","archive":"https://its.hanifahseptiani45.workers.dev/v1/map/archive/indonesia.pmtiles","updatedAt":"2026-07-26T09:44:32.286Z"},"geometry":{"type":"Polygon","coordinates":[[[124.0960693359375,-5.260537879550753],[124.4586181640625,-5.260537879550753],[124.4586181640625,-5.621452591118839],[124.0960693359375,-5.621452591118839],[124.0960693359375,-5.260537879550753]],[[124.34884071350098,-5.350017637281766],[124.35004234313965,-5.350103094058483],[124.3516731262207,-5.348223042213689],[124.35193061828613,-5.347453928430696],[124.35193061828613,-5.346257527291925],[124.35244560241699,-5.345402953618574],[124.35261726379395,-5.344121090872463],[124.3513298034668,-5.340446402800836],[124.35047149658203,-5.3395918210214575],[124.34961318969727,-5.337711736913647],[124.3476390838623,-5.334720682136336],[124.3472957611084,-5.334720682136336],[124.34781074523926,-5.336088023272765],[124.34720993041992,-5.336002564541033],[124.34695243835449,-5.336173481992617],[124.34600830078125,-5.334207928424547],[124.3443775177002,-5.333267878840232],[124.34394836425781,-5.332156909293374],[124.34103012084961,-5.3290803677488015],[124.34000015258789,-5.328482149547625],[124.33905601501465,-5.328311229954565],[124.33682441711426,-5.325918350659421],[124.3348503112793,-5.324892828109299],[124.33476448059082,-5.3244655265418],[124.33364868164062,-5.323696382971875],[124.3337345123291,-5.324038224677295],[124.33356285095215,-5.324038224677295],[124.3333911895752,-5.323525462047897],[124.3293571472168,-5.322585396116779],[124.32609558105469,-5.322585396116779],[124.32497978210449,-5.323012698990894],[124.32403564453125,-5.323781843416057],[124.32437896728516,-5.324380066192646],[124.32437896728516,-5.32472190751794],[124.3238639831543,-5.324123685073957],[124.32326316833496,-5.324123685073957],[124.32231903076172,-5.323525462047897],[124.32146072387695,-5.323610922515826],[124.32188987731934,-5.3238673038483455],[124.32309150695801,-5.326089270918075],[124.32343482971191,-5.327883930763889],[124.32412147521973,-5.329678585367361],[124.32523727416992,-5.331558694089182],[124.32892799377441,-5.335831647041829],[124.33158874511719,-5.339848195680361],[124.33390617370605,-5.343010140989094],[124.33536529541016,-5.344548378752606],[124.33819770812988,-5.346684813681321],[124.34017181396484,-5.3477102997990755],[124.34188842773438,-5.34839395625643],[124.34248924255371,-5.34890669809829],[124.34884071350098,-5.350017637281766]],[[124.29708480834961,-5.298057714267358],[124.29845809936523,-5.298570498085098],[124.29862976074219,-5.297801322198893],[124.29957389831543,-5.296433896037058],[124.30060386657715,-5.296433896037058],[124.30060386657715,-5.294297286602685],[124.3004322052002,-5.293528105398735],[124.29957389831543,-5.292160669784991],[124.29751396179199,-5.291220556046909],[124.29648399353027,-5.29104962612287],[124.29588317871094,-5.29164788065043],[124.29511070251465,-5.291733345535718],[124.29545402526855,-5.292929852689738],[124.29485321044922,-5.291818810409183],[124.29485321044922,-5.292502528971866],[124.29330825805664,-5.293271711451453],[124.29313659667969,-5.294724609080319],[124.29468154907227,-5.295750181821532],[124.29622650146484,-5.297630394094142],[124.29708480834961,-5.298057714267358]]]}},{"type":"Feature","id":"pmtiles:8/216/131:park:5402716662:0","properties":{"name":"Taman Nasional Wakatobi","name_int":"Wakatobi National Park","class":"national_park","name:latin":"Taman Nasional Wakatobi","name_de":"Taman Nasional Wakatobi","name_en":"Wakatobi National Park","kind":"green","verification":"verified","source":"OpenMapTiles/OpenStreetMap national PMTiles","sourceId":"8/216/131:park:5402716662:0","sourceLayer":"park","archive":"https://its.hanifahseptiani45.workers.dev/v1/map/archive/indonesia.pmtiles","updatedAt":"2026-07-26T09:35:40.983Z"},"geometry":{"type":"Polygon","coordinates":[[[123.72802734375,-5.201048499964557],[124.64881896972656,-5.201048499964557],[124.64950561523438,-5.6378525987708485],[123.72802734375,-5.6378525987708485],[123.72802734375,-5.201048499964557]]]}}]}