{"type":"FeatureCollection","features":[{"type":"Feature","id":"pmtiles:10/822/529:transportation:4043847102:0","properties":{"class":"ferry","highway":"ferry","kind":"road","verification":"verified","source":"OpenMapTiles/OpenStreetMap national PMTiles","sourceId":"10/822/529:transportation:4043847102:0","sourceLayer":"transportation","archive":"https://its.hanifahseptiani45.workers.dev/v1/map/archive/indonesia.pmtiles","updatedAt":"2026-07-26T09:44:49.263Z"},"geometry":{"type":"LineString","coordinates":[[108.9788818359375,-6.053588056235014],[109.3414306640625,-6.093872728219793]]}},{"type":"Feature","id":"pmtiles:10/822/529:water:1010:0","properties":{"class":"ocean","water":"ocean","kind":"waterway","verification":"verified","source":"OpenMapTiles/OpenStreetMap national PMTiles","sourceId":"10/822/529:water:1010:0","sourceLayer":"water","archive":"https://its.hanifahseptiani45.workers.dev/v1/map/archive/indonesia.pmtiles","updatedAt":"2026-07-26T09:44:49.263Z"},"geometry":{"type":"Polygon","coordinates":[[[108.9788818359375,-5.960290229693385],[109.3414306640625,-5.960290229693385],[109.3414306640625,-6.320758338986849],[108.9788818359375,-6.320758338986849],[108.9788818359375,-5.960290229693385]]]}},{"type":"Feature","id":"pmtiles:8/205/132:transportation:4043847100:0","properties":{"class":"ferry","highway":"ferry","kind":"road","verification":"verified","source":"OpenMapTiles/OpenStreetMap national PMTiles","sourceId":"8/205/132:transportation:4043847100:0","sourceLayer":"transportation","archive":"https://its.hanifahseptiani45.workers.dev/v1/map/archive/indonesia.pmtiles","updatedAt":"2026-07-26T09:35:42.683Z"},"geometry":{"type":"LineString","coordinates":[[108.25927734375,-5.973607272648323],[109.70947265625,-6.134751750988812]]}},{"type":"Feature","id":"pmtiles:8/205/132:water:940:0","properties":{"class":"ocean","water":"ocean","kind":"waterway","verification":"verified","source":"OpenMapTiles/OpenStreetMap national PMTiles","sourceId":"8/205/132:water:940:0","sourceLayer":"water","archive":"https://its.hanifahseptiani45.workers.dev/v1/map/archive/indonesia.pmtiles","updatedAt":"2026-07-26T09:35:42.686Z"},"geometry":{"type":"Polygon","coordinates":[[[108.25927734375,-5.615644144204083],[108.25927734375,-5.5941182188847876],[109.6871566772461,-5.5941182188847876],[109.6878433227539,-5.5941182188847876],[109.70947265625,-5.5941182188847876],[109.70947265625,-5.615644144204083],[109.70947265625,-5.616327493906226],[109.70947265625,-6.866439229581715],[109.70878601074219,-6.866098369173983],[109.70535278320312,-6.862689751669038],[109.70500946044922,-6.863371477122868],[109.6988296508789,-6.861326297832775],[109.69779968261719,-6.8606445694505425],[109.69608306884766,-6.859962840092351],[109.69402313232422,-6.858599378448517],[109.69402313232422,-6.859962840092351],[109.6926498413086,-6.859621975047304],[109.69230651855469,-6.8565541786655615],[109.69161987304688,-6.858599378448517],[109.69058990478516,-6.859281109758314],[109.6871566772461,-6.85894024422538],[109.67548370361328,-6.8568950459057305],[109.65900421142578,-6.848714164864816],[109.65866088867188,-6.84973678267076],[109.65625762939453,-6.850077654785537],[109.64286804199219,-6.8483732917756726],[109.63462829589844,-6.846328048126523],[109.62570190429688,-6.841896656819486],[109.62364196777344,-6.840533143527438],[109.62295532226562,-6.8432601662182435],[109.62089538574219,-6.841896656819486],[109.6160888671875,-6.8425784120055795],[109.59617614746094,-6.840874022215402],[109.59205627441406,-6.841214900660077],[109.57866668701172,-6.838146985900309],[109.5718002319336,-6.8350790514412125],[109.5608139038086,-6.827920461143506],[109.54399108886719,-6.810534867632981],[109.54158782958984,-6.809171265004679],[109.54055786132812,-6.806784951081255],[109.53540802001953,-6.800307753500377],[109.5278549194336,-6.788375845228273],[109.52682495117188,-6.7863303455244335],[109.52682495117188,-6.783262079675453],[109.52476501464844,-6.778148259833188],[109.52407836914062,-6.774057164897982],[109.5230484008789,-6.773375312368046],[109.51927185058594,-6.777466413087851],[109.51995849609375,-6.783943918220089],[109.51824188232422,-6.788034929214561],[109.51583862304688,-6.789739506868358],[109.5113754272461,-6.790421336239362],[109.50931549072266,-6.789398591820557],[109.50862884521484,-6.786671262745287],[109.51103210449219,-6.7856485103585555],[109.5113754272461,-6.7863303455244335],[109.5113754272461,-6.7853075924135595],[109.50965881347656,-6.7853075924135595],[109.50965881347656,-6.784625755799482],[109.50725555419922,-6.785989428062194],[109.50553894042969,-6.787694012959392],[109.50691223144531,-6.788375845228273],[109.50553894042969,-6.791444078484332],[109.5003890991211,-6.797580486285796],[109.48493957519531,-6.81155756706076],[109.4681167602539,-6.824511570973101],[109.44099426269531,-6.840192264596169],[109.42005157470703,-6.848714164864816],[109.41524505615234,-6.84973678267076],[109.41215515136719,-6.849395910312367],[109.412841796875,-6.85144114080839],[109.3905258178711,-6.858599378448517],[109.37129974365234,-6.862348888576022],[109.36752319335938,-6.862008025238978],[109.36752319335938,-6.861667161657877],[109.36614990234375,-6.861326297832775],[109.36546325683594,-6.862348888576022],[109.36477661132812,-6.860985433763645],[109.36477661132812,-6.862008025238978],[109.36408996582031,-6.862689751669038],[109.34967041015625,-6.861667161657877],[109.3417739868164,-6.862348888576022],[109.31842803955078,-6.869847820226582],[109.30091857910156,-6.872574675152919],[109.28718566894531,-6.873597241717974],[109.27310943603516,-6.8732563864407155],[109.26864624023438,-6.871552106388236],[109.26830291748047,-6.872574675152919],[109.26727294921875,-6.872574675152919],[109.25251007080078,-6.870870392656599],[109.24633026123047,-6.868825245597819],[109.2428970336914,-6.868825245597819],[109.23946380615234,-6.868143527957244],[109.22470092773438,-6.863030614517982],[109.2209243774414,-6.862689751669038],[109.2209243774414,-6.864394063472986],[109.2147445678711,-6.864734925101459],[109.21371459960938,-6.864394063472986],[109.21405792236328,-6.863712339483683],[109.21302795410156,-6.864394063472986],[109.21302795410156,-6.863371477122868],[109.21165466308594,-6.863712339483683],[109.2095947265625,-6.86405320160037],[109.1982650756836,-6.861667161657877],[109.19483184814453,-6.859962840092351],[109.19483184814453,-6.8606445694505425],[109.19414520263672,-6.8606445694505425],[109.19414520263672,-6.859281109758314],[109.19380187988281,-6.8606445694505425],[109.1927719116211,-6.8606445694505425],[109.19036865234375,-6.859962840092351],[109.18968200683594,-6.858258512427739],[109.18899536132812,-6.859281109758314],[109.18556213378906,-6.858258512427739],[109.17938232421875,-6.8558724434537055],[109.1656494140625,-6.846328048126523],[109.16084289550781,-6.844282795711848],[109.15328979492188,-6.847350671046954],[109.1436767578125,-6.84769154486672],[109.13715362548828,-6.846668922676841],[109.13681030273438,-6.8446236717229],[109.13681030273438,-6.8483732917756726],[109.12925720214844,-6.849395910312367],[109.12822723388672,-6.849055037710372],[109.12822723388672,-6.8483732917756726],[109.12376403808594,-6.8483732917756726],[109.11861419677734,-6.846668922676841],[109.1107177734375,-6.842919289233578],[109.10968780517578,-6.841214900660077],[109.10797119140625,-6.841896656819486],[109.10659790039062,-6.842237534534206],[109.10350799560547,-6.8395105060038475],[109.10247802734375,-6.840192264596169],[109.09870147705078,-6.838487866291018],[109.08943176269531,-6.829284010412692],[109.07707214355469,-6.812239365467931],[109.06848907470703,-6.810875767684493],[109.06539916992188,-6.808489462237347],[109.06814575195312,-6.80644404812368],[109.0671157836914,-6.802353193752623],[109.07020568847656,-6.799285030108692],[109.07329559326172,-6.798944121827759],[109.0774154663086,-6.801671381302896],[109.08050537109375,-6.799966845945008],[109.08050537109375,-6.797580486285796],[109.07604217529297,-6.794853203596901],[109.07604217529297,-6.790080421674617],[109.0781021118164,-6.7863303455244335],[109.08050537109375,-6.783943918220089],[109.08393859863281,-6.783262079675453],[109.08668518066406,-6.784966674227192],[109.08771514892578,-6.782580240165657],[109.0890884399414,-6.780875637169302],[109.08428192138672,-6.777466413087851],[109.08393859863281,-6.77644364116172],[109.08531188964844,-6.775420867066188],[109.08393859863281,-6.775079941885608],[109.08496856689453,-6.774057164897982],[109.08119201660156,-6.775761792005724],[109.07913208007812,-6.775420867066188],[109.08050537109375,-6.7706478926116205],[109.07913208007812,-6.769625106228659],[109.07295227050781,-6.774398090801498],[109.06986236572266,-6.780193794282241],[109.0671157836914,-6.779511950430489],[109.0664291381836,-6.776102716704244],[109.0664291381836,-6.768261387680113],[109.06745910644531,-6.766215802634633],[109.06986236572266,-6.765533939027151],[109.06814575195312,-6.761442737169503],[109.06745910644531,-6.753942110489078],[109.06608581542969,-6.752578347686168],[109.06539916992188,-6.752919288747265],[109.06539916992188,-6.75837431304555],[109.06196594238281,-6.763829275796965],[109.06265258789062,-6.765874870951237],[109.06196594238281,-6.7675795269612],[109.05715942382812,-6.771670676826943],[109.05509948730469,-6.771670676826943],[109.05338287353516,-6.770306964058136],[109.05166625976562,-6.771329748996038],[109.05029296875,-6.775761792005724],[109.05269622802734,-6.778148259833188],[109.05303955078125,-6.780875637169302],[109.0506362915039,-6.7863303455244335],[109.03827667236328,-6.785989428062194],[109.03141021728516,-6.791784992082853],[109.0169906616211,-6.789057676531286],[109.01561737060547,-6.789739506868358],[109.01287078857422,-6.792466818555155],[109.01115417480469,-6.79792139553399],[109.00806427001953,-6.8030350052345625],[109.00634765625,-6.803716815748572],[109.00428771972656,-6.803375910612559],[108.99639129638672,-6.798262304540401],[108.99398803710938,-6.800648660813863],[108.98059844970703,-6.80644404812368],[108.96995544433594,-6.805421337798407],[108.96617889404297,-6.813602959374592],[108.96068572998047,-6.817693717826387],[108.94866943359375,-6.822125333410909],[108.9455795288086,-6.824170680620867],[108.93596649169922,-6.8248524610826],[108.93081665039062,-6.8238297900259255],[108.929443359375,-6.8248524610826],[108.92807006835938,-6.822807116784915],[108.91399383544922,-6.815648342963996],[108.90472412109375,-6.81633013555458],[108.89202117919922,-6.8129211629059085],[108.88721466064453,-6.813602959374592],[108.87622833251953,-6.809171265004679],[108.86627197265625,-6.807466756270088],[108.85562896728516,-6.800989567885452],[108.8412094116211,-6.794853203596901],[108.83880615234375,-6.79314864406102],[108.8364028930664,-6.789057676531286],[108.83777618408203,-6.784625755799482],[108.83743286132812,-6.7812165582510175],[108.83365631103516,-6.772011604416974],[108.83262634277344,-6.767238596240645],[108.83399963378906,-6.759738059505338],[108.83537292480469,-6.757351500676293],[108.83983612060547,-6.759738059505338],[108.84017944335938,-6.75837431304555],[108.84429931640625,-6.759397123251063],[108.84429931640625,-6.758033375829541],[108.84567260742188,-6.7587152500211545],[108.84807586669922,-6.755987747485335],[108.84567260742188,-6.752578347686168],[108.8473892211914,-6.7518964648433695],[108.84773254394531,-6.750191753533244],[108.84567260742188,-6.749850810550768],[108.84567260742188,-6.748487036219814],[108.84326934814453,-6.7474642029507805],[108.84395599365234,-6.746100421898305],[108.84223937988281,-6.744395690183026],[108.84258270263672,-6.740304309596382],[108.84326934814453,-6.739281459053728],[108.84498596191406,-6.738940508393313],[108.84429931640625,-6.737917654973714],[108.84498596191406,-6.737917654973714],[108.84464263916016,-6.735871941662822],[108.84223937988281,-6.732803355522151],[108.83880615234375,-6.736894799396765],[108.83365631103516,-6.738940508393313],[108.82987976074219,-6.739622409474379],[108.8247299194336,-6.738599557493174],[108.82301330566406,-6.7474642029507805],[108.82061004638672,-6.75053269627557],[108.81649017333984,-6.753601170148727],[108.81271362304688,-6.75428305058918],[108.81031036376953,-6.757351500676293],[108.8034439086914,-6.759397123251063],[108.80378723144531,-6.761783671980794],[108.81031036376953,-6.770306964058136],[108.80996704101562,-6.774057164897982],[108.80859375,-6.774739016464068],[108.80447387695312,-6.782239320048859],[108.79554748535156,-6.790762250562565],[108.7811279296875,-6.800648660813863],[108.76705169677734,-6.8088303637421035],[108.7588119506836,-6.812239365467931],[108.74919891357422,-6.814284754873896],[108.7430191040039,-6.813602959374592],[108.73889923095703,-6.811898466385486],[108.7320327758789,-6.808148560490409],[108.73237609863281,-6.805762241482242],[108.73031616210938,-6.805421337798407],[108.73031616210938,-6.8047395297045625],[108.72962951660156,-6.807807658501318],[108.72894287109375,-6.807807658501318],[108.72516632080078,-6.807125853796734],[108.72413635253906,-6.8088303637421035],[108.71589660644531,-6.810534867632981],[108.70765686035156,-6.809853066803271],[108.70010375976562,-6.807125853796734],[108.69667053222656,-6.804057720642575],[108.68534088134766,-6.799966845945008],[108.68087768554688,-6.795875936418241],[108.67881774902344,-6.792466818555155],[108.6767578125,-6.783943918220089],[108.6764144897461,-6.778489182844197],[108.67916107177734,-6.774739016464068],[108.6771011352539,-6.772693458874343],[108.67778778076172,-6.769625106228659],[108.67607116699219,-6.768602317678429],[108.67607116699219,-6.766215802634633],[108.67504119873047,-6.76519300686239],[108.67263793945312,-6.765533939027151],[108.67057800292969,-6.764511141810942],[108.66165161132812,-6.7587152500211545],[108.65409851074219,-6.751214581039818],[108.65306854248047,-6.746782312904571],[108.6489486694336,-6.748827980162687],[108.6489486694336,-6.75053269627557],[108.65032196044922,-6.751555523061683],[108.65066528320312,-6.753260229568099],[108.64860534667969,-6.757351500676293],[108.64173889160156,-6.763488342429056],[108.63590240478516,-6.766897665279359],[108.63040924072266,-6.767920457441036],[108.63040924072266,-6.768261387680113],[108.62972259521484,-6.7689432474359705],[108.62663269042969,-6.769625106228659],[108.62285614013672,-6.768602317678429],[108.61736297607422,-6.76417020892427],[108.61530303955078,-6.766897665279359],[108.6104965209961,-6.767920457441036],[108.60294342041016,-6.763147408820544],[108.599853515625,-6.760078995519152],[108.59745025634766,-6.756328686143604],[108.59745025634766,-6.752919288747265],[108.59642028808594,-6.752919288747265],[108.59573364257812,-6.748146092036848],[108.59642028808594,-6.745759476035175],[108.59024047851562,-6.742690952469502],[108.58646392822266,-6.737235751495433],[108.58680725097656,-6.73519003530869],[108.58577728271484,-6.731780489163384],[108.58509063720703,-6.732121444855821],[108.58474731445312,-6.733826219725202],[108.5833740234375,-6.734508127996108],[108.58200073242188,-6.732803355522151],[108.58577728271484,-6.730416663998895],[108.5837173461914,-6.729393792611376],[108.58268737792969,-6.727007084328477],[108.57925415039062,-6.72598420576],[108.5775375366211,-6.722915557134442],[108.57719421386719,-6.72189266995359],[108.57650756835938,-6.719846889135326],[108.57444763183594,-6.718142065212163],[108.57376098632812,-6.710299798226558],[108.57341766357422,-6.71302755759676],[108.5723876953125,-6.7133685264434035],[108.5720443725586,-6.715414334507088],[108.57341766357422,-6.715073367093709],[108.57376098632812,-6.715755301681568],[108.57135772705078,-6.717119167990035],[108.5720443725586,-6.715755301681568],[108.57135772705078,-6.716437235313705],[108.57170104980469,-6.715755301681568],[108.57101440429688,-6.7160962686171075],[108.56964111328125,-6.714391431550197],[108.57170104980469,-6.714391431550197],[108.5720443725586,-6.71302755759676],[108.56895446777344,-6.712345619186962],[108.56929779052734,-6.710981739501776],[108.57135772705078,-6.711322709781257],[108.5720443725586,-6.708253968671542],[108.57101440429688,-6.7079129962436355],[108.5723876953125,-6.707231050671865],[108.57101440429688,-6.705526182566601],[108.5723876953125,-6.7048442336543985],[108.57341766357422,-6.706549104145566],[108.5727310180664,-6.707231050671865],[108.57410430908203,-6.707572023577072],[108.57547760009766,-6.705526182566601],[108.57307434082031,-6.702457404948049],[108.56861114501953,-6.705867156664837],[108.56895446777344,-6.7048442336543985],[108.56758117675781,-6.7048442336543985],[108.56243133544922,-6.691546039264509],[108.56311798095703,-6.6905230862262215],[108.5617446899414,-6.689500131045506],[108.55934143066406,-6.679270461475255],[108.55659484863281,-6.660856517463188],[108.55728149414062,-6.65062624981266],[108.55831146240234,-6.645852051999981],[108.56071472167969,-6.643464935709773],[108.55865478515625,-6.64141882681254],[108.555908203125,-6.635962494832327],[108.55144500732422,-6.6247086192570634],[108.55247497558594,-6.621639335889299],[108.54698181152344,-6.602541144184727],[108.54354858398438,-6.5848064491794815],[108.54286193847656,-6.5715050119730165],[108.54389190673828,-6.563319335288668],[108.54560852050781,-6.560590746484635],[108.54595184326172,-6.557179989464643],[108.54286193847656,-6.540466942928745],[108.54423522949219,-6.538761498564838],[108.54320526123047,-6.530916379570442],[108.53839874267578,-6.5121558140362055],[108.53668212890625,-6.497487974269546],[108.53874206542969,-6.486572094970256],[108.54114532470703,-6.4855487191566965],[108.54389190673828,-6.4855487191566965],[108.53771209716797,-6.481796323398129],[108.51367950439453,-6.474973714133625],[108.5013198852539,-6.469515560329896],[108.49857330322266,-6.466786461314143],[108.49170684814453,-6.465080766946571],[108.48209381103516,-6.45894021958965],[108.47042083740234,-6.449388108971547],[108.46046447753906,-6.440176974667764],[108.45943450927734,-6.436765401012167],[108.45874786376953,-6.4377888755157215],[108.4573745727539,-6.4377888755157215],[108.45050811767578,-6.433012643521721],[108.44158172607422,-6.4234600448888415],[108.43917846679688,-6.422095373297765],[108.43334197998047,-6.413566092994117],[108.43128204345703,-6.413907266947859],[108.42510223388672,-6.4060602082571165],[108.42338562011719,-6.40537784962288],[108.41995239257812,-6.399918947714127],[108.40965270996094,-6.388318587516622],[108.4079360961914,-6.38456547348197],[108.40450286865234,-6.381153527760375],[108.3966064453125,-6.368870335103566],[108.39214324951172,-6.360340167236231],[108.39111328125,-6.3610225858775635],[108.39042663574219,-6.359316537575509],[108.38905334472656,-6.3596577476889],[108.38768005371094,-6.35829290587661],[108.38836669921875,-6.356586848516741],[108.3856201171875,-6.357951694857434],[108.38493347167969,-6.357269272139874],[108.38493347167969,-6.355563211384293],[108.38390350341797,-6.355563211384293],[108.3804702758789,-6.348738911794015],[108.3797836303711,-6.348738911794015],[108.37360382080078,-6.331336538721388],[108.3687973022461,-6.313592338814104],[108.36845397949219,-6.306767484549965],[108.369140625,-6.305402502912216],[108.37154388427734,-6.3050612569413005],[108.37188720703125,-6.303696270812168],[108.36055755615234,-6.256602054794925],[108.3578109741211,-6.249435170811097],[108.35712432861328,-6.250459017393368],[108.36021423339844,-6.257625887343508],[108.35952758789062,-6.2606973729513555],[108.35712432861328,-6.262062471868262],[108.35540771484375,-6.262062471868262],[108.35575103759766,-6.26137992285588],[108.35197448730469,-6.2579671644139125],[108.34922790527344,-6.25216542391064],[108.34854125976562,-6.247387471636372],[108.34510803222656,-6.248411322225337],[108.34442138671875,-6.250459017393368],[108.34304809570312,-6.250459017393368],[108.34304809570312,-6.251482861971766],[108.33995819091797,-6.253189265148606],[108.34098815917969,-6.255236941610093],[108.34098815917969,-6.260014822154801],[108.33824157714844,-6.2654752035449945],[108.33789825439453,-6.272300599933857],[108.336181640625,-6.273665668490807],[108.3306884765625,-6.268546642972893],[108.32794189453125,-6.264110113551737],[108.32107543945312,-6.25967354642205],[108.32038879394531,-6.254895662756823],[108.3255386352539,-6.254213104381861],[108.31249237060547,-6.254213104381861],[108.29326629638672,-6.2487526053098605],[108.26099395751953,-6.249093888171771],[108.25927734375,-6.2487526053098605],[108.25927734375,-5.616327493906226],[108.25927734375,-5.615644144204083]],[[108.37188720703125,-5.926825466285166],[108.3746337890625,-5.931606271274148],[108.37806701660156,-5.935021106607479],[108.38218688964844,-5.9357040711356035],[108.3852767944336,-5.934338141233056],[108.38802337646484,-5.930581816550159],[108.38665008544922,-5.928532901394135],[108.38184356689453,-5.9258010026842385],[108.37394714355469,-5.924093559124373],[108.37223052978516,-5.924776537181984],[108.37188720703125,-5.926825466285166]]]}}]}