{"type":"FeatureCollection","features":[{"type":"Feature","id":"pmtiles:12/3464/1978:water:20:0","properties":{"class":"ocean","water":"ocean","kind":"waterway","verification":"verified","source":"OpenMapTiles/OpenStreetMap national PMTiles","sourceId":"12/3464/1978:water:20:0","sourceLayer":"water","archive":"https://its.hanifahseptiani45.workers.dev/v1/map/archive/indonesia.pmtiles","updatedAt":"2026-07-26T10:36:45.177Z"},"geometry":{"type":"Polygon","coordinates":[[[124.45175170898438,6.065835939424659],[124.45286750793457,6.064256959641014],[124.45321083068848,6.063851545166884],[124.45421934127808,6.062827338822245],[124.45492744445801,6.062016507420282],[124.45539951324463,6.061376376505308],[124.4567084312439,6.060245476699606],[124.45739507675171,6.059327952474419],[124.45767402648926,6.059178587918026],[124.458167552948,6.059029223320323],[124.4597339630127,6.058666480553811],[124.46082830429077,6.058346413204461],[124.4640040397644,6.057023466147427],[124.46531295776367,6.056532694640708],[124.46660041809082,6.055956570998461],[124.46735143661499,6.055529812348695],[124.46954011917114,6.054932349672541],[124.4706130027771,6.054462914249086],[124.47160005569458,6.054121506412159],[124.47202920913696,6.053865450392877],[124.47243690490723,6.053758760349012],[124.47385311126709,6.053161295714062],[124.47518348693848,6.052777210957032],[124.47634220123291,6.052179745236742],[124.47627782821655,6.052051716782174],[124.47632074356079,6.051987702543499],[124.47657823562622,6.051816997870006],[124.47664260864258,6.05179565978203],[124.45175170898438,6.05179565978203],[124.45175170898438,6.065835939424659]]]}},{"type":"Feature","id":"pmtiles:12/3464/1979:water:20:0","properties":{"class":"ocean","water":"ocean","kind":"waterway","verification":"verified","source":"OpenMapTiles/OpenStreetMap national PMTiles","sourceId":"12/3464/1979:water:20:0","sourceLayer":"water","archive":"https://its.hanifahseptiani45.workers.dev/v1/map/archive/indonesia.pmtiles","updatedAt":"2026-07-26T10:37:20.928Z"},"geometry":{"type":"Polygon","coordinates":[[[124.47048425674438,6.054526928194491],[124.4706130027771,6.054462914249086],[124.47160005569458,6.054121506412159],[124.47202920913696,6.053865450392877],[124.47243690490723,6.053758760349012],[124.47385311126709,6.053161295714062],[124.47518348693848,6.052777210957032],[124.47634220123291,6.052179745236742],[124.47627782821655,6.052051716782174],[124.47632074356079,6.051987702543499],[124.47657823562622,6.051816997870006],[124.47741508483887,6.051454250259781],[124.47803735733032,6.051091502406095],[124.4795823097229,6.050088610014257],[124.48074102401733,6.04921374491893],[124.4820499420166,6.048082819649181],[124.48378801345825,6.046695832598829],[124.48513984680176,6.045500887057216],[124.48595523834229,6.0448607365741935],[124.48655605316162,6.044626014540654],[124.48679208755493,6.0442632621067105],[124.48702812194824,6.04404987820844],[124.48724269866943,6.043708463796179],[124.48803663253784,6.043025634325488],[124.48878765106201,6.0426842192670875],[124.48932409286499,6.042534850111309],[124.48958158493042,6.042236111676118],[124.49035406112671,6.04176666523054],[124.49333667755127,6.040208953653789],[124.49389457702637,6.040016906710719],[124.4940447807312,6.039803521138538],[124.49398040771484,6.039568796912022],[124.49400186538696,6.039504781196214],[124.49473142623901,6.039312734003417],[124.49792861938477,6.0375629675545355],[124.50176954269409,6.0351090172821245],[124.5020055770874,6.034874291021552],[124.5031213760376,6.0340847564899605],[124.50567483901978,6.0324630062774105],[124.50640439987183,6.031822840384379],[124.50698375701904,6.031417401594567],[124.50893640518188,6.030094388698345],[124.51138257980347,6.028323253479101],[124.51258420944214,6.027555048453664],[124.51318502426147,6.027128267414014],[124.51374292373657,6.026552112478072],[124.51425790786743,6.026360060696845],[124.51460123062134,6.02593327871746],[124.51565265655518,6.025378461642546],[124.51788425445557,6.023778024595586],[124.52048063278198,6.022177582831176],[124.52069520950317,6.022006868764578],[124.52103853225708,6.021622761918593],[124.5220685005188,6.021366690537008],[124.52277660369873,6.021622761918593],[124.52393531799316,6.021388029823413],[124.52479362487793,6.021366690537008],[124.5252013206482,6.021302672672746],[124.52698230743408,6.020790529487087],[124.5275616645813,6.020705172242543],[124.52829122543335,6.020363743130204],[124.5299220085144,6.020107671155145],[124.53588724136353,6.018635254956479],[124.54062938690186,6.017696320804561],[124.54238891601562,6.017525605329936],[124.54238891601562,5.964387815824367],[124.45175170898438,5.964387815824367],[124.45175170898438,6.054526928194491],[124.47048425674438,6.054526928194491]]]}},{"type":"Feature","id":"pmtiles:12/3465/1979:water:20:0","properties":{"class":"ocean","water":"ocean","kind":"waterway","verification":"verified","source":"OpenMapTiles/OpenStreetMap national PMTiles","sourceId":"12/3465/1979:water:20:0","sourceLayer":"water","archive":"https://its.hanifahseptiani45.workers.dev/v1/map/archive/indonesia.pmtiles","updatedAt":"2026-07-26T10:37:20.992Z"},"geometry":{"type":"Polygon","coordinates":[[[124.53964233398438,6.017888375649406],[124.54062938690186,6.017696320804561],[124.54341888427734,6.017418908131063],[124.54646587371826,6.017056137498244],[124.54790353775024,6.017056137498244],[124.55007076263428,6.017162834768342],[124.55942630767822,6.017803017948978],[124.56000566482544,6.017738999664843],[124.56624984741211,6.01750426589183],[124.56770896911621,6.017376229245656],[124.56989765167236,6.017269532017465],[124.57118511199951,6.01709881640879],[124.57273006439209,6.016736045562368],[124.57403898239136,6.016287916535461],[124.5745325088501,6.016031842639947],[124.57444667816162,6.015861126642605],[124.57455396652222,6.015839787139171],[124.57466125488281,6.0162025585837],[124.57476854324341,6.016309256021316],[124.57489728927612,6.016373274473821],[124.57513332366943,6.016351934990496],[124.57536935806274,6.016287916535461],[124.57676410675049,6.015669071081518],[124.57772970199585,6.015498354970276],[124.57815885543823,6.015348978328944],[124.57966089248657,6.014474057177182],[124.5814847946167,6.013279040646793],[124.58320140838623,6.012020002533475],[124.58493947982788,6.010611583564113],[124.58566904067993,6.010355506996191],[124.58712816238403,6.009309859759952],[124.58920955657959,6.007645355933903],[124.5901107788086,6.006749082535009],[124.59159135818481,6.005063230954377],[124.59305047988892,6.003057274174225],[124.59345817565918,6.002310373486125],[124.59414482116699,6.00060316806929],[124.59442377090454,5.9996855429482],[124.59461688995361,5.99829843227505],[124.59470272064209,5.998149050915131],[124.595046043396,5.998063690119693],[124.59523916244507,5.997914308695499],[124.59526062011719,5.997594205505834],[124.59515333175659,5.997231421663784],[124.59476709365845,5.996356471404809],[124.59478855133057,5.996185749239416],[124.59508895874023,5.995524200343851],[124.59515333175659,5.99501203290599],[124.5952820777893,5.994862650646041],[124.59545373916626,5.9947986296649844],[124.59562540054321,5.99458522634049],[124.59586143493652,5.9941157387328445],[124.59588289260864,5.993880994777555],[124.59616184234619,5.9937316122079665],[124.5965051651001,5.992877996740177],[124.59732055664062,5.991597571035314],[124.59802865982056,5.990978697534658],[124.59860801696777,5.990551887815116],[124.60000276565552,5.989826310526226],[124.60105419158936,5.989463521520236],[124.60167646408081,5.989058051169508],[124.6021056175232,5.988631239948788],[124.60236310958862,5.988225768980158],[124.60264205932617,5.987478847986878],[124.60268497467041,5.987265441801227],[124.60257768630981,5.986966673001248],[124.60253477096558,5.986603882095906],[124.60270643234253,5.986390475568484],[124.60302829742432,5.986326453593989],[124.60392951965332,5.986326453593989],[124.60410118103027,5.986625222744081],[124.60461616516113,5.986731925972364],[124.60487365722656,5.9866892446835465],[124.60712671279907,5.986113046958195],[124.60742712020874,5.9859636622635435],[124.60789918899536,5.9859636622635435],[124.6092939376831,5.985280760282237],[124.60989475250244,5.985067353238065],[124.61002349853516,5.98489662754271],[124.61013078689575,5.984853946110547],[124.61038827896118,5.98489662754271],[124.61049556732178,5.984960649684723],[124.61060285568237,5.985174056770546],[124.61068868637085,5.98572891480373],[124.61081743240356,5.9859636622635435],[124.61148262023926,5.986219750286509],[124.61294174194336,5.986923991730777],[124.61364984512329,5.986817288539996],[124.61459398269653,5.986518519494936],[124.61487293243408,5.986539860146422],[124.6148943901062,5.986454497535462],[124.61461544036865,5.985707574120553],[124.61472272872925,5.985686233436567],[124.61491584777832,5.986305112934161],[124.6150016784668,5.986347794252993],[124.61560249328613,5.986326453593989],[124.61609601974487,5.986113046958195],[124.61639642715454,5.986113046958195],[124.6168041229248,5.986219750286509],[124.61789846420288,5.986262431612005],[124.61884260177612,5.986027684280543],[124.61997985839844,5.985622211379564],[124.62025880813599,5.985600870692238],[124.62060213088989,5.985643552066065],[124.62124586105347,5.986177068957673],[124.6219539642334,5.986454497535462],[124.62354183197021,5.986518519494936],[124.62382078170776,5.986454497535462],[124.62457180023193,5.986454497535462],[124.62457180023193,5.986390475568484],[124.6253228187561,5.986347794252993],[124.62611675262451,5.986369134911158],[124.62613821029663,5.986241090949676],[124.62667465209961,5.986241090949676],[124.62669610977173,5.986582541446907],[124.62676048278809,5.986625222744081],[124.62684631347656,5.986497178842612],[124.62725400924683,5.986454497535462],[124.62772607803345,5.986475838189449],[124.62774753570557,5.986603882095906],[124.62794065475464,5.986646563391403],[124.63019371032715,5.986113046958195],[124.63027954101562,5.986134387625526],[124.63027954101562,5.964387815824367],[124.53964233398438,5.964387815824367],[124.53964233398438,6.017888375649406]]]}},{"type":"Feature","id":"pmtiles:12/3466/1979:water:20:0","properties":{"class":"ocean","water":"ocean","kind":"waterway","verification":"verified","source":"OpenMapTiles/OpenStreetMap national PMTiles","sourceId":"12/3466/1979:water:20:0","sourceLayer":"water","archive":"https://its.hanifahseptiani45.workers.dev/v1/map/archive/indonesia.pmtiles","updatedAt":"2026-07-26T10:37:21.074Z"},"geometry":{"type":"Polygon","coordinates":[[[124.62753295898438,5.986454497535462],[124.62772607803345,5.986475838189449],[124.62774753570557,5.986603882095906],[124.62794065475464,5.986646563391403],[124.63019371032715,5.986113046958195],[124.63180303573608,5.986177068957673],[124.63261842727661,5.986070365621032],[124.63431358337402,5.9859423215895475],[124.63725328445435,5.985430145163562],[124.6384334564209,5.985110034653559],[124.64038610458374,5.984277746450033],[124.6419095993042,5.983466797750637],[124.64306831359863,5.982741211052499],[124.64349746704102,5.982570484630628],[124.64626550674438,5.9803083545084235],[124.64763879776001,5.978963876512182],[124.64922666549683,5.977085869970509],[124.64982748031616,5.9764883210828685],[124.65072870254517,5.975165174795677],[124.65111494064331,5.974567623811183],[124.65208053588867,5.9727536257561695],[124.65321779251099,5.969957922870464],[124.6537971496582,5.969146952951661],[124.65420484542847,5.968890856938472],[124.65532064437866,5.968464029983878],[124.65579271316528,5.968207933651556],[124.65871095657349,5.966009768544467],[124.65914011001587,5.965753671065542],[124.66017007827759,5.96554025640836],[124.66072797775269,5.9653695246228295],[124.66259479522705,5.964601230930057],[124.66300249099731,5.964387815824367],[124.62753295898438,5.964387815824367],[124.62753295898438,5.986454497535462]]]}},{"type":"Feature","id":"pmtiles:10/866/494:water:20:0","properties":{"class":"ocean","water":"ocean","kind":"waterway","verification":"verified","source":"OpenMapTiles/OpenStreetMap national PMTiles","sourceId":"10/866/494:water:20:0","sourceLayer":"water","archive":"https://its.hanifahseptiani45.workers.dev/v1/map/archive/indonesia.pmtiles","updatedAt":"2026-07-26T09:38:06.513Z"},"geometry":{"type":"Polygon","coordinates":[[[124.4476318359375,6.06989005552596],[124.45037841796875,6.067756314010623],[124.45286750793457,6.064256959641014],[124.45741653442383,6.05930661468318],[124.46084976196289,6.058367751033657],[124.46737289428711,6.05555115028919],[124.46951866149902,6.05495368763664],[124.47638511657715,6.052137069088573],[124.47629928588867,6.051966364462274],[124.4780158996582,6.051112840521867],[124.48076248168945,6.04923508310884],[124.48513984680176,6.045479548719996],[124.48651313781738,6.044626014540654],[124.48805809020996,6.043004295890654],[124.48934555053711,6.042492173202092],[124.49037551879883,6.041809342196956],[124.49389457702637,6.040016906710719],[124.49398040771484,6.039504781196214],[124.49475288391113,6.039334072583756],[124.49792861938477,6.037541628904421],[124.50179100036621,6.035066339787761],[124.51423645019531,6.026360060696845],[124.51457977294922,6.02593327871746],[124.5205020904541,6.022177582831176],[124.52101707458496,6.021665440470457],[124.52204704284668,6.02140936910898],[124.52273368835449,6.021665440470457],[124.52522277832031,6.021324011961667],[124.52831268310547,6.020385082456016],[124.5406723022461,6.017653641940939],[124.5465087890625,6.017056137498244],[124.55938339233398,6.017824357375332],[124.56624984741211,6.0174829264528995],[124.57122802734375,6.0171414953159825],[124.57406044006348,6.016287916535461],[124.57457542419434,6.015861126642605],[124.57474708557129,6.016287916535461],[124.5750904083252,6.016373274473821],[124.57672119140625,6.0156904105916595],[124.57818031311035,6.015348978328944],[124.58144187927246,6.013300380250726],[124.5849609375,6.010654262980381],[124.58564758300781,6.010398186432553],[124.58710670471191,6.009288519999529],[124.58925247192383,6.0076666957587435],[124.5915699005127,6.005105910805611],[124.59345817565918,6.002289033451433],[124.59440231323242,5.999728223220643],[124.59465980529785,5.998277092083285],[124.59526062011719,5.997935648901461],[124.59474563598633,5.996399151937808],[124.59517478942871,5.995033373225496],[124.5956039428711,5.994606566676708],[124.59732055664062,5.991618911488331],[124.59860801696777,5.990594568802095],[124.60101127624512,5.989484862056685],[124.60212707519531,5.988631239948788],[124.60264205932617,5.987521529214007],[124.6025562286377,5.986582541446907],[124.60272789001465,5.986411816224972],[124.60392951965332,5.986326453593989],[124.60410118103027,5.986582541446907],[124.60487365722656,5.986667904037901],[124.60787773132324,5.985985002936715],[124.61010932922363,5.984875286827034],[124.61045265197754,5.984960649684723],[124.61079597473145,5.985985002936715],[124.61294174194336,5.986923991730777],[124.61483001708984,5.986497178842612],[124.61474418640137,5.985643552066065],[124.6150016784668,5.986326453593989],[124.61611747741699,5.986070365621032],[124.617919921875,5.986241090949676],[124.62023735046387,5.985558189315057],[124.6219539642334,5.986497178842612],[124.62667465209961,5.986241090949676],[124.62676048278809,5.986582541446907],[124.62727546691895,5.986497178842612],[124.62796211242676,5.986667904037901],[124.63019371032715,5.986155728292019],[124.63431358337402,5.9858996402390545],[124.6384334564209,5.985131375360055],[124.64349746704102,5.982570484630628],[124.64624404907227,5.980265672718062],[124.64984893798828,5.976509662125778],[124.65070724487305,5.975143833700329],[124.65208053588867,5.9727536257561695],[124.65319633483887,5.969936581572185],[124.6537971496582,5.969168294280692],[124.65577125549316,5.968229275017151],[124.65911865234375,5.965753671065542],[124.66263771057129,5.964643913941231],[124.66984748840332,5.960631696373142],[124.67053413391113,5.960290229693385],[124.4476318359375,5.960290229693385],[124.4476318359375,6.06989005552596]]]}},{"type":"Feature","id":"pmtiles:8/216/123:water:20:0","properties":{"class":"ocean","water":"ocean","kind":"waterway","verification":"verified","source":"OpenMapTiles/OpenStreetMap national PMTiles","sourceId":"8/216/123:water:20:0","sourceLayer":"water","archive":"https://its.hanifahseptiani45.workers.dev/v1/map/archive/indonesia.pmtiles","updatedAt":"2026-07-26T09:35:16.636Z"},"geometry":{"type":"Polygon","coordinates":[[[123.72802734375,5.616327493906226],[123.72802734375,7.035475652433021],[123.7496566772461,7.035475652433021],[123.7503433227539,7.035475652433021],[124.00096893310547,7.035475652433021],[124.00096893310547,7.032749742778847],[123.99616241455078,7.028660848301286],[123.99272918701172,7.021164448332712],[123.99410247802734,7.010260378228637],[123.99581909179688,7.007193562517358],[123.99581909179688,7.003104443517842],[123.9913558959961,6.997652229090022],[123.98998260498047,6.993563026474391],[123.98380279541016,6.983339863349585],[123.98002624511719,6.972775693390872],[123.9755630493164,6.970049417296238],[123.97350311279297,6.966300761772175],[123.9693832397461,6.963233657688733],[123.97178649902344,6.9550546154547135],[123.9693832397461,6.938355295480321],[123.97041320800781,6.929153376172394],[123.96697998046875,6.921996203636638],[123.9642333984375,6.920292098935349],[123.96148681640625,6.920632920367794],[123.96354675292969,6.916202222556308],[123.96217346191406,6.913475618628453],[123.96114349365234,6.912453138099011],[123.9583969116211,6.913134792031116],[123.95668029785156,6.91006734159474],[123.95805358886719,6.904954879977268],[123.95668029785156,6.901887376486812],[123.95771026611328,6.899160690028353],[123.95702362060547,6.89404811060416],[123.96045684814453,6.890639693674984],[123.96526336669922,6.888253787244409],[123.97041320800781,6.882800241767555],[123.9748764038086,6.867802668770594],[123.97453308105469,6.864734925101473],[123.97247314453125,6.862008025238978],[123.9700698852539,6.860985433763659],[123.96800994873047,6.861667161657891],[123.96320343017578,6.856895045905745],[123.96011352539062,6.855190707266573],[123.9590835571289,6.856213311181548],[123.95771026611328,6.854849838807297],[123.95805358886719,6.8511002696681516],[123.95668029785156,6.848373291775687],[123.95736694335938,6.8408740222154165],[123.95668029785156,6.839851385421639],[123.95977020263672,6.8384878662910324],[123.96045684814453,6.836101698449198],[123.96148681640625,6.836101698449198],[123.96320343017578,6.833715518693964],[123.96320343017578,6.830647555795608],[123.96183013916016,6.827579573219083],[123.95771026611328,6.824511570973101],[123.95427703857422,6.824511570973101],[123.9535903930664,6.825875129954639],[123.95221710205078,6.82553424057339],[123.95050048828125,6.826556907988831],[123.94363403320312,6.819398190210094],[123.94363403320312,6.818034612788168],[123.9480972290039,6.819398190210094],[123.94981384277344,6.819398190210094],[123.95118713378906,6.818375507507412],[123.95256042480469,6.819398190210094],[123.95427703857422,6.819398190210094],[123.95565032958984,6.818034612788168],[123.95496368408203,6.81633013555458],[123.95565032958984,6.814284754873896],[123.95736694335938,6.815648342963996],[123.96080017089844,6.814284754873896],[123.96251678466797,6.8118984663855],[123.96251678466797,6.809512166025087],[123.96114349365234,6.807125853796734],[123.96320343017578,6.804739529704577],[123.96354675292969,6.800307753500377],[123.96183013916016,6.797239576795832],[123.96080017089844,6.791444078484332],[123.958740234375,6.7893985918205715],[123.9642333984375,6.786671262745301],[123.96560668945312,6.789057676531286],[123.96492004394531,6.790762250562565],[123.96595001220703,6.792807731428894],[123.96492004394531,6.794512292173067],[123.96732330322266,6.795535025719516],[123.96663665771484,6.797580486285796],[123.97075653076172,6.798262304540401],[123.9748764038086,6.794853203596915],[123.97624969482422,6.791444078484332],[123.9748764038086,6.788716761000529],[123.9755630493164,6.7853075924135595],[123.97350311279297,6.780193794282255],[123.97212982177734,6.779852872476965],[123.9697265625,6.774739016464068],[123.97178649902344,6.7713297489960524],[123.97109985351562,6.769284176952723],[123.97315979003906,6.7699660352638205],[123.97590637207031,6.767920457441036],[123.97762298583984,6.770647892611635],[123.9803695678711,6.770647892611635],[123.98208618164062,6.768602317678429],[123.98414611816406,6.770988820924259],[123.98757934570312,6.7713297489960524],[123.98723602294922,6.773034385741667],[123.98895263671875,6.774398090801512],[123.98792266845703,6.775761792005724],[123.98826599121094,6.777807336581077],[123.99101257324219,6.778148259833188],[123.9920425415039,6.776784565378165],[123.99169921875,6.780193794282255],[123.99307250976562,6.784966674227206],[123.99307250976562,6.787353096462795],[123.99444580078125,6.788716761000529],[123.99547576904297,6.792125905439818],[123.99787902832031,6.794512292173067],[124.01092529296875,6.794171380507549],[124.01847839355469,6.790421336239362],[124.02774810791016,6.7818983996908315],[124.0353012084961,6.770988820924259],[124.03839111328125,6.763829275796965],[124.03839111328125,6.760760866825336],[124.03976440429688,6.761783671980808],[124.04045104980469,6.761101802117679],[124.0407943725586,6.7505326962755845],[124.03942108154297,6.746100421898319],[124.03873443603516,6.745418529932081],[124.03701782226562,6.746100421898319],[124.0359878540039,6.7457594760351896],[124.02946472167969,6.737917654973714],[124.02328491210938,6.7341671739804525],[124.02122497558594,6.731780489163384],[124.01813507080078,6.729734749979983],[124.01813507080078,6.727007084328477],[124.01641845703125,6.724961325037981],[124.01744842529297,6.721210743970616],[124.01641845703125,6.720869780620447],[124.01607513427734,6.718142065212177],[124.01744842529297,6.712004649623864],[124.02053833007812,6.703139357199518],[124.02397155761719,6.697342732664396],[124.02740478515625,6.6929099733156505],[124.02809143066406,6.690523086226236],[124.03083801269531,6.687454214258082],[124.03289794921875,6.681316412510768],[124.0359878540039,6.678247482749015],[124.0353012084961,6.675519529024598],[124.03358459472656,6.675519529024598],[124.03392791748047,6.674155546461435],[124.04903411865234,6.639713729565571],[124.05109405517578,6.632893281524389],[124.0524673461914,6.625731709469946],[124.0517807006836,6.617205892885863],[124.05521392822266,6.604246369862707],[124.05452728271484,6.59776648103967],[124.05281066894531,6.594014927709509],[124.04972076416016,6.589922291691906],[124.04491424560547,6.586511735877792],[124.04388427734375,6.578667368565007],[124.04285430908203,6.5755977998055215],[124.04045104980469,6.572187145617875],[124.03804779052734,6.570822877392601],[124.03667449951172,6.570822877392601],[124.03564453125,6.57286927832709],[124.03392791748047,6.571846078912387],[124.0353012084961,6.570822877392601],[124.03701782226562,6.566730050268788],[124.03495788574219,6.562978262505666],[124.0353012084961,6.5616139690377935],[124.03633117675781,6.56059074648465],[124.03736114501953,6.56127289508693],[124.03839111328125,6.560249671833219],[124.03564453125,6.553087050234538],[124.04182434082031,6.558544295073972],[124.04525756835938,6.554451367044166],[124.04388427734375,6.552063810178197],[124.04525756835938,6.553769209105894],[124.04766082763672,6.553087050234538],[124.05281066894531,6.5500173237691826],[124.05418395996094,6.550358405420255],[124.0631103515625,6.547288662168597],[124.06414031982422,6.544559985653322],[124.0631103515625,6.542513468482781],[124.06208038330078,6.541831294229482],[124.06173706054688,6.539784765881507],[124.0576171875,6.539784765881507],[124.05693054199219,6.537738229153462],[124.05624389648438,6.53807931918999],[124.0524673461914,6.535350592382741],[124.05143737792969,6.536032775480535],[124.0524673461914,6.535009500484904],[124.0521240234375,6.532962944213409],[124.05315399169922,6.532962944213409],[124.05281066894531,6.529210902641623],[124.04937744140625,6.524776635438499],[124.04800415039062,6.5254588329482885],[124.04800415039062,6.5271643226576685],[124.04594421386719,6.529893094110477],[124.0469741821289,6.530575284649586],[124.04594421386719,6.533304037506753],[124.04800415039062,6.534327315991405],[124.04800415039062,6.536373866680478],[124.04491424560547,6.532962944213409],[124.04491424560547,6.530575284649586],[124.04182434082031,6.529210902641623],[124.03907775878906,6.531257474258865],[124.03942108154297,6.532962944213409],[124.03736114501953,6.532962944213409],[124.03667449951172,6.534327315991405],[124.03324127197266,6.534327315991405],[124.03255462646484,6.536032775480535],[124.02912139892578,6.537738229153462],[124.02877807617188,6.536373866680478],[124.02706146240234,6.535350592382741],[124.0243148803711,6.53705604838234],[124.02397155761719,6.534668408354449],[124.02534484863281,6.531939662938214],[124.02397155761719,6.530234189496255],[124.02156829833984,6.53159856871477],[124.02088165283203,6.530916379570456],[124.02122497558594,6.52409443699969],[124.02019500732422,6.523412237631973],[124.02122497558594,6.522047836110133],[124.02259826660156,6.523412237631973],[124.02706146240234,6.520342328984341],[124.03083801269531,6.520001226862831],[124.03289794921875,6.517272401536644],[124.03152465820312,6.512838028717383],[124.0298080444336,6.511473598427784],[124.02568817138672,6.510791381892204],[124.0243148803711,6.507380285310262],[124.0250015258789,6.504651391365627],[124.02877807617188,6.498170208865616],[124.0301513671875,6.497487974269561],[124.0304946899414,6.499875791307389],[124.03427124023438,6.5005580226645066],[124.03633117675781,6.498170208865616],[124.0359878540039,6.496123502301913],[124.03770446777344,6.495100145898007],[124.0353012084961,6.490665577438676],[124.03736114501953,6.489983332670647],[124.03907775878906,6.487254344358064],[124.03942108154297,6.483843088183264],[124.03804779052734,6.481114066623633],[124.03907775878906,6.478043899718713],[124.03736114501953,6.475997111403686],[124.03255462646484,6.475314846787512],[124.03461456298828,6.47292691336996],[124.0359878540039,6.469856696670547],[124.03701782226562,6.4719035098770235],[124.03804779052734,6.472244644605098],[124.03736114501953,6.472585779102744],[124.03839111328125,6.473609181213078],[124.03907775878906,6.473609181213078],[124.04045104980469,6.471221239729701],[124.03942108154297,6.470197832780855],[124.0407943725586,6.466445322901038],[124.03976440429688,6.463375066824852],[124.0414810180664,6.4524584498864925],[124.04010772705078,6.450752707230436],[124.03942108154297,6.454164186799446],[124.03564453125,6.454164186799446],[124.03427124023438,6.457916787784825],[124.03324127197266,6.458599075884649],[124.0298080444336,6.459622506309813],[124.02740478515625,6.457575643390058],[124.0304946899414,6.451435004981931],[124.0301513671875,6.449046958832767],[124.03152465820312,6.448705808464354],[124.03255462646484,6.449729258880723],[124.03667449951172,6.448705808464354],[124.04045104980469,6.445635444818535],[124.04251098632812,6.441882752897783],[124.04388427734375,6.43574192444602],[124.04285430908203,6.430283347938641],[124.0411376953125,6.430283347938641],[124.03976440429688,6.427895202283466],[124.03667449951172,6.4268717078551845],[124.03564453125,6.424142379312158],[124.03976440429688,6.424142379312158],[124.04182434082031,6.423118877334105],[124.04491424560547,6.418683678315475],[124.04422760009766,6.414248440673234],[124.04766082763672,6.413907266947859],[124.04937744140625,6.412542569762763],[124.04937744140625,6.406742565978931],[124.05006408691406,6.405719029054055],[124.04972076416016,6.403671949046199],[124.04731750488281,6.403330768246761],[124.04731750488281,6.400260130793086],[124.0517807006836,6.393777613336397],[124.05281066894531,6.387295013690817],[124.05555725097656,6.385589052765724],[124.05693054199219,6.383883086156061],[124.05693054199219,6.3818359187229134],[124.05555725097656,6.379106349419715],[124.05590057373047,6.377741559315993],[124.0572738647461,6.376376765578513],[124.0579605102539,6.379106349419715],[124.06448364257812,6.3811535277603895],[124.06379699707031,6.3818359187229134],[124.06448364257812,6.38354189215211],[124.06173706054688,6.386612630003015],[124.06242370605469,6.390024539343287],[124.06482696533203,6.392071674026354],[124.06654357910156,6.395483546954694],[124.06963348388672,6.3958247329951945],[124.07169342041016,6.393095238295302],[124.07718658447266,6.390024539343287],[124.08233642578125,6.38149472335526],[124.08267974853516,6.373647167205434],[124.08096313476562,6.371941160845495],[124.08130645751953,6.369893945725835],[124.08336639404297,6.366823107735868],[124.08336639404297,6.363752251381058],[124.08782958984375,6.358975327235655],[124.09229278564453,6.351809857806941],[124.1012191772461,6.330654080757583],[124.10842895507812,6.321782045195789],[124.10842895507812,6.318710920491284],[124.11014556884766,6.319052157469898],[124.11323547363281,6.3173459703266275],[124.1231918334961,6.307791218419823],[124.13692474365234,6.292093743755245],[124.13932800292969,6.286633641350576],[124.14619445800781,6.2852686067908365],[124.14928436279297,6.282879787692778],[124.15168762207031,6.2801496952966716],[124.15443420410156,6.274348201428552],[124.15409088134766,6.272641867408254],[124.156494140625,6.271618064314865],[124.15786743164062,6.273665668490807],[124.16095733642578,6.275030733472349],[124.16748046875,6.2729831346592135],[124.16885375976562,6.268887912904177],[124.16816711425781,6.267522831839372],[124.17160034179688,6.2606973729513555],[124.17091369628906,6.25148286197178],[124.18052673339844,6.233053353236315],[124.18155670166016,6.228957818856955],[124.17949676513672,6.222131857228462],[124.18498992919922,6.210527519031189],[124.19116973876953,6.206090498573886],[124.19906616210938,6.20336000587281],[124.20867919921875,6.196533712254151],[124.21760559082031,6.191755254174936],[124.22447204589844,6.185952782670526],[124.23408508300781,6.173664985778274],[124.24026489257812,6.168544986241187],[124.2440414428711,6.164107613308246],[124.26017761230469,6.154891412497761],[124.2612075805664,6.152843346154441],[124.26361083984375,6.15250200099652],[124.26704406738281,6.155574099524628],[124.27391052246094,6.156598128419972],[124.27391052246094,6.157280813253408],[124.27597045898438,6.1583048388582],[124.27803039550781,6.157963497209337],[124.27940368652344,6.155232756120853],[124.28524017333984,6.151136618172856],[124.28695678710938,6.147040448664953],[124.29519653320312,6.142602896107604],[124.30000305175781,6.138506660916391],[124.31751251220703,6.12075594473194],[124.3212890625,6.114952697981693],[124.33502197265625,6.114611328564166],[124.3487548828125,6.1187077471908395],[124.35527801513672,6.118366380170826],[124.36042785644531,6.116659541800715],[124.37278747558594,6.109832133846183],[124.38034057617188,6.102321884514765],[124.37999725341797,6.101297751448598],[124.3813705444336,6.1019805070434785],[124.38720703125,6.1002736164256675],[124.38926696777344,6.098225340510837],[124.38995361328125,6.0958356753894805],[124.39201354980469,6.0948115299359955],[124.3927001953125,6.092421849610105],[124.3978500366211,6.091056313218729],[124.3985366821289,6.090032158646039],[124.3985366821289,6.091739081848587],[124.39956665039062,6.093104616503226],[124.4036865234375,6.0937873825278075],[124.4198226928711,6.090032158646039],[124.42462921142578,6.087983843641396],[124.45037841796875,6.067841663833448],[124.45724487304688,6.05930661468318],[124.47647094726562,6.052137069088573],[124.48814392089844,6.042918942142862],[124.50187683105469,6.035066339787761],[124.52110290527344,6.02175079756411],[124.5406723022461,6.017653641940939],[124.5465087890625,6.016970779667105],[124.56642150878906,6.017653641940939],[124.57809448242188,6.015263620229774],[124.58702087402344,6.009459238059563],[124.59148406982422,6.00502055109979],[124.59526062011719,5.997850288072584],[124.59526062011719,5.995118734495193],[124.59732055664062,5.9917042732921],[124.60212707519531,5.988631239948788],[124.60281372070312,5.986241090949676],[124.60487365722656,5.986582541446907],[124.61002349853516,5.984875286827034],[124.61311340332031,5.986923991730777],[124.61483001708984,5.986582541446907],[124.61483001708984,5.986241090949676],[124.62032318115234,5.985558189315057],[124.62203979492188,5.986582541446907],[124.62787628173828,5.986582541446907],[124.63851928710938,5.985216738177726],[124.64641571044922,5.980436399859528],[124.65087890625,5.975314562439877],[124.65396881103516,5.969168294280692],[124.65911865234375,5.965753671065542],[124.67697143554688,5.95721702001596],[124.68864440917969,5.955168204007705],[124.69619750976562,5.952436437442444],[124.705810546875,5.944924009383698],[124.70924377441406,5.94389957942559],[124.73121643066406,5.9312647865776],[124.74117279052734,5.928874387781903],[124.7603988647461,5.9258010026842385],[124.76932525634766,5.922386110284691],[124.78031158447266,5.914873272703346],[124.80159759521484,5.9083848308353595],[124.8105239868164,5.902237815762575],[124.82322692871094,5.889602070748339],[124.82734680175781,5.889260560133934],[124.83455657958984,5.8861869551571],[124.84004974365234,5.886869979954625],[124.84485626220703,5.8861869551571],[124.85240936279297,5.882771818579641],[124.8592758178711,5.8817472735158844],[124.86648559570312,5.88208878874687],[124.8760986328125,5.880722726564784],[124.88227844238281,5.877990592137252],[124.8922348022461,5.871843240644338],[124.90837097167969,5.868769539456537],[124.9142074584961,5.867061920361223],[124.92416381835938,5.8602313916975675],[124.92897033691406,5.86262208624197],[124.9416732788086,5.861597504119757],[124.94441986083984,5.860572920116553],[124.95025634765625,5.856474565300488],[124.95712280273438,5.855791503240482],[124.97051239013672,5.860914448326611],[124.97978210449219,5.862280559076908],[124.98836517333984,5.860572920116553],[124.99454498291016,5.860572920116553],[124.99935150146484,5.859206805186886],[125.00587463378906,5.855791503240482],[125.00965118408203,5.856474565300488],[125.0137710571289,5.854766908584523],[125.0244140625,5.854425376615012],[125.03608703613281,5.851010045440859],[125.04329681396484,5.853059246649622],[125.04810333251953,5.853400779454063],[125.0518798828125,5.855449971897272],[125.0570297241211,5.856474565300488],[125.0628662109375,5.855791503240482],[125.0687026977539,5.856474565300488],[125.07282257080078,5.85818221679601],[125.08071899414062,5.864671244842157],[125.08380889892578,5.870818675465529],[125.08792877197266,5.873892365348979],[125.08380889892578,5.879356661027984],[125.08106231689453,5.880722726564784],[125.0790023803711,5.883113333181427],[125.07625579833984,5.887894515576733],[125.07625579833984,5.891651130024698],[125.07865905761719,5.899505787175087],[125.08209228515625,5.904286828365642],[125.08415222167969,5.905652832557877],[125.08895874023438,5.906677333491359],[125.09376525878906,5.911116815631729],[125.09788513183594,5.91248280297259],[125.10028839111328,5.921020147412449],[125.09685516357422,5.923752069778786],[125.09342193603516,5.93467962402606],[125.09410858154297,5.9357040711356035],[125.0954818725586,5.9357040711356035],[125.0961685180664,5.9370699976525145],[125.09719848632812,5.945606961629466],[125.09857177734375,5.951753493678979],[125.09960174560547,5.953119380357137],[125.101318359375,5.953119380357137],[125.10063171386719,5.955168204007705],[125.1016616821289,5.954143793137547],[125.10337829589844,5.956534082195859],[125.10406494140625,5.956534082195859],[125.10612487792969,5.959265828379344],[125.1123046875,5.964729279953602],[125.1123046875,5.966095134344201],[125.11402130126953,5.9664365974102225],[125.11299133300781,5.967460985332096],[125.11402130126953,5.967460985332096],[125.11333465576172,5.9678024475472995],[125.11470794677734,5.97019267709662],[125.11402130126953,5.9777047592020125],[125.11573791503906,5.980094945523319],[125.12054443359375,5.983850931495056],[125.12157440185547,5.987606891658274],[125.12054443359375,5.99102137848827],[125.12260437011719,5.9913628259969585],[125.12191772460938,5.9920457203736675],[125.1229476928711,5.9923871672416595],[125.12191772460938,5.993070060336848],[125.1236343383789,5.9944358439637],[125.123291015625,5.996143068689719],[125.12638092041016,5.997508844623553],[125.12947082519531,6.002971914147409],[125.13050079345703,6.002630473906407],[125.13015747070312,6.002971914147409],[125.12981414794922,6.004337672971687],[125.13187408447266,6.005703428371746],[125.13084411621094,6.006044866686651],[125.13187408447266,6.012532153982022],[125.13633728027344,6.016629348208511],[125.13839721679688,6.017312210911243],[125.13805389404297,6.018336503356821],[125.14183044433594,6.019702223614473],[125.14217376708984,6.022433653830433],[125.14148712158203,6.022433653830433],[125.14217376708984,6.023116509238193],[125.14183044433594,6.023457936620062],[125.14251708984375,6.02653077339464],[125.1449203491211,6.02857932157923],[125.1449203491211,6.030627862028695],[125.14423370361328,6.03096928468473],[125.14354705810547,6.033700658193865],[125.145263671875,6.034042078914936],[125.14320373535156,6.038821946423525],[125.14663696289062,6.04530884199184],[125.14698028564453,6.048381554855979],[125.14869689941406,6.048722966318806],[125.14698028564453,6.048722966318806],[125.14698028564453,6.049747199413787],[125.14835357666016,6.050088610014257],[125.14801025390625,6.051112840521867],[125.14904022216797,6.050771430568304],[125.14835357666016,6.05179565978203],[125.14938354492188,6.051454250259781],[125.14869689941406,6.052137069088573],[125.14972686767578,6.052137069088573],[125.14972686767578,6.053502704157808],[125.14835357666016,6.053844112385775],[125.14869689941406,6.055209743140097],[125.15007019042969,6.054526928194491],[125.14938354492188,6.05555115028919],[125.1504135131836,6.055209743140097],[125.14972686767578,6.055892557222492],[125.1507568359375,6.056916776727391],[125.1507568359375,6.057599588651371],[125.14972686767578,6.057940994289552],[125.1504135131836,6.058282399711828],[125.15007019042969,6.05930661468318],[125.1511001586914,6.05930661468318],[125.1511001586914,6.060330827711027],[125.15419006347656,6.063744857096722],[125.15384674072266,6.064427660381071],[125.15625,6.066476065046729],[125.15625,6.068865860652949],[125.15384674072266,6.072621232335237],[125.15350341796875,6.075011000682011],[125.15384674072266,6.07569378968995],[125.15556335449219,6.075011000682011],[125.15796661376953,6.08047328849014],[125.15727996826172,6.081838851776638],[125.1559066772461,6.081497461280094],[125.15625,6.082180242056452],[125.15522003173828,6.082180242056452],[125.15384674072266,6.085935520826567],[125.15350341796875,6.090714928578208],[125.15453338623047,6.0920804658378955],[125.16105651855469,6.095152911971027],[125.15830993652344,6.09720119961959],[125.15933990478516,6.098908100018477],[125.16414642333984,6.102321884514765],[125.16483306884766,6.104711520724408],[125.1668930053711,6.104370144775544],[125.16998291015625,6.106418397205431],[125.17822265625,6.10607702234438],[125.17822265625,5.832566896900033],[125.17513275146484,5.829492979797365],[125.17478942871094,5.82368664600483],[125.17650604248047,5.819246467901053],[125.17341613769531,5.816514033174016],[125.1723861694336,5.811732240463897],[125.17341613769531,5.811390682287026],[125.17444610595703,5.806950407133911],[125.17444610595703,5.798752884159768],[125.17719268798828,5.795337214423782],[125.17684936523438,5.7943125094724195],[125.17753601074219,5.793629371804997],[125.17822265625,5.793970940742014],[125.17822265625,5.616327493906226],[125.17822265625,5.615644144204097],[125.17822265625,5.5941182188847876],[123.7503433227539,5.5941182188847876],[123.7496566772461,5.5941182188847876],[123.72802734375,5.5941182188847876],[123.72802734375,5.615644144204097],[123.72802734375,5.616327493906226]]]}}]}