{"type":"FeatureCollection","features":[{"type":"Feature","id":"pmtiles:10/835/520:landcover:7407574542:0","properties":{"subclass":"orchard","class":"farmland","kind":"green","verification":"verified","source":"OpenMapTiles/OpenStreetMap national PMTiles","sourceId":"10/835/520:landcover:7407574542:0","sourceLayer":"landcover","archive":"https://its.hanifahseptiani45.workers.dev/v1/map/archive/indonesia.pmtiles","updatedAt":"2026-07-26T09:43:22.709Z"},"geometry":{"type":"Polygon","coordinates":[[[113.6429214477539,-3.167940314402756],[113.64480972290039,-3.163998128718518],[113.73415946960449,-3.1626269301823697],[113.73467445373535,-3.163398229582114],[113.73467445373535,-3.167940314402756],[113.6429214477539,-3.167940314402756]]]}},{"type":"Feature","id":"pmtiles:10/835/520:water:1190:0","properties":{"class":"ocean","water":"ocean","kind":"waterway","verification":"verified","source":"OpenMapTiles/OpenStreetMap national PMTiles","sourceId":"10/835/520:water:1190:0","sourceLayer":"water","archive":"https://its.hanifahseptiani45.workers.dev/v1/map/archive/indonesia.pmtiles","updatedAt":"2026-07-26T09:43:22.710Z"},"geometry":{"type":"Polygon","coordinates":[[[113.5491943359375,-3.167940314402756],[113.5491943359375,-3.161341429907978],[113.55314254760742,-3.1609129294624836],[113.5598373413086,-3.1611700297510197],[113.56395721435547,-3.161341429907978],[113.57966423034668,-3.1640838285668025],[113.58009338378906,-3.1638267290006894],[113.58043670654297,-3.163055429919737],[113.58086585998535,-3.162884030046044],[113.58258247375488,-3.163912428863142],[113.58713150024414,-3.1656264246240653],[113.59030723571777,-3.1663120221345054],[113.59468460083008,-3.166569121083924],[113.59777450561523,-3.1663120221345054],[113.6000919342041,-3.1656264246240653],[113.60137939453125,-3.1655407249033516],[113.60198020935059,-3.165883523743659],[113.6026668548584,-3.166654820719529],[113.60309600830078,-3.167426117120982],[113.6030101776123,-3.167940314402756],[113.5491943359375,-3.167940314402756]]]}},{"type":"Feature","id":"pmtiles:10/835/521:landcover:12074133:0","properties":{"subclass":"wetland","class":"wetland","kind":"green","verification":"verified","source":"OpenMapTiles/OpenStreetMap national PMTiles","sourceId":"10/835/521:landcover:12074133:0","sourceLayer":"landcover","archive":"https://its.hanifahseptiani45.workers.dev/v1/map/archive/indonesia.pmtiles","updatedAt":"2026-07-26T09:43:33.278Z"},"geometry":{"type":"Polygon","coordinates":[[[113.59219551086426,-3.157313518735691],[113.59210968017578,-3.156970717063345],[113.59262466430664,-3.156970717063345],[113.59262466430664,-3.1570564174920293],[113.59537124633789,-3.1570564174920293],[113.59537124633789,-3.156970717063345],[113.61356735229492,-3.156970717063345],[113.61373901367188,-3.1590275254001625],[113.61167907714844,-3.161855630208919],[113.61064910888672,-3.165455025175561],[113.61056327819824,-3.167511816685675],[113.6110782623291,-3.167511816685675],[113.6110782623291,-3.168026013924873],[113.61056327819824,-3.1677689153371915],[113.6110782623291,-3.1690544076369918],[113.61056327819824,-3.1691401070668803],[113.61133575439453,-3.170425597663325],[113.61004829406738,-3.1699114016164174],[113.61159324645996,-3.175310447354761],[113.60404014587402,-3.182080639420491],[113.60275268554688,-3.1772815205145832],[113.60292434692383,-3.174624855808574],[113.60240936279297,-3.1714539889902937],[113.60309600830078,-3.167426117120982],[113.60198020935059,-3.165883523743659],[113.6000919342041,-3.1656264246240653],[113.59468460083008,-3.166569121083924],[113.59030723571777,-3.1663120221345054],[113.58043670654297,-3.163055429919737],[113.58060836791992,-3.16125572983303],[113.58223915100098,-3.1585990239992867],[113.58275413513184,-3.156970717063345],[113.58850479125977,-3.156970717063345],[113.58953475952148,-3.157313518735691],[113.58927726745605,-3.1580848220848026],[113.59159469604492,-3.1584276233894144],[113.59159469604492,-3.1575706199157025],[113.59219551086426,-3.157313518735691]]]}},{"type":"Feature","id":"pmtiles:10/835/521:landcover:7407574542:0","properties":{"subclass":"orchard","class":"farmland","kind":"green","verification":"verified","source":"OpenMapTiles/OpenStreetMap national PMTiles","sourceId":"10/835/521:landcover:7407574542:0","sourceLayer":"landcover","archive":"https://its.hanifahseptiani45.workers.dev/v1/map/archive/indonesia.pmtiles","updatedAt":"2026-07-26T09:43:33.278Z"},"geometry":{"type":"Polygon","coordinates":[[[113.79715919494629,-3.2564641040002584],[113.9117431640625,-3.2560356434344726],[113.9117431640625,-3.3536342045809704],[113.90951156616211,-3.354662408475079],[113.90942573547363,-3.3558619783178614],[113.90024185180664,-3.3558619783178614],[113.9004135131836,-3.3602318274302263],[113.89105796813965,-3.359974778023883],[113.89114379882812,-3.361260024378467],[113.88195991516113,-3.3615170734462225],[113.88213157653809,-3.364344608719719],[113.87286186218262,-3.364344608719719],[113.87303352355957,-3.3672578183006436],[113.8637638092041,-3.3673435008034858],[113.86393547058105,-3.370770794732735],[113.85595321655273,-3.3710278412908252],[113.85475158691406,-3.37145625206999],[113.85475158691406,-3.37368398507914],[113.84513854980469,-3.3735983031347274],[113.84539604187012,-3.3829375905771712],[113.81638526916504,-3.3871359565453645],[113.807373046875,-3.3939047123063517],[113.79149436950684,-3.3933049510510784],[113.76248359680176,-3.402215651345543],[113.76145362854004,-3.3839657635169687],[113.72686386108398,-3.3816523728687145],[113.70386123657227,-3.384137125567534],[113.69905471801758,-3.3998166247463644],[113.67785453796387,-3.398788468662559],[113.67768287658691,-3.3527773671765715],[113.67879867553711,-3.3035936479883787],[113.67854118347168,-3.2226151595939],[113.67030143737793,-3.2226151595939],[113.66995811462402,-3.208304000725647],[113.66111755371094,-3.207789823618981],[113.66111755371094,-3.2052189342072808],[113.6700439453125,-3.205476023439246],[113.66944313049316,-3.186194152125566],[113.66025924682617,-3.185937058062919],[113.65107536315918,-3.1792525899103197],[113.6422348022461,-3.1693115059053554],[113.64480972290039,-3.163998128718518],[113.73415946960449,-3.1626269301823697],[113.73467445373535,-3.163398229582114],[113.73433113098145,-3.2055617198355293],[113.74334335327148,-3.2128458872634127],[113.77415657043457,-3.244981297888316],[113.78042221069336,-3.245409763149226],[113.78059387207031,-3.256806872321633],[113.79715919494629,-3.2564641040002584]]]}},{"type":"Feature","id":"pmtiles:10/835/521:landuse:3804456620:0","properties":{"class":"residential","kind":"green","verification":"verified","source":"OpenMapTiles/OpenStreetMap national PMTiles","sourceId":"10/835/521:landuse:3804456620:0","sourceLayer":"landuse","archive":"https://its.hanifahseptiani45.workers.dev/v1/map/archive/indonesia.pmtiles","updatedAt":"2026-07-26T09:43:33.278Z"},"geometry":{"type":"Polygon","coordinates":[[[113.61691474914551,-3.3980173508805933],[113.61828804016113,-3.3984457497244165],[113.61931800842285,-3.399987983987117],[113.61854553222656,-3.4023013307565293],[113.61888885498047,-3.4042719551063243],[113.61871719360352,-3.4049573887178184],[113.61811637878418,-3.404871709543059],[113.61794471740723,-3.40795615503049],[113.61691474914551,-3.4071850445853045],[113.61665725708008,-3.4030724451125423],[113.61837387084961,-3.399987983987117],[113.61717224121094,-3.4030724451125423],[113.61760139465332,-3.4074420814690285],[113.61760139465332,-3.4030724451125423],[113.61906051635742,-3.4006734206456173],[113.61863136291504,-3.3993882265112916],[113.61691474914551,-3.3980173508805933]]]}},{"type":"Feature","id":"pmtiles:10/835/521:landuse:3804456620:1","properties":{"class":"residential","kind":"green","verification":"verified","source":"OpenMapTiles/OpenStreetMap national PMTiles","sourceId":"10/835/521:landuse:3804456620:1","sourceLayer":"landuse","archive":"https://its.hanifahseptiani45.workers.dev/v1/map/archive/indonesia.pmtiles","updatedAt":"2026-07-26T09:43:33.278Z"},"geometry":{"type":"Polygon","coordinates":[[[113.75166893005371,-3.4621893646334456],[113.75656127929688,-3.4616753202769814],[113.7575912475586,-3.4622750386657373],[113.75707626342773,-3.4627890826966876],[113.7550163269043,-3.4632174525092836],[113.75484466552734,-3.4627890826966876],[113.75218391418457,-3.4639028438063093],[113.75166893005371,-3.463817169921313],[113.7520980834961,-3.462703408710908],[113.75166893005371,-3.4621893646334456]]]}},{"type":"Feature","id":"pmtiles:10/835/521:landuse:3804456620:2","properties":{"class":"residential","kind":"green","verification":"verified","source":"OpenMapTiles/OpenStreetMap national PMTiles","sourceId":"10/835/521:landuse:3804456620:2","sourceLayer":"landuse","archive":"https://its.hanifahseptiani45.workers.dev/v1/map/archive/indonesia.pmtiles","updatedAt":"2026-07-26T09:43:33.278Z"},"geometry":{"type":"Polygon","coordinates":[[[113.78222465515137,-3.453793271901475],[113.78342628479004,-3.4528508486909573],[113.7850570678711,-3.452508149109761],[113.78531455993652,-3.4528508486909573],[113.78291130065918,-3.454307320531086],[113.78222465515137,-3.453793271901475]]]}},{"type":"Feature","id":"pmtiles:10/835/521:park:13657180052:0","properties":{"class":"national_park","kind":"green","verification":"verified","source":"OpenMapTiles/OpenStreetMap national PMTiles","sourceId":"10/835/521:park:13657180052:0","sourceLayer":"park","archive":"https://its.hanifahseptiani45.workers.dev/v1/map/archive/indonesia.pmtiles","updatedAt":"2026-07-26T09:43:33.278Z"},"geometry":{"type":"Polygon","coordinates":[[[113.90539169311523,-3.204190576633522],[113.9047908782959,-3.2058188089813484],[113.89912605285645,-3.216188017281553],[113.89766693115234,-3.2194444411213823],[113.8967227935791,-3.2209012589430728],[113.89534950256348,-3.2220152946943728],[113.89200210571289,-3.227414066054436],[113.89071464538574,-3.228699483580641],[113.88856887817383,-3.2320415615338476],[113.88582229614258,-3.2347837711201777],[113.88015747070312,-3.2394112329739215],[113.87801170349121,-3.242324809216882],[113.87380599975586,-3.2456668422185686],[113.87251853942871,-3.2469522365839936],[113.86951446533203,-3.2490945568906113],[113.86719703674316,-3.2520081052095833],[113.86573791503906,-3.2529507219814064],[113.8637638092041,-3.256121335562213],[113.86075973510742,-3.2580065605274626],[113.8564682006836,-3.265633116375156],[113.85509490966797,-3.266747102833776],[113.85337829589844,-3.2671755588348503],[113.8498592376709,-3.267518323504035],[113.84608268737793,-3.2674326323477203],[113.84307861328125,-3.265633116375156],[113.84204864501953,-3.264176362987726],[113.84204864501953,-3.258520712177983],[113.8417911529541,-3.2541504147798577],[113.84239196777344,-3.250637024695891],[113.84239196777344,-3.248837478693858],[113.84196281433105,-3.245152684014485],[113.84230613708496,-3.2255287840746547],[113.84316444396973,-3.2234721088369156],[113.84445190429688,-3.2217582096292148],[113.84531021118164,-3.220130002708842],[113.84573936462402,-3.216188017281553],[113.84479522705078,-3.2128458872634127],[113.84479522705078,-3.2091609619953374],[113.8454818725586,-3.205476023439246],[113.84908676147461,-3.1949353120119497],[113.85372161865234,-3.184651586786572],[113.85629653930664,-3.1796810827589184],[113.85741233825684,-3.1781385076710365],[113.86007308959961,-3.173253671351276],[113.86530876159668,-3.166140622799432],[113.86908531188965,-3.1601416282146317],[113.87131690979004,-3.156970717063345],[113.9117431640625,-3.156970717063345],[113.9117431640625,-3.1912503223005473],[113.91131401062012,-3.192192995345593],[113.90942573547363,-3.19527810108022],[113.90865325927734,-3.1986202884940127],[113.90727996826172,-3.2020481617032033],[113.90607833862305,-3.203676397459134],[113.90539169311523,-3.204190576633522]]]}},{"type":"Feature","id":"pmtiles:10/835/521:water:1190:0","properties":{"class":"ocean","water":"ocean","kind":"waterway","verification":"verified","source":"OpenMapTiles/OpenStreetMap national PMTiles","sourceId":"10/835/521:water:1190:0","sourceLayer":"water","archive":"https://its.hanifahseptiani45.workers.dev/v1/map/archive/indonesia.pmtiles","updatedAt":"2026-07-26T09:43:33.278Z"},"geometry":{"type":"Polygon","coordinates":[[[113.5491943359375,-3.5189038690258485],[113.5491943359375,-3.161341429907978],[113.55314254760742,-3.1609129294624836],[113.5598373413086,-3.1611700297510197],[113.56395721435547,-3.161341429907978],[113.57966423034668,-3.1640838285668025],[113.58009338378906,-3.1638267290006894],[113.58043670654297,-3.163055429919737],[113.58086585998535,-3.162884030046044],[113.58258247375488,-3.163912428863142],[113.58713150024414,-3.1656264246240653],[113.59030723571777,-3.1663120221345054],[113.59468460083008,-3.166569121083924],[113.59777450561523,-3.1663120221345054],[113.6000919342041,-3.1656264246240653],[113.60137939453125,-3.1655407249033516],[113.60198020935059,-3.165883523743659],[113.6026668548584,-3.166654820719529],[113.60309600830078,-3.167426117120982],[113.60240936279297,-3.1714539889902937],[113.60292434692383,-3.174624855808574],[113.60275268554688,-3.1772815205145832],[113.60309600830078,-3.1793382884942787],[113.60404014587402,-3.182080639420491],[113.60575675964355,-3.1861084541118174],[113.61021995544434,-3.19527810108022],[113.61691474914551,-3.2119032332279573],[113.61854553222656,-3.2171306673578215],[113.62266540527344,-3.2290422613129124],[113.6264419555664,-3.244467139335427],[113.62772941589355,-3.250637024695891],[113.62850189208984,-3.255864259157107],[113.62961769104004,-3.2605773161528333],[113.62953186035156,-3.26263391592218],[113.63021850585938,-3.263576522743591],[113.62978935241699,-3.265290351062319],[113.62978935241699,-3.2671755588348503],[113.63142013549805,-3.276944305988394],[113.63090515136719,-3.27908656236157],[113.63142013549805,-3.2829426122668224],[113.63099098205566,-3.2834567511298616],[113.6319351196289,-3.2837995102248385],[113.63167762756348,-3.2849134764709333],[113.63236427307129,-3.290397599858295],[113.63262176513672,-3.2960530704934285],[113.63202095031738,-3.2969099571804463],[113.63227844238281,-3.2972527116485537],[113.63339424133301,-3.2975954659985263],[113.63253593444824,-3.299651989617047],[113.63210678100586,-3.317732076292387],[113.6319351196289,-3.319103064657682],[113.63142013549805,-3.320131304683187],[113.63227844238281,-3.321073857099506],[113.63133430480957,-3.3237301363401315],[113.63056182861328,-3.331013445938936],[113.63004684448242,-3.3318703023513194],[113.6304759979248,-3.33247010139614],[113.62987518310547,-3.333926754696975],[113.62936019897461,-3.3358975174935495],[113.62833023071289,-3.342152521056178],[113.62781524658203,-3.3424952598256965],[113.62841606140137,-3.3430950523842284],[113.62790107727051,-3.3437805291448512],[113.62687110900879,-3.3477220112169874],[113.6264419555664,-3.347979063844889],[113.62669944763184,-3.3486645371894355],[113.62592697143555,-3.3509780061841212],[113.62627029418945,-3.3519205290215126],[113.62532615661621,-3.352948734717515],[113.6246395111084,-3.35406262300161],[113.62335205078125,-3.358518163442497],[113.62300872802734,-3.360488876768869],[113.6220645904541,-3.3618598054311803],[113.62103462219238,-3.3644302914787687],[113.61820220947266,-3.374026712781287],[113.61742973327637,-3.377368301541125],[113.61536979675293,-3.38045283480389],[113.61433982849121,-3.3827662283144946],[113.61305236816406,-3.3875643602126218],[113.61176490783691,-3.390991582722819],[113.61099243164062,-3.394675833373185],[113.61082077026367,-3.3964751134681563],[113.6085033416748,-3.398959828085964],[113.6070442199707,-3.401187497819734],[113.60592842102051,-3.403757879577583],[113.60464096069336,-3.4058998591369942],[113.59700202941895,-3.421064937929998],[113.5887622833252,-3.4324600087962978],[113.58241081237793,-3.4399995298629022],[113.58163833618164,-3.4410276417542036],[113.58138084411621,-3.441798724944732],[113.58198165893555,-3.4424841317012635],[113.58232498168945,-3.4442833220902003],[113.58335494995117,-3.444026295099917],[113.58344078063965,-3.4450544026446295],[113.58378410339355,-3.4451400782232326],[113.58438491821289,-3.4447117002531087],[113.58464241027832,-3.4454827804604946],[113.58541488647461,-3.4454827804604946],[113.58524322509766,-3.4460825090787353],[113.58550071716309,-3.4464252109765994],[113.58678817749023,-3.4458254825743495],[113.58695983886719,-3.4467679127509996],[113.58807563781738,-3.4464252109765994],[113.58841896057129,-3.4470249390007837],[113.58970642089844,-3.4473676405591362],[113.58996391296387,-3.4476246666468597],[113.59047889709473,-3.4474533159294225],[113.59210968017578,-3.4475389912920065],[113.5927963256836,-3.448567095040829],[113.59339714050293,-3.4486527703030703],[113.59382629394531,-3.4490811464983864],[113.59468460083008,-3.4489954712747704],[113.59502792358398,-3.449595197677965],[113.59588623046875,-3.4501949237027816],[113.59674453735352,-3.4502805988182814],[113.6026668548584,-3.45302219843515],[113.60592842102051,-3.453964621475606],[113.60661506652832,-3.4544786700124206],[113.60721588134766,-3.454564344741499],[113.60773086547852,-3.45507839295351],[113.61013412475586,-3.455935139354736],[113.6107349395752,-3.4563635122652414],[113.61974716186523,-3.4600475113078915],[113.6235237121582,-3.462360712690284],[113.62481117248535,-3.4634744743038084],[113.62695693969727,-3.4645025607840836],[113.63794326782227,-3.4660446884103493],[113.64068984985352,-3.4660446884103493],[113.64232063293457,-3.465616319877398],[113.64274978637695,-3.4657019935995095],[113.64317893981934,-3.4662160357692073],[113.64472389221191,-3.4660446884103493],[113.64566802978516,-3.4663017094370048],[113.64644050598145,-3.4660446884103493],[113.64729881286621,-3.4661303620936508],[113.64781379699707,-3.4659590147192603],[113.64875793457031,-3.466387383097043],[113.65425109863281,-3.4661303620936508],[113.6751937866211,-3.468529222075418],[113.67802619934082,-3.468529222075418],[113.68000030517578,-3.4689575892888342],[113.6821460723877,-3.4691289361198443],[113.68969917297363,-3.4693002829198036],[113.69253158569336,-3.469043262708226],[113.69364738464355,-3.46870056898409],[113.69476318359375,-3.469043262708226],[113.69939804077148,-3.4687862424267593],[113.7033462524414,-3.4682722016541874],[113.71519088745117,-3.468186528164921],[113.72145652770996,-3.4678438341301927],[113.72428894042969,-3.4674154664121204],[113.72823715209961,-3.4674154664121204],[113.73381614685059,-3.466815751280791],[113.73647689819336,-3.4663017094370048],[113.73819351196289,-3.466387383097043],[113.75055313110352,-3.4650166036054344],[113.75424385070801,-3.464159865414743],[113.75587463378906,-3.462874756674694],[113.7593936920166,-3.4632174525092836],[113.76883506774902,-3.4632174525092836],[113.77166748046875,-3.462874756674694],[113.77861976623535,-3.461418297994129],[113.78188133239746,-3.4603045339626277],[113.78351211547852,-3.4607329048989186],[113.78565788269043,-3.4605615565476455],[113.79218101501465,-3.4590194199918614],[113.79467010498047,-3.458162676376716],[113.79844665527344,-3.4571345830166678],[113.80471229553223,-3.454735694176435],[113.80805969238281,-3.4538789466923987],[113.81192207336426,-3.452251124342709],[113.8132095336914,-3.450708974279948],[113.81501197814941,-3.450965999464259],[113.82119178771973,-3.449595197677965],[113.82333755493164,-3.4483100692078352],[113.8333797454834,-3.4445403490110778],[113.83458137512207,-3.4429125106736223],[113.83561134338379,-3.441970076680107],[113.83655548095703,-3.441798724944732],[113.83758544921875,-3.440684937913673],[113.83930206298828,-3.4401708819218015],[113.84016036987305,-3.439399797414154],[113.84187698364258,-3.4386287122828207],[113.84247779846191,-3.4380289789718006],[113.84402275085449,-3.4378576265279577],[113.84488105773926,-3.4382860075798476],[113.8458251953125,-3.4376005978044475],[113.84608268737793,-3.4370865401496644],[113.84659767150879,-3.4369151875365134],[113.84745597839355,-3.4360584240091185],[113.8487434387207,-3.435630041956955],[113.84994506835938,-3.435630041956955],[113.85011672973633,-3.434773277275795],[113.85191917419434,-3.4344305711880168],[113.85226249694824,-3.4337451586434042],[113.85251998901367,-3.4335738054303704],[113.85337829589844,-3.4335738054303704],[113.85346412658691,-3.432802715591265],[113.85440826416016,-3.4322029786193724],[113.85475158691406,-3.431346210863552],[113.85560989379883,-3.4312605340457196],[113.85612487792969,-3.4310035035461226],[113.8571548461914,-3.4314318876737104],[113.85818481445312,-3.430746472977418],[113.85921478271484,-3.430746472977418],[113.85981559753418,-3.429289965115771],[113.86015892028809,-3.4289472570611395],[113.86058807373047,-3.4290329340863224],[113.8608455657959,-3.4287759029877805],[113.86153221130371,-3.4287759029877805],[113.86170387268066,-3.4281761634891836],[113.8626480102539,-3.427490746458872],[113.86307716369629,-3.426205588203487],[113.86539459228516,-3.426119910925081],[113.86702537536621,-3.425006105608034],[113.86805534362793,-3.423635266515845],[113.87002944946289,-3.422949846233891],[113.87140274047852,-3.421236293383572],[113.87320518493652,-3.4197797710518643],[113.87380599975586,-3.4187516363090538],[113.87672424316406,-3.4169523978572727],[113.87852668762207,-3.4162669727977004],[113.87938499450684,-3.4149817994917413],[113.88015747070312,-3.414896121210191],[113.88075828552246,-3.414382051360235],[113.88256072998047,-3.413610946069369],[113.8839340209961,-3.4124114477198617],[113.88522148132324,-3.4120687336306617],[113.88745307922363,-3.410012446529251],[113.88951301574707,-3.4098410890722874],[113.8897705078125,-3.4088986225131066],[113.8908863067627,-3.4086415860185184],[113.89157295227051,-3.407784797207185],[113.89286041259766,-3.4070993656088007],[113.89586448669434,-3.4047003511706606],[113.90101432800293,-3.4012731773221105],[113.90539169311523,-3.3986171092087005],[113.90848159790039,-3.396218073659867],[113.90959739685059,-3.395875353809018],[113.9117431640625,-3.394847193526658],[113.9117431640625,-3.5189038690258485],[113.5491943359375,-3.5189038690258485]]]}},{"type":"Feature","id":"pmtiles:10/835/521:water:3797096542:0","properties":{"intermittent":0,"class":"lake","id":379709654,"water":"lake","kind":"waterway","verification":"verified","source":"OpenMapTiles/OpenStreetMap national PMTiles","sourceId":"10/835/521:water:3797096542:0","sourceLayer":"water","archive":"https://its.hanifahseptiani45.workers.dev/v1/map/archive/indonesia.pmtiles","updatedAt":"2026-07-26T09:43:33.278Z"},"geometry":{"type":"Polygon","coordinates":[[[113.62987518310547,-3.4447973758625636],[113.6327075958252,-3.445225753794105],[113.63511085510254,-3.4458254825743495],[113.63579750061035,-3.446939263591915],[113.63751411437988,-3.447796017333417],[113.64197731018066,-3.450965999464259],[113.64266395568848,-3.451908424545124],[113.64360809326172,-3.4546500194628322],[113.64154815673828,-3.454735694176435],[113.63880157470703,-3.4523367992727856],[113.63777160644531,-3.452251124342709],[113.63588333129883,-3.450794649349106],[113.63442420959473,-3.4504519490261174],[113.63253593444824,-3.449166821714286],[113.63150596618652,-3.448395744493226],[113.63142013549805,-3.447796017333417],[113.62927436828613,-3.446168184564783],[113.62918853759766,-3.4454827804604946],[113.62987518310547,-3.4447973758625636]]]}},{"type":"Feature","id":"pmtiles:10/835/521:water:3841553942:0","properties":{"intermittent":0,"class":"lake","id":384155394,"water":"lake","kind":"waterway","verification":"verified","source":"OpenMapTiles/OpenStreetMap national PMTiles","sourceId":"10/835/521:water:3841553942:0","sourceLayer":"water","archive":"https://its.hanifahseptiani45.workers.dev/v1/map/archive/indonesia.pmtiles","updatedAt":"2026-07-26T09:43:33.279Z"},"geometry":{"type":"Polygon","coordinates":[[[113.5986328125,-3.2502085616531673],[113.62060546875,-3.2502085616531673],[113.62060546875,-3.272145635075006],[113.5986328125,-3.272145635075006],[113.5986328125,-3.2502085616531673]]]}},{"type":"Feature","id":"pmtiles:8/208/130:landcover:7407574542:0","properties":{"subclass":"orchard","class":"farmland","kind":"green","verification":"verified","source":"OpenMapTiles/OpenStreetMap national PMTiles","sourceId":"8/208/130:landcover:7407574542:0","sourceLayer":"landcover","archive":"https://its.hanifahseptiani45.workers.dev/v1/map/archive/indonesia.pmtiles","updatedAt":"2026-07-26T09:35:37.951Z"},"geometry":{"type":"Polygon","coordinates":[[[113.79707336425781,-3.2563784119016788],[113.92719268798828,-3.2560356434344726],[113.92719268798828,-3.2392398458748914],[113.92822265625,-3.2392398458748914],[113.92822265625,-3.344466005426341],[113.92753601074219,-3.344466005426341],[113.9278793334961,-3.3489215895699402],[113.91860961914062,-3.3489215895699402],[113.91860961914062,-3.3530344184767387],[113.91311645507812,-3.3530344184767387],[113.90933990478516,-3.3557762948065033],[113.9004135131836,-3.3557762948065033],[113.9004135131836,-3.3602318274302263],[113.88187408447266,-3.361602756453749],[113.88221740722656,-3.364344608719719],[113.8729476928711,-3.364344608719719],[113.8729476928711,-3.36708645327235],[113.86367797851562,-3.3674291832987677],[113.86402130126953,-3.3708564769263205],[113.85612487792969,-3.3708564769263205],[113.85475158691406,-3.3735983031347274],[113.84513854980469,-3.3735983031347274],[113.8454818725586,-3.382851909449613],[113.81629943847656,-3.3869645950253755],[113.807373046875,-3.393819032149821],[113.79158020019531,-3.3931335906240605],[113.76239776611328,-3.402044292500733],[113.76136779785156,-3.3838800824803172],[113.72669219970703,-3.3814810103788773],[113.70368957519531,-3.3842228065814624],[113.69888305664062,-3.399645265475158],[113.67794036865234,-3.3986171092087005],[113.67862701416016,-3.222443769658696],[113.6703872680664,-3.222786549500242],[113.6700439453125,-3.20838969688495],[113.66111755371094,-3.207704127409386],[113.66111755371094,-3.2053046306251076],[113.6700439453125,-3.2053046306251076],[113.66935729980469,-3.1861084541118174],[113.66008758544922,-3.185765661985471],[113.65116119384766,-3.1792525899103197],[113.6422348022461,-3.1693115059053554],[113.64463806152344,-3.1638267290006894],[113.73424530029297,-3.1624555302378496],[113.73424530029297,-3.20564741622465],[113.7740707397461,-3.2450669909550385],[113.7802505493164,-3.245409763149226],[113.78059387207031,-3.256721180252242],[113.79707336425781,-3.2563784119016788]]]}},{"type":"Feature","id":"pmtiles:8/208/130:park:13657180052:0","properties":{"class":"national_park","kind":"green","verification":"verified","source":"OpenMapTiles/OpenStreetMap national PMTiles","sourceId":"8/208/130:park:13657180052:0","sourceLayer":"park","archive":"https://its.hanifahseptiani45.workers.dev/v1/map/archive/indonesia.pmtiles","updatedAt":"2026-07-26T09:35:37.952Z"},"geometry":{"type":"Polygon","coordinates":[[[113.90522003173828,-3.2042762731374665],[113.89766693115234,-3.219358745890517],[113.88839721679688,-3.2320415615338476],[113.88015747070312,-3.2392398458748914],[113.87809753417969,-3.242324809216882],[113.86951446533203,-3.2491802496083153],[113.86367797851562,-3.2560356434344726],[113.86058807373047,-3.258092252487458],[113.8564682006836,-3.265633116375156],[113.85509490966797,-3.266661411611608],[113.84994506835938,-3.267346941184087],[113.8461685180664,-3.267346941184087],[113.84307861328125,-3.265633116375156],[113.84204864501953,-3.2642620544219483],[113.84170532226562,-3.253979030181796],[113.84239196777344,-3.2255287840746547],[113.84513854980469,-3.2200443075356446],[113.8458251953125,-3.216273712779042],[113.84479522705078,-3.209075265900694],[113.8454818725586,-3.2053046306251076],[113.85372161865234,-3.18473728492161],[113.85990142822266,-3.173082273166173],[113.88187408447266,-3.1429157512384904],[113.89629364013672,-3.1326315099136366],[113.90316009521484,-3.130231839055398],[113.91071319580078,-3.1298890284840155],[113.91792297363281,-3.1322887001276882],[113.91963958740234,-3.133659938597873],[113.92444610595703,-3.146001003885928],[113.92444610595703,-3.1501146598767633],[113.9227294921875,-3.1542282996131377],[113.92169952392578,-3.163141129845954],[113.92032623291016,-3.1645123277019422],[113.91586303710938,-3.180623766399137],[113.90933990478516,-3.195363798329396],[113.90727996826172,-3.202219555062598],[113.90522003173828,-3.2042762731374665]]]}},{"type":"Feature","id":"pmtiles:8/208/130:water:3841553942:0","properties":{"intermittent":0,"class":"lake","id":384155394,"water":"lake","kind":"waterway","verification":"verified","source":"OpenMapTiles/OpenStreetMap national PMTiles","sourceId":"8/208/130:water:3841553942:0","sourceLayer":"water","archive":"https://its.hanifahseptiani45.workers.dev/v1/map/archive/indonesia.pmtiles","updatedAt":"2026-07-26T09:35:37.954Z"},"geometry":{"type":"Polygon","coordinates":[[[113.5986328125,-3.2502085616531673],[113.62060546875,-3.2502085616531673],[113.62060546875,-3.272145635075006],[113.5986328125,-3.272145635075006],[113.5986328125,-3.2502085616531673]]]}},{"type":"Feature","id":"pmtiles:8/209/130:park:13657180052:0","properties":{"class":"national_park","kind":"green","verification":"verified","source":"OpenMapTiles/OpenStreetMap national PMTiles","sourceId":"8/209/130:park:13657180052:0","sourceLayer":"park","archive":"https://its.hanifahseptiani45.workers.dev/v1/map/archive/indonesia.pmtiles","updatedAt":"2026-07-26T09:35:38.021Z"},"geometry":{"type":"Polygon","coordinates":[[[113.90522003173828,-3.2042762731374665],[113.89766693115234,-3.219358745890517],[113.88839721679688,-3.2320415615338476],[113.88427734375,-3.2358120978030485],[113.88427734375,-3.141201718047597],[113.89629364013672,-3.1326315099136366],[113.90316009521484,-3.130231839055398],[113.91071319580078,-3.1298890284840155],[113.91792297363281,-3.1322887001276882],[113.91963958740234,-3.133659938597873],[113.92444610595703,-3.146001003885928],[113.92444610595703,-3.1501146598767633],[113.9227294921875,-3.1542282996131377],[113.92169952392578,-3.163141129845954],[113.92032623291016,-3.1645123277019422],[113.91586303710938,-3.180623766399137],[113.90933990478516,-3.195363798329396],[113.90727996826172,-3.202219555062598],[113.90522003173828,-3.2042762731374665]]]}}]}