{"type":"FeatureCollection","features":[{"type":"Feature","id":"pmtiles:10/819/517:transportation:13161821342:0","properties":{"class":"ferry","highway":"ferry","kind":"road","verification":"verified","source":"OpenMapTiles/OpenStreetMap national PMTiles","sourceId":"10/819/517:transportation:13161821342:0","sourceLayer":"transportation","archive":"https://its.hanifahseptiani45.workers.dev/v1/map/archive/indonesia.pmtiles","updatedAt":"2026-07-26T09:42:24.906Z"},"geometry":{"type":"LineString","coordinates":[[107.9241943359375,-2.0267264104006415],[108.00333023071289,-1.9085214788586455],[108.04418563842773,-1.8534478705999646],[108.09843063354492,-1.7811289970498763],[108.11988830566406,-1.7520462233579792]]}},{"type":"Feature","id":"pmtiles:10/819/517:water:310:0","properties":{"class":"ocean","water":"ocean","kind":"waterway","verification":"verified","source":"OpenMapTiles/OpenStreetMap national PMTiles","sourceId":"10/819/517:water:310:0","sourceLayer":"water","archive":"https://its.hanifahseptiani45.workers.dev/v1/map/archive/indonesia.pmtiles","updatedAt":"2026-07-26T09:42:24.906Z"},"geometry":{"type":"Polygon","coordinates":[[[107.9241943359375,-1.7520462233579792],[108.2867431640625,-1.7520462233579792],[108.2867431640625,-2.114388093041839],[107.9241943359375,-2.114388093041839],[107.9241943359375,-1.7520462233579792]]]}}]}