{"type":"FeatureCollection","features":[{"type":"Feature","id":"pmtiles:10/818/500:landcover:204194043:0","properties":{"subclass":"forest","class":"wood","kind":"green","verification":"verified","source":"OpenMapTiles/OpenStreetMap national PMTiles","sourceId":"10/818/500:landcover:204194043:0","sourceLayer":"landcover","archive":"https://its.hanifahseptiani45.workers.dev/v1/map/archive/indonesia.pmtiles","updatedAt":"2026-07-26T09:39:19.976Z"},"geometry":{"type":"Polygon","coordinates":[[[107.8476333618164,4.120864690023907],[107.84677505493164,4.125573159459506],[107.8447151184082,4.125829984262694],[107.84385681152344,4.124888292911734],[107.84282684326172,4.125744376004178],[107.84299850463867,4.126600458173968],[107.84377098083496,4.126258025416789],[107.84480094909668,4.127370931337765],[107.84523010253906,4.132935437535792],[107.84660339355469,4.136274122514067],[107.84634590148926,4.139355973083795],[107.84934997558594,4.140896893870405],[107.85252571105957,4.140212040557813],[107.85372734069824,4.141410533465944],[107.85407066345215,4.1438931201434315],[107.85467147827148,4.144577970269367],[107.85398483276367,4.150570383557891],[107.85604476928711,4.153480967892037],[107.85844802856445,4.154936256033167],[107.85836219787598,4.156220331574829],[107.85990715026855,4.159302104341521],[107.86625862121582,4.156905171008702],[107.8681468963623,4.157590009847638],[107.86909103393555,4.156049121623425],[107.86840438842773,4.152796125484997],[107.86771774291992,4.152196887891279],[107.86797523498535,4.150827200254383],[107.86737442016602,4.149200693099289],[107.8634262084961,4.146632517087724],[107.8626537322998,4.144235545280537],[107.86256790161133,4.141581746590347],[107.86042213439941,4.137900656253649],[107.8626537322998,4.1289974833392336],[107.8626537322998,4.127884579698261],[107.86213874816895,4.127456539420919],[107.86256790161133,4.127285323245374],[107.86239624023438,4.126429241813838],[107.85819053649902,4.121292733852314],[107.85510063171387,4.118638858402804],[107.85192489624023,4.118467640327864],[107.85209655761719,4.118895685446162],[107.84943580627441,4.1191525124066],[107.84814834594727,4.119751774991883],[107.8484058380127,4.120950298808026],[107.8476333618164,4.120864690023907]]]}},{"type":"Feature","id":"pmtiles:10/818/500:landuse:2198993490:0","properties":{"class":"residential","kind":"green","verification":"verified","source":"OpenMapTiles/OpenStreetMap national PMTiles","sourceId":"10/818/500:landuse:2198993490:0","sourceLayer":"landuse","archive":"https://its.hanifahseptiani45.workers.dev/v1/map/archive/indonesia.pmtiles","updatedAt":"2026-07-26T09:39:19.976Z"},"geometry":{"type":"Polygon","coordinates":[[[107.9146671295166,3.88609140036057],[107.9198169708252,3.8901161578824173],[107.92041778564453,3.889602360119895],[107.91518211364746,3.8855776001452256],[107.9146671295166,3.88609140036057]]]}},{"type":"Feature","id":"pmtiles:10/818/500:landuse:2198993490:1","properties":{"class":"residential","kind":"green","verification":"verified","source":"OpenMapTiles/OpenStreetMap national PMTiles","sourceId":"10/818/500:landuse:2198993490:1","sourceLayer":"landuse","archive":"https://its.hanifahseptiani45.workers.dev/v1/map/archive/indonesia.pmtiles","updatedAt":"2026-07-26T09:39:19.976Z"},"geometry":{"type":"Polygon","coordinates":[[[107.84420013427734,4.119837383895771],[107.84557342529297,4.120693472428044],[107.84651756286621,4.123261732494839],[107.84574508666992,4.1254019428779],[107.84385681152344,4.124888292911734],[107.84394264221191,4.1254019428779],[107.84557342529297,4.125915592511959],[107.84677505493164,4.125573159459506],[107.8476333618164,4.120864690023907],[107.8484058380127,4.120950298808026],[107.84857749938965,4.120436645965128],[107.84814834594727,4.119751774991883],[107.85209655761719,4.118895685446162],[107.85183906555176,4.118125204067425],[107.85072326660156,4.118553249369938],[107.84960746765137,4.118039594979308],[107.84832000732422,4.119066903429001],[107.84514427185059,4.117868376775405],[107.84420013427734,4.119837383895771]]]}},{"type":"Feature","id":"pmtiles:10/818/500:transportation:13897764070:0","properties":{"class":"ferry","highway":"ferry","kind":"road","verification":"verified","source":"OpenMapTiles/OpenStreetMap national PMTiles","sourceId":"10/818/500:transportation:13897764070:0","sourceLayer":"transportation","archive":"https://its.hanifahseptiani45.workers.dev/v1/map/archive/indonesia.pmtiles","updatedAt":"2026-07-26T09:39:19.977Z"},"geometry":{"type":"LineString","coordinates":[[107.90153503417969,4.220421429014593],[107.87200927734375,3.9424362490113225],[107.87939071655273,3.8915719165080134],[107.88153648376465,3.8845499987757535],[107.89398193359375,3.8659673250705566],[107.9161262512207,3.8587739225726665]]}},{"type":"Feature","id":"pmtiles:10/818/500:transportation:13897764070:1","properties":{"class":"ferry","highway":"ferry","kind":"road","verification":"verified","source":"OpenMapTiles/OpenStreetMap national PMTiles","sourceId":"10/818/500:transportation:13897764070:1","sourceLayer":"transportation","archive":"https://its.hanifahseptiani45.workers.dev/v1/map/archive/indonesia.pmtiles","updatedAt":"2026-07-26T09:39:19.977Z"},"geometry":{"type":"LineString","coordinates":[[107.8970718383789,4.220421429014593],[107.88591384887695,4.124032208896807],[107.88419723510742,4.120950298808026],[107.86917686462402,4.108879369375842],[107.86059379577637,4.106396673277885],[107.85355567932129,4.1090505895115825],[107.84832000732422,4.116327411282953],[107.85329818725586,4.108879369375842],[107.87295341491699,3.9424362490113225],[107.88042068481445,3.8916575492900023],[107.88256645202637,3.8846356322710136],[107.90007591247559,3.8587739225726665]]}},{"type":"Feature","id":"pmtiles:10/818/500:transportation:13897764070:2","properties":{"class":"ferry","highway":"ferry","kind":"road","verification":"verified","source":"OpenMapTiles/OpenStreetMap national PMTiles","sourceId":"10/818/500:transportation:13897764070:2","sourceLayer":"transportation","archive":"https://its.hanifahseptiani45.workers.dev/v1/map/archive/indonesia.pmtiles","updatedAt":"2026-07-26T09:39:19.977Z"},"geometry":{"type":"LineString","coordinates":[[107.90119171142578,3.8587739225726665],[107.88351058959961,3.8849781661651406],[107.8813648223877,3.8919144475837157],[107.87381172180176,3.942521876588188],[107.9025650024414,4.220421429014593]]}},{"type":"Feature","id":"pmtiles:10/818/500:water:2350:0","properties":{"class":"ocean","water":"ocean","kind":"waterway","verification":"verified","source":"OpenMapTiles/OpenStreetMap national PMTiles","sourceId":"10/818/500:water:2350:0","sourceLayer":"water","archive":"https://its.hanifahseptiani45.workers.dev/v1/map/archive/indonesia.pmtiles","updatedAt":"2026-07-26T09:39:19.977Z"},"geometry":{"type":"Polygon","coordinates":[[[107.5726318359375,4.220421429014593],[107.9351806640625,4.220421429014593],[107.9351806640625,3.8587739225726665],[107.5726318359375,3.8587739225726665],[107.5726318359375,4.220421429014593]],[[107.90986061096191,3.9088695614624527],[107.90908813476562,3.9095546093730036],[107.90685653686523,3.908612668351708],[107.90350914001465,3.909383347447843],[107.90170669555664,3.912123534051446],[107.89887428283691,3.9132367322995947],[107.89612770080566,3.9132367322995947],[107.89475440979004,3.9126373180421012],[107.89535522460938,3.906300626814229],[107.89466857910156,3.9054443135167816],[107.89595603942871,3.9018477881288476],[107.89449691772461,3.8958535449380918],[107.89441108703613,3.8939696311119008],[107.89501190185547,3.8919144475837157],[107.89664268493652,3.8904586895500586],[107.89835929870605,3.8908012210784193],[107.89921760559082,3.8903730566461974],[107.90007591247559,3.8890885620441082],[107.90179252624512,3.8887460298195577],[107.90299415588379,3.887718432310791],[107.90282249450684,3.8854063333372295],[107.90350914001465,3.884036197621711],[107.90582656860352,3.8829229607148505],[107.90762901306152,3.883436762546623],[107.91046142578125,3.8813815533433313],[107.91346549987793,3.8823235248491983],[107.91458129882812,3.885663233536178],[107.91998863220215,3.889773626075552],[107.91947364807129,3.8918288148278464],[107.92033195495605,3.894740323641443],[107.91973114013672,3.8967098680101486],[107.92136192321777,3.9006489429103937],[107.91878700256348,3.9038173158447194],[107.91449546813965,3.9062149955238112],[107.91295051574707,3.9077563574142147],[107.90986061096191,3.9088695614624527]],[[107.8993034362793,4.036878063781373],[107.89921760559082,4.037134916954258],[107.89732933044434,4.037648623056256],[107.89655685424805,4.037563005395171],[107.89647102355957,4.037306152357715],[107.89655685424805,4.036963681514692],[107.89698600769043,4.036535592757758],[107.89724349975586,4.035936268118846],[107.89698600769043,4.035165707218866],[107.89715766906738,4.034223909570599],[107.89801597595215,4.033196492709081],[107.89921760559082,4.032425929210447],[107.89973258972168,4.032340310998833],[107.90067672729492,4.032768401966706],[107.90119171142578,4.032254692778196],[107.90153503417969,4.0307991816477085],[107.90153503417969,4.027545676759573],[107.90282249450684,4.028658719369915],[107.9033374786377,4.029514904957011],[107.90342330932617,4.030371089642827],[107.90273666381836,4.032083456309877],[107.90162086486816,4.0331108745786395],[107.90153503417969,4.0337102013022275],[107.90093421936035,4.035422560933426],[107.8993034362793,4.036878063781373]],[[107.91638374328613,4.035850650277169],[107.91698455810547,4.036878063781373],[107.91664123535156,4.037306152357715],[107.91664123535156,4.037819858351341],[107.91604042053223,4.038419181599664],[107.91415214538574,4.0388472693632025],[107.91200637817383,4.038333564019851],[107.91114807128906,4.037220534660506],[107.91114807128906,4.035936268118846],[107.91157722473145,4.035251325132748],[107.91337966918945,4.034651999546085],[107.91501045227051,4.0331108745786395],[107.91526794433594,4.033196492709081],[107.91535377502441,4.0335389651406075],[107.91492462158203,4.034737617514111],[107.91629791259766,4.035508178820223],[107.91638374328613,4.035850650277169]],[[107.86282539367676,4.144235545280537],[107.86325454711914,4.145862062656619],[107.86368370056152,4.146632517087724],[107.86394119262695,4.146632517087724],[107.86445617675781,4.147402970767729],[107.86497116088867,4.147231758903757],[107.86531448364258,4.147402970767729],[107.86557197570801,4.147916606137031],[107.86694526672363,4.1482590295310615],[107.86763191223145,4.149200693099289],[107.86823272705078,4.15108401686733],[107.86788940429688,4.151768860760058],[107.86797523498535,4.152368098678764],[107.86840438842773,4.1526249147903656],[107.86866188049316,4.153737783641432],[107.86917686462402,4.154337020064901],[107.86874771118164,4.154765045802975],[107.8692626953125,4.156049121623425],[107.86823272705078,4.157675614660661],[107.86651611328125,4.156990775896119],[107.86102294921875,4.159045290404592],[107.86016464233398,4.159815731964287],[107.85964965820312,4.159302104341521],[107.8593921661377,4.158702871691801],[107.85896301269531,4.158446057559544],[107.8582763671875,4.156220331574829],[107.85836219787598,4.154936256033167],[107.85750389099121,4.154765045802975],[107.85698890686035,4.154080204510578],[107.85587310791016,4.153737783641432],[107.8538990020752,4.150827200254383],[107.85381317138672,4.14962872162279],[107.85407066345215,4.149200693099289],[107.85407066345215,4.147574182594596],[107.85458564758301,4.14449236403604],[107.85398483276367,4.1438931201434315],[107.85346984863281,4.141239320304464],[107.8524398803711,4.140383253941508],[107.84943580627441,4.140982500492825],[107.84634590148926,4.139527186652657],[107.8461742401123,4.138499904684096],[107.84643173217773,4.137900656253649],[107.84651756286621,4.136616550947323],[107.84591674804688,4.13567487239979],[107.84497261047363,4.132678615031949],[107.8443717956543,4.129339914914851],[107.84462928771973,4.128141403753901],[107.84454345703125,4.127114107032895],[107.84368515014648,4.126429241813838],[107.84342765808105,4.126857282644963],[107.8429126739502,4.126942890783511],[107.84265518188477,4.125744376004178],[107.84385681152344,4.124888292911734],[107.84540176391602,4.125573159459506],[107.84574508666992,4.1254019428779],[107.8461742401123,4.124888292911734],[107.84651756286621,4.123261732494839],[107.84591674804688,4.121292733852314],[107.84497261047363,4.1200086016759485],[107.84420013427734,4.119837383895771],[107.84394264221191,4.120693472428044],[107.84205436706543,4.121463951319157],[107.84171104431152,4.121378342590347],[107.84205436706543,4.120607863616286],[107.84111022949219,4.119751774991883],[107.84025192260742,4.116755457552301],[107.84093856811523,4.115813755455932],[107.84042358398438,4.114358395480025],[107.84111022949219,4.1135023001343285],[107.8421401977539,4.1135023001343285],[107.84231185913086,4.113844738383008],[107.84308433532715,4.113759128834644],[107.84359931945801,4.113331080954794],[107.84385681152344,4.1123037651048975],[107.8443717956543,4.111875716443237],[107.84488677978516,4.112218155390963],[107.84514427185059,4.112646203868692],[107.84480094909668,4.1136735192770715],[107.84505844116211,4.114015957452153],[107.8443717956543,4.115128880504443],[107.84445762634277,4.115728146119196],[107.84411430358887,4.116156192710747],[107.84420013427734,4.116841066778562],[107.84445762634277,4.117354721942732],[107.84557342529297,4.118210813146348],[107.84806251525879,4.118981294442193],[107.84917831420898,4.118810076440923],[107.84892082214355,4.118638858402804],[107.84960746765137,4.118039594979308],[107.84977912902832,4.118210813146348],[107.85046577453613,4.118039594979308],[107.85046577453613,4.116841066778562],[107.85080909729004,4.116327411282953],[107.85226821899414,4.115385708680279],[107.8531265258789,4.115899364783445],[107.85355567932129,4.116584239072168],[107.8538990020752,4.116755457552301],[107.85372734069824,4.1169266759956],[107.8538990020752,4.117183503591505],[107.85415649414062,4.117354721942732],[107.85467147827148,4.117097894402079],[107.85441398620605,4.117697158534682],[107.85492897033691,4.118210813146348],[107.85561561584473,4.118296422216062],[107.85604476928711,4.119494948224897],[107.85707473754883,4.119922992790464],[107.85964965820312,4.122576863954919],[107.85999298095703,4.123432949537616],[107.86308288574219,4.126172417204415],[107.86291122436523,4.126857282644963],[107.86325454711914,4.127627755559544],[107.86351203918457,4.1289974833392336],[107.86291122436523,4.129853562001216],[107.86316871643066,4.130966462881005],[107.86291122436523,4.1318225394184935],[107.86273956298828,4.132849830043753],[107.86222457885742,4.133534689721216],[107.86162376403809,4.135332443559591],[107.86102294921875,4.136188515382642],[107.86059379577637,4.137815049297984],[107.8626537322998,4.141581746590347],[107.86291122436523,4.142694630995976],[107.8626537322998,4.143379482159759],[107.86282539367676,4.144235545280537]]]}},{"type":"Feature","id":"pmtiles:8/204/125:landcover:204194043:0","properties":{"subclass":"forest","class":"wood","kind":"green","verification":"verified","source":"OpenMapTiles/OpenStreetMap national PMTiles","sourceId":"8/204/125:landcover:204194043:0","sourceLayer":"landcover","archive":"https://its.hanifahseptiani45.workers.dev/v1/map/archive/indonesia.pmtiles","updatedAt":"2026-07-26T09:35:20.784Z"},"geometry":{"type":"Polygon","coordinates":[[[107.8476333618164,4.120779081230594],[107.84660339355469,4.125573159459506],[107.84282684326172,4.125573159459506],[107.84488677978516,4.127285323245374],[107.84626007080078,4.139270366285487],[107.85381317138672,4.141324926889837],[107.85381317138672,4.150570383557891],[107.85999298095703,4.159130895059533],[107.86823272705078,4.157418800193696],[107.86754608154297,4.149200693099289],[107.8634262084961,4.146461305056832],[107.86033630371094,4.137900656253649],[107.86239624023438,4.126258025416789],[107.85518646240234,4.118724467426475],[107.8476333618164,4.120779081230594]]]}}]}