{"type":"FeatureCollection","features":[{"type":"Feature","id":"pmtiles:10/879/513:water:1690:0","properties":{"class":"ocean","water":"ocean","kind":"waterway","verification":"verified","source":"OpenMapTiles/OpenStreetMap national PMTiles","sourceId":"10/879/513:water:1690:0","sourceLayer":"water","archive":"https://its.hanifahseptiani45.workers.dev/v1/map/archive/indonesia.pmtiles","updatedAt":"2026-07-26T09:41:50.714Z"},"geometry":{"type":"Polygon","coordinates":[[[129.0179443359375,-0.34606723172845477],[129.3804931640625,-0.34606723172845477],[129.3804931640625,-0.7086000996551007],[129.0179443359375,-0.7086000996551007],[129.0179443359375,-0.34606723172845477]]]}}]}