{"type":"FeatureCollection","features":[{"type":"Feature","id":"pmtiles:10/810/532:water:130:0","properties":{"class":"ocean","water":"ocean","kind":"waterway","verification":"verified","source":"OpenMapTiles/OpenStreetMap national PMTiles","sourceId":"10/810/532:water:130:0","sourceLayer":"water","archive":"https://its.hanifahseptiani45.workers.dev/v1/map/archive/indonesia.pmtiles","updatedAt":"2026-07-26T09:45:17.027Z"},"geometry":{"type":"Polygon","coordinates":[[[104.7601318359375,-7.008215836663396],[105.1226806640625,-7.008215836663396],[105.1226806640625,-7.367914706747754],[104.7601318359375,-7.367914706747754],[104.7601318359375,-7.008215836663396]]]}}]}