{"type":"FeatureCollection","features":[{"type":"Feature","id":"pmtiles:10/896/521:landuse:5212584410:0","properties":{"class":"residential","kind":"green","verification":"verified","source":"OpenMapTiles/OpenStreetMap national PMTiles","sourceId":"10/896/521:landuse:5212584410:0","sourceLayer":"landuse","archive":"https://its.hanifahseptiani45.workers.dev/v1/map/archive/indonesia.pmtiles","updatedAt":"2026-07-26T09:43:37.590Z"},"geometry":{"type":"Polygon","coordinates":[[[135.2980899810791,-3.4439406194210846],[135.31173706054688,-3.4444546733785018],[135.31800270080566,-3.462532060716086],[135.29688835144043,-3.4646739084222276],[135.2980899810791,-3.4439406194210846]]]}},{"type":"Feature","id":"pmtiles:10/896/521:landuse:5212584410:1","properties":{"class":"residential","kind":"green","verification":"verified","source":"OpenMapTiles/OpenStreetMap national PMTiles","sourceId":"10/896/521:landuse:5212584410:1","sourceLayer":"landuse","archive":"https://its.hanifahseptiani45.workers.dev/v1/map/archive/indonesia.pmtiles","updatedAt":"2026-07-26T09:43:37.590Z"},"geometry":{"type":"Polygon","coordinates":[[[135.30632972717285,-3.4878912258476333],[135.31336784362793,-3.4892619720865667],[135.31551361083984,-3.4932885275965475],[135.31362533569336,-3.5009132343055853],[135.30349731445312,-3.499114151796192],[135.30632972717285,-3.4878912258476333]]]}},{"type":"Feature","id":"pmtiles:10/896/521:landuse:5212584410:2","properties":{"class":"residential","kind":"green","verification":"verified","source":"OpenMapTiles/OpenStreetMap national PMTiles","sourceId":"10/896/521:landuse:5212584410:2","sourceLayer":"landuse","archive":"https://its.hanifahseptiani45.workers.dev/v1/map/archive/indonesia.pmtiles","updatedAt":"2026-07-26T09:43:37.590Z"},"geometry":{"type":"Polygon","coordinates":[[[135.32710075378418,-3.4367438348925816],[135.33997535705566,-3.43614410039649],[135.3391170501709,-3.4472819651811193],[135.33662796020508,-3.4533648978308236],[135.3318214416504,-3.453450572660415],[135.33087730407715,-3.4455684560005295],[135.32864570617676,-3.443340889453296],[135.32710075378418,-3.4367438348925816]]]}},{"type":"Feature","id":"pmtiles:10/896/521:park:77319183:0","properties":{"name":"Taman Nasional Teluk Cenderawasih","name_int":"Teluk Cenderawasih National Park","class":"national_park","name:latin":"Taman Nasional Teluk Cenderawasih","name_de":"Nationalpark Cenderawasih-Bucht","name_en":"Teluk Cenderawasih National Park","kind":"green","verification":"verified","source":"OpenMapTiles/OpenStreetMap national PMTiles","sourceId":"10/896/521:park:77319183:0","sourceLayer":"park","archive":"https://its.hanifahseptiani45.workers.dev/v1/map/archive/indonesia.pmtiles","updatedAt":"2026-07-26T09:43:37.590Z"},"geometry":{"type":"Polygon","coordinates":[[[135.3570556640625,-3.156970717063345],[135.3570556640625,-3.3866218718943912],[135.35456657409668,-3.387478679494336],[135.35293579101562,-3.3877357216264414],[135.34950256347656,-3.3877357216264414],[135.34804344177246,-3.388935250673569],[135.34770011901855,-3.3901347782335876],[135.3460693359375,-3.3921911077322875],[135.3442668914795,-3.3953612738046672],[135.34323692321777,-3.396218073659867],[135.34212112426758,-3.3968178331060983],[135.34083366394043,-3.3979316710889833],[135.3391170501709,-3.3991311874789147],[135.33860206604004,-3.398959828085964],[135.33662796020508,-3.3969035129965732],[135.3361988067627,-3.3957039938379836],[135.33379554748535,-3.3953612738046672],[135.32864570617676,-3.3951042336998682],[135.32787322998047,-3.3952755937773276],[135.32675743103027,-3.3945044731893006],[135.32598495483398,-3.394333112975019],[135.32529830932617,-3.3931335906240605],[135.32495498657227,-3.3921054274238287],[135.32546997070312,-3.391934066784117],[135.3258991241455,-3.390734541455771],[135.32504081726074,-3.389963417244658],[135.3240966796875,-3.389535014639506],[135.3097629547119,-3.386536191092702],[135.2999782562256,-3.3862791486421173],[135.29500007629395,-3.38585074440617],[135.2944850921631,-3.385336659072891],[135.29319763183594,-3.3849939353657845],[135.29027938842773,-3.384908254420054],[135.28950691223145,-3.384565530561389],[135.27697563171387,-3.383280315011632],[135.2754306793213,-3.383365996101304],[135.27508735656738,-3.3829375905771712],[135.26942253112793,-3.3818237353282825],[135.2683925628662,-3.3813096478587426],[135.26495933532715,-3.38070987879982],[135.25912284851074,-3.3801957907398332],[135.25294303894043,-3.3783107988559777],[135.24187088012695,-3.3762544398985312],[135.23354530334473,-3.3753119405877356],[135.2328586578369,-3.3757403494787326],[135.232515335083,-3.3754833041668064],[135.22427558898926,-3.376340121608706],[135.22212982177734,-3.3762544398985312],[135.2200698852539,-3.37753966475735],[135.2190399169922,-3.3772826199216723],[135.2190399169922,-3.3768542117109916],[135.21843910217285,-3.376682848373804],[135.21620750427246,-3.3781394357758927],[135.2142333984375,-3.3786535249253973],[135.2120018005371,-3.379938746607678],[135.2101993560791,-3.3807955601166526],[135.20899772644043,-3.381052604021761],[135.19972801208496,-3.3812239665873136],[135.19775390625,-3.3808812414259393],[135.19723892211914,-3.3802814721020837],[135.19586563110352,-3.379853065215144],[135.188570022583,-3.3789105693980304],[135.18582344055176,-3.37839648038468],[135.17337799072266,-3.3749692133389146],[135.17003059387207,-3.373512621182769],[135.16470909118652,-3.3706851125316177],[135.16342163085938,-3.37042806588299],[135.16324996948242,-3.3705137481067453],[135.16359329223633,-3.3708564769263205],[135.16196250915527,-3.371627616328823],[135.1611042022705,-3.3715419342031794],[135.1607608795166,-3.370942159112346],[135.15878677368164,-3.37145625206999],[135.15775680541992,-3.3715419342031794],[135.15209197998047,-3.3706851125316177],[135.1490879058838,-3.37145625206999],[135.1431655883789,-3.3753119405877356],[135.13741493225098,-3.377625346354108],[135.13501167297363,-3.3791676138025792],[135.13226509094238,-3.380367153456774],[135.12994766235352,-3.3805385161434316],[135.1285743713379,-3.3801101093700225],[135.12642860412598,-3.3791676138025792],[135.1255702972412,-3.3791676138025792],[135.12282371520996,-3.3807955601166526],[135.12042045593262,-3.3807955601166526],[135.11887550354004,-3.381395329122597],[135.1171588897705,-3.3812239665873136],[135.1164722442627,-3.381909416546705],[135.11595726013184,-3.3817380541022857],[135.11492729187012,-3.381909416546705],[135.11441230773926,-3.3816523728687145],[135.1132106781006,-3.3816523728687145],[135.11140823364258,-3.38070987879982],[135.1102066040039,-3.3795960209921816],[135.10977745056152,-3.3787392064238446],[135.10900497436523,-3.3782251173197153],[135.10857582092285,-3.3769398933682595],[135.10797500610352,-3.376682848373804],[135.10754585266113,-3.37591171298223],[135.1058292388916,-3.3757403494787326],[135.10454177856445,-3.3765971666938697],[135.1036834716797,-3.376425803311321],[135.10308265686035,-3.3758260312342543],[135.1025676727295,-3.376083076455501],[135.10188102722168,-3.3753119405877356],[135.10170936584473,-3.374369440362557],[135.10085105895996,-3.374198076587021],[135.1003360748291,-3.3732555752815188],[135.10007858276367,-3.3729985293123264],[135.09913444519043,-3.373084211309603],[135.09836196899414,-3.3729128473074894],[135.0981903076172,-3.3728271652950923],[135.0981044769287,-3.3723987551198746],[135.0977611541748,-3.3723130730621875],[135.09801864624023,-3.37145625206999],[135.09724617004395,-3.368800102198037],[135.09724617004395,-3.367771913204564],[135.09767532348633,-3.3670007707468983],[135.0977611541748,-3.3664866754358798],[135.09827613830566,-3.365715531960575],[135.09844779968262,-3.363659146376108],[135.09844779968262,-3.3630593664300505],[135.09784698486328,-3.3623739031827995],[135.09767532348633,-3.3617741224462208],[135.09758949279785,-3.359632045376756],[135.0966453552246,-3.359117946180433],[135.09355545043945,-3.359460679008066],[135.09346961975098,-3.3592893126092918],[135.09458541870117,-3.358518163442497],[135.0956153869629,-3.357404280237432],[135.0955295562744,-3.356890179868145],[135.09467124938965,-3.356461762687033],[135.09295463562012,-3.354405357602957],[135.09252548217773,-3.352863050950802],[135.09132385253906,-3.3521775805468366],[135.09132385253906,-3.35106369011595],[135.0904655456543,-3.3491786418829577],[135.09029388427734,-3.3477220112169874],[135.08883476257324,-3.3464367470657095],[135.08780479431152,-3.345065796779508],[135.08634567260742,-3.3440375828065783],[135.0846290588379,-3.3434377908244244],[135.08325576782227,-3.3424952598256965],[135.08265495300293,-3.3415527279214245],[135.07956504821777,-3.3404388254128747],[135.0772476196289,-3.3390678667441307],[135.07664680480957,-3.3381253315490937],[135.07561683654785,-3.337268480587028],[135.07518768310547,-3.337268480587028],[135.0746726989746,-3.3369257399929495],[135.07407188415527,-3.3370114251526815],[135.07278442382812,-3.336411628877727],[135.07149696350098,-3.335297720538847],[135.07038116455078,-3.3347836085721383],[135.06986618041992,-3.334269496336617],[135.06720542907715,-3.3340981255317246],[135.0666904449463,-3.334183810937901],[135.06591796875,-3.33495497925756],[135.06540298461914,-3.335040664589087],[135.06471633911133,-3.335040664589087],[135.06394386291504,-3.334526552487972],[135.06128311157227,-3.335040664589087],[135.06016731262207,-3.334697923218215],[135.05922317504883,-3.335040664589087],[135.05853652954102,-3.3344408671116668],[135.05630493164062,-3.3331555855710917],[135.0545883178711,-3.3313561885934035],[135.05407333374023,-3.3310991316137404],[135.053129196167,-3.32972815992197],[135.05081176757812,-3.3289569875065865],[135.04900932312012,-3.32904267336032],[135.04806518554688,-3.3294711025172745],[135.0450611114502,-3.332555786944127],[135.04403114318848,-3.332727158017704],[135.04308700561523,-3.332041673544296],[135.04188537597656,-3.331784616743647],[135.04094123840332,-3.3321273591296006],[135.03965377807617,-3.332984214572136],[135.03862380981445,-3.3328985290614526],[135.03836631774902,-3.33306990007533],[135.03759384155273,-3.333841069268402],[135.03742218017578,-3.3343551817278723],[135.03656387329102,-3.334612237856831],[135.0355339050293,-3.3353834058404885],[135.03235816955566,-3.3359832027429235],[135.03210067749023,-3.3367543696510893],[135.03244400024414,-3.3371827954497206],[135.03210067749023,-3.33735416571686],[135.03175735473633,-3.3371827954497206],[135.02986907958984,-3.3380396464865356],[135.0267791748047,-3.3385537567498886],[135.0242042541504,-3.3395819764692334],[135.02223014831543,-3.339924716136437],[135.0171661376953,-3.340010401034533],[135.01261711120605,-3.3389821817637824],[135.0121021270752,-3.3390678667441307],[135.0095272064209,-3.3385537567498886],[135.0080680847168,-3.337696906161483],[135.00755310058594,-3.337782591253955],[135.00128746032715,-3.3361545732192326],[134.9988842010498,-3.3348692939185867],[134.9952793121338,-3.3321273591296006],[134.9945068359375,-3.331698931128514],[134.9945068359375,-3.156970717063345],[135.3570556640625,-3.156970717063345]]]}},{"type":"Feature","id":"pmtiles:10/896/521:transportation:5130019690:0","properties":{"class":"trunk","highway":"trunk","kind":"road","verification":"verified","source":"OpenMapTiles/OpenStreetMap national PMTiles","sourceId":"10/896/521:transportation:5130019690:0","sourceLayer":"transportation","archive":"https://its.hanifahseptiani45.workers.dev/v1/map/archive/indonesia.pmtiles","updatedAt":"2026-07-26T09:43:37.591Z"},"geometry":{"type":"LineString","coordinates":[[134.9945068359375,-3.341124304029293],[134.99725341796875,-3.3418954669004677],[134.99914169311523,-3.34172409742591],[135.00042915344238,-3.3412956736085846],[135.00154495239258,-3.34172409742591],[135.00351905822754,-3.3402674556839855],[135.00566482543945,-3.3402674556839855],[135.00712394714355,-3.3409529344200593],[135.00755310058594,-3.342066836345097],[135.00909805297852,-3.3424095751445435],[135.01012802124023,-3.3423238904559014],[135.01047134399414,-3.3427523138242634],[135.0106430053711,-3.343951898260144],[135.010986328125,-3.3442089518769365],[135.01141548156738,-3.3442089518769365],[135.01253128051758,-3.343180737005511],[135.0142478942871,-3.3440375828065783],[135.0172519683838,-3.344294636400889],[135.01948356628418,-3.345065796779508],[135.02317428588867,-3.34566558776568],[135.02429008483887,-3.3451514812285694],[135.02480506896973,-3.344123267345495],[135.02652168273926,-3.344294636400889],[135.02849578857422,-3.344123267345495],[135.02901077270508,-3.344808743387375],[135.02901077270508,-3.3460083253072668],[135.0296115875244,-3.348578853047613],[135.031156539917,-3.35106369011595],[135.0321865081787,-3.3515777935493247],[135.03244400024414,-3.3519205290215126],[135.03313064575195,-3.357575646967078],[135.03544807434082,-3.359203629398621],[135.03604888916016,-3.3610029752429966],[135.0369930267334,-3.361602756453749],[135.03819465637207,-3.362973683550507],[135.03836631774902,-3.364515974230301],[135.03905296325684,-3.3658868972300695],[135.0391387939453,-3.3671721357902555],[135.03965377807617,-3.3678575956621586],[135.0399112701416,-3.368971466924691],[135.04085540771484,-3.3700853369124957],[135.0417137145996,-3.373169893299348],[135.04240036010742,-3.374112394687941],[135.04231452941895,-3.3744551222389845],[135.04145622253418,-3.3748835315078196],[135.04076957702637,-3.3748835315078196],[135.03965377807617,-3.3756546677156507],[135.03965377807617,-3.3762544398985312],[135.04300117492676,-3.37839648038468],[135.04488945007324,-3.3785678434193898],[135.0447177886963,-3.3807955601166526],[135.04583358764648,-3.3821664601565544],[135.04677772521973,-3.3855937017736437],[135.0468635559082,-3.3871359565453645],[135.04780769348145,-3.389020931262891],[135.0494384765625,-3.390734541455771],[135.04995346069336,-3.3921054274238287],[135.05038261413574,-3.392619509160653],[135.05261421203613,-3.3940760725966186],[135.0542449951172,-3.394333112975019],[135.0557041168213,-3.396046713749641],[135.05596160888672,-3.396732153208035],[135.0563907623291,-3.3968178331060983],[135.05724906921387,-3.3965607933890567],[135.05905151367188,-3.398874148378056],[135.05990982055664,-3.398874148378056],[135.0615406036377,-3.3983600699708774],[135.06282806396484,-3.39947390617354],[135.06342887878418,-3.4007591001936675],[135.0629997253418,-3.401872933625455],[135.06351470947266,-3.402986765770123],[135.06437301635742,-3.403929238117641],[135.06505966186523,-3.405214426196352],[135.06789207458496,-3.408213191708228],[135.06875038146973,-3.4101838039557038],[135.07055282592773,-3.411811697983566],[135.0710678100586,-3.414467729687672],[135.07184028625488,-3.4149817994917413],[135.0817108154297,-3.4148104429209667],[135.08411407470703,-3.4120687336306617],[135.0849723815918,-3.4099267678045777],[135.08471488952637,-3.409069980138028],[135.0849723815918,-3.408213191708228],[135.08660316467285,-3.4065852915896357],[135.08797645568848,-3.406071217295917],[135.0908088684082,-3.405985538220264],[135.09149551391602,-3.4058141800461073],[135.09209632873535,-3.405300105340615],[135.09312629699707,-3.4035865210070426],[135.09295463562012,-3.400930459266931],[135.0933837890625,-3.399987983987117],[135.09441375732422,-3.399730945114584],[135.09527206420898,-3.3990455077862407],[135.09681701660156,-3.398959828085964],[135.09947776794434,-3.398274390209707],[135.1021385192871,-3.3961323937085695],[135.1051425933838,-3.3931335906240605],[135.10711669921875,-3.3922767880331577],[135.10891914367676,-3.3920197471077813],[135.10986328125,-3.3911629435295794],[135.11149406433105,-3.3903061391921625],[135.11381149291992,-3.389620695175708],[135.11527061462402,-3.3902204587166693],[135.11896133422852,-3.3894493340957013],[135.11981964111328,-3.390049097742917],[135.1216220855713,-3.390734541455771],[135.1255702972412,-3.3911629435295794],[135.1270294189453,-3.3908202218857184],[135.1281452178955,-3.3921911077322875],[135.12908935546875,-3.392705189423552],[135.12986183166504,-3.3922767880331577],[135.13063430786133,-3.391334304305971],[135.13175010681152,-3.391077263130015],[135.13286590576172,-3.390049097742917],[135.1340675354004,-3.3894493340957013],[135.1362133026123,-3.3888495700766583],[135.13689994812012,-3.389106611844639],[135.13921737670898,-3.390734541455771],[135.14273643493652,-3.390648861018221],[135.14522552490234,-3.3911629435295794],[135.14822959899902,-3.390991582722819],[135.14891624450684,-3.391077263130015],[135.1504611968994,-3.3917627061140365],[135.15080451965332,-3.39150566505198],[135.1512336730957,-3.3903061391921625],[135.15071868896484,-3.38585074440617],[135.15097618103027,-3.384479849577758],[135.15380859375,-3.384137125567534],[135.1559543609619,-3.3822521413446793],[135.15646934509277,-3.382080778960841],[135.15758514404297,-3.3824235036982486],[135.16290664672852,-3.385422339980721],[135.16385078430176,-3.3855937017736437],[135.16608238220215,-3.385422339980721],[135.166597366333,-3.3873073180350133],[135.16616821289062,-3.3897920562253603],[135.16728401184082,-3.3917627061140365],[135.16728401184082,-3.3969035129965732],[135.16908645629883,-3.4017015747197377],[135.1699447631836,-3.405214426196352],[135.17088890075684,-3.4064139335222308],[135.17269134521484,-3.4074420814690285],[135.1743221282959,-3.40795615503049],[135.17621040344238,-3.4122400906905455],[135.17844200134277,-3.41275416168682],[135.18324851989746,-3.4154958690205888],[135.18479347229004,-3.417209432128402],[135.18539428710938,-3.418408924483174],[135.1853084564209,-3.4198654488973403],[135.18633842468262,-3.421064937929998],[135.18814086914062,-3.4213219710988625],[135.1900291442871,-3.421236293383572],[135.19217491149902,-3.420807904692211],[135.1955223083496,-3.421150615660622],[135.19638061523438,-3.4214933265064786],[135.19672393798828,-3.422093070191792],[135.1966381072998,-3.4238066215096836],[135.19723892211914,-3.4255201697615547],[135.19912719726562,-3.4276621007624897],[135.19861221313477,-3.431517564476181],[135.19878387451172,-3.432117301878364],[135.19947052001953,-3.4327170389040447],[135.199556350708,-3.4332310989120742],[135.19749641418457,-3.435544365523455],[135.19835472106934,-3.439314121319242],[135.19792556762695,-3.4414560213815406],[135.19655227661133,-3.4439406194210846],[135.19655227661133,-3.4464252109765994],[135.19620895385742,-3.4472819651811193],[135.19543647766113,-3.4480530433053644],[135.19535064697266,-3.4484814197708857],[135.195951461792,-3.451651399615784],[135.1966381072998,-3.452508149109761],[135.19715309143066,-3.454307320531086],[135.19775390625,-3.45507839295351],[135.19835472106934,-3.4567918849823087],[135.19861221313477,-3.457048908519681],[135.19947052001953,-3.4572202575058952],[135.2010154724121,-3.4583340251616903],[135.2021312713623,-3.460133185533877],[135.20264625549316,-3.462874756674694],[135.20307540893555,-3.4639028438063093],[135.20298957824707,-3.4662160357692073],[135.20281791687012,-3.466644404030575],[135.20204544067383,-3.4670727720979357],[135.20195960998535,-3.4687862424267593],[135.2010154724121,-3.470842402721175],[135.2010154724121,-3.4723845200051215],[135.19766807556152,-3.47555441984494],[135.19749641418457,-3.4765824931817093],[135.19783973693848,-3.478638636492846],[135.19749641418457,-3.4795810340115594],[135.1970672607422,-3.4800093962085157],[135.1969814300537,-3.4806091029570467],[135.19792556762695,-3.4832649425390088],[135.19732475280762,-3.4842930074624974],[135.19749641418457,-3.485578087037382],[135.19972801208496,-3.489690329876211],[135.20161628723145,-3.491403759081564],[135.20273208618164,-3.491917787233618],[135.2032470703125,-3.4927745001950115],[135.20487785339355,-3.4926888289340496],[135.20522117614746,-3.492945842693473],[135.2053928375244,-3.4935455411917644],[135.2061653137207,-3.494059568171039],[135.2065944671631,-3.495515976416371],[135.20668029785156,-3.497143724132087],[135.20702362060547,-3.4978290907459524],[135.20771026611328,-3.4986001275875367],[135.20968437194824,-3.5017699390478327],[135.21320343017578,-3.5036546867212905],[135.21371841430664,-3.5041687081553334],[135.21380424499512,-3.5045970591346673],[135.21320343017578,-3.5069958209937937],[135.2153491973877,-3.5078525201664092],[135.2160358428955,-3.5085378789391655],[135.2163791656494,-3.509308906957685],[135.21629333496094,-3.5116219871949],[135.2168083190918,-3.512307343201897],[135.21818161010742,-3.5132497068899085],[135.22178649902344,-3.5123930126673883],[135.22290229797363,-3.5125643515747953],[135.2245330810547,-3.5134210456400297],[135.22504806518555,-3.5134210456400297],[135.22539138793945,-3.5131640375030315],[135.22539138793945,-3.512478682125021],[135.22582054138184,-3.5117933262438044],[135.2266788482666,-3.511107969859495],[135.22770881652832,-3.510679621863858],[135.22916793823242,-3.5113649785625682],[135.23131370544434,-3.5115363176586385],[135.23560523986816,-3.4997138463498914],[135.2394676208496,-3.495430305405705],[135.2439308166504,-3.4897760014106893],[135.24478912353516,-3.489604658333903],[135.24547576904297,-3.4907183877744927],[135.24616241455078,-3.4908897306481492],[135.24727821350098,-3.490033015967299],[135.24770736694336,-3.489176300505221],[135.25036811828613,-3.4884052559215064],[135.2519989013672,-3.4884052559215064],[135.25311470031738,-3.4892619720865667],[135.25697708129883,-3.4893476436601247],[135.25826454162598,-3.4899473444562545],[135.2588653564453,-3.4895189867837786],[135.25920867919922,-3.4889192857142604],[135.25912284851074,-3.4876342107052807],[135.26049613952637,-3.4848927114825443],[135.26049613952637,-3.4832649425390088],[135.26135444641113,-3.4816371707805587],[135.26161193847656,-3.4800950686245358],[135.26375770568848,-3.4789813266086895],[135.26470184326172,-3.478895654091403],[135.26684761047363,-3.4800950686245358],[135.26753425598145,-3.4800093962085157],[135.26787757873535,-3.4794096890782384],[135.2670192718506,-3.4778675832766623],[135.26890754699707,-3.4767538386288805],[135.26959419250488,-3.4752117284836856],[135.26959419250488,-3.474526345387801],[135.27036666870117,-3.4719561543455058],[135.2738857269287,-3.472555866214563],[135.274658203125,-3.4723845200051215],[135.27603149414062,-3.4714421152974637],[135.27766227722168,-3.4691289361198443],[135.28100967407227,-3.4657019935995095],[135.28169631958008,-3.464074191553024],[135.2834129333496,-3.463817169921313],[135.28564453125,-3.4651879511504973],[135.28718948364258,-3.4657019935995095],[135.28950691223145,-3.4670727720979357],[135.29199600219727,-3.4698999964749504],[135.29208183288574,-3.470928075969667],[135.29130935668945,-3.472812885470418],[135.28770446777344,-3.4759827838714443],[135.287446975708,-3.477696238031868],[135.28770446777344,-3.480266413433199],[135.28727531433105,-3.4849783834542194],[135.28796195983887,-3.485835102741703],[135.29019355773926,-3.486349133939669],[135.29165267944336,-3.4874628672380226],[135.2955150604248,-3.4872058519785583],[135.29748916625977,-3.485749430848074],[135.29903411865234,-3.4862634620928645],[135.30049324035645,-3.485321071262831],[135.30092239379883,-3.485321071262831],[135.3014373779297,-3.485749430848074],[135.30220985412598,-3.487291523739529],[135.30418395996094,-3.4873771954926696],[135.31027793884277,-3.4893476436601247],[135.31285285949707,-3.4893476436601247],[135.31705856323242,-3.4905470448695723],[135.3208351135254,-3.4889192857142604],[135.3233242034912,-3.489004957319068],[135.32469749450684,-3.488662270853041],[135.3262424468994,-3.488662270853041],[135.3292465209961,-3.4895189867837786],[135.33130645751953,-3.490804059215222],[135.33207893371582,-3.4909754020732606],[135.33276557922363,-3.4906327163259476],[135.33370971679688,-3.4889192857142604],[135.33422470092773,-3.488576599216998],[135.3428077697754,-3.485749430848074],[135.34649848937988,-3.4849783834542194],[135.35216331481934,-3.481208809323803],[135.35345077514648,-3.4800950686245358],[135.35439491271973,-3.4770108567412876],[135.35422325134277,-3.475897111081693],[135.35242080688477,-3.4721275006326664],[135.349760055542,-3.468871915861669],[135.3486442565918,-3.4670727720979357],[135.34692764282227,-3.4657019935995095],[135.34564018249512,-3.464245539268717],[135.3439235687256,-3.4632174525092836],[135.340576171875,-3.462532060716086],[135.3373146057129,-3.4603902081653786],[135.33491134643555,-3.4604758823603845],[135.33242225646973,-3.4590194199918614],[135.33379554748535,-3.4381146551821757],[135.33190727233887,-3.4377719502944757],[135.33276557922363,-3.424235008860151],[135.33456802368164,-3.422350103084881],[135.3358554840088,-3.422093070191792],[135.33928871154785,-3.4219217148914396],[135.3457260131836,-3.422778491086774],[135.3555965423584,-3.422949846233891],[135.3570556640625,-3.423720944016594]]}},{"type":"Feature","id":"pmtiles:10/896/521:transportation_name:5130019690:0","properties":{"name_int":"Jalan Trans Papua Nabire - Wanggar","ref":"017","name_de":"Jalan Trans Papua Nabire - Wanggar","name":"Jalan Trans Papua Nabire - Wanggar","ref_length":3,"class":"trunk","name:latin":"Jalan Trans Papua Nabire - Wanggar","name_en":"Jalan Trans Papua Nabire - Wanggar","network":"road","highway":"trunk","kind":"road","verification":"verified","source":"OpenMapTiles/OpenStreetMap national PMTiles","sourceId":"10/896/521:transportation_name:5130019690:0","sourceLayer":"transportation_name","archive":"https://its.hanifahseptiani45.workers.dev/v1/map/archive/indonesia.pmtiles","updatedAt":"2026-07-26T09:43:37.591Z"},"geometry":{"type":"LineString","coordinates":[[135.36641120910645,-3.4241493314054026],[135.36169052124023,-3.424577718602535],[135.35757064819336,-3.4239779764728695],[135.3555965423584,-3.422949846233891],[135.3457260131836,-3.422778491086774],[135.33928871154785,-3.4219217148914396],[135.3358554840088,-3.422093070191792],[135.33456802368164,-3.422350103084881],[135.33276557922363,-3.424235008860151],[135.33190727233887,-3.4377719502944757],[135.33379554748535,-3.4381146551821757],[135.33242225646973,-3.4590194199918614],[135.33491134643555,-3.4604758823603845],[135.3373146057129,-3.4603902081653786],[135.340576171875,-3.462532060716086],[135.3439235687256,-3.4632174525092836],[135.34564018249512,-3.464245539268717],[135.34692764282227,-3.4657019935995095],[135.3486442565918,-3.4670727720979357],[135.349760055542,-3.468871915861669],[135.35242080688477,-3.4721275006326664],[135.35422325134277,-3.475897111081693],[135.35439491271973,-3.4770108567412876],[135.35345077514648,-3.4800950686245358],[135.35216331481934,-3.481208809323803],[135.34649848937988,-3.4849783834542194],[135.3428077697754,-3.485749430848074],[135.33422470092773,-3.488576599216998],[135.33370971679688,-3.4889192857142604],[135.33276557922363,-3.4906327163259476],[135.33207893371582,-3.4909754020732606],[135.33130645751953,-3.490804059215222],[135.3292465209961,-3.4895189867837786],[135.3262424468994,-3.488662270853041],[135.32469749450684,-3.488662270853041],[135.3233242034912,-3.489004957319068],[135.3208351135254,-3.4889192857142604],[135.31705856323242,-3.4905470448695723],[135.31508445739746,-3.4899473444562545]]}},{"type":"Feature","id":"pmtiles:10/896/521:transportation_name:5212584400:0","properties":{"name_int":"Jalan Trans Papua Wanggar - Kwatisore","ref":"018","name_de":"Jalan Trans Papua Wanggar - Kwatisore","name":"Jalan Trans Papua Wanggar - Kwatisore","ref_length":3,"class":"trunk","name:latin":"Jalan Trans Papua Wanggar - Kwatisore","name_en":"Jalan Trans Papua Wanggar - Kwatisore","network":"road","highway":"trunk","kind":"road","verification":"verified","source":"OpenMapTiles/OpenStreetMap national PMTiles","sourceId":"10/896/521:transportation_name:5212584400:0","sourceLayer":"transportation_name","archive":"https://its.hanifahseptiani45.workers.dev/v1/map/archive/indonesia.pmtiles","updatedAt":"2026-07-26T09:43:37.591Z"},"geometry":{"type":"LineString","coordinates":[[134.9883270263672,-3.3385537567498886],[134.9911594390869,-3.3388108117806468],[134.99218940734863,-3.339924716136437],[134.99356269836426,-3.3409529344200593],[134.99725341796875,-3.3418954669004677],[134.99914169311523,-3.34172409742591],[135.00042915344238,-3.3412956736085846],[135.00154495239258,-3.34172409742591],[135.00351905822754,-3.3402674556839855],[135.00566482543945,-3.3402674556839855],[135.00712394714355,-3.3409529344200593],[135.00755310058594,-3.342066836345097],[135.00909805297852,-3.3424095751445435],[135.01012802124023,-3.3423238904559014],[135.01047134399414,-3.3427523138242634],[135.0106430053711,-3.343951898260144],[135.010986328125,-3.3442089518769365],[135.01141548156738,-3.3442089518769365],[135.01253128051758,-3.343180737005511],[135.0142478942871,-3.3440375828065783],[135.0172519683838,-3.344294636400889],[135.01948356628418,-3.345065796779508],[135.02317428588867,-3.34566558776568],[135.02429008483887,-3.3451514812285694],[135.02480506896973,-3.344123267345495],[135.02652168273926,-3.344294636400889],[135.02849578857422,-3.344123267345495],[135.02901077270508,-3.344808743387375],[135.02901077270508,-3.3460083253072668],[135.0296115875244,-3.348578853047613],[135.031156539917,-3.35106369011595],[135.0321865081787,-3.3515777935493247],[135.03244400024414,-3.3519205290215126],[135.03313064575195,-3.357575646967078],[135.03544807434082,-3.359203629398621],[135.03596305847168,-3.3608316091150527]]}},{"type":"Feature","id":"pmtiles:10/896/521:transportation_name:5212584400:1","properties":{"name_int":"Jalan Trans Papua Wanggar - Kwatisore","ref":"018","name_de":"Jalan Trans Papua Wanggar - Kwatisore","name":"Jalan Trans Papua Wanggar - Kwatisore","ref_length":3,"class":"trunk","name:latin":"Jalan Trans Papua Wanggar - Kwatisore","name_en":"Jalan Trans Papua Wanggar - Kwatisore","network":"road","highway":"trunk","kind":"road","verification":"verified","source":"OpenMapTiles/OpenStreetMap national PMTiles","sourceId":"10/896/521:transportation_name:5212584400:1","sourceLayer":"transportation_name","archive":"https://its.hanifahseptiani45.workers.dev/v1/map/archive/indonesia.pmtiles","updatedAt":"2026-07-26T09:43:37.591Z"},"geometry":{"type":"LineString","coordinates":[[135.28564453125,-3.4651879511504973],[135.2834129333496,-3.463817169921313],[135.28169631958008,-3.464074191553024],[135.28100967407227,-3.4657019935995095],[135.27766227722168,-3.4691289361198443],[135.27603149414062,-3.4714421152974637],[135.274658203125,-3.4723845200051215],[135.2738857269287,-3.472555866214563],[135.27036666870117,-3.4719561543455058],[135.26959419250488,-3.474526345387801],[135.26959419250488,-3.4752117284836856],[135.26890754699707,-3.4767538386288805],[135.2670192718506,-3.4778675832766623],[135.26787757873535,-3.4794096890782384],[135.26753425598145,-3.4800093962085157],[135.26684761047363,-3.4800950686245358],[135.26470184326172,-3.478895654091403],[135.26375770568848,-3.4789813266086895],[135.26161193847656,-3.4800950686245358],[135.26135444641113,-3.4816371707805587],[135.26049613952637,-3.4832649425390088],[135.26049613952637,-3.4848927114825443],[135.25912284851074,-3.4876342107052807],[135.25920867919922,-3.4889192857142604],[135.2588653564453,-3.4895189867837786],[135.25826454162598,-3.4899473444562545],[135.25697708129883,-3.4893476436601247],[135.25311470031738,-3.4892619720865667],[135.2519989013672,-3.4884052559215064],[135.25036811828613,-3.4884052559215064],[135.24770736694336,-3.489176300505221],[135.24727821350098,-3.490033015967299],[135.24616241455078,-3.4908897306481492],[135.24547576904297,-3.4907183877744927],[135.24478912353516,-3.489604658333903],[135.2439308166504,-3.4897760014106893],[135.2394676208496,-3.495430305405705],[135.23560523986816,-3.4997138463498914],[135.23131370544434,-3.5115363176586385],[135.22916793823242,-3.5113649785625682],[135.22770881652832,-3.510679621863858],[135.2266788482666,-3.511107969859495],[135.22582054138184,-3.5117933262438044],[135.22539138793945,-3.512478682125021],[135.22539138793945,-3.5131640375030315],[135.22504806518555,-3.5134210456400297],[135.2245330810547,-3.5134210456400297],[135.22290229797363,-3.5125643515747953],[135.22178649902344,-3.5123930126673883],[135.21818161010742,-3.5132497068899085],[135.2168083190918,-3.512307343201897],[135.21629333496094,-3.5116219871949],[135.2163791656494,-3.509308906957685],[135.2160358428955,-3.5085378789391655],[135.2153491973877,-3.5078525201664092],[135.21320343017578,-3.5069958209937937],[135.21380424499512,-3.5045970591346673],[135.21371841430664,-3.5041687081553334],[135.21320343017578,-3.5036546867212905],[135.20968437194824,-3.5017699390478327],[135.20771026611328,-3.4986001275875367],[135.20702362060547,-3.4978290907459524],[135.20668029785156,-3.497143724132087],[135.2065944671631,-3.495515976416371],[135.2061653137207,-3.494059568171039],[135.2053928375244,-3.4935455411917644],[135.20522117614746,-3.492945842693473],[135.20487785339355,-3.4926888289340496],[135.2032470703125,-3.4927745001950115],[135.20273208618164,-3.491917787233618],[135.20161628723145,-3.491403759081564],[135.19972801208496,-3.489690329876211],[135.19749641418457,-3.485578087037382],[135.19732475280762,-3.4842930074624974],[135.19792556762695,-3.4832649425390088],[135.1969814300537,-3.4806091029570467],[135.1970672607422,-3.4800093962085157],[135.19749641418457,-3.4795810340115594],[135.19783973693848,-3.478638636492846],[135.19749641418457,-3.4765824931817093],[135.19766807556152,-3.47555441984494],[135.2010154724121,-3.4723845200051215],[135.2010154724121,-3.470842402721175],[135.20195960998535,-3.4687862424267593],[135.20204544067383,-3.4670727720979357],[135.20281791687012,-3.466644404030575],[135.20298957824707,-3.4662160357692073],[135.20307540893555,-3.4639028438063093],[135.20264625549316,-3.462874756674694],[135.2021312713623,-3.460133185533877],[135.2010154724121,-3.4583340251616903],[135.19947052001953,-3.4572202575058952],[135.19861221313477,-3.457048908519681],[135.19835472106934,-3.4567918849823087],[135.19775390625,-3.45507839295351],[135.19715309143066,-3.454307320531086],[135.1966381072998,-3.452508149109761],[135.195951461792,-3.451651399615784],[135.19535064697266,-3.4484814197708857],[135.19543647766113,-3.4480530433053644],[135.19620895385742,-3.4472819651811193],[135.19655227661133,-3.4464252109765994],[135.19655227661133,-3.4439406194210846],[135.19792556762695,-3.4414560213815406],[135.19835472106934,-3.439314121319242],[135.19749641418457,-3.435544365523455],[135.199556350708,-3.4332310989120742],[135.19947052001953,-3.4327170389040447],[135.19878387451172,-3.432117301878364],[135.19861221313477,-3.431517564476181],[135.19912719726562,-3.4276621007624897],[135.19723892211914,-3.4255201697615547],[135.1966381072998,-3.4238066215096836],[135.19672393798828,-3.422093070191792],[135.19638061523438,-3.4214933265064786],[135.1955223083496,-3.421150615660622],[135.19217491149902,-3.420807904692211],[135.1900291442871,-3.421236293383572],[135.18814086914062,-3.4213219710988625],[135.18633842468262,-3.421064937929998],[135.1853084564209,-3.4198654488973403],[135.18539428710938,-3.418408924483174],[135.18479347229004,-3.417209432128402],[135.18324851989746,-3.4154958690205888],[135.17844200134277,-3.41275416168682],[135.17621040344238,-3.4122400906905455],[135.1743221282959,-3.40795615503049],[135.17269134521484,-3.4074420814690285],[135.17088890075684,-3.4064139335222308],[135.1699447631836,-3.405214426196352],[135.16908645629883,-3.4017015747197377],[135.16728401184082,-3.3969035129965732],[135.16728401184082,-3.3917627061140365],[135.16616821289062,-3.3897920562253603],[135.166597366333,-3.3873073180350133],[135.16608238220215,-3.385422339980721],[135.16385078430176,-3.3855937017736437],[135.16290664672852,-3.385422339980721],[135.15758514404297,-3.3824235036982486],[135.15646934509277,-3.382080778960841],[135.1559543609619,-3.3822521413446793],[135.15380859375,-3.384137125567534],[135.15097618103027,-3.384479849577758],[135.15071868896484,-3.38585074440617],[135.1512336730957,-3.3903061391921625],[135.15080451965332,-3.39150566505198],[135.1504611968994,-3.3917627061140365],[135.14891624450684,-3.391077263130015],[135.14822959899902,-3.390991582722819],[135.14522552490234,-3.3911629435295794],[135.14273643493652,-3.390648861018221],[135.13921737670898,-3.390734541455771],[135.13689994812012,-3.389106611844639],[135.1362133026123,-3.3888495700766583],[135.1340675354004,-3.3894493340957013],[135.13286590576172,-3.390049097742917],[135.13175010681152,-3.391077263130015],[135.13063430786133,-3.391334304305971],[135.12986183166504,-3.3922767880331577],[135.12908935546875,-3.392705189423552],[135.1281452178955,-3.3921911077322875],[135.1270294189453,-3.3908202218857184],[135.1255702972412,-3.3911629435295794],[135.1216220855713,-3.390734541455771],[135.11981964111328,-3.390049097742917],[135.11896133422852,-3.3894493340957013],[135.11527061462402,-3.3902204587166693],[135.11381149291992,-3.389620695175708],[135.11149406433105,-3.3903061391921625],[135.10986328125,-3.3911629435295794],[135.10891914367676,-3.3920197471077813],[135.10711669921875,-3.3922767880331577],[135.1051425933838,-3.3931335906240605],[135.1021385192871,-3.3961323937085695],[135.09947776794434,-3.398274390209707],[135.09681701660156,-3.398959828085964],[135.09527206420898,-3.3990455077862407],[135.09441375732422,-3.399730945114584],[135.0933837890625,-3.399987983987117],[135.09295463562012,-3.400930459266931],[135.09312629699707,-3.4035865210070426],[135.09209632873535,-3.405300105340615],[135.09149551391602,-3.4058141800461073],[135.0908088684082,-3.405985538220264],[135.08797645568848,-3.406071217295917],[135.08660316467285,-3.4065852915896357],[135.0849723815918,-3.408213191708228],[135.08471488952637,-3.409069980138028],[135.0849723815918,-3.4099267678045777],[135.08411407470703,-3.4120687336306617],[135.0817108154297,-3.4148104429209667],[135.07184028625488,-3.4149817994917413],[135.0710678100586,-3.414467729687672],[135.07055282592773,-3.411811697983566],[135.06875038146973,-3.4101838039557038],[135.06789207458496,-3.408213191708228],[135.06505966186523,-3.405214426196352],[135.06437301635742,-3.403929238117641],[135.06351470947266,-3.402986765770123],[135.0629997253418,-3.401872933625455],[135.06342887878418,-3.4007591001936675],[135.06282806396484,-3.39947390617354],[135.0615406036377,-3.3983600699708774],[135.05990982055664,-3.398874148378056],[135.05905151367188,-3.398874148378056],[135.05724906921387,-3.3965607933890567],[135.0563907623291,-3.3968178331060983],[135.05596160888672,-3.396732153208035],[135.0557041168213,-3.396046713749641],[135.0542449951172,-3.394333112975019],[135.05261421203613,-3.3940760725966186],[135.05038261413574,-3.392619509160653],[135.04995346069336,-3.3921054274238287],[135.0494384765625,-3.390734541455771],[135.04780769348145,-3.389020931262891],[135.0468635559082,-3.3871359565453645],[135.04677772521973,-3.3855937017736437],[135.04583358764648,-3.3821664601565544],[135.0447177886963,-3.3807955601166526],[135.04488945007324,-3.3785678434193898],[135.04300117492676,-3.37839648038468],[135.04188537597656,-3.37753966475735]]}},{"type":"Feature","id":"pmtiles:10/896/521:transportation_name:5212584400:2","properties":{"name_int":"Jalan Trans Papua Wanggar - Kwatisore","ref":"018","name_de":"Jalan Trans Papua Wanggar - Kwatisore","name":"Jalan Trans Papua Wanggar - Kwatisore","ref_length":3,"class":"trunk","name:latin":"Jalan Trans Papua Wanggar - Kwatisore","name_en":"Jalan Trans Papua Wanggar - Kwatisore","network":"road","highway":"trunk","kind":"road","verification":"verified","source":"OpenMapTiles/OpenStreetMap national PMTiles","sourceId":"10/896/521:transportation_name:5212584400:2","sourceLayer":"transportation_name","archive":"https://its.hanifahseptiani45.workers.dev/v1/map/archive/indonesia.pmtiles","updatedAt":"2026-07-26T09:43:37.591Z"},"geometry":{"type":"LineString","coordinates":[[135.31508445739746,-3.4899473444562545],[135.31285285949707,-3.4893476436601247],[135.31027793884277,-3.4893476436601247],[135.30418395996094,-3.4873771954926696],[135.30220985412598,-3.487291523739529],[135.3014373779297,-3.485749430848074],[135.30092239379883,-3.485321071262831],[135.30049324035645,-3.485321071262831],[135.29903411865234,-3.4862634620928645],[135.29748916625977,-3.485749430848074],[135.2955150604248,-3.4872058519785583],[135.29216766357422,-3.4875485389755596],[135.29165267944336,-3.4874628672380226],[135.29019355773926,-3.486349133939669],[135.28796195983887,-3.485835102741703],[135.28727531433105,-3.4849783834542194],[135.28770446777344,-3.480266413433199],[135.287446975708,-3.477696238031868],[135.28770446777344,-3.4759827838714443],[135.29130935668945,-3.472812885470418],[135.29216766357422,-3.47032836306704],[135.2919101715088,-3.4697286497837467],[135.28950691223145,-3.4670727720979357],[135.28718948364258,-3.4657019935995095],[135.28581619262695,-3.4651879511504973]]}},{"type":"Feature","id":"pmtiles:10/896/521:water:170:0","properties":{"class":"ocean","water":"ocean","kind":"waterway","verification":"verified","source":"OpenMapTiles/OpenStreetMap national PMTiles","sourceId":"10/896/521:water:170:0","sourceLayer":"water","archive":"https://its.hanifahseptiani45.workers.dev/v1/map/archive/indonesia.pmtiles","updatedAt":"2026-07-26T09:43:37.591Z"},"geometry":{"type":"Polygon","coordinates":[[[134.99957084655762,-3.156970717063345],[135.00042915344238,-3.156970717063345],[135.3570556640625,-3.156970717063345],[135.3570556640625,-3.3866218718943912],[135.35456657409668,-3.387478679494336],[135.35293579101562,-3.3877357216264414],[135.34950256347656,-3.3877357216264414],[135.34804344177246,-3.388935250673569],[135.34770011901855,-3.3901347782335876],[135.3460693359375,-3.3921911077322875],[135.3442668914795,-3.3953612738046672],[135.34323692321777,-3.396218073659867],[135.34212112426758,-3.3968178331060983],[135.34083366394043,-3.3979316710889833],[135.3391170501709,-3.3991311874789147],[135.33860206604004,-3.398959828085964],[135.33662796020508,-3.3969035129965732],[135.3361988067627,-3.3957039938379836],[135.33379554748535,-3.3953612738046672],[135.32864570617676,-3.3951042336998682],[135.32787322998047,-3.3952755937773276],[135.32675743103027,-3.3945044731893006],[135.32598495483398,-3.394333112975019],[135.32529830932617,-3.3931335906240605],[135.32495498657227,-3.3921054274238287],[135.32546997070312,-3.391934066784117],[135.3258991241455,-3.390734541455771],[135.32504081726074,-3.389963417244658],[135.3240966796875,-3.389535014639506],[135.3097629547119,-3.386536191092702],[135.2999782562256,-3.3862791486421173],[135.29500007629395,-3.38585074440617],[135.2944850921631,-3.385336659072891],[135.29319763183594,-3.3849939353657845],[135.29027938842773,-3.384908254420054],[135.28950691223145,-3.384565530561389],[135.27697563171387,-3.383280315011632],[135.2754306793213,-3.383365996101304],[135.27508735656738,-3.3829375905771712],[135.26942253112793,-3.3818237353282825],[135.2683925628662,-3.3813096478587426],[135.26495933532715,-3.38070987879982],[135.25912284851074,-3.3801957907398332],[135.25294303894043,-3.3783107988559777],[135.24187088012695,-3.3762544398985312],[135.23354530334473,-3.3753119405877356],[135.2328586578369,-3.3757403494787326],[135.232515335083,-3.3754833041668064],[135.22427558898926,-3.376340121608706],[135.22212982177734,-3.3762544398985312],[135.2200698852539,-3.37753966475735],[135.2190399169922,-3.3772826199216723],[135.2190399169922,-3.3768542117109916],[135.21843910217285,-3.376682848373804],[135.21620750427246,-3.3781394357758927],[135.2142333984375,-3.3786535249253973],[135.2120018005371,-3.379938746607678],[135.2101993560791,-3.3807955601166526],[135.20899772644043,-3.381052604021761],[135.19972801208496,-3.3812239665873136],[135.19775390625,-3.3808812414259393],[135.19723892211914,-3.3802814721020837],[135.19586563110352,-3.379853065215144],[135.188570022583,-3.3789105693980304],[135.18582344055176,-3.37839648038468],[135.17337799072266,-3.3749692133389146],[135.17003059387207,-3.373512621182769],[135.16470909118652,-3.3706851125316177],[135.16342163085938,-3.37042806588299],[135.16324996948242,-3.3705137481067453],[135.16359329223633,-3.3708564769263205],[135.16196250915527,-3.371627616328823],[135.1611042022705,-3.3715419342031794],[135.1607608795166,-3.370942159112346],[135.15878677368164,-3.37145625206999],[135.15775680541992,-3.3715419342031794],[135.15209197998047,-3.3706851125316177],[135.1490879058838,-3.37145625206999],[135.1431655883789,-3.3753119405877356],[135.13741493225098,-3.377625346354108],[135.13501167297363,-3.3791676138025792],[135.13226509094238,-3.380367153456774],[135.12994766235352,-3.3805385161434316],[135.1285743713379,-3.3801101093700225],[135.12642860412598,-3.3791676138025792],[135.1255702972412,-3.3791676138025792],[135.12282371520996,-3.3807955601166526],[135.12042045593262,-3.3807955601166526],[135.11887550354004,-3.381395329122597],[135.1171588897705,-3.3812239665873136],[135.1164722442627,-3.381909416546705],[135.11595726013184,-3.3817380541022857],[135.11492729187012,-3.381909416546705],[135.11441230773926,-3.3816523728687145],[135.1132106781006,-3.3816523728687145],[135.11140823364258,-3.38070987879982],[135.1102066040039,-3.3795960209921816],[135.10977745056152,-3.3787392064238446],[135.10900497436523,-3.3782251173197153],[135.10857582092285,-3.3769398933682595],[135.10797500610352,-3.376682848373804],[135.10754585266113,-3.37591171298223],[135.1058292388916,-3.3757403494787326],[135.10454177856445,-3.3765971666938697],[135.1036834716797,-3.376425803311321],[135.10308265686035,-3.3758260312342543],[135.1025676727295,-3.376083076455501],[135.10188102722168,-3.3753119405877356],[135.10170936584473,-3.374369440362557],[135.10085105895996,-3.374198076587021],[135.1003360748291,-3.3732555752815188],[135.10007858276367,-3.3729985293123264],[135.09913444519043,-3.373084211309603],[135.09836196899414,-3.3729128473074894],[135.0981903076172,-3.3728271652950923],[135.0981044769287,-3.3723987551198746],[135.0977611541748,-3.3723130730621875],[135.09801864624023,-3.37145625206999],[135.09724617004395,-3.368800102198037],[135.09724617004395,-3.367771913204564],[135.09767532348633,-3.3670007707468983],[135.0977611541748,-3.3664866754358798],[135.09827613830566,-3.365715531960575],[135.09844779968262,-3.363659146376108],[135.09844779968262,-3.3630593664300505],[135.09784698486328,-3.3623739031827995],[135.09767532348633,-3.3617741224462208],[135.09758949279785,-3.359632045376756],[135.09698867797852,-3.359203629398621],[135.09587287902832,-3.359117946180433],[135.09355545043945,-3.359460679008066],[135.09346961975098,-3.3592893126092918],[135.09458541870117,-3.358518163442497],[135.0956153869629,-3.357404280237432],[135.0955295562744,-3.356890179868145],[135.09467124938965,-3.356461762687033],[135.09295463562012,-3.354405357602957],[135.09252548217773,-3.352863050950802],[135.09132385253906,-3.3521775805468366],[135.09132385253906,-3.35106369011595],[135.0904655456543,-3.3491786418829577],[135.09029388427734,-3.3477220112169874],[135.08883476257324,-3.3464367470657095],[135.08780479431152,-3.345065796779508],[135.08634567260742,-3.3440375828065783],[135.0846290588379,-3.3434377908244244],[135.08325576782227,-3.3424952598256965],[135.08265495300293,-3.3415527279214245],[135.07956504821777,-3.3404388254128747],[135.0772476196289,-3.3390678667441307],[135.07664680480957,-3.3381253315490937],[135.07561683654785,-3.337268480587028],[135.07518768310547,-3.337268480587028],[135.0746726989746,-3.3369257399929495],[135.07407188415527,-3.3370114251526815],[135.07278442382812,-3.336411628877727],[135.07149696350098,-3.335297720538847],[135.07038116455078,-3.3347836085721383],[135.06986618041992,-3.334269496336617],[135.06720542907715,-3.3340981255317246],[135.0666904449463,-3.334183810937901],[135.06591796875,-3.33495497925756],[135.06540298461914,-3.335040664589087],[135.06471633911133,-3.335040664589087],[135.06394386291504,-3.334526552487972],[135.06128311157227,-3.335040664589087],[135.06016731262207,-3.334697923218215],[135.05922317504883,-3.335040664589087],[135.05853652954102,-3.3344408671116668],[135.05630493164062,-3.3331555855710917],[135.0545883178711,-3.3313561885934035],[135.05407333374023,-3.3310991316137404],[135.053129196167,-3.32972815992197],[135.05081176757812,-3.3289569875065865],[135.04900932312012,-3.32904267336032],[135.04806518554688,-3.3294711025172745],[135.0450611114502,-3.332555786944127],[135.04403114318848,-3.332727158017704],[135.04308700561523,-3.332041673544296],[135.04188537597656,-3.331784616743647],[135.04094123840332,-3.3321273591296006],[135.03965377807617,-3.332984214572136],[135.03862380981445,-3.3328985290614526],[135.0377655029297,-3.3335840129378767],[135.03742218017578,-3.3343551817278723],[135.03656387329102,-3.334612237856831],[135.0355339050293,-3.3353834058404885],[135.03235816955566,-3.3359832027429235],[135.03210067749023,-3.3367543696510893],[135.03244400024414,-3.3371827954497206],[135.03210067749023,-3.33735416571686],[135.03175735473633,-3.3371827954497206],[135.02986907958984,-3.3380396464865356],[135.0267791748047,-3.3385537567498886],[135.0242042541504,-3.3395819764692334],[135.02223014831543,-3.339924716136437],[135.01665115356445,-3.340010401034533],[135.01261711120605,-3.3389821817637824],[135.01081466674805,-3.338896496775945],[135.0095272064209,-3.3385537567498886],[135.00781059265137,-3.337696906161483],[135.00755310058594,-3.337782591253955],[135.00240325927734,-3.3364973140822656],[135.00042915344238,-3.3356404617006206],[135.00042915344238,-3.335726146972405],[134.99991416931152,-3.3354690911346694],[134.99957084655762,-3.335297720538847],[134.99957084655762,-3.3352120352297305],[134.9988842010498,-3.3348692939185867],[134.9952793121338,-3.3321273591296006],[134.9945068359375,-3.331698931128514],[134.9945068359375,-3.156970717063345],[134.99957084655762,-3.156970717063345]],[[135.07965087890625,-3.2160166262649597],[135.07965087890625,-3.217302058187144],[135.0798225402832,-3.217644839759288],[135.08050918579102,-3.2174734489876187],[135.0823974609375,-3.215245366333818],[135.08256912231445,-3.2149025839549807],[135.08188247680664,-3.2142170188517554],[135.0812816619873,-3.2143884101707556],[135.07965087890625,-3.2160166262649597]]]}},{"type":"Feature","id":"pmtiles:10/896/521:waterway:4282218032:0","properties":{"name":"Wanggar","name_int":"Wanggar","class":"river","name:latin":"Wanggar","name_de":"Wanggar","name_en":"Wanggar","waterway":"river","kind":"waterway","verification":"verified","source":"OpenMapTiles/OpenStreetMap national PMTiles","sourceId":"10/896/521:waterway:4282218032:0","sourceLayer":"waterway","archive":"https://its.hanifahseptiani45.workers.dev/v1/map/archive/indonesia.pmtiles","updatedAt":"2026-07-26T09:43:37.591Z"},"geometry":{"type":"LineString","coordinates":[[135.35860061645508,-3.4791526716198717],[135.35576820373535,-3.4785529639444093],[135.35362243652344,-3.477267874783635],[135.35216331481934,-3.4757257654788845],[135.3504467010498,-3.4744406724658035],[135.34958839416504,-3.4741836536531707],[135.3486442565918,-3.4742693265985025],[135.34667015075684,-3.4753830741798737],[135.34486770629883,-3.4754687470162935],[135.3428077697754,-3.4739266347705353],[135.3420352935791,-3.4726415393076167],[135.3398036956787,-3.470242689764163],[135.338773727417,-3.468186528164921],[135.33808708190918,-3.4674154664121204],[135.33740043640137,-3.4671584456881277],[135.33645629882812,-3.4672441192705463],[135.33559799194336,-3.468100854667867],[135.3343963623047,-3.46870056898409],[135.33302307128906,-3.4687862424267593],[135.33190727233887,-3.468443548609443],[135.33113479614258,-3.4674154664121204],[135.33061981201172,-3.4661303620936508],[135.33113479614258,-3.463817169921313],[135.33087730407715,-3.4616753202769814],[135.32916069030762,-3.4594477915090778],[135.32855987548828,-3.4582483507730757],[135.32804489135742,-3.456020813952321],[135.32581329345703,-3.453964621475606],[135.32538414001465,-3.4528508486909573],[135.32504081726074,-3.4513943746169105],[135.32512664794922,-3.449937898309912],[135.3247833251953,-3.4466822373189814],[135.32392501831055,-3.4458254825743495],[135.32306671142578,-3.445654131532848],[135.31868934631348,-3.446168184564783],[135.3178310394287,-3.4458254825743495],[135.3174877166748,-3.4453971049127574],[135.31757354736328,-3.4432552137127885],[135.3189468383789,-3.4414560213815406],[135.31903266906738,-3.440684937913673],[135.31757354736328,-3.438200331384863],[135.31740188598633,-3.437172216444708],[135.31765937805176,-3.435458689082253],[135.31808853149414,-3.434773277275795],[135.3200626373291,-3.4333167755531804],[135.32100677490234,-3.4320316251296674],[135.32092094421387,-3.4304037654449218],[135.320405960083,-3.4295469960761267],[135.32032012939453,-3.428861580028297],[135.32092094421387,-3.4278334550354117],[135.3219509124756,-3.4274050692955598],[135.32272338867188,-3.42663397448041],[135.32272338867188,-3.426119910925081],[135.32238006591797,-3.4255201697615547],[135.31980514526367,-3.423378233967597],[135.31954765319824,-3.422692813501712],[135.31963348388672,-3.4213219710988625],[135.31997680664062,-3.4207222269309767],[135.3211784362793,-3.4200368045653278],[135.3218650817871,-3.420122482387825],[135.32418251037598,-3.4214933265064786],[135.32504081726074,-3.42175035956042],[135.32649993896484,-3.421579004198776],[135.32727241516113,-3.4207222269309767],[135.3274440765381,-3.4198654488973403],[135.32684326171875,-3.4169523978572727],[135.32710075378418,-3.4160956164563316],[135.32752990722656,-3.4156672254690363],[135.32855987548828,-3.4153245125415594],[135.3303623199463,-3.416181294630846],[135.33096313476562,-3.416181294630846],[135.33164978027344,-3.4159242600843385],[135.33276557922363,-3.4148104429209667],[135.33319473266602,-3.4138679812351143],[135.33310890197754,-3.4124114477198617],[135.3328514099121,-3.411211947872985],[135.33233642578125,-3.4105265187169636],[135.331392288208,-3.4099267678045777],[135.3288173675537,-3.4105265187169636],[135.32838821411133,-3.410440840038106],[135.32761573791504,-3.4097554103323375],[135.32752990722656,-3.4086415860185184],[135.3281307220459,-3.4076991182841],[135.32950401306152,-3.4063282544771027],[135.33079147338867,-3.405557142727673],[135.331392288208,-3.405385784477261],[135.33353805541992,-3.4066709706118985],[135.33405303955078,-3.4065852915896357],[135.33628463745117,-3.404871709543059],[135.33705711364746,-3.403672200296114],[135.33860206604004,-3.398959828085964]]}},{"type":"Feature","id":"pmtiles:10/897/521:transportation:654147950:1","properties":{"class":"trunk","highway":"trunk","kind":"road","verification":"verified","source":"OpenMapTiles/OpenStreetMap national PMTiles","sourceId":"10/897/521:transportation:654147950:1","sourceLayer":"transportation","archive":"https://its.hanifahseptiani45.workers.dev/v1/map/archive/indonesia.pmtiles","updatedAt":"2026-07-26T09:43:37.668Z"},"geometry":{"type":"LineString","coordinates":[[135.3460693359375,-3.464759582229661],[135.3486442565918,-3.4670727720979357],[135.349760055542,-3.468871915861669],[135.35242080688477,-3.4721275006326664],[135.35422325134277,-3.475897111081693],[135.35439491271973,-3.4770108567412876],[135.35345077514648,-3.4800950686245358],[135.35216331481934,-3.481208809323803],[135.34649848937988,-3.4849783834542194],[135.3460693359375,-3.4850640554180785]]}},{"type":"Feature","id":"pmtiles:10/897/521:transportation_name:3228343720:0","properties":{"name_int":"Jalan Trans Papua Nabire - Wanggar","ref":"017","name_de":"Jalan Trans Papua Nabire - Wanggar","name":"Jalan Trans Papua Nabire - Wanggar","ref_length":3,"class":"trunk","name:latin":"Jalan Trans Papua Nabire - Wanggar","name_en":"Jalan Trans Papua Nabire - Wanggar","network":"road","highway":"trunk","kind":"road","verification":"verified","source":"OpenMapTiles/OpenStreetMap national PMTiles","sourceId":"10/897/521:transportation_name:3228343720:0","sourceLayer":"transportation_name","archive":"https://its.hanifahseptiani45.workers.dev/v1/map/archive/indonesia.pmtiles","updatedAt":"2026-07-26T09:43:37.669Z"},"geometry":{"type":"LineString","coordinates":[[135.3373146057129,-3.4603902081653786],[135.340576171875,-3.462532060716086],[135.3439235687256,-3.4632174525092836],[135.34564018249512,-3.464245539268717],[135.34692764282227,-3.4657019935995095],[135.3486442565918,-3.4670727720979357],[135.349760055542,-3.468871915861669],[135.35242080688477,-3.4721275006326664],[135.35422325134277,-3.475897111081693],[135.35439491271973,-3.4770108567412876],[135.35345077514648,-3.4800950686245358],[135.35216331481934,-3.481208809323803],[135.34649848937988,-3.4849783834542194],[135.3428077697754,-3.485749430848074],[135.33422470092773,-3.488576599216998]]}},{"type":"Feature","id":"pmtiles:10/896/522:transportation:5447243272:0","properties":{"class":"trunk","highway":"trunk","kind":"road","verification":"verified","source":"OpenMapTiles/OpenStreetMap national PMTiles","sourceId":"10/896/522:transportation:5447243272:0","sourceLayer":"transportation","archive":"https://its.hanifahseptiani45.workers.dev/v1/map/archive/indonesia.pmtiles","updatedAt":"2026-07-26T09:43:47.095Z"},"geometry":{"type":"LineString","coordinates":[[135.2153491973877,-3.507938190040491],[135.2160358428955,-3.5085378789391655],[135.2163791656494,-3.509308906957685],[135.21629333496094,-3.5116219871949],[135.2168083190918,-3.512307343201897],[135.21818161010742,-3.5132497068899085],[135.22178649902344,-3.5123930126673883],[135.22290229797363,-3.5125643515747953],[135.2245330810547,-3.5134210456400297],[135.22504806518555,-3.5134210456400297],[135.22539138793945,-3.5131640375030315],[135.22539138793945,-3.512478682125021],[135.22582054138184,-3.5117933262438044],[135.2266788482666,-3.511107969859495],[135.22770881652832,-3.510679621863858],[135.22916793823242,-3.5113649785625682],[135.23131370544434,-3.5115363176586385],[135.23268699645996,-3.507938190040491]]}},{"type":"Feature","id":"pmtiles:10/896/522:transportation_name:5212584400:0","properties":{"name_int":"Jalan Trans Papua Wanggar - Kwatisore","ref":"018","name_de":"Jalan Trans Papua Wanggar - Kwatisore","name":"Jalan Trans Papua Wanggar - Kwatisore","ref_length":3,"class":"trunk","name:latin":"Jalan Trans Papua Wanggar - Kwatisore","name_en":"Jalan Trans Papua Wanggar - Kwatisore","network":"road","highway":"trunk","kind":"road","verification":"verified","source":"OpenMapTiles/OpenStreetMap national PMTiles","sourceId":"10/896/522:transportation_name:5212584400:0","sourceLayer":"transportation_name","archive":"https://its.hanifahseptiani45.workers.dev/v1/map/archive/indonesia.pmtiles","updatedAt":"2026-07-26T09:43:47.095Z"},"geometry":{"type":"LineString","coordinates":[[135.20968437194824,-3.5017699390478327],[135.21320343017578,-3.5036546867212905],[135.21371841430664,-3.5041687081553334],[135.21380424499512,-3.5045970591346673],[135.21320343017578,-3.5069958209937937],[135.2153491973877,-3.5078525201664092],[135.2160358428955,-3.5085378789391655],[135.2163791656494,-3.509308906957685],[135.21629333496094,-3.5116219871949],[135.2168083190918,-3.512307343201897],[135.21818161010742,-3.5132497068899085],[135.22178649902344,-3.5123930126673883],[135.22290229797363,-3.5125643515747953],[135.2245330810547,-3.5134210456400297],[135.22504806518555,-3.5134210456400297],[135.22539138793945,-3.5131640375030315],[135.22539138793945,-3.512478682125021],[135.22582054138184,-3.5117933262438044],[135.2266788482666,-3.511107969859495],[135.22770881652832,-3.510679621863858],[135.22916793823242,-3.5113649785625682],[135.23131370544434,-3.5115363176586385],[135.23560523986816,-3.4997138463498914]]}},{"type":"Feature","id":"pmtiles:8/224/130:landuse:4282242040:1","properties":{"class":"residential","kind":"green","verification":"verified","source":"OpenMapTiles/OpenStreetMap national PMTiles","sourceId":"8/224/130:landuse:4282242040:1","sourceLayer":"landuse","archive":"https://its.hanifahseptiani45.workers.dev/v1/map/archive/indonesia.pmtiles","updatedAt":"2026-07-26T09:35:39.041Z"},"geometry":{"type":"Polygon","coordinates":[[[135.32718658447266,-3.4366581585590836],[135.3398895263672,-3.4359727476140733],[135.33679962158203,-3.453450572660415],[135.33199310302734,-3.453450572660415],[135.32718658447266,-3.4366581585590836]]]}},{"type":"Feature","id":"pmtiles:8/224/130:landuse:4282242040:2","properties":{"class":"residential","kind":"green","verification":"verified","source":"OpenMapTiles/OpenStreetMap national PMTiles","sourceId":"8/224/130:landuse:4282242040:2","sourceLayer":"landuse","archive":"https://its.hanifahseptiani45.workers.dev/v1/map/archive/indonesia.pmtiles","updatedAt":"2026-07-26T09:35:39.041Z"},"geometry":{"type":"Polygon","coordinates":[[[135.29800415039062,-3.443854943734536],[135.31173706054688,-3.4445403490110778],[135.3179168701172,-3.462360712690284],[135.2969741821289,-3.464759582229661],[135.29800415039062,-3.443854943734536]]]}},{"type":"Feature","id":"pmtiles:8/224/130:landuse:4282242040:3","properties":{"class":"residential","kind":"green","verification":"verified","source":"OpenMapTiles/OpenStreetMap national PMTiles","sourceId":"8/224/130:landuse:4282242040:3","sourceLayer":"landuse","archive":"https://its.hanifahseptiani45.workers.dev/v1/map/archive/indonesia.pmtiles","updatedAt":"2026-07-26T09:35:39.041Z"},"geometry":{"type":"Polygon","coordinates":[[[135.30624389648438,-3.4880625692368312],[135.3134536743164,-3.4894333152258667],[135.31551361083984,-3.49320285638251],[135.3137969970703,-3.5010845753167246],[135.30349731445312,-3.499028481114337],[135.30624389648438,-3.4880625692368312]]]}},{"type":"Feature","id":"pmtiles:8/224/130:transportation:654147950:3","properties":{"class":"trunk","highway":"trunk","kind":"road","verification":"verified","source":"OpenMapTiles/OpenStreetMap national PMTiles","sourceId":"8/224/130:transportation:654147950:3","sourceLayer":"transportation","archive":"https://its.hanifahseptiani45.workers.dev/v1/map/archive/indonesia.pmtiles","updatedAt":"2026-07-26T09:35:39.044Z"},"geometry":{"type":"LineString","coordinates":[[134.97802734375,-3.32732895486933],[134.98214721679688,-3.330413646006477],[134.98626708984375,-3.3369257399929495],[134.989013671875,-3.3386394417676115],[134.99073028564453,-3.3386394417676115],[134.99347686767578,-3.3410386192284136],[135.00137329101562,-3.34172409742591],[135.00343322753906,-3.3403531405521676],[135.0058364868164,-3.3403531405521676],[135.00755310058594,-3.342066836345097],[135.0102996826172,-3.3424095751445435],[135.010986328125,-3.344123267345495],[135.01338958740234,-3.3434377908244244],[135.02334594726562,-3.3458369565514516],[135.02471923828125,-3.344123267345495],[135.02849578857422,-3.344123267345495],[135.02952575683594,-3.348578853047613],[135.0322723388672,-3.352006212870805],[135.0333023071289,-3.357489963606014],[135.0381088256836,-3.362973683550507],[135.04222869873047,-3.3735983031347274],[135.03948211669922,-3.3756546677156507],[135.04051208496094,-3.377025575017953],[135.04497528076172,-3.3787392064238446],[135.0446319580078,-3.3807955601166526],[135.04566192626953,-3.3821664601565544],[135.04669189453125,-3.3873073180350133],[135.05046844482422,-3.3924481486120897],[135.0542449951172,-3.394161752730355],[135.05905151367188,-3.398959828085964],[135.06145477294922,-3.398274390209707],[135.06282806396484,-3.399645265475158],[135.06351470947266,-3.4030724451125423],[135.07038116455078,-3.411983055089266],[135.0717544555664,-3.4150674777656604],[135.0817108154297,-3.4147247646241112],[135.08411407470703,-3.411983055089266],[135.08480072021484,-3.408213191708228],[135.087890625,-3.406156896363939],[135.09201049804688,-3.4054714636062755],[135.0930404663086,-3.403757879577583],[135.0933837890625,-3.399987983987117],[135.0995635986328,-3.398274390209707],[135.1050567626953,-3.3931335906240605],[135.11157989501953,-3.390391819660067],[135.11878967285156,-3.389363653544322],[135.12393951416016,-3.391077263130015],[135.1270294189453,-3.390734541455771],[135.12908935546875,-3.392790869678848],[135.13629913330078,-3.388678208860071],[135.13938903808594,-3.390734541455771],[135.15037536621094,-3.3917627061140365],[135.15140533447266,-3.390391819660067],[135.15106201171875,-3.384565530561389],[135.15380859375,-3.3842228065814624],[135.15655517578125,-3.3821664601565544],[135.16376495361328,-3.3855937017736437],[135.16616821289062,-3.3859364252685253],[135.16719818115234,-3.3969035129965732],[135.1699447631836,-3.405128747044458],[135.17440795898438,-3.4078704761226533],[135.1761245727539,-3.412325769209019],[135.18299102783203,-3.4150674777656604],[135.1864242553711,-3.4208935824457996],[135.19638061523438,-3.421579004198776],[135.1974105834961,-3.425691524418056],[135.19912719726562,-3.4277477779027947],[135.1984405517578,-3.431517564476181],[135.19947052001953,-3.4332310989120742],[135.1974105834961,-3.435630041956955],[135.1984405517578,-3.439399797414154],[135.19535064697266,-3.4486527703030703],[135.1984405517578,-3.4568775595025016],[135.20084381103516,-3.4582483507730757],[135.20221710205078,-3.4603045339626277],[135.2029037475586,-3.4661303620936508],[135.20187377929688,-3.4671584456881277],[135.20084381103516,-3.472298846888748],[135.19775390625,-3.4753830741798737],[135.1974105834961,-3.485663758946629],[135.19981384277344,-3.4897760014106893],[135.2032470703125,-3.4928601714481573],[135.20633697509766,-3.4938882258758923],[135.20702362060547,-3.4980004323211205],[135.20977020263672,-3.5017699390478327],[135.2135467529297,-3.5041687081553334],[135.21320343017578,-3.5069101510333525],[135.21595001220703,-3.508623548750407],[135.21629333496094,-3.5117076567232886],[135.21800994873047,-3.51307836810831],[135.22178649902344,-3.5123930126673883],[135.2252197265625,-3.5134210456400297],[135.2259063720703,-3.5117076567232886],[135.22762298583984,-3.510679621863858],[135.2313995361328,-3.5113649785625682],[135.2355194091797,-3.4997138463498914],[135.24375915527344,-3.4897760014106893],[135.24616241455078,-3.490804059215222],[135.2475357055664,-3.4890906289160455],[135.25028228759766,-3.4884052559215064],[135.2581787109375,-3.4897760014106893],[135.25920867919922,-3.4890906289160455],[135.26161193847656,-3.4801807410327683],[135.26470184326172,-3.4788099815663287],[135.26744842529297,-3.4798380513530986],[135.26710510253906,-3.477781910658166],[135.2688217163086,-3.4767538386288805],[135.27053833007812,-3.4719561543455058],[135.274658203125,-3.472298846888748],[135.28186798095703,-3.464074191553024],[135.28461456298828,-3.464416886953373],[135.28942108154297,-3.4671584456881277],[135.2918243408203,-3.4698999964749504],[135.2911376953125,-3.472984231602126],[135.28804779052734,-3.4753830741798737],[135.28736114501953,-3.4849783834542194],[135.29216766357422,-3.4877198824272],[135.30075073242188,-3.485321071262831],[135.3021240234375,-3.4873771954926696],[135.31517028808594,-3.490118687470556],[135.3182601928711,-3.490118687470556],[135.32100677490234,-3.488747942481254],[135.32615661621094,-3.488747942481254],[135.33199310302734,-3.4911467449000213],[135.33405303955078,-3.4884052559215064],[135.3464126586914,-3.4849783834542194],[135.3522491455078,-3.481208809323803],[135.35430908203125,-3.4770965294298577],[135.35259246826172,-3.4719561543455058],[135.3457260131836,-3.464074191553024],[135.33233642578125,-3.458933745665206],[135.33370971679688,-3.4380289789718006],[135.33199310302734,-3.4376862740533056],[135.33267974853516,-3.4243206863072544],[135.3343963623047,-3.4222644254615204],[135.35568237304688,-3.422949846233891],[135.3618621826172,-3.424663396018971],[135.3728485107422,-3.4226071359090042],[135.37490844726562,-3.422949846233891],[135.37731170654297,-3.425006105608034],[135.38211822509766,-3.424663396018971],[135.38623809814453,-3.427062360565543],[135.39241790771484,-3.4277477779027947],[135.40203094482422,-3.434601924247289],[135.4058074951172,-3.434259218097992],[135.4071807861328,-3.4349446302735487],[135.41301727294922,-3.4479673679890936],[135.42675018310547,-3.4486527703030703],[135.4288101196289,-3.4513943746169105],[135.45833587646484,-3.4376862740533056],[135.4617691040039,-3.431517564476181],[135.4621124267578,-3.4277477779027947],[135.46966552734375,-3.414382051360235],[135.47344207763672,-3.4030724451125423],[135.48614501953125,-3.397246232482402]]}},{"type":"Feature","id":"pmtiles:8/224/130:transportation_name:5212584400:0","properties":{"name_int":"Jalan Trans Papua Wanggar - Kwatisore","ref":"018","name_de":"Jalan Trans Papua Wanggar - Kwatisore","name":"Jalan Trans Papua Wanggar - Kwatisore","ref_length":3,"class":"trunk","name:latin":"Jalan Trans Papua Wanggar - Kwatisore","name_en":"Jalan Trans Papua Wanggar - Kwatisore","network":"road","highway":"trunk","kind":"road","verification":"verified","source":"OpenMapTiles/OpenStreetMap national PMTiles","sourceId":"8/224/130:transportation_name:5212584400:0","sourceLayer":"transportation_name","archive":"https://its.hanifahseptiani45.workers.dev/v1/map/archive/indonesia.pmtiles","updatedAt":"2026-07-26T09:35:39.045Z"},"geometry":{"type":"LineString","coordinates":[[135.04188537597656,-3.377368301541125],[135.04497528076172,-3.3787392064238446],[135.0446319580078,-3.3807955601166526],[135.04566192626953,-3.3821664601565544],[135.04669189453125,-3.3873073180350133],[135.05046844482422,-3.3924481486120897],[135.0542449951172,-3.394161752730355],[135.05905151367188,-3.398959828085964],[135.06145477294922,-3.398274390209707],[135.06282806396484,-3.399645265475158],[135.06351470947266,-3.4030724451125423],[135.07038116455078,-3.411983055089266],[135.0717544555664,-3.4150674777656604],[135.0817108154297,-3.4147247646241112],[135.08411407470703,-3.411983055089266],[135.08480072021484,-3.408213191708228],[135.087890625,-3.406156896363939],[135.09201049804688,-3.4054714636062755],[135.0930404663086,-3.403757879577583],[135.0933837890625,-3.399987983987117],[135.0995635986328,-3.398274390209707],[135.1050567626953,-3.3931335906240605],[135.11157989501953,-3.390391819660067],[135.11878967285156,-3.389363653544322],[135.12393951416016,-3.391077263130015],[135.1270294189453,-3.390734541455771],[135.12908935546875,-3.392790869678848],[135.13629913330078,-3.388678208860071],[135.13938903808594,-3.390734541455771],[135.15037536621094,-3.3917627061140365],[135.15140533447266,-3.390391819660067],[135.15106201171875,-3.384565530561389],[135.15380859375,-3.3842228065814624],[135.15655517578125,-3.3821664601565544],[135.16376495361328,-3.3855937017736437],[135.16616821289062,-3.3859364252685253],[135.16719818115234,-3.3969035129965732],[135.1699447631836,-3.405128747044458],[135.17440795898438,-3.4078704761226533],[135.1761245727539,-3.412325769209019],[135.18299102783203,-3.4150674777656604],[135.1864242553711,-3.4208935824457996],[135.19638061523438,-3.421579004198776],[135.1974105834961,-3.425691524418056],[135.19912719726562,-3.4277477779027947],[135.1984405517578,-3.431517564476181],[135.19947052001953,-3.4332310989120742],[135.1974105834961,-3.435630041956955],[135.1984405517578,-3.439399797414154],[135.19535064697266,-3.4486527703030703],[135.1984405517578,-3.4568775595025016],[135.20084381103516,-3.4582483507730757],[135.20221710205078,-3.4603045339626277],[135.2029037475586,-3.4661303620936508],[135.20187377929688,-3.4671584456881277],[135.20084381103516,-3.472298846888748],[135.19775390625,-3.4753830741798737],[135.1974105834961,-3.485663758946629],[135.19981384277344,-3.4897760014106893],[135.2032470703125,-3.4928601714481573],[135.20633697509766,-3.4938882258758923],[135.20702362060547,-3.4980004323211205],[135.20977020263672,-3.5017699390478327],[135.2135467529297,-3.5041687081553334],[135.21320343017578,-3.5069101510333525],[135.21595001220703,-3.508623548750407],[135.21629333496094,-3.5117076567232886],[135.21800994873047,-3.51307836810831],[135.22178649902344,-3.5123930126673883],[135.2252197265625,-3.5134210456400297],[135.2259063720703,-3.5117076567232886],[135.22762298583984,-3.510679621863858],[135.2313995361328,-3.5113649785625682],[135.2355194091797,-3.4997138463498914],[135.24375915527344,-3.4897760014106893],[135.24616241455078,-3.490804059215222],[135.2475357055664,-3.4890906289160455],[135.25028228759766,-3.4884052559215064],[135.2581787109375,-3.4897760014106893],[135.25920867919922,-3.4890906289160455],[135.26161193847656,-3.4801807410327683],[135.26470184326172,-3.4788099815663287],[135.26744842529297,-3.4798380513530986],[135.26710510253906,-3.477781910658166],[135.2688217163086,-3.4767538386288805],[135.27053833007812,-3.4719561543455058],[135.274658203125,-3.472298846888748],[135.28186798095703,-3.464074191553024],[135.28461456298828,-3.464416886953373],[135.28942108154297,-3.4671584456881277],[135.2918243408203,-3.4698999964749504],[135.2911376953125,-3.472984231602126],[135.28804779052734,-3.4753830741798737],[135.28736114501953,-3.477781910658166],[135.28736114501953,-3.4849783834542194],[135.28804779052734,-3.485663758946629],[135.29216766357422,-3.4877198824272],[135.30075073242188,-3.485321071262831],[135.3021240234375,-3.4873771954926696],[135.31517028808594,-3.490118687470556]]}}]}