{"type":"FeatureCollection","features":[{"type":"Feature","id":"pmtiles:10/840/510:mountain_peak:10701728561:0","properties":{"name_int":"Gunung Tingan","name_de":"Gunung Tingan","name":"Gunung Tingan","rank":2,"class":"peak","name:latin":"Gunung Tingan","name_en":"Gunung Tingan","kind":"poi","verification":"verified","source":"OpenMapTiles/OpenStreetMap national PMTiles","sourceId":"10/840/510:mountain_peak:10701728561:0","sourceLayer":"mountain_peak","archive":"https://its.hanifahseptiani45.workers.dev/v1/map/archive/indonesia.pmtiles","updatedAt":"2026-07-26T09:41:05.292Z"},"geometry":{"type":"Point","coordinates":[115.70002555847168,0.29997688575463144]}},{"type":"Feature","id":"pmtiles:10/841/510:mountain_peak:10701728561:0","properties":{"name_int":"Gunung Tingan","name_de":"Gunung Tingan","name":"Gunung Tingan","rank":2,"class":"peak","name:latin":"Gunung Tingan","name_en":"Gunung Tingan","kind":"poi","verification":"verified","source":"OpenMapTiles/OpenStreetMap national PMTiles","sourceId":"10/841/510:mountain_peak:10701728561:0","sourceLayer":"mountain_peak","archive":"https://its.hanifahseptiani45.workers.dev/v1/map/archive/indonesia.pmtiles","updatedAt":"2026-07-26T09:41:05.362Z"},"geometry":{"type":"Point","coordinates":[115.70002555847168,0.29997688575463144]}},{"type":"Feature","id":"pmtiles:10/840/511:mountain_peak:10701728561:0","properties":{"name_int":"Gunung Tingan","name_de":"Gunung Tingan","name":"Gunung Tingan","rank":2,"class":"peak","name:latin":"Gunung Tingan","name_en":"Gunung Tingan","kind":"poi","verification":"verified","source":"OpenMapTiles/OpenStreetMap national PMTiles","sourceId":"10/840/511:mountain_peak:10701728561:0","sourceLayer":"mountain_peak","archive":"https://its.hanifahseptiani45.workers.dev/v1/map/archive/indonesia.pmtiles","updatedAt":"2026-07-26T09:41:14.629Z"},"geometry":{"type":"Point","coordinates":[115.70002555847168,0.29997688575463144]}},{"type":"Feature","id":"pmtiles:10/841/511:landcover:188130883:0","properties":{"subclass":"wood","class":"wood","kind":"green","verification":"verified","source":"OpenMapTiles/OpenStreetMap national PMTiles","sourceId":"10/841/511:landcover:188130883:0","sourceLayer":"landcover","archive":"https://its.hanifahseptiani45.workers.dev/v1/map/archive/indonesia.pmtiles","updatedAt":"2026-07-26T09:41:14.701Z"},"geometry":{"type":"Polygon","coordinates":[[[115.74191093444824,0.3570533530247104],[115.74199676513672,0.3568816949793643],[115.74337005615234,0.3567100369308065],[115.74276924133301,0.3558517466400417],[115.74010848999023,0.35628089179542144],[115.73847770690918,0.35465014009885465],[115.73607444763184,0.35379184961678334],[115.73667526245117,0.3520752684146231],[115.73384284973145,0.3531052171739333],[115.7328987121582,0.3543926529625878],[115.73066711425781,0.3535343624566565],[115.7285213470459,0.3512169776949321],[115.72783470153809,0.3496720542010081],[115.72268486022949,0.34761215581383453],[115.72019577026367,0.3453805987207801],[115.71890830993652,0.34503728219834784],[115.71710586547852,0.34280572450106206],[115.71487426757812,0.3423765787303239],[115.71418762207031,0.3412607996365722],[115.7120418548584,0.33980170370335827],[115.71144104003906,0.3381709491643363],[115.71075439453125,0.33765597398978286],[115.70757865905762,0.33722682799012205],[115.70062637329102,0.3404025079379096],[115.69908142089844,0.3415182871312368],[115.69599151611328,0.3399733620598937],[115.69384574890137,0.340316678763827],[115.69169998168945,0.33842843674138123],[115.69101333618164,0.3343944639191392],[115.6889533996582,0.33336451314490034],[115.68886756896973,0.33173375753217726],[115.68766593933105,0.3306179772211806],[115.68818092346191,0.32821475766448316],[115.68586349487305,0.3293305382450171],[115.68294525146484,0.3295021967847873],[115.67968368530273,0.3305321479612786],[115.67745208740234,0.3334503423802033],[115.67582130432129,0.33370783008163585],[115.67479133605957,0.3348236100431876],[115.67513465881348,0.3373984863922601],[115.67436218261719,0.3386859243115907],[115.67410469055176,0.3412607996365722],[115.67316055297852,0.34229074957386274],[115.67161560058594,0.34280572450106206],[115.67161560058594,0.3433206994005502],[115.67341804504395,0.3445223073914718],[115.67710876464844,0.34486562393247766],[115.67994117736816,0.3464105482136546],[115.68079948425293,0.3488137632611341],[115.68243026733398,0.35104531954154083],[115.68320274353027,0.35628089179542144],[115.68354606628418,0.3570533530247104],[115.74191093444824,0.3570533530247104]]]}},{"type":"Feature","id":"pmtiles:10/841/511:landcover:7057987072:0","properties":{"subclass":"orchard","class":"farmland","kind":"green","verification":"verified","source":"OpenMapTiles/OpenStreetMap national PMTiles","sourceId":"10/841/511:landcover:7057987072:0","sourceLayer":"landcover","archive":"https://its.hanifahseptiani45.workers.dev/v1/map/archive/indonesia.pmtiles","updatedAt":"2026-07-26T09:41:14.701Z"},"geometry":{"type":"Polygon","coordinates":[[[115.6585693359375,0.01750946017669719],[115.66886901855469,0.034675596027753386],[115.6765079498291,0.034418104009134254],[115.68294525146484,0.03536224140732713],[115.69032669067383,0.031843183785539964],[115.69564819335938,0.03596305611026196],[115.70114135742188,0.03458976535496561],[115.7259464263916,0.012617111104077594],[115.72568893432617,0.00231742858824191],[115.74191093444824,0.0017166137692754546],[115.75658798217773,-0.005493164054087174],[115.71023941040039,-0.005493164054087174],[115.71032524108887,-0.0036048889136424123],[115.71281433105469,-0.0004291534423828125],[115.71272850036621,0.0018024444577235954],[115.70448875427246,0.004634857172675311],[115.68843841552734,0.003347396848681683],[115.68783760070801,0.0018024444577235954],[115.68517684936523,0.0018882751461575253],[115.67419052124023,-0.0036048889136424123],[115.6585693359375,-0.0038623809785178764],[115.6585693359375,0.01750946017669719]]]}},{"type":"Feature","id":"pmtiles:10/841/511:landuse:6035124842:0","properties":{"class":"residential","kind":"green","verification":"verified","source":"OpenMapTiles/OpenStreetMap national PMTiles","sourceId":"10/841/511:landuse:6035124842:0","sourceLayer":"landuse","archive":"https://its.hanifahseptiani45.workers.dev/v1/map/archive/indonesia.pmtiles","updatedAt":"2026-07-26T09:41:14.701Z"},"geometry":{"type":"Polygon","coordinates":[[[115.77727317810059,0.03124236905723876],[115.77486991882324,0.030040739590432963],[115.77341079711914,0.02652168179214698],[115.77229499816895,0.026865004508792367],[115.77383995056152,0.02995490891372299],[115.77366828918457,0.030641554325512743],[115.77701568603516,0.031929014460715166],[115.77727317810059,0.03124236905723876]]]}},{"type":"Feature","id":"pmtiles:10/841/511:mountain_peak:10701684931:0","properties":{"name_int":"Bukit Batubanggok","name_de":"Bukit Batubanggok","name":"Bukit Batubanggok","rank":1,"class":"peak","name:latin":"Bukit Batubanggok","name_en":"Bukit Batubanggok","kind":"poi","verification":"verified","source":"OpenMapTiles/OpenStreetMap national PMTiles","sourceId":"10/841/511:mountain_peak:10701684931:0","sourceLayer":"mountain_peak","archive":"https://its.hanifahseptiani45.workers.dev/v1/map/archive/indonesia.pmtiles","updatedAt":"2026-07-26T09:41:14.701Z"},"geometry":{"type":"Point","coordinates":[115.76663017272949,0.25002400202541253]}},{"type":"Feature","id":"pmtiles:10/841/511:mountain_peak:10701728561:0","properties":{"name_int":"Gunung Tingan","name_de":"Gunung Tingan","name":"Gunung Tingan","rank":2,"class":"peak","name:latin":"Gunung Tingan","name_en":"Gunung Tingan","kind":"poi","verification":"verified","source":"OpenMapTiles/OpenStreetMap national PMTiles","sourceId":"10/841/511:mountain_peak:10701728561:0","sourceLayer":"mountain_peak","archive":"https://its.hanifahseptiani45.workers.dev/v1/map/archive/indonesia.pmtiles","updatedAt":"2026-07-26T09:41:14.701Z"},"geometry":{"type":"Point","coordinates":[115.70002555847168,0.29997688575463144]}},{"type":"Feature","id":"pmtiles:10/841/511:waterway:5763902260:0","properties":{"name":"Sungai Batuq","name_int":"Sungai Batuq","class":"river","name:latin":"Sungai Batuq","name_de":"Sungai Batuq","name_en":"Sungai Batuq","waterway":"river","kind":"waterway","verification":"verified","source":"OpenMapTiles/OpenStreetMap national PMTiles","sourceId":"10/841/511:waterway:5763902260:0","sourceLayer":"waterway","archive":"https://its.hanifahseptiani45.workers.dev/v1/map/archive/indonesia.pmtiles","updatedAt":"2026-07-26T09:41:14.701Z"},"geometry":{"type":"LineString","coordinates":[[115.90533256530762,0.05639075322521592],[115.90481758117676,0.0560474306365677],[115.90370178222656,0.0560474306365677],[115.90353012084961,0.05561827739795433],[115.90275764465332,0.055360785453274275],[115.90035438537598,0.05561827739795433],[115.90095520019531,0.05596159998910366],[115.90052604675293,0.05621909193115471],[115.90052604675293,0.056476583872054675],[115.90001106262207,0.056562414518765536],[115.90009689331055,0.05707739839640169],[115.8999252319336,0.05733489033347894],[115.89975357055664,0.05742072097891082],[115.89932441711426,0.056991567750444005],[115.8991527557373,0.05793570484883048],[115.89846611022949,0.0577640435593878],[115.89872360229492,0.05853651935780135],[115.89743614196777,0.05793570484883048],[115.89726448059082,0.05819319678205659],[115.89743614196777,0.05862235000142846],[115.89717864990234,0.05879401128827055],[115.89494705200195,0.05845068871407477],[115.89451789855957,0.057849874204180196],[115.89357376098633,0.0576782129144533],[115.89357376098633,0.05733489033347894],[115.89305877685547,0.056734075811817775],[115.89314460754395,0.05639075322521592],[115.89194297790527,0.05596159998910366],[115.89202880859375,0.056734075811817775],[115.89108467102051,0.056133261283932256],[115.8907413482666,0.056476583872054675],[115.89005470275879,0.05630492257823505],[115.89022636413574,0.05690573710435842],[115.8896255493164,0.05716322904223148],[115.88885307312012,0.0560474306365677],[115.88705062866211,0.054502478962987766],[115.88619232177734,0.054416648313278415],[115.88602066040039,0.055017462858643285],[115.88627815246582,0.055446616101619384],[115.88567733764648,0.055704108045929956],[115.88541984558105,0.0537300031112693],[115.88576316833496,0.05312918855315729],[115.88576316833496,0.05209922072572226],[115.8852481842041,0.05244254333676679],[115.88456153869629,0.052270882031479005],[115.88464736938477,0.05287169659790436],[115.88361740112305,0.052528373989233046],[115.88284492492676,0.05287169659790436],[115.88250160217285,0.050983422227005804],[115.88198661804199,0.050039285020673674],[115.88181495666504,0.049953454364867866],[115.88155746459961,0.050382607642745825],[115.88069915771484,0.050039285020673674],[115.8808708190918,0.050725930262998986],[115.88027000427246,0.050554268953106885],[115.87992668151855,0.04918097845765601],[115.88009834289551,0.04823684122558802],[115.87984085083008,0.04712104266175743],[115.8794116973877,0.04737853463963404],[115.8786392211914,0.0470352120022568],[115.87838172912598,0.04772185727530598],[115.87786674499512,0.04677772002311542],[115.8771800994873,0.04720687332114437],[115.87666511535645,0.04694938134264248],[115.87666511535645,0.04780768793395396],[115.87563514709473,0.04840850254150553],[115.8753776550293,0.047636026616544314],[115.87486267089844,0.04772185727530598],[115.87417602539062,0.04737853463963404],[115.87374687194824,0.04643439738278232],[115.87297439575195,0.046262736062004706],[115.87331771850586,0.045661921435979025],[115.87288856506348,0.045490260113325576],[115.87271690368652,0.04506110680493691],[115.87177276611328,0.04463195349401872],[115.87151527404785,0.04360198553763439],[115.87211608886719,0.04351615487396998],[115.87220191955566,0.043258662882365684],[115.87125778198242,0.042829509561087775],[115.87203025817871,0.04231452557239379],[115.87203025817871,0.04179954158027499],[115.87151527404785,0.04171371091459264],[115.87117195129395,0.041370388250925316],[115.87100028991699,0.04162788024882502],[115.87108612060547,0.04214286424206648],[115.87074279785156,0.04214286424206648],[115.86979866027832,0.04119872691853743],[115.86954116821289,0.041370388250925316],[115.86962699890137,0.04179954158027499],[115.86936950683594,0.041971202911355476],[115.86833953857422,0.04094123491925927],[115.8673095703125,0.04119872691853743],[115.86679458618164,0.040426250918216056],[115.8673095703125,0.0383663148818556],[115.8669662475586,0.0383663148818556],[115.8661937713623,0.039138790901446896],[115.86567878723145,0.039138790901446896],[115.86542129516602,0.03870963755809953],[115.86559295654297,0.037164685504222916],[115.86447715759277,0.03664970148021496],[115.86413383483887,0.03613471745323693],[115.86396217346191,0.036478040138206325],[115.86430549621582,0.037164685504222916],[115.86370468139648,0.03793716153460025],[115.8632755279541,0.03725051617460906],[115.86336135864258,0.03656387080924617],[115.86267471313477,0.036478040138206325],[115.86336135864258,0.03579139476697435],[115.8632755279541,0.03553390275141055],[115.8621597290039,0.03570556409518133],[115.86155891418457,0.034933088045676186],[115.86112976074219,0.035190580062888444],[115.8607006072998,0.03510474939056962],[115.86087226867676,0.03450393468209256],[115.8607006072998,0.03407478131656205],[115.8603572845459,0.03424644266300447],[115.86009979248047,0.034933088045676186],[115.85992813110352,0.03484725737311578],[115.85967063903809,0.03424644266300447],[115.86087226867676,0.03355979727538738],[115.85949897766113,0.032615659859615675],[115.85915565490723,0.03338813592775125],[115.85872650146484,0.03330230525379818],[115.85855484008789,0.03270149053413718],[115.85821151733398,0.03270149053413718],[115.85572242736816,0.03373145862275351],[115.8552074432373,0.03458976535496561],[115.85469245910645,0.03416061198981879],[115.85417747497559,0.034675596027753386],[115.85357666015625,0.03416061198981879],[115.8534049987793,0.03476142670047011],[115.85391998291016,0.03536224140732713],[115.8534049987793,0.03579139476697435],[115.85306167602539,0.03664970148021496],[115.8522891998291,0.03570556409518133],[115.8519458770752,0.03613471745323693],[115.85263252258301,0.036907193492581314],[115.85271835327148,0.037593838855286776],[115.85246086120605,0.03793716153460025],[115.85160255432129,0.03810882287376671],[115.85125923156738,0.03862380688916289],[115.85005760192871,0.03870963755809953],[115.84980010986328,0.0393962829064094],[115.85031509399414,0.039482113574550226],[115.85031509399414,0.03965377491057609],[115.8497142791748,0.03982543624621826],[115.84911346435547,0.03956794424260579],[115.84859848022461,0.04016875891649363],[115.84851264953613,0.039911266913932764],[115.84885597229004,0.039052960232965006],[115.84868431091309,0.03896712956436943],[115.84782600402832,0.039911266913932764],[115.84756851196289,0.040683742919156884],[115.84696769714355,0.03922462156985773],[115.84671020507812,0.039138790901446896],[115.84636688232422,0.0393962829064094],[115.84619522094727,0.03879546822693669],[115.84576606750488,0.03853797622014099],[115.84542274475098,0.039482113574550226],[115.8456802368164,0.03999709758153358],[115.84473609924316,0.04025458958382444],[115.84439277648926,0.039482113574550226],[115.84362030029297,0.041885372245857866],[115.84336280822754,0.04214286424206648],[115.84259033203125,0.04214286424206648],[115.84284782409668,0.043001170889894524],[115.84207534790039,0.04454612283154802],[115.84147453308105,0.04488944548087659],[115.83907127380371,0.04488944548087659],[115.83898544311523,0.04506110680493691],[115.83941459655762,0.045490260113325576],[115.83915710449219,0.04583358275822036],[115.83795547485352,0.04557609077471625],[115.83735466003418,0.04600524408004958],[115.83701133728027,0.04583358275822036],[115.8369255065918,0.04488944548087659],[115.83649635314941,0.044975276142963594],[115.83606719970703,0.045661921435979025],[115.83357810974121,0.043945308191354115],[115.83314895629883,0.04291534022554799],[115.83263397216797,0.04257201756716711],[115.83194732666016,0.04317283221830337],[115.83203315734863,0.04351615487396998],[115.83263397216797,0.043945308191354115],[115.83263397216797,0.04471778415641836],[115.83134651184082,0.04446029216894942],[115.83074569702148,0.04480361481869011],[115.83048820495605,0.04454612283154802],[115.83074569702148,0.043945308191354115],[115.83048820495605,0.043430324210191884],[115.83014488220215,0.04368781620122775],[115.82894325256348,0.04317283221830337],[115.82868576049805,0.044031138854521146],[115.82842826843262,0.04411696951761712],[115.82499504089355,0.04214286424206648],[115.8244800567627,0.04179954158027499],[115.82396507263184,0.040855404252639005],[115.82310676574707,0.04051208158529107],[115.82284927368164,0.04016875891649363],[115.8230209350586,0.03776550019512115],[115.8237075805664,0.036907193492581314],[115.8237075805664,0.03630637879588505],[115.82293510437012,0.03630637879588505],[115.82164764404297,0.03570556409518133],[115.82061767578125,0.036907193492581314],[115.82001686096191,0.037164685504222916],[115.81993103027344,0.036220548124603624],[115.81958770751953,0.03579139476697435],[115.81718444824219,0.03373145862275351],[115.81658363342285,0.03450393468209256],[115.81563949584961,0.03982543624621826],[115.81546783447266,0.039911266913932764],[115.81400871276855,0.03785133086491044],[115.81246376037598,0.04016875891649363],[115.81220626831055,0.03999709758153358],[115.81212043762207,0.03896712956436943],[115.81160545349121,0.03862380688916289],[115.81040382385254,0.03956794424260579],[115.80971717834473,0.03922462156985773],[115.806884765625,0.0388812988957028],[115.80611228942871,0.038452145551048034],[115.80439567565918,0.03896712956436943],[115.80422401428223,0.03810882287376671],[115.80319404602051,0.03853797622014099],[115.80293655395508,0.038452145551048034],[115.80259323120117,0.0375080081852559],[115.80164909362793,0.036907193492581314],[115.8010482788086,0.036907193492581314],[115.79941749572754,0.03630637879588505],[115.7988166809082,0.03579139476697435],[115.79864501953125,0.03544807207939016],[115.79907417297363,0.034933088045676186],[115.79898834228516,0.034418104009134254],[115.79838752746582,0.03407478131656205],[115.79761505126953,0.03398895064322005],[115.79718589782715,0.034418104009134254],[115.79632759094238,0.03355979727538738],[115.79546928405762,0.033473966601619054],[115.79246520996094,0.03424644266300447],[115.79143524169922,0.03338813592775125],[115.78997611999512,0.03330230525379818],[115.79014778137207,0.03278732120858763],[115.79066276550293,0.03244399851030266],[115.79066276550293,0.032014845135833525],[115.7892894744873,0.03287315188298123],[115.7878303527832,0.03287315188298123],[115.78628540039062,0.034675596027753386],[115.78516960144043,0.03433227333610489],[115.78139305114746,0.036907193492581314],[115.78104972839355,0.037593838855286776],[115.78079223632812,0.037593838855286776],[115.78036308288574,0.03742217751511134],[115.78027725219727,0.036907193492581314],[115.78104972839355,0.03656387080924617],[115.78139305114746,0.03613471745323693],[115.78130722045898,0.03579139476697435],[115.77993392944336,0.03450393468209256],[115.78001976013184,0.03364562794911308],[115.7783031463623,0.03373145862275351],[115.77847480773926,0.032615659859615675],[115.77813148498535,0.032529829184994696],[115.77753067016602,0.03304481323154107],[115.7768440246582,0.03244399851030266]]}},{"type":"Feature","id":"pmtiles:10/841/511:waterway:6121964382:0","properties":{"name":"Sungai Muyub","name_int":"Sungai Muyub","class":"river","name:latin":"Sungai Muyub","name_de":"Sungai Muyub","name_en":"Sungai Muyub","waterway":"river","kind":"waterway","verification":"verified","source":"OpenMapTiles/OpenStreetMap national PMTiles","sourceId":"10/841/511:waterway:6121964382:0","sourceLayer":"waterway","archive":"https://its.hanifahseptiani45.workers.dev/v1/map/archive/indonesia.pmtiles","updatedAt":"2026-07-26T09:41:14.701Z"},"geometry":{"type":"LineString","coordinates":[[115.72998046875,0.2029891536046904],[115.72937965393066,0.20067173939415284],[115.73023796081543,0.19955594724955006],[115.72989463806152,0.19895513606337545],[115.72817802429199,0.1991267964045278],[115.72757720947266,0.1966377212838495],[115.72826385498047,0.19371949480803607],[115.72972297668457,0.1929470230094239],[115.73444366455078,0.19148790951646788],[115.73822021484375,0.18891300305006098],[115.74294090270996,0.19045794697602503],[115.75761795043945,0.18350569823491014],[115.75899124145508,0.18427817045254358],[115.76027870178223,0.18402067971705094],[115.76053619384766,0.1851364728773035],[115.76199531555176,0.1847073216701034],[115.76242446899414,0.18419234020778674],[115.76139450073242,0.18402067971705094],[115.76130867004395,0.18367735873060553],[115.76233863830566,0.18290488648700887],[115.76311111450195,0.18316237723857398],[115.76371192932129,0.18299071673794742],[115.76345443725586,0.18230407471899923],[115.76311111450195,0.1821324142101588],[115.76165199279785,0.18204658395512752],[115.76173782348633,0.1815316024163991],[115.762939453125,0.18075913008078714],[115.76379776000977,0.18058746955729532],[115.7640552520752,0.18007248797709963],[115.76482772827148,0.1799866577123339],[115.76542854309082,0.17878503396309497],[115.7658576965332,0.17861337342104378],[115.76645851135254,0.17878503396309497],[115.76654434204102,0.1783558826049756],[115.7658576965332,0.17784090096203897],[115.76602935791016,0.17724008902715127],[115.7684326171875,0.1776692404112339],[115.76894760131836,0.17698259819192685],[115.76929092407227,0.17715425874914104],[115.76937675476074,0.1777550706868425],[115.77023506164551,0.17784090096203897],[115.77040672302246,0.1761242953820954],[115.77238082885742,0.175866804531438],[115.77238082885742,0.17543765310577442],[115.7713508605957,0.17483684109330966],[115.77109336853027,0.17389270789205113],[115.77178001403809,0.17337772612599167],[115.77220916748047,0.17148945953090333],[115.77332496643066,0.17140362922668828],[115.77341079711914,0.17054532616339202],[115.77332496643066,0.17028783523693392],[115.77195167541504,0.16968702306181171],[115.77203750610352,0.16942953212392808],[115.77289581298828,0.16942953212392808],[115.77306747436523,0.16900038055314326],[115.77401161193848,0.1683995683381454],[115.77435493469238,0.16831373802018845],[115.77615737915039,0.16891455023784374],[115.77624320983887,0.16925787149675386],[115.7753849029541,0.17020200492734716],[115.77555656433105,0.17045949585495634],[115.77615737915039,0.17028783523693392],[115.77718734741211,0.16874288960613626],[115.7783031463623,0.1681420773831661],[115.7794189453125,0.16805624706410072],[115.78001976013184,0.16900038055314326],[115.78062057495117,0.1690862108680733],[115.78302383422852,0.16822790770187623],[115.78293800354004,0.16934370181053282],[115.78362464904785,0.16848539865570444],[115.78413963317871,0.16736960449794935],[115.784912109375,0.16797041674465163],[115.78534126281738,0.16788458642481885],[115.78551292419434,0.16754126514173606],[115.78499794006348,0.16668296190775322],[115.78499794006348,0.16608214962167267],[115.7852554321289,0.16573882830714126],[115.78611373901367,0.1659963192935976],[115.78680038452148,0.165824658636339],[115.78714370727539,0.1651380159923974],[115.7878303527832,0.16505218566025803],[115.78817367553711,0.16505218566025803],[115.78877449035645,0.16556716764765156],[115.78954696655273,0.16427971265414953],[115.78997611999512,0.1641938823182869],[115.7907485961914,0.164708864327892],[115.79160690307617,0.16453720365952051],[115.79195022583008,0.16488052499481398],[115.79289436340332,0.164708864327892],[115.79306602478027,0.1637647306335026],[115.79263687133789,0.16213395414766296],[115.7929801940918,0.16213395414766296],[115.79383850097656,0.16282059689463324],[115.79692840576172,0.16247727552405422],[115.79667091369629,0.16213395414766296],[115.79615592956543,0.16204812380266276],[115.79598426818848,0.16179063276544525],[115.7962417602539,0.16170480241898133],[115.79787254333496,0.1622197844923079],[115.79804420471191,0.16239144518051774],[115.79795837402344,0.16290642723636495],[115.79890251159668,0.16333557893950967],[115.79958915710449,0.16350723961821245],[115.7999324798584,0.16324974859961117],[115.80044746398926,0.16247727552405422],[115.80018997192383,0.16204812380266276],[115.79924583435059,0.16196229345727886],[115.79898834228516,0.16170480241898133],[115.79907417297363,0.16076066858398974],[115.79976081848145,0.16041734717859413],[115.80113410949707,0.1608464989344327],[115.80087661743164,0.1596448739954468],[115.8010482788086,0.15912989185723347],[115.80182075500488,0.15921572221449765],[115.8028507232666,0.15878657042459565],[115.80362319946289,0.15912989185723347],[115.80456733703613,0.15852907934636562],[115.80465316772461,0.15784243645549623],[115.80362319946289,0.15758494536555645],[115.80319404602051,0.15672664170951123],[115.80370903015137,0.15518169504011325],[115.80465316772461,0.15552501653198192],[115.80491065979004,0.15518169504011325],[115.8043098449707,0.15466671279185107],[115.80473899841309,0.15398006977473244],[115.80568313598633,0.15372257863759842],[115.8057689666748,0.1526926140581253],[115.80602645874023,0.15252095329006465],[115.80731391906738,0.15312176597225857],[115.80825805664062,0.15226346213542286],[115.80851554870605,0.151748479816888],[115.8080005645752,0.14582618228325828],[115.80954551696777,0.14436706525796694],[115.8098030090332,0.14213547433260487],[115.81014633178711,0.14196381348321552],[115.81040382385254,0.1409338483601914],[115.81109046936035,0.1410196787888509],[115.81117630004883,0.14136300050034833],[115.81083297729492,0.14196381348321552],[115.81100463867188,0.14222130475681638],[115.81212043762207,0.14170632220674406],[115.81375122070312,0.1425646264504934],[115.81400871276855,0.14239296560430148],[115.81418037414551,0.1417921526325756],[115.81409454345703,0.1415346613541857],[115.81357955932617,0.14144883092741622],[115.81375122070312,0.14067635707232284],[115.81486701965332,0.1410196787888509],[115.81538200378418,0.14196381348321552],[115.81598281860352,0.1417921526325756],[115.81555366516113,0.13956056145870832],[115.81658363342285,0.1392172397207787],[115.81744194030762,0.13784395271919436],[115.81769943237305,0.1339815826052444],[115.81847190856934,0.13269412576443074],[115.81795692443848,0.13209331254907397],[115.81666946411133,0.13200748208855373],[115.8164119720459,0.13063419468004156],[115.81212043762207,0.12866009389900057],[115.81100463867188,0.1277159586887251],[115.80885887145996,0.1270293148776318],[115.80791473388672,0.12745846726170384],[115.80714225769043,0.12728680630894473],[115.80697059631348,0.1268576539220163],[115.80739974975586,0.1260851796076139],[115.80714225769043,0.1257418576827405],[115.80662727355957,0.12591351864573141],[115.80611228942871,0.1257418576827405],[115.80594062805176,0.12531270527030358],[115.80611228942871,0.12445440042435507],[115.80525398254395,0.12393941750336523],[115.8043098449707,0.1227377906488698],[115.80508232116699,0.12153616374040155],[115.80499649047852,0.12127867225304101],[115.80465316772461,0.12145033324487997],[115.80388069152832,0.12110701126010781],[115.80353736877441,0.12007704527971441],[115.80302238464355,0.11999121477958852],[115.80276489257812,0.12033453677845785],[115.8025074005127,0.12033453677845785],[115.80216407775879,0.11853209623647842],[115.8025074005127,0.11767379117513599],[115.80242156982422,0.1169013165973638],[115.80190658569336,0.11595718097345298],[115.80096244812012,0.1163005030221882],[115.80079078674316,0.11604301148602758],[115.80096244812012,0.11578551994753639],[115.80233573913574,0.11544219789259103],[115.8025074005127,0.11501304531807932],[115.80207824707031,0.11441223170291437],[115.80259323120117,0.11329643495569997],[115.80164909362793,0.11329643495569997],[115.80087661743164,0.11252396025936662],[115.80070495605469,0.11278145182710375],[115.80121994018555,0.11329643495569997],[115.80121994018555,0.11389724859417072],[115.79958915710449,0.11346809599655217],[115.79950332641602,0.113124773913853],[115.79984664916992,0.1124381297362902],[115.79924583435059,0.11226646868936996],[115.79830169677734,0.11252396025936662],[115.79795837402344,0.11140816343969107],[115.79744338989258,0.11106484133281924],[115.79667091369629,0.11132233291336036],[115.79649925231934,0.11106484133281924],[115.79658508300781,0.11029236657778085],[115.79598426818848,0.11080734975004702],[115.79581260681152,0.11063568869360552],[115.79598426818848,0.11012070551836928],[115.79710006713867,0.10969155286554155],[115.79710006713867,0.10926240020656053],[115.79632759094238,0.10866158647370128],[115.79581260681152,0.10848992540496738],[115.79521179199219,0.10874741700769164],[115.79486846923828,0.10840409487022384],[115.79495429992676,0.10806077272887649],[115.79607009887695,0.10788911165673198],[115.79649925231934,0.10694497574273498],[115.79710006713867,0.1067733146643377],[115.79727172851562,0.10642999250465834],[115.79710006713867,0.10617250088239416],[115.79581260681152,0.10625833142339047],[115.79572677612305,0.10497087328356258],[115.7955551147461,0.10488504273901356],[115.79521179199219,0.1055716870887835],[115.79392433166504,0.10548585654588294],[115.79401016235352,0.10488504273901356],[115.79512596130371,0.1046275511039596],[115.79461097717285,0.10402673728063405],[115.79366683959961,0.10428422892061917],[115.79323768615723,0.1041983983741801],[115.7933235168457,0.1035117539943684],[115.79272270202637,0.10222429574227476],[115.79392433166504,0.1018809735329711],[115.79392433166504,0.10162348187357395],[115.79263687133789,0.1012801596578754],[115.79212188720703,0.10059351521557858],[115.79177856445312,0.10050768465926296],[115.79117774963379,0.10110849854865478],[115.79049110412598,0.10119432910339299],[115.79031944274902,0.10085100688313275],[115.79049110412598,0.09973520964238958],[115.79023361206055,0.09947771796605309],[115.78997611999512,0.09947771796605309],[115.78937530517578,0.10033602354597804],[115.7889461517334,0.10042185410273419],[115.7889461517334,0.09947771796605309],[115.78937530517578,0.09853358180237137],[115.78946113586426,0.09690280109315097],[115.78997611999512,0.09570117315182358],[115.78920364379883,0.09449954516840364],[115.78946113586426,0.09441371459656978],[115.78997611999512,0.0947570368826689],[115.79092025756836,0.093984561734203],[115.79169273376465,0.093984561734203],[115.79195022583008,0.09364123944048686],[115.7915210723877,0.0926112725392585],[115.79237937927246,0.09192462792181288],[115.79143524169922,0.09098049155124954],[115.7915210723877,0.0902938469025969],[115.79177856445312,0.09012218573840869],[115.79203605651855,0.0902938469025969],[115.7929801940918,0.09166713618684241],[115.79392433166504,0.09149547502917699],[115.79461097717285,0.0902938469025969],[115.79581260681152,0.089778863407588],[115.79598426818848,0.0893497104895431],[115.7947826385498,0.08883472698127548],[115.79452514648438,0.0885772352244345],[115.79452514648438,0.08814808229240612],[115.79581260681152,0.08797642111822768],[115.79684257507324,0.08728977641355584],[115.79675674438477,0.08694645405653034],[115.79461097717285,0.08617397874176902],[115.79504013061523,0.08497235044333706],[115.79452514648438,0.08437153628007366],[115.79383850097656,0.0842857056845503],[115.79375267028809,0.0836848915106998],[115.79418182373047,0.08342739971905644],[115.79452514648438,0.0826549243341077],[115.79495429992676,0.08256909373483268],[115.79546928405762,0.08334156912148671],[115.79581260681152,0.08325573852370383],[115.79564094543457,0.08256909373483268],[115.79581260681152,0.08171078773210638],[115.79452514648438,0.0807666511079077],[115.79426765441895,0.0799941756718141],[115.79272270202637,0.07922170022115438],[115.79160690307617,0.07956502264545406],[115.79092025756836,0.0793075308274922],[115.78997611999512,0.0793075308274922],[115.78997611999512,0.07896420840106089],[115.79066276550293,0.07827756353970017],[115.79049110412598,0.07793424110478497],[115.7900619506836,0.07776257988629709],[115.78980445861816,0.07776257988629709],[115.78911781311035,0.07879254718677942],[115.78868865966797,0.07870671657937578],[115.78714370727539,0.07656095133731355],[115.78774452209473,0.0757026452102707],[115.78680038452148,0.07441518598790253],[115.7863712310791,0.07424352475538853],[115.78542709350586,0.07475850845089838],[115.78559875488281,0.0734710492009043],[115.78439712524414,0.0720977592933707],[115.78302383422852,0.07184026743107097],[115.78276634216309,0.0721835899138199],[115.78207969665527,0.0720977592933707],[115.78156471252441,0.07106779183551737],[115.78268051147461,0.0684928730910741],[115.78268051147461,0.0679778893254337],[115.78225135803223,0.06711958303715448],[115.78319549560547,0.06634710736483385],[115.78310966491699,0.06428717218004465],[115.78336715698242,0.06342886582838503],[115.78293800354004,0.06282805137372804],[115.78207969665527,0.06257055946247192],[115.78139305114746,0.06274222073679425],[115.78079223632812,0.06231306754995103],[115.78070640563965,0.061626422443751494],[115.78096389770508,0.06136893052666892],[115.78173637390137,0.06136893052666892],[115.78190803527832,0.0611972692479128],[115.78113555908203,0.060682285408333314],[115.78019142150879,0.060510624127388724],[115.77984809875488,0.06016730156385108],[115.77984809875488,0.05896567257458685],[115.77890396118164,0.05793570484883048],[115.77761650085449,0.057849874204180196],[115.77753067016602,0.056991567750444005],[115.77667236328125,0.056476583872054675],[115.77632904052734,0.05690573710435842],[115.77641487121582,0.0577640435593878],[115.77589988708496,0.05793570484883048],[115.77572822570801,0.0576782129144533],[115.77581405639648,0.055704108045929956],[115.7768440246582,0.055017462858643285],[115.7768440246582,0.05475997091136264],[115.77667236328125,0.054502478962987766],[115.77572822570801,0.054845801560588825],[115.7750415802002,0.054416648313278415],[115.77495574951172,0.05415915636343982],[115.77555656433105,0.053300849856071864],[115.77564239501953,0.05278586594590706],[115.7753849029541,0.051841728766220285],[115.77461242675781,0.05115508353577525],[115.77461242675781,0.05081176091779582],[115.7750415802002,0.050554268953106885],[115.77564239501953,0.050554268953106885],[115.77641487121582,0.04780768793395396],[115.77615737915039,0.04755019595768317],[115.77547073364258,0.04789351859248825],[115.77521324157715,0.04729270398044605],[115.77598571777344,0.046691889363174255],[115.77555656433105,0.04583358275822036],[115.77461242675781,0.04583358275822036],[115.77435493469238,0.04557609077471625],[115.77409744262695,0.04454612283154802],[115.77263832092285,0.043773646864707416],[115.77298164367676,0.04291534022554799],[115.77444076538086,0.042829509561087775],[115.77521324157715,0.04248618690233741],[115.77547073364258,0.04171371091459264],[115.77529907226562,0.040340420251069986],[115.77624320983887,0.04008292824904913],[115.7765007019043,0.0397396055784327],[115.7765007019043,0.03793716153460025],[115.77512741088867,0.038452145551048034],[115.77469825744629,0.03810882287376671],[115.77521324157715,0.03707885483376572],[115.77512741088867,0.03596305611026196],[115.77607154846191,0.03536224140732713],[115.7753849029541,0.034418104009134254],[115.77564239501953,0.033903119969806994],[115.77675819396973,0.03304481323154107],[115.77675819396973,0.03218650648584287],[115.77289581298828,0.030469892972973867],[115.77229499816895,0.030384062296604952],[115.77186584472656,0.030469892972973867],[115.77143669128418,0.031671522434947974],[115.77109336853027,0.031757353110265285],[115.77006340026855,0.02969741688316674],[115.76860427856445,0.02875327943277739],[115.7684326171875,0.027894972652887873],[115.76963424682617,0.02617835907453525],[115.76929092407227,0.025405882956519577],[115.76800346374512,0.02506256023592357],[115.76766014099121,0.024719237514403858],[115.7673168182373,0.022916793212203856],[115.76628684997559,0.022830962530576926],[115.76568603515625,0.023174285256814642],[115.7625961303711,0.0257492056762203],[115.76139450073242,0.02549171363652647],[115.7600212097168,0.023689269344600916],[115.75899124145508,0.023603438663428733],[115.75881958007812,0.02308845457532982],[115.75924873352051,0.022230147757696272],[115.75899124145508,0.021800994346989455],[115.75753211975098,0.021543502299991246],[115.75675964355469,0.0199985500089781],[115.75693130493164,0.019655227275620746],[115.75821876525879,0.020256042058520052],[115.75950622558594,0.020427703424644506],[115.76079368591309,0.019140243174277316],[115.76062202453613,0.018796920439186238],[115.75950622558594,0.01888275112301585],[115.75881958007812,0.018711089755313992],[115.7577896118164,0.017251968123105144],[115.7559871673584,0.01776695222990554],[115.75530052185059,0.017681121545550127],[115.7530689239502,0.01613616922028882],[115.75281143188477,0.015277862367781836],[115.75298309326172,0.014162063454421059],[115.75281143188477,0.013132095221934037],[115.75186729431152,0.012531280417675816],[115.75169563293457,0.01210212698519797],[115.75255393981934,0.011243820118266967],[115.7516098022461,0.009870529125990402],[115.75178146362305,0.009441375689704046],[115.75246810913086,0.008926391565452718],[115.75238227844238,0.00858306881555393],[115.75092315673828,0.008239746065356712],[115.75057983398438,0.007123947125194263],[115.75092315673828,0.006694793685937839],[115.75178146362305,0.006694793685937839],[115.75212478637695,0.005750656118266306],[115.751953125,0.005493164054087174],[115.75100898742676,0.004720687860867656],[115.75057983398438,0.003776550290240266],[115.74963569641113,0.003347396848681683],[115.74809074401855,0.003433227537001926],[115.74663162231445,0.004463195796276409],[115.74688911437988,0.0036048889136424123],[115.74766159057617,0.002574920653430013],[115.74766159057617,0.0018882751461575253],[115.74714660644531,0.0020599365229969635],[115.74637413024902,0.002918243406938359],[115.7450008392334,0.0028324127185754833],[115.74482917785645,0.0021457672114166826],[115.74491500854492,0.00034332275390625],[115.74465751647949,0],[115.74319839477539,-0.00025749206541547665],[115.74285507202148,-0.0006866455077840783],[115.74276924133301,-0.0016307830808273138],[115.74122428894043,-0.002317428588227699],[115.74139595031738,-0.002918243406938359],[115.74199676513672,-0.003347396848681683],[115.74165344238281,-0.003776550290226055],[115.73967933654785,-0.0038623809785178764],[115.73933601379395,-0.004291534419820664],[115.73916435241699,-0.005235671989780144],[115.73873519897461,-0.006008148182345963]]}},{"type":"Feature","id":"pmtiles:8/210/127:landcover:7057987072:0","properties":{"subclass":"orchard","class":"farmland","kind":"green","verification":"verified","source":"OpenMapTiles/OpenStreetMap national PMTiles","sourceId":"8/210/127:landcover:7057987072:0","sourceLayer":"landcover","archive":"https://its.hanifahseptiani45.workers.dev/v1/map/archive/indonesia.pmtiles","updatedAt":"2026-07-26T09:35:30.172Z"},"geometry":{"type":"Polygon","coordinates":[[[115.65170288085938,-0.0013732910154828915],[115.6527328491211,0.007209777813017126],[115.66886901855469,0.034675596027753386],[115.68294525146484,0.03536224140732713],[115.69049835205078,0.031929014460715166],[115.69564819335938,0.03604888678179918],[115.70114135742188,0.034675596027753386],[115.72586059570312,0.012702941790465161],[115.72551727294922,0.0024032592766332073],[115.74199676513672,0.0017166137692754546],[115.75675964355469,-0.005493164054087174],[115.76431274414062,-0.0192260738579364],[115.7684326171875,-0.0192260738579364],[115.7684326171875,-0.021972655711422817],[115.71418762207031,-0.021972655711422817],[115.70972442626953,-0.016822814699693822],[115.71041107177734,-0.003433227537001926],[115.71281433105469,0.0017166137692754546],[115.70457458496094,0.004463195796276409],[115.68843841552734,0.003433227537001926],[115.67401885986328,-0.003433227537001926],[115.65135955810547,-0.004119873043322286],[115.65170288085938,-0.0013732910154828915]]]}},{"type":"Feature","id":"pmtiles:8/210/127:mountain_peak:10701684931:0","properties":{"name_int":"Bukit Batubanggok","name_de":"Bukit Batubanggok","name":"Bukit Batubanggok","rank":1,"class":"peak","name:latin":"Bukit Batubanggok","name_en":"Bukit Batubanggok","kind":"poi","verification":"verified","source":"OpenMapTiles/OpenStreetMap national PMTiles","sourceId":"8/210/127:mountain_peak:10701684931:0","sourceLayer":"mountain_peak","archive":"https://its.hanifahseptiani45.workers.dev/v1/map/archive/indonesia.pmtiles","updatedAt":"2026-07-26T09:35:30.178Z"},"geometry":{"type":"Point","coordinates":[115.76671600341797,0.24993817215386116]}},{"type":"Feature","id":"pmtiles:8/210/127:mountain_peak:10701728561:0","properties":{"name_int":"Gunung Tingan","name_de":"Gunung Tingan","name":"Gunung Tingan","rank":2,"class":"peak","name:latin":"Gunung Tingan","name_en":"Gunung Tingan","kind":"poi","verification":"verified","source":"OpenMapTiles/OpenStreetMap national PMTiles","sourceId":"8/210/127:mountain_peak:10701728561:0","sourceLayer":"mountain_peak","archive":"https://its.hanifahseptiani45.workers.dev/v1/map/archive/indonesia.pmtiles","updatedAt":"2026-07-26T09:35:30.178Z"},"geometry":{"type":"Point","coordinates":[115.70011138916016,0.3000627152664066]}},{"type":"Feature","id":"pmtiles:8/210/128:mountain_peak:10701684931:0","properties":{"name_int":"Bukit Batubanggok","name_de":"Bukit Batubanggok","name":"Bukit Batubanggok","rank":1,"class":"peak","name:latin":"Bukit Batubanggok","name_en":"Bukit Batubanggok","kind":"poi","verification":"verified","source":"OpenMapTiles/OpenStreetMap national PMTiles","sourceId":"8/210/128:mountain_peak:10701684931:0","sourceLayer":"mountain_peak","archive":"https://its.hanifahseptiani45.workers.dev/v1/map/archive/indonesia.pmtiles","updatedAt":"2026-07-26T09:35:32.898Z"},"geometry":{"type":"Point","coordinates":[115.76671600341797,0.24993817215386116]}},{"type":"Feature","id":"pmtiles:8/210/128:mountain_peak:10701728561:0","properties":{"name_int":"Gunung Tingan","name_de":"Gunung Tingan","name":"Gunung Tingan","rank":2,"class":"peak","name:latin":"Gunung Tingan","name_en":"Gunung Tingan","kind":"poi","verification":"verified","source":"OpenMapTiles/OpenStreetMap national PMTiles","sourceId":"8/210/128:mountain_peak:10701728561:0","sourceLayer":"mountain_peak","archive":"https://its.hanifahseptiani45.workers.dev/v1/map/archive/indonesia.pmtiles","updatedAt":"2026-07-26T09:35:32.898Z"},"geometry":{"type":"Point","coordinates":[115.70011138916016,0.3000627152664066]}}]}