{"type":"FeatureCollection","features":[{"type":"Feature","id":"pmtiles:10/827/524:water:1390:0","properties":{"class":"ocean","water":"ocean","kind":"waterway","verification":"verified","source":"OpenMapTiles/OpenStreetMap national PMTiles","sourceId":"10/827/524:water:1390:0","sourceLayer":"water","archive":"https://its.hanifahseptiani45.workers.dev/v1/map/archive/indonesia.pmtiles","updatedAt":"2026-07-26T09:44:01.667Z"},"geometry":{"type":"Polygon","coordinates":[[[110.7366943359375,-4.2094648151634715],[111.0992431640625,-4.2094648151634715],[111.0992431640625,-4.570949264200536],[110.7366943359375,-4.570949264200536],[110.7366943359375,-4.2094648151634715]]]}}]}