{"type":"FeatureCollection","features":[{"type":"Feature","id":"pmtiles:10/898/515:landcover:1968373740:1","properties":{"subclass":"wood","class":"wood","kind":"green","verification":"verified","source":"OpenMapTiles/OpenStreetMap national PMTiles","sourceId":"10/898/515:landcover:1968373740:1","sourceLayer":"landcover","archive":"https://its.hanifahseptiani45.workers.dev/v1/map/archive/indonesia.pmtiles","updatedAt":"2026-07-26T09:42:12.351Z"},"geometry":{"type":"Polygon","coordinates":[[[136.05039596557617,-1.0491357039128246],[136.0601806640625,-1.0491357039128246],[136.0601806640625,-1.0507662131853976],[136.0601806640625,-1.0749663026714558],[136.05657577514648,-1.0692166532299154],[136.05202674865723,-1.0575456899674691],[136.05279922485352,-1.0531690674038856],[136.0503101348877,-1.0491357039128246],[136.05039596557617,-1.0491357039128246]]]}},{"type":"Feature","id":"pmtiles:10/898/515:landuse:11490289212:0","properties":{"class":"military","kind":"green","verification":"verified","source":"OpenMapTiles/OpenStreetMap national PMTiles","sourceId":"10/898/515:landuse:11490289212:0","sourceLayer":"landuse","archive":"https://its.hanifahseptiani45.workers.dev/v1/map/archive/indonesia.pmtiles","updatedAt":"2026-07-26T09:42:12.351Z"},"geometry":{"type":"Polygon","coordinates":[[[136.0601806640625,-1.1789729603861332],[136.0572624206543,-1.177428334628857],[136.056489944458,-1.1773425220616787],[136.05597496032715,-1.1769992717665616],[136.05443000793457,-1.175025581750134],[136.05331420898438,-1.1742532678857174],[136.05709075927734,-1.1700484442174002],[136.0601806640625,-1.1721079504764873],[136.0601806640625,-1.1789729603861332]]]}},{"type":"Feature","id":"pmtiles:10/898/515:transportation:1549217270:0","properties":{"class":"secondary","highway":"secondary","kind":"road","verification":"verified","source":"OpenMapTiles/OpenStreetMap national PMTiles","sourceId":"10/898/515:transportation:1549217270:0","sourceLayer":"transportation","archive":"https://its.hanifahseptiani45.workers.dev/v1/map/archive/indonesia.pmtiles","updatedAt":"2026-07-26T09:42:12.352Z"},"geometry":{"type":"LineString","coordinates":[[136.05185508728027,-1.1552886052742366],[136.05271339416504,-1.1545162860006428],[136.05751991271973,-1.1485093511662257],[136.0594081878662,-1.1473079626821487],[136.05863571166992,-1.1451626248489788],[136.05957984924316,-1.1430172854100817],[136.05975151062012,-1.140700317015984],[136.0601806640625,-1.1394131115462187]]}},{"type":"Feature","id":"pmtiles:10/898/515:transportation:1549217270:1","properties":{"class":"secondary","highway":"secondary","kind":"road","verification":"verified","source":"OpenMapTiles/OpenStreetMap national PMTiles","sourceId":"10/898/515:transportation:1549217270:1","sourceLayer":"transportation","archive":"https://its.hanifahseptiani45.workers.dev/v1/map/archive/indonesia.pmtiles","updatedAt":"2026-07-26T09:42:12.352Z"},"geometry":{"type":"LineString","coordinates":[[136.0601806640625,-1.1721079504764873],[136.05717658996582,-1.1700484442174002],[136.05657577514648,-1.168246375000308],[136.05520248413086,-1.1673882463953333],[136.05511665344238,-1.1669591819946419],[136.0590648651123,-1.1612097127200514]]}},{"type":"Feature","id":"pmtiles:10/899/515:landcover:12084713632:0","properties":{"subclass":"wetland","class":"wetland","kind":"green","verification":"verified","source":"OpenMapTiles/OpenStreetMap national PMTiles","sourceId":"10/899/515:landcover:12084713632:0","sourceLayer":"landcover","archive":"https://its.hanifahseptiani45.workers.dev/v1/map/archive/indonesia.pmtiles","updatedAt":"2026-07-26T09:42:12.413Z"},"geometry":{"type":"Polygon","coordinates":[[[136.3337230682373,-1.1209631035930556],[136.3282299041748,-1.1203624036952533],[136.32848739624023,-1.1191610035302233],[136.33234977722168,-1.1176163454521344],[136.3333797454834,-1.1088632676973589],[136.33715629577637,-1.1023413497866272],[136.34084701538086,-1.0977931617315164],[136.34419441223145,-1.0888683952784817],[136.35337829589844,-1.0823464338408826],[136.35835647583008,-1.0830329567594532],[136.36359214782715,-1.0811450183595213],[136.36865615844727,-1.0814882799741667],[136.37269020080566,-1.0828613260443802],[136.37020111083984,-1.0841485561703763],[136.36530876159668,-1.0841485561703763],[136.36505126953125,-1.0853499704608822],[136.36350631713867,-1.0868088300290992],[136.36573791503906,-1.0872379062386273],[136.36539459228516,-1.0880960584747328],[136.36427879333496,-1.0881818736849027],[136.36462211608887,-1.0899839925345418],[136.36548042297363,-1.0895549167157128],[136.3648796081543,-1.0904130682922357],[136.36367797851562,-1.0905846985781977],[136.36256217956543,-1.0921293707111772],[136.36067390441895,-1.0928158914044275],[136.3593864440918,-1.0952187125944022],[136.35629653930664,-1.0964201224672507],[136.35629653930664,-1.0987371258600263],[136.35251998901367,-1.0995952748089195],[136.35303497314453,-1.1027704237732934],[136.35269165039062,-1.1044867191011747],[136.3509750366211,-1.1067179015453945],[136.35106086730957,-1.107833492138269],[136.35183334350586,-1.1085200092174432],[136.35432243347168,-1.1085200092174432],[136.35269165039062,-1.1110944468459678],[136.35071754455566,-1.1122100357885785],[136.34882926940918,-1.1125532938399374],[136.3425636291504,-1.116243315367342],[136.33801460266113,-1.1175305310906367],[136.3337230682373,-1.1209631035930556]]]}},{"type":"Feature","id":"pmtiles:10/899/515:landcover:228985722:0","properties":{"subclass":"forest","class":"wood","kind":"green","verification":"verified","source":"OpenMapTiles/OpenStreetMap national PMTiles","sourceId":"10/899/515:landcover:228985722:0","sourceLayer":"landcover","archive":"https://its.hanifahseptiani45.workers.dev/v1/map/archive/indonesia.pmtiles","updatedAt":"2026-07-26T09:42:12.413Z"},"geometry":{"type":"Polygon","coordinates":[[[136.30102157592773,-1.2444471276768212],[136.2970733642578,-1.2421302446675924],[136.29364013671875,-1.2376680938924238],[136.29243850708008,-1.2338924219867096],[136.30874633789062,-1.2220505072325523],[136.3157844543457,-1.218789680937121],[136.32265090942383,-1.2179315680974554],[136.3326072692871,-1.2189613034722413],[136.3377571105957,-1.2206775282216427],[136.3381004333496,-1.222393751875643],[136.3410186767578,-1.2232518632913951],[136.3410186767578,-1.2263410621144573],[136.3399887084961,-1.226512684166849],[136.34016036987305,-1.230288366531795],[136.34136199951172,-1.233205935609405],[136.34393692016602,-1.235093772720603],[136.34393692016602,-1.2368099871125509],[136.33767127990723,-1.2330343139874174],[136.33380889892578,-1.2274566052581406],[136.33252143859863,-1.2274566052581406],[136.32539749145508,-1.2301167447219115],[136.3241958618164,-1.2299451229010003],[136.31681442260742,-1.2333775572203365],[136.31269454956055,-1.2337208004089746],[136.30943298339844,-1.2359518800552252],[136.30548477172852,-1.2404140337212226],[136.30505561828613,-1.242216055185665],[136.3026523590088,-1.2427309182355515],[136.30170822143555,-1.2442755067829268],[136.30102157592773,-1.2444471276768212]]]}},{"type":"Feature","id":"pmtiles:10/899/515:landcover:1968373740:0","properties":{"subclass":"wood","class":"wood","kind":"green","verification":"verified","source":"OpenMapTiles/OpenStreetMap national PMTiles","sourceId":"10/899/515:landcover:1968373740:0","sourceLayer":"landcover","archive":"https://its.hanifahseptiani45.workers.dev/v1/map/archive/indonesia.pmtiles","updatedAt":"2026-07-26T09:42:12.413Z"},"geometry":{"type":"Polygon","coordinates":[[[136.05039596557617,-1.0491357039128246],[136.1986255645752,-1.0491357039128246],[136.29252433776855,-1.0491357039128246],[136.29329681396484,-1.0513669269134596],[136.29449844360352,-1.0535123321411248],[136.29981994628906,-1.0590903788119022],[136.30205154418945,-1.0602059869430462],[136.31046295166016,-1.0613215946721795],[136.3157844543457,-1.0677577852386264],[136.32196426391602,-1.0735932530403858],[136.32994651794434,-1.0764251672279812],[136.33277893066406,-1.0760819050421304],[136.34024620056152,-1.0712762303901116],[136.3450527191162,-1.06689962727323],[136.35303497314453,-1.0673287062858776],[136.3564682006836,-1.0662989165550272],[136.3615322113037,-1.0638960725105875],[136.36951446533203,-1.0664705482007548],[136.3787841796875,-1.0709329676261348],[136.38384819030762,-1.0720485714684003],[136.38367652893066,-1.0733358061658862],[136.3849639892578,-1.0749663026714558],[136.38582229614258,-1.078313108559044],[136.38307571411133,-1.0851783398771602],[136.38075828552246,-1.0879244280470317],[136.3780117034912,-1.0891258408357771],[136.37020111083984,-1.0885251345012392],[136.36822700500488,-1.0894691015446085],[136.36685371398926,-1.0895549167157128],[136.36762619018555,-1.085779046877576],[136.3710594177246,-1.084920893983309],[136.373291015625,-1.0830329567594532],[136.37389183044434,-1.0817457261596672],[136.3721752166748,-1.0788280014461975],[136.3663387298584,-1.077111691483708],[136.36384963989258,-1.0792570787856022],[136.35294914245605,-1.079771971512983],[136.34771347045898,-1.0810592029497883],[136.34410858154297,-1.087581167162341],[136.3414478302002,-1.0895549167157128],[136.3337230682373,-1.1047441633149049],[136.33028984069824,-1.1059455693506237],[136.3209342956543,-1.129029633113106],[136.32067680358887,-1.131518238774035],[136.3194751739502,-1.134693353241218],[136.31698608398438,-1.1352082363401905],[136.31054878234863,-1.1336635867683782],[136.30986213684082,-1.1352940501811162],[136.30763053894043,-1.1358089331731236],[136.28934860229492,-1.1370961402516855],[136.28085136413574,-1.138726601727143],[136.27853393554688,-1.1384691605028223],[136.2736415863037,-1.1390698566571302],[136.27286911010742,-1.1457633196042565],[136.2692642211914,-1.1473937761620334],[136.2630844116211,-1.1439612349608268],[136.26033782958984,-1.1416442673278908],[136.25587463378906,-1.1404428759680911],[136.2461757659912,-1.1409577580408694],[136.23132705688477,-1.1455058790102726],[136.21501922607422,-1.141215199042719],[136.20909690856934,-1.140614503335911],[136.20291709899902,-1.1419017082682785],[136.1982822418213,-1.1446477435299869],[136.18695259094238,-1.1427598445696532],[136.18480682373047,-1.1378684642233594],[136.17871284484863,-1.1364096298811717],[136.1758804321289,-1.141301012704858],[136.17982864379883,-1.154430472735072],[136.17982864379883,-1.156489990393581],[136.17176055908203,-1.160694834303186],[136.1656665802002,-1.1614671518933193],[136.1557960510254,-1.167474059267633],[136.15090370178223,-1.1655003625428009],[136.14935874938965,-1.165929427165949],[136.14995956420898,-1.162754347407784],[136.15150451660156,-1.160866460452553],[136.1477279663086,-1.1605232081433883],[136.14652633666992,-1.1663584917236989],[136.1382007598877,-1.1644706071806041],[136.1378574371338,-1.1624969083518266],[136.13682746887207,-1.1624969083518266],[136.1359691619873,-1.1636982904120714],[136.13313674926758,-1.1655861754726686],[136.1260986328125,-1.160694834303186],[136.1239528656006,-1.1609522735233355],[136.1217212677002,-1.1655003625428009],[136.1202621459961,-1.1651571107972245],[136.11536979675293,-1.1607806473791697],[136.11339569091797,-1.1577771881714227],[136.11236572265625,-1.1540014063683515],[136.10713005065918,-1.1497107391452772],[136.1007785797119,-1.1485093511662257],[136.09365463256836,-1.1456775060755007],[136.10721588134766,-1.1455058790102726],[136.1173439025879,-1.1414726400215045],[136.1191463470459,-1.1401854348971483],[136.118803024292,-1.1369245126743692],[136.10283851623535,-1.1420733355490569],[136.09992027282715,-1.1435321670217036],[136.08756065368652,-1.1350366086507222],[136.07537269592285,-1.1306600991318874],[136.07030868530273,-1.130231029215679],[136.065673828125,-1.1257686983336441],[136.06661796569824,-1.1129823663479783],[136.06550216674805,-1.1116951486366702],[136.06284141540527,-1.1050016075063382],[136.06395721435547,-1.0959052325807477],[136.07022285461426,-1.082518064585102],[136.06464385986328,-1.0802010487191893],[136.0624122619629,-1.0786563704934906],[136.05657577514648,-1.0692166532299154],[136.05202674865723,-1.0575456899674691],[136.05279922485352,-1.0531690674038856],[136.0503101348877,-1.0491357039128246],[136.05039596557617,-1.0491357039128246]]]}},{"type":"Feature","id":"pmtiles:10/899/515:landcover:1968373740:1","properties":{"subclass":"wood","class":"wood","kind":"green","verification":"verified","source":"OpenMapTiles/OpenStreetMap national PMTiles","sourceId":"10/899/515:landcover:1968373740:1","sourceLayer":"landcover","archive":"https://its.hanifahseptiani45.workers.dev/v1/map/archive/indonesia.pmtiles","updatedAt":"2026-07-26T09:42:12.413Z"},"geometry":{"type":"Polygon","coordinates":[[[136.18849754333496,-1.245734284025005],[136.19115829467773,-1.2435032126222296],[136.1981964111328,-1.235608637154641],[136.2018871307373,-1.235265394209705],[136.21261596679688,-1.2317471514699037],[136.217679977417,-1.2309748536609106],[136.22437477111816,-1.2309748536609106],[136.2256622314453,-1.2305457992259363],[136.22815132141113,-1.2308890427794381],[136.2301254272461,-1.2320045840231728],[136.2260913848877,-1.2386120110295877],[136.2231731414795,-1.2409288971220604],[136.22214317321777,-1.2432457811850952],[136.22008323669434,-1.2450478007175292],[136.2052345275879,-1.2557740819100331],[136.20162963867188,-1.257318662784897],[136.20051383972168,-1.2574902828257137],[136.1927890777588,-1.251741005325286],[136.19072914123535,-1.2497673698412086],[136.18849754333496,-1.245734284025005]]]}},{"type":"Feature","id":"pmtiles:10/899/515:landcover:1968373740:2","properties":{"subclass":"wood","class":"wood","kind":"green","verification":"verified","source":"OpenMapTiles/OpenStreetMap national PMTiles","sourceId":"10/899/515:landcover:1968373740:2","sourceLayer":"landcover","archive":"https://its.hanifahseptiani45.workers.dev/v1/map/archive/indonesia.pmtiles","updatedAt":"2026-07-26T09:42:12.413Z"},"geometry":{"type":"Polygon","coordinates":[[[136.32299423217773,-1.2810879303256115],[136.31569862365723,-1.2855500066313112],[136.31492614746094,-1.2868371425792162],[136.3136386871338,-1.2866655244903455],[136.3132095336914,-1.2854641975450534],[136.31552696228027,-1.2835763969178373],[136.3172435760498,-1.2792859357670068],[136.31930351257324,-1.276883274387103],[136.32136344909668,-1.2772265118646828],[136.32359504699707,-1.279028507869569],[136.32359504699707,-1.2804014563573958],[136.32299423217773,-1.2810879303256115]]]}},{"type":"Feature","id":"pmtiles:10/899/515:landuse:11490289212:0","properties":{"class":"military","kind":"green","verification":"verified","source":"OpenMapTiles/OpenStreetMap national PMTiles","sourceId":"10/899/515:landuse:11490289212:0","sourceLayer":"landuse","archive":"https://its.hanifahseptiani45.workers.dev/v1/map/archive/indonesia.pmtiles","updatedAt":"2026-07-26T09:42:12.413Z"},"geometry":{"type":"Polygon","coordinates":[[[136.06876373291016,-1.182062209328663],[136.06816291809082,-1.1822338341692245],[136.06524467468262,-1.1811182725160023],[136.06327056884766,-1.1801743353827163],[136.06138229370117,-1.1796594604476809],[136.0572624206543,-1.177428334628857],[136.056489944458,-1.1773425220616787],[136.05597496032715,-1.1769992717665616],[136.05443000793457,-1.175025581750134],[136.05331420898438,-1.1742532678857174],[136.05709075927734,-1.1700484442174002],[136.06249809265137,-1.1736525791769736],[136.06412887573242,-1.1722795759297497],[136.06833457946777,-1.1720221377459126],[136.07125282287598,-1.1742532678857174],[136.07357025146484,-1.1751972070243397],[136.0708236694336,-1.1828345210276296],[136.06876373291016,-1.182062209328663]]]}},{"type":"Feature","id":"pmtiles:10/899/515:landuse:2979088990:0","properties":{"class":"residential","kind":"green","verification":"verified","source":"OpenMapTiles/OpenStreetMap national PMTiles","sourceId":"10/899/515:landuse:2979088990:0","sourceLayer":"landuse","archive":"https://its.hanifahseptiani45.workers.dev/v1/map/archive/indonesia.pmtiles","updatedAt":"2026-07-26T09:42:12.413Z"},"geometry":{"type":"Polygon","coordinates":[[[136.14498138427734,-1.1331487033945962],[136.1454963684082,-1.1326338199292962],[136.14678382873535,-1.1333203311960318],[136.14601135253906,-1.1343500977909997],[136.1451530456543,-1.1344359116573628],[136.14446640014648,-1.133835214539289],[136.14498138427734,-1.1331487033945962]]]}},{"type":"Feature","id":"pmtiles:10/899/515:landuse:2979088990:1","properties":{"class":"residential","kind":"green","verification":"verified","source":"OpenMapTiles/OpenStreetMap national PMTiles","sourceId":"10/899/515:landuse:2979088990:1","sourceLayer":"landuse","archive":"https://its.hanifahseptiani45.workers.dev/v1/map/archive/indonesia.pmtiles","updatedAt":"2026-07-26T09:42:12.413Z"},"geometry":{"type":"Polygon","coordinates":[[[136.21673583984375,-1.1594076378509754],[136.21604919433594,-1.1578630013358548],[136.2180233001709,-1.156661616797706],[136.22034072875977,-1.1570048695748198],[136.2224006652832,-1.1585495065576623],[136.22222900390625,-1.1593218247333397],[136.22076988220215,-1.1602657688841873],[136.21896743774414,-1.159836703400103],[136.2187957763672,-1.1588069459729553],[136.21673583984375,-1.1594076378509754]]]}},{"type":"Feature","id":"pmtiles:10/899/515:landuse:2979088990:2","properties":{"class":"residential","kind":"green","verification":"verified","source":"OpenMapTiles/OpenStreetMap national PMTiles","sourceId":"10/899/515:landuse:2979088990:2","sourceLayer":"landuse","archive":"https://its.hanifahseptiani45.workers.dev/v1/map/archive/indonesia.pmtiles","updatedAt":"2026-07-26T09:42:12.413Z"},"geometry":{"type":"Polygon","coordinates":[[[136.21939659118652,-1.1696193802230255],[136.22248649597168,-1.1683321878463886],[136.2224006652832,-1.167645685004345],[136.23098373413086,-1.1673882463953333],[136.2366485595703,-1.168246375000308],[136.23682022094727,-1.171249823052463],[136.22454643249512,-1.170734946471896],[136.21278762817383,-1.1721079504764873],[136.21270179748535,-1.1708207592418916],[136.2161350250244,-1.1697910058286567],[136.21939659118652,-1.1696193802230255]]]}},{"type":"Feature","id":"pmtiles:10/899/515:landuse:2979088990:3","properties":{"class":"residential","kind":"green","verification":"verified","source":"OpenMapTiles/OpenStreetMap national PMTiles","sourceId":"10/899/515:landuse:2979088990:3","sourceLayer":"landuse","archive":"https://its.hanifahseptiani45.workers.dev/v1/map/archive/indonesia.pmtiles","updatedAt":"2026-07-26T09:42:12.413Z"},"geometry":{"type":"Polygon","coordinates":[[[136.1073875427246,-1.1925313051328317],[136.10824584960938,-1.192702929323417],[136.1085033416748,-1.192016432496871],[136.10910415649414,-1.192016432496871],[136.1154556274414,-1.1941617345111268],[136.11562728881836,-1.1936468621803016],[136.12120628356934,-1.1957063509247945],[136.10713005065918,-1.1932178018309685],[136.1073875427246,-1.1925313051328317]]]}},{"type":"Feature","id":"pmtiles:10/899/515:landuse:2979088990:4","properties":{"class":"residential","kind":"green","verification":"verified","source":"OpenMapTiles/OpenStreetMap national PMTiles","sourceId":"10/899/515:landuse:2979088990:4","sourceLayer":"landuse","archive":"https://its.hanifahseptiani45.workers.dev/v1/map/archive/indonesia.pmtiles","updatedAt":"2026-07-26T09:42:12.413Z"},"geometry":{"type":"Polygon","coordinates":[[[136.12378120422363,-1.1670449948800155],[136.1235237121582,-1.1664443046273902],[136.12481117248535,-1.1649854849087546],[136.12618446350098,-1.165071297854297],[136.12584114074707,-1.1672166206429182],[136.12378120422363,-1.1670449948800155]]]}},{"type":"Feature","id":"pmtiles:10/899/515:landuse:2979088990:5","properties":{"class":"residential","kind":"green","verification":"verified","source":"OpenMapTiles/OpenStreetMap national PMTiles","sourceId":"10/899/515:landuse:2979088990:5","sourceLayer":"landuse","archive":"https://its.hanifahseptiani45.workers.dev/v1/map/archive/indonesia.pmtiles","updatedAt":"2026-07-26T09:42:12.413Z"},"geometry":{"type":"Polygon","coordinates":[[[136.20274543762207,-1.2333775572203365],[136.20068550109863,-1.2343214758825383],[136.20137214660645,-1.2351795834665467],[136.20017051696777,-1.2346647189493751],[136.19836807250977,-1.2356944478839438],[136.199312210083,-1.2341498543325145],[136.20274543762207,-1.2333775572203365]]]}},{"type":"Feature","id":"pmtiles:10/899/515:landuse:2979088990:6","properties":{"class":"residential","kind":"green","verification":"verified","source":"OpenMapTiles/OpenStreetMap national PMTiles","sourceId":"10/899/515:landuse:2979088990:6","sourceLayer":"landuse","archive":"https://its.hanifahseptiani45.workers.dev/v1/map/archive/indonesia.pmtiles","updatedAt":"2026-07-26T09:42:12.413Z"},"geometry":{"type":"Polygon","coordinates":[[[136.21381759643555,-1.2307174210082081],[136.20729446411133,-1.232948503172281],[136.20660781860352,-1.2320045840231728],[136.21759414672852,-1.2291728245702984],[136.221284866333,-1.2292586355069517],[136.22377395629883,-1.2302025556282388],[136.221284866333,-1.2301167447219115],[136.22051239013672,-1.2311464754155708],[136.2191390991211,-1.2309748536609106],[136.2198257446289,-1.2295160683004127],[136.21381759643555,-1.2307174210082081]]]}},{"type":"Feature","id":"pmtiles:10/899/515:landuse:2979088990:7","properties":{"class":"residential","kind":"green","verification":"verified","source":"OpenMapTiles/OpenStreetMap national PMTiles","sourceId":"10/899/515:landuse:2979088990:7","sourceLayer":"landuse","archive":"https://its.hanifahseptiani45.workers.dev/v1/map/archive/indonesia.pmtiles","updatedAt":"2026-07-26T09:42:12.413Z"},"geometry":{"type":"Polygon","coordinates":[[[136.37011528015137,-1.2484802154654062],[136.37672424316406,-1.2493383184526579],[136.3766384124756,-1.2500248006406736],[136.3736343383789,-1.2500248006406736],[136.37011528015137,-1.2484802154654062]]]}},{"type":"Feature","id":"pmtiles:10/899/515:landuse:2979088990:8","properties":{"class":"residential","kind":"green","verification":"verified","source":"OpenMapTiles/OpenStreetMap national PMTiles","sourceId":"10/899/515:landuse:2979088990:8","sourceLayer":"landuse","archive":"https://its.hanifahseptiani45.workers.dev/v1/map/archive/indonesia.pmtiles","updatedAt":"2026-07-26T09:42:12.414Z"},"geometry":{"type":"Polygon","coordinates":[[[136.37535095214844,-1.252599107246482],[136.37706756591797,-1.252684917423153],[136.3766384124756,-1.2548301709259846],[136.3773250579834,-1.259463912483639],[136.37483596801758,-1.2575760928418873],[136.37354850769043,-1.2553450315049872],[136.37286186218262,-1.2529423479362833],[136.3736343383789,-1.252170056321006],[136.37483596801758,-1.2534572088866582],[136.37535095214844,-1.252599107246482]]]}},{"type":"Feature","id":"pmtiles:10/899/515:landuse:2979088990:9","properties":{"class":"residential","kind":"green","verification":"verified","source":"OpenMapTiles/OpenStreetMap national PMTiles","sourceId":"10/899/515:landuse:2979088990:9","sourceLayer":"landuse","archive":"https://its.hanifahseptiani45.workers.dev/v1/map/archive/indonesia.pmtiles","updatedAt":"2026-07-26T09:42:12.414Z"},"geometry":{"type":"Polygon","coordinates":[[[136.2311553955078,-1.1570906827626146],[136.2341594696045,-1.156404177187639],[136.23759269714355,-1.1567474299958889],[136.23716354370117,-1.1579488144976722],[136.23510360717773,-1.1594076378509754],[136.23149871826172,-1.158978572236819],[136.2311553955078,-1.1570906827626146]]]}},{"type":"Feature","id":"pmtiles:10/899/515:landuse:2979088990:10","properties":{"class":"residential","kind":"green","verification":"verified","source":"OpenMapTiles/OpenStreetMap national PMTiles","sourceId":"10/899/515:landuse:2979088990:10","sourceLayer":"landuse","archive":"https://its.hanifahseptiani45.workers.dev/v1/map/archive/indonesia.pmtiles","updatedAt":"2026-07-26T09:42:12.414Z"},"geometry":{"type":"Polygon","coordinates":[[[136.2612819671631,-1.1515986335192991],[136.26471519470215,-1.1540872196468683],[136.26385688781738,-1.1572623091303882],[136.26299858093262,-1.1572623091303882],[136.26214027404785,-1.1555460449854422],[136.2626552581787,-1.1540014063683515],[136.26076698303223,-1.1519418869075508],[136.2612819671631,-1.1515986335192991]]]}},{"type":"Feature","id":"pmtiles:10/899/515:landuse:2979088990:11","properties":{"class":"residential","kind":"green","verification":"verified","source":"OpenMapTiles/OpenStreetMap national PMTiles","sourceId":"10/899/515:landuse:2979088990:11","sourceLayer":"landuse","archive":"https://its.hanifahseptiani45.workers.dev/v1/map/archive/indonesia.pmtiles","updatedAt":"2026-07-26T09:42:12.414Z"},"geometry":{"type":"Polygon","coordinates":[[[136.2571620941162,-1.1524567669124082],[136.25913619995117,-1.157519748662608],[136.25441551208496,-1.156833243191457],[136.25475883483887,-1.1540872196468683],[136.2571620941162,-1.1524567669124082]]]}},{"type":"Feature","id":"pmtiles:10/899/515:landuse:2979088990:12","properties":{"class":"residential","kind":"green","verification":"verified","source":"OpenMapTiles/OpenStreetMap national PMTiles","sourceId":"10/899/515:landuse:2979088990:12","sourceLayer":"landuse","archive":"https://its.hanifahseptiani45.workers.dev/v1/map/archive/indonesia.pmtiles","updatedAt":"2026-07-26T09:42:12.414Z"},"geometry":{"type":"Polygon","coordinates":[[[136.25836372375488,-1.160866460452553],[136.26540184020996,-1.1587211328371296],[136.26763343811035,-1.159579264078431],[136.26754760742188,-1.1600941426983553],[136.26359939575195,-1.159836703400103],[136.2597370147705,-1.1612097127200514],[136.2535572052002,-1.1642989812503117],[136.24849319458008,-1.1677314978687718],[136.24488830566406,-1.1688470648678617],[136.24463081359863,-1.1679031235897668],[136.24832153320312,-1.1667875562160361],[136.2490940093994,-1.1655861754726686],[136.25012397766113,-1.1654145496103325],[136.25003814697266,-1.1646422331004374],[136.25407218933105,-1.1633550384470368],[136.25844955444336,-1.1612955257804174],[136.25836372375488,-1.160866460452553]]]}},{"type":"Feature","id":"pmtiles:10/899/515:landuse:2979088990:13","properties":{"class":"residential","kind":"green","verification":"verified","source":"OpenMapTiles/OpenStreetMap national PMTiles","sourceId":"10/899/515:landuse:2979088990:13","sourceLayer":"landuse","archive":"https://its.hanifahseptiani45.workers.dev/v1/map/archive/indonesia.pmtiles","updatedAt":"2026-07-26T09:42:12.414Z"},"geometry":{"type":"Polygon","coordinates":[[[136.27690315246582,-1.1469647087368742],[136.27449989318848,-1.1482519108192832],[136.27389907836914,-1.1476512165862545],[136.27484321594238,-1.142845658185692],[136.27570152282715,-1.1434463534261852],[136.27690315246582,-1.1469647087368742]]]}},{"type":"Feature","id":"pmtiles:10/899/515:landuse:2979088990:14","properties":{"class":"residential","kind":"green","verification":"verified","source":"OpenMapTiles/OpenStreetMap national PMTiles","sourceId":"10/899/515:landuse:2979088990:14","sourceLayer":"landuse","archive":"https://its.hanifahseptiani45.workers.dev/v1/map/archive/indonesia.pmtiles","updatedAt":"2026-07-26T09:42:12.414Z"},"geometry":{"type":"Polygon","coordinates":[[[136.2792205810547,-1.1520277002481691],[136.28085136413574,-1.1504830597220206],[136.28085136413574,-1.1499681793607408],[136.27939224243164,-1.150826313244579],[136.27896308898926,-1.1504830597220206],[136.28050804138184,-1.1490242317905484],[136.28222465515137,-1.1491958586447026],[136.2824821472168,-1.1499681793607408],[136.2792205810547,-1.1520277002481691]]]}},{"type":"Feature","id":"pmtiles:10/899/515:landuse:2979088990:15","properties":{"class":"residential","kind":"green","verification":"verified","source":"OpenMapTiles/OpenStreetMap national PMTiles","sourceId":"10/899/515:landuse:2979088990:15","sourceLayer":"landuse","archive":"https://its.hanifahseptiani45.workers.dev/v1/map/archive/indonesia.pmtiles","updatedAt":"2026-07-26T09:42:12.414Z"},"geometry":{"type":"Polygon","coordinates":[[[136.3125228881836,-1.1385549742468157],[136.3150119781494,-1.1382117192555086],[136.31535530090332,-1.1391556703832322],[136.30642890930176,-1.1401854348971483],[136.30033493041992,-1.1417300809772541],[136.29904747009277,-1.1410435717107106],[136.29776000976562,-1.1392414841067904],[136.29587173461914,-1.1400996212017134],[136.2894344329834,-1.1410435717107106],[136.28926277160645,-1.1404428759680911],[136.2912368774414,-1.1395847389754437],[136.29552841186523,-1.1393272978277906],[136.29758834838867,-1.1382975330071758],[136.30393981933594,-1.13795427798523],[136.30419731140137,-1.1389840429284703],[136.30213737487793,-1.1395847389754437],[136.30205154418945,-1.1400996212017134],[136.30608558654785,-1.1394989252621173],[136.30763053894043,-1.1386407879882512],[136.3077163696289,-1.13795427798523],[136.3062572479248,-1.1382117192555086],[136.30608558654785,-1.137439395375722],[136.30840301513672,-1.1369245126743692],[136.30926132202148,-1.1392414841067904],[136.3125228881836,-1.1385549742468157]]]}},{"type":"Feature","id":"pmtiles:10/899/515:landuse:2979088990:16","properties":{"class":"residential","kind":"green","verification":"verified","source":"OpenMapTiles/OpenStreetMap national PMTiles","sourceId":"10/899/515:landuse:2979088990:16","sourceLayer":"landuse","archive":"https://its.hanifahseptiani45.workers.dev/v1/map/archive/indonesia.pmtiles","updatedAt":"2026-07-26T09:42:12.414Z"},"geometry":{"type":"Polygon","coordinates":[[[136.3241958618164,-1.1331487033945962],[136.32925987243652,-1.1286005629561373],[136.33174896240234,-1.1280856786842008],[136.32591247558594,-1.1333203311960318],[136.32359504699707,-1.1345217255211963],[136.3231658935547,-1.1343500977909997],[136.3241958618164,-1.1331487033945962]]]}},{"type":"Feature","id":"pmtiles:10/899/515:park:77514593:0","properties":{"name":"Taman Wisata Perairan Kepulauan Padaido","name_int":"Padaido Islands Marine Park","class":"protected_area","name:latin":"Taman Wisata Perairan Kepulauan Padaido","name_de":"Taman Wisata Perairan Kepulauan Padaido","name_en":"Padaido Islands Marine Park","kind":"green","verification":"verified","source":"OpenMapTiles/OpenStreetMap national PMTiles","sourceId":"10/899/515:park:77514593:0","sourceLayer":"park","archive":"https://its.hanifahseptiani45.workers.dev/v1/map/archive/indonesia.pmtiles","updatedAt":"2026-07-26T09:42:12.414Z"},"geometry":{"type":"Polygon","coordinates":[[[136.4117431640625,-1.4032772738976291],[136.24900817871094,-1.3976999456984203],[136.2546730041504,-1.2327768815336952],[136.4117431640625,-1.1376110229224423],[136.4117431640625,-1.4032772738976291]]]}},{"type":"Feature","id":"pmtiles:10/899/515:transportation:10305438360:0","properties":{"class":"ferry","highway":"ferry","kind":"road","verification":"verified","source":"OpenMapTiles/OpenStreetMap national PMTiles","sourceId":"10/899/515:transportation:10305438360:0","sourceLayer":"transportation","archive":"https://its.hanifahseptiani45.workers.dev/v1/map/archive/indonesia.pmtiles","updatedAt":"2026-07-26T09:42:12.414Z"},"geometry":{"type":"LineString","coordinates":[[136.0491943359375,-1.2062612064318472],[136.06575965881348,-1.2063470180979436],[136.13356590270996,-1.2047165959795905],[136.14283561706543,-1.2030003611167785],[136.14850044250488,-1.1993962643927887],[136.14815711975098,-1.1999111356442853],[136.14824295043945,-1.2005118186485646],[136.199312210083,-1.320817294693228],[136.33801460266113,-1.4116003389233214]]}},{"type":"Feature","id":"pmtiles:10/899/515:transportation:10305438360:1","properties":{"class":"ferry","highway":"ferry","kind":"road","verification":"verified","source":"OpenMapTiles/OpenStreetMap national PMTiles","sourceId":"10/899/515:transportation:10305438360:1","sourceLayer":"transportation","archive":"https://its.hanifahseptiani45.workers.dev/v1/map/archive/indonesia.pmtiles","updatedAt":"2026-07-26T09:42:12.414Z"},"geometry":{"type":"LineString","coordinates":[[136.0491943359375,-1.2044591608190416],[136.065673828125,-1.204802407694359],[136.13356590270996,-1.2039442904250137],[136.14266395568848,-1.2025713022323288],[136.14850044250488,-1.1993962643927887],[136.14824295043945,-1.1999111356442853],[136.1484146118164,-1.2005118186485646],[136.14910125732422,-1.2011125015208677],[136.4117431640625,-1.1867818885736483]]}},{"type":"Feature","id":"pmtiles:10/899/515:transportation:10305438360:2","properties":{"class":"ferry","highway":"ferry","kind":"road","verification":"verified","source":"OpenMapTiles/OpenStreetMap national PMTiles","sourceId":"10/899/515:transportation:10305438360:2","sourceLayer":"transportation","archive":"https://its.hanifahseptiani45.workers.dev/v1/map/archive/indonesia.pmtiles","updatedAt":"2026-07-26T09:42:12.414Z"},"geometry":{"type":"LineString","coordinates":[[136.0491943359375,-1.2042875373651754],[136.065673828125,-1.2047165959795905],[136.06618881225586,-1.2045449725419246],[136.0708236694336,-1.1910724990809172],[136.0755443572998,-1.1865244517313016],[136.0759735107422,-1.1856663287505],[136.07580184936523,-1.186610264014746],[136.07614517211914,-1.18815488466133],[136.07940673828125,-1.19038600184804],[136.09914779663086,-1.1994820762747622],[136.14764213562012,-1.2121822050331588],[136.21459007263184,-1.2070335113292572],[136.4117431640625,-1.1701342570084137]]}},{"type":"Feature","id":"pmtiles:10/899/515:transportation:10305438360:3","properties":{"class":"ferry","highway":"ferry","kind":"road","verification":"verified","source":"OpenMapTiles/OpenStreetMap national PMTiles","sourceId":"10/899/515:transportation:10305438360:3","sourceLayer":"transportation","archive":"https://its.hanifahseptiani45.workers.dev/v1/map/archive/indonesia.pmtiles","updatedAt":"2026-07-26T09:42:12.414Z"},"geometry":{"type":"LineString","coordinates":[[136.06575965881348,-1.206003771417329],[136.0491943359375,-1.2059179597404182]]}},{"type":"Feature","id":"pmtiles:10/899/515:transportation:10305438360:4","properties":{"class":"ferry","highway":"ferry","kind":"road","verification":"verified","source":"OpenMapTiles/OpenStreetMap national PMTiles","sourceId":"10/899/515:transportation:10305438360:4","sourceLayer":"transportation","archive":"https://its.hanifahseptiani45.workers.dev/v1/map/archive/indonesia.pmtiles","updatedAt":"2026-07-26T09:42:12.414Z"},"geometry":{"type":"LineString","coordinates":[[136.0491943359375,-1.2529423479362833],[136.14309310913086,-1.203343608175743],[136.14850044250488,-1.1993962643927887]]}},{"type":"Feature","id":"pmtiles:10/899/515:transportation:1582059260:0","properties":{"class":"primary","ramp":1,"highway":"primary","kind":"road","verification":"verified","source":"OpenMapTiles/OpenStreetMap national PMTiles","sourceId":"10/899/515:transportation:1582059260:0","sourceLayer":"transportation","archive":"https://its.hanifahseptiani45.workers.dev/v1/map/archive/indonesia.pmtiles","updatedAt":"2026-07-26T09:42:12.414Z"},"geometry":{"type":"LineString","coordinates":[[136.06266975402832,-1.1395847389754437],[136.0627555847168,-1.1394989252621173]]}},{"type":"Feature","id":"pmtiles:10/899/515:transportation:1582059260:1","properties":{"class":"primary","ramp":1,"highway":"primary","kind":"road","verification":"verified","source":"OpenMapTiles/OpenStreetMap national PMTiles","sourceId":"10/899/515:transportation:1582059260:1","sourceLayer":"transportation","archive":"https://its.hanifahseptiani45.workers.dev/v1/map/archive/indonesia.pmtiles","updatedAt":"2026-07-26T09:42:12.414Z"},"geometry":{"type":"LineString","coordinates":[[136.0649871826172,-1.1419017082682785],[136.06507301330566,-1.1418158946240453]]}},{"type":"Feature","id":"pmtiles:10/899/515:transportation:1582059260:2","properties":{"class":"primary","ramp":1,"highway":"primary","kind":"road","verification":"verified","source":"OpenMapTiles/OpenStreetMap national PMTiles","sourceId":"10/899/515:transportation:1582059260:2","sourceLayer":"transportation","archive":"https://its.hanifahseptiani45.workers.dev/v1/map/archive/indonesia.pmtiles","updatedAt":"2026-07-26T09:42:12.414Z"},"geometry":{"type":"LineString","coordinates":[[136.06189727783203,-1.1359805608167335],[136.0619831085205,-1.1359805608167335]]}},{"type":"Feature","id":"pmtiles:10/899/515:transportation:1582059260:3","properties":{"class":"primary","ramp":1,"highway":"primary","kind":"road","verification":"verified","source":"OpenMapTiles/OpenStreetMap national PMTiles","sourceId":"10/899/515:transportation:1582059260:3","sourceLayer":"transportation","archive":"https://its.hanifahseptiani45.workers.dev/v1/map/archive/indonesia.pmtiles","updatedAt":"2026-07-26T09:42:12.414Z"},"geometry":{"type":"LineString","coordinates":[[136.1018943786621,-1.1901285653416522],[136.1018943786621,-1.1904718140115023]]}},{"type":"Feature","id":"pmtiles:10/899/515:transportation:1582059260:4","properties":{"class":"primary","ramp":1,"highway":"primary","kind":"road","verification":"verified","source":"OpenMapTiles/OpenStreetMap national PMTiles","sourceId":"10/899/515:transportation:1582059260:4","sourceLayer":"transportation","archive":"https://its.hanifahseptiani45.workers.dev/v1/map/archive/indonesia.pmtiles","updatedAt":"2026-07-26T09:42:12.414Z"},"geometry":{"type":"LineString","coordinates":[[136.0902214050293,-1.1859237656726833],[136.09039306640625,-1.1857521410605472]]}},{"type":"Feature","id":"pmtiles:10/899/515:transportation:1582059260:5","properties":{"class":"primary","ramp":1,"highway":"primary","kind":"road","verification":"verified","source":"OpenMapTiles/OpenStreetMap national PMTiles","sourceId":"10/899/515:transportation:1582059260:5","sourceLayer":"transportation","archive":"https://its.hanifahseptiani45.workers.dev/v1/map/archive/indonesia.pmtiles","updatedAt":"2026-07-26T09:42:12.414Z"},"geometry":{"type":"LineString","coordinates":[[136.06670379638672,-1.1642131682812646],[136.06696128845215,-1.1640415423353119]]}},{"type":"Feature","id":"pmtiles:10/899/515:transportation:1582059260:6","properties":{"class":"primary","ramp":1,"highway":"primary","kind":"road","verification":"verified","source":"OpenMapTiles/OpenStreetMap national PMTiles","sourceId":"10/899/515:transportation:1582059260:6","sourceLayer":"transportation","archive":"https://its.hanifahseptiani45.workers.dev/v1/map/archive/indonesia.pmtiles","updatedAt":"2026-07-26T09:42:12.414Z"},"geometry":{"type":"LineString","coordinates":[[136.06739044189453,-1.1451626248489788],[136.067476272583,-1.1451626248489788]]}},{"type":"Feature","id":"pmtiles:10/899/515:transportation:1582059260:7","properties":{"class":"primary","ramp":1,"highway":"primary","kind":"road","verification":"verified","source":"OpenMapTiles/OpenStreetMap national PMTiles","sourceId":"10/899/515:transportation:1582059260:7","sourceLayer":"transportation","archive":"https://its.hanifahseptiani45.workers.dev/v1/map/archive/indonesia.pmtiles","updatedAt":"2026-07-26T09:42:12.414Z"},"geometry":{"type":"LineString","coordinates":[[136.0660171508789,-1.1427598445696532],[136.06610298156738,-1.1427598445696532]]}},{"type":"Feature","id":"pmtiles:10/899/515:transportation:7069251210:0","properties":{"class":"secondary","ramp":1,"highway":"secondary","kind":"road","verification":"verified","source":"OpenMapTiles/OpenStreetMap national PMTiles","sourceId":"10/899/515:transportation:7069251210:0","sourceLayer":"transportation","archive":"https://its.hanifahseptiani45.workers.dev/v1/map/archive/indonesia.pmtiles","updatedAt":"2026-07-26T09:42:12.414Z"},"geometry":{"type":"LineString","coordinates":[[136.0909080505371,-1.176055333237187],[136.0909938812256,-1.176055333237187]]}},{"type":"Feature","id":"pmtiles:10/899/515:transportation:7069251210:1","properties":{"class":"secondary","ramp":1,"highway":"secondary","kind":"road","verification":"verified","source":"OpenMapTiles/OpenStreetMap national PMTiles","sourceId":"10/899/515:transportation:7069251210:1","sourceLayer":"transportation","archive":"https://its.hanifahseptiani45.workers.dev/v1/map/archive/indonesia.pmtiles","updatedAt":"2026-07-26T09:42:12.414Z"},"geometry":{"type":"LineString","coordinates":[[136.0905647277832,-1.1648996719605975],[136.09065055847168,-1.1648996719605975]]}},{"type":"Feature","id":"pmtiles:10/899/515:transportation:7069251210:2","properties":{"class":"secondary","ramp":1,"highway":"secondary","kind":"road","verification":"verified","source":"OpenMapTiles/OpenStreetMap national PMTiles","sourceId":"10/899/515:transportation:7069251210:2","sourceLayer":"transportation","archive":"https://its.hanifahseptiani45.workers.dev/v1/map/archive/indonesia.pmtiles","updatedAt":"2026-07-26T09:42:12.414Z"},"geometry":{"type":"LineString","coordinates":[[136.09047889709473,-1.174167455220939],[136.0905647277832,-1.174167455220939]]}},{"type":"Feature","id":"pmtiles:10/899/515:transportation:7069251210:3","properties":{"class":"secondary","ramp":1,"highway":"secondary","kind":"road","verification":"verified","source":"OpenMapTiles/OpenStreetMap national PMTiles","sourceId":"10/899/515:transportation:7069251210:3","sourceLayer":"transportation","archive":"https://its.hanifahseptiani45.workers.dev/v1/map/archive/indonesia.pmtiles","updatedAt":"2026-07-26T09:42:12.414Z"},"geometry":{"type":"LineString","coordinates":[[136.07769012451172,-1.1586353196986892],[136.07769012451172,-1.1585495065576623]]}},{"type":"Feature","id":"pmtiles:10/899/515:transportation:7069251210:4","properties":{"class":"secondary","ramp":1,"highway":"secondary","kind":"road","verification":"verified","source":"OpenMapTiles/OpenStreetMap national PMTiles","sourceId":"10/899/515:transportation:7069251210:4","sourceLayer":"transportation","archive":"https://its.hanifahseptiani45.workers.dev/v1/map/archive/indonesia.pmtiles","updatedAt":"2026-07-26T09:42:12.414Z"},"geometry":{"type":"LineString","coordinates":[[136.07914924621582,-1.1587211328371296],[136.07914924621582,-1.1588069459729553]]}},{"type":"Feature","id":"pmtiles:10/899/515:transportation:7069251210:5","properties":{"class":"secondary","ramp":1,"highway":"secondary","kind":"road","verification":"verified","source":"OpenMapTiles/OpenStreetMap national PMTiles","sourceId":"10/899/515:transportation:7069251210:5","sourceLayer":"transportation","archive":"https://its.hanifahseptiani45.workers.dev/v1/map/archive/indonesia.pmtiles","updatedAt":"2026-07-26T09:42:12.414Z"},"geometry":{"type":"LineString","coordinates":[[136.08009338378906,-1.1588927591061804],[136.08009338378906,-1.1588069459729553]]}},{"type":"Feature","id":"pmtiles:10/899/515:transportation:7069251210:6","properties":{"class":"secondary","ramp":1,"highway":"secondary","kind":"road","verification":"verified","source":"OpenMapTiles/OpenStreetMap national PMTiles","sourceId":"10/899/515:transportation:7069251210:6","sourceLayer":"transportation","archive":"https://its.hanifahseptiani45.workers.dev/v1/map/archive/indonesia.pmtiles","updatedAt":"2026-07-26T09:42:12.414Z"},"geometry":{"type":"LineString","coordinates":[[136.08223915100098,-1.1594076378509754],[136.08223915100098,-1.1593218247333397]]}},{"type":"Feature","id":"pmtiles:10/899/515:transportation:7069251210:7","properties":{"class":"secondary","ramp":1,"highway":"secondary","kind":"road","verification":"verified","source":"OpenMapTiles/OpenStreetMap national PMTiles","sourceId":"10/899/515:transportation:7069251210:7","sourceLayer":"transportation","archive":"https://its.hanifahseptiani45.workers.dev/v1/map/archive/indonesia.pmtiles","updatedAt":"2026-07-26T09:42:12.414Z"},"geometry":{"type":"LineString","coordinates":[[136.08567237854004,-1.1606090212245874],[136.08575820922852,-1.1605232081433883]]}},{"type":"Feature","id":"pmtiles:10/899/515:transportation:277278200:0","properties":{"class":"secondary","highway":"secondary","kind":"road","verification":"verified","source":"OpenMapTiles/OpenStreetMap national PMTiles","sourceId":"10/899/515:transportation:277278200:0","sourceLayer":"transportation","archive":"https://its.hanifahseptiani45.workers.dev/v1/map/archive/indonesia.pmtiles","updatedAt":"2026-07-26T09:42:12.414Z"},"geometry":{"type":"LineString","coordinates":[[136.09030723571777,-1.1658436142465547],[136.0909938812256,-1.1628401604212115],[136.09073638916016,-1.162325282301481],[136.08756065368652,-1.1614671518933193],[136.08515739440918,-1.1602657688841873],[136.0813808441162,-1.1591501984902806],[136.0755443572998,-1.158034627656889]]}},{"type":"Feature","id":"pmtiles:10/899/515:transportation:277278200:1","properties":{"class":"secondary","highway":"secondary","kind":"road","verification":"verified","source":"OpenMapTiles/OpenStreetMap national PMTiles","sourceId":"10/899/515:transportation:277278200:1","sourceLayer":"transportation","archive":"https://its.hanifahseptiani45.workers.dev/v1/map/archive/indonesia.pmtiles","updatedAt":"2026-07-26T09:42:12.414Z"},"geometry":{"type":"LineString","coordinates":[[136.09030723571777,-1.1657578013245455],[136.09545707702637,-1.165071297854297],[136.09691619873047,-1.1649854849087546],[136.09760284423828,-1.1653287366752494]]}},{"type":"Feature","id":"pmtiles:10/899/515:transportation:277278200:2","properties":{"class":"secondary","highway":"secondary","kind":"road","verification":"verified","source":"OpenMapTiles/OpenStreetMap national PMTiles","sourceId":"10/899/515:transportation:277278200:2","sourceLayer":"transportation","archive":"https://its.hanifahseptiani45.workers.dev/v1/map/archive/indonesia.pmtiles","updatedAt":"2026-07-26T09:42:12.414Z"},"geometry":{"type":"LineString","coordinates":[[136.08962059020996,-1.1699626314237719],[136.08996391296387,-1.1715072613072692],[136.09004974365234,-1.1719363250127088],[136.09125137329102,-1.1775999597552698]]}},{"type":"Feature","id":"pmtiles:10/899/515:transportation:277278200:3","properties":{"class":"secondary","highway":"secondary","kind":"road","verification":"verified","source":"OpenMapTiles/OpenStreetMap national PMTiles","sourceId":"10/899/515:transportation:277278200:3","sourceLayer":"transportation","archive":"https://its.hanifahseptiani45.workers.dev/v1/map/archive/indonesia.pmtiles","updatedAt":"2026-07-26T09:42:12.414Z"},"geometry":{"type":"LineString","coordinates":[[136.0898780822754,-1.1715072613072692],[136.08996391296387,-1.1715072613072692],[136.09039306640625,-1.1714214485582914]]}},{"type":"Feature","id":"pmtiles:10/899/515:transportation:277278200:4","properties":{"class":"secondary","highway":"secondary","kind":"road","verification":"verified","source":"OpenMapTiles/OpenStreetMap national PMTiles","sourceId":"10/899/515:transportation:277278200:4","sourceLayer":"transportation","archive":"https://its.hanifahseptiani45.workers.dev/v1/map/archive/indonesia.pmtiles","updatedAt":"2026-07-26T09:42:12.414Z"},"geometry":{"type":"LineString","coordinates":[[136.0975170135498,-1.1655003625428009],[136.0994052886963,-1.1655003625428009],[136.1007785797119,-1.162325282301481],[136.10052108764648,-1.1579488144976722],[136.1008644104004,-1.1576055618348136],[136.10249519348145,-1.1583778802677926],[136.10455513000488,-1.1605232081433883],[136.1128807067871,-1.1607806473791697],[136.11356735229492,-1.1612955257804174],[136.11459732055664,-1.1614671518933193],[136.11597061157227,-1.1624969083518266],[136.1165714263916,-1.1637841033967788],[136.11777305603027,-1.1638699163789],[136.11940383911133,-1.1655003625428009],[136.12103462219238,-1.1661010529968934],[136.12223625183105,-1.1671308077627742],[136.12669944763184,-1.1675598721373035],[136.15562438964844,-1.1728802649332977],[136.15811347961426,-1.1726228268047123],[136.17064476013184,-1.1695335674162806],[136.18420600891113,-1.1651571107972245],[136.19193077087402,-1.1635266644347695],[136.20729446411133,-1.1607806473791697],[136.2096118927002,-1.1597508902954843],[136.21956825256348,-1.157519748662608],[136.24300003051758,-1.1572623091303882],[136.24454498291016,-1.1569190563844387],[136.25072479248047,-1.156661616797706],[136.25226974487305,-1.1571764959477946],[136.25432968139648,-1.1571764959477946],[136.25707626342773,-1.156575803596951],[136.25965118408203,-1.1571764959477946],[136.26317024230957,-1.1556318582173475],[136.2656593322754,-1.1549453522896584],[136.26729011535645,-1.1534007133462012],[136.26883506774902,-1.152714206879935],[136.26935005187988,-1.1521135135861726],[136.27029418945312,-1.1520277002481691],[136.27046585083008,-1.1519418869075508]]}},{"type":"Feature","id":"pmtiles:10/899/515:transportation:277278200:5","properties":{"class":"secondary","highway":"secondary","kind":"road","verification":"verified","source":"OpenMapTiles/OpenStreetMap national PMTiles","sourceId":"10/899/515:transportation:277278200:5","sourceLayer":"transportation","archive":"https://its.hanifahseptiani45.workers.dev/v1/map/archive/indonesia.pmtiles","updatedAt":"2026-07-26T09:42:12.414Z"},"geometry":{"type":"LineString","coordinates":[[136.09743118286133,-1.1652429237375515],[136.0975170135498,-1.1655003625428009],[136.09674453735352,-1.1701342570084137],[136.0923671722412,-1.1702200697967697],[136.09125137329102,-1.1705633209240318],[136.09039306640625,-1.1714214485582914],[136.09004974365234,-1.1719363250127088],[136.08996391296387,-1.1719363250127088],[136.08241081237793,-1.1680747493002883],[136.07717514038086,-1.1657578013245455],[136.0744285583496,-1.1651571107972245],[136.0733127593994,-1.1661868659084433],[136.0719394683838,-1.166701743322804],[136.06996536254883,-1.1660152400827286],[136.067476272583,-1.1643847942167724]]}},{"type":"Feature","id":"pmtiles:10/899/515:transportation:277278200:6","properties":{"class":"secondary","highway":"secondary","kind":"road","verification":"verified","source":"OpenMapTiles/OpenStreetMap national PMTiles","sourceId":"10/899/515:transportation:277278200:6","sourceLayer":"transportation","archive":"https://its.hanifahseptiani45.workers.dev/v1/map/archive/indonesia.pmtiles","updatedAt":"2026-07-26T09:42:12.414Z"},"geometry":{"type":"LineString","coordinates":[[136.07030868530273,-1.1567474299958889],[136.07108116149902,-1.156833243191457],[136.07305526733398,-1.1577771881714227],[136.0755443572998,-1.158034627656889],[136.08095169067383,-1.158978572236819],[136.08515739440918,-1.1601799557925716],[136.0868740081787,-1.1611238996570847],[136.09073638916016,-1.162239469272393],[136.09107971191406,-1.1629259734320385],[136.09030723571777,-1.1658436142465547],[136.08927726745605,-1.167474059267633],[136.08962059020996,-1.1699626314237719],[136.08996391296387,-1.1719363250127088],[136.09116554260254,-1.1775999597552698]]}},{"type":"Feature","id":"pmtiles:10/899/515:transportation:277278200:7","properties":{"class":"secondary","highway":"secondary","kind":"road","verification":"verified","source":"OpenMapTiles/OpenStreetMap national PMTiles","sourceId":"10/899/515:transportation:277278200:7","sourceLayer":"transportation","archive":"https://its.hanifahseptiani45.workers.dev/v1/map/archive/indonesia.pmtiles","updatedAt":"2026-07-26T09:42:12.414Z"},"geometry":{"type":"LineString","coordinates":[[136.05185508728027,-1.1552886052742366],[136.05271339416504,-1.1545162860006428],[136.05751991271973,-1.1485093511662257],[136.0594081878662,-1.1473079626821487],[136.05863571166992,-1.1451626248489788],[136.05957984924316,-1.1430172854100817],[136.05975151062012,-1.140700317015984],[136.06060981750488,-1.1382117192555086],[136.06103897094727,-1.1378684642233594]]}},{"type":"Feature","id":"pmtiles:10/899/515:transportation:277278200:8","properties":{"class":"secondary","highway":"secondary","kind":"road","verification":"verified","source":"OpenMapTiles/OpenStreetMap national PMTiles","sourceId":"10/899/515:transportation:277278200:8","sourceLayer":"transportation","archive":"https://its.hanifahseptiani45.workers.dev/v1/map/archive/indonesia.pmtiles","updatedAt":"2026-07-26T09:42:12.414Z"},"geometry":{"type":"LineString","coordinates":[[136.0590648651123,-1.1612097127200514],[136.05511665344238,-1.1669591819946419],[136.05520248413086,-1.1673882463953333],[136.05657577514648,-1.168246375000308],[136.05717658996582,-1.1700484442174002],[136.06773376464844,-1.1772567094918571],[136.06876373291016,-1.1798310854366179],[136.06884956359863,-1.1819763969044033],[136.07236862182617,-1.1833493953742078],[136.0740852355957,-1.183692644885511],[136.0800075531006,-1.183864269625218],[136.08206748962402,-1.184121706714862]]}},{"type":"Feature","id":"pmtiles:10/899/515:transportation:277278200:9","properties":{"class":"secondary","highway":"secondary","kind":"road","verification":"verified","source":"OpenMapTiles/OpenStreetMap national PMTiles","sourceId":"10/899/515:transportation:277278200:9","sourceLayer":"transportation","archive":"https://its.hanifahseptiani45.workers.dev/v1/map/archive/indonesia.pmtiles","updatedAt":"2026-07-26T09:42:12.414Z"},"geometry":{"type":"LineString","coordinates":[[136.26299858093262,-1.155717671446638],[136.26325607299805,-1.155803484673342],[136.26445770263672,-1.1561467375542094],[136.26514434814453,-1.156661616797706],[136.2655735015869,-1.158034627656889],[136.26608848571777,-1.1586353196986892],[136.2660026550293,-1.159579264078431],[136.2623119354248,-1.1597508902954843],[136.2601661682129,-1.1605232081433883],[136.25836372375488,-1.1616387779958046],[136.25261306762695,-1.1644706071806041],[136.24814987182617,-1.1673024335204332],[136.24488830566406,-1.1681605621516127],[136.24394416809082,-1.1685896263689273],[136.2429141998291,-1.1695335674162806],[136.23870849609375,-1.1705633209240318],[136.23656272888184,-1.1704775081461491],[136.23579025268555,-1.1708207592418916],[136.2315845489502,-1.1704775081461491],[136.22514724731445,-1.170391695365666],[136.2224006652832,-1.1709923847739958],[136.22051239013672,-1.1709923847739958],[136.2165641784668,-1.1716788867973236],[136.21124267578125,-1.1721079504764873],[136.20652198791504,-1.1730518903392095],[136.20111465454102,-1.1736525791769736],[136.19699478149414,-1.1747681438190511],[136.1945915222168,-1.1751113943885656],[136.1886692047119,-1.177428334628857],[136.18557929992676,-1.1782864601552916],[136.1842918395996,-1.179230397929075],[136.1781120300293,-1.1807750226864329],[136.1751937866211,-1.1798310854366179],[136.17313385009766,-1.1795736479492547],[136.16884231567383,-1.179745272943478],[136.16815567016602,-1.1799168979271144],[136.166353225708,-1.1812040849667653],[136.16472244262695,-1.183606832511657],[136.1634349822998,-1.1844649561305403],[136.1623191833496,-1.1847223931643924],[136.1597442626953,-1.186610264014746],[136.1569118499756,-1.1894420678737845],[136.15373611450195,-1.1936468621803016],[136.14935874938965,-1.1959637869092745],[136.14240646362305,-1.1978516500572454],[136.13588333129883,-1.199310452508115],[136.13433837890625,-1.199053016837965],[136.13176345825195,-1.197937461987621],[136.12884521484375,-1.197079342562887]]}},{"type":"Feature","id":"pmtiles:10/899/515:transportation:277278200:10","properties":{"class":"secondary","highway":"secondary","kind":"road","verification":"verified","source":"OpenMapTiles/OpenStreetMap national PMTiles","sourceId":"10/899/515:transportation:277278200:10","sourceLayer":"transportation","archive":"https://its.hanifahseptiani45.workers.dev/v1/map/archive/indonesia.pmtiles","updatedAt":"2026-07-26T09:42:12.415Z"},"geometry":{"type":"LineString","coordinates":[[136.26317024230957,-1.1556318582173475],[136.26325607299805,-1.155803484673342]]}},{"type":"Feature","id":"pmtiles:10/899/515:transportation:277278200:11","properties":{"class":"secondary","highway":"secondary","kind":"road","verification":"verified","source":"OpenMapTiles/OpenStreetMap national PMTiles","sourceId":"10/899/515:transportation:277278200:11","sourceLayer":"transportation","archive":"https://its.hanifahseptiani45.workers.dev/v1/map/archive/indonesia.pmtiles","updatedAt":"2026-07-26T09:42:12.415Z"},"geometry":{"type":"LineString","coordinates":[[136.27063751220703,-1.1518560735643604],[136.27089500427246,-1.1516844468702345]]}},{"type":"Feature","id":"pmtiles:10/899/515:transportation:277278200:12","properties":{"class":"secondary","highway":"secondary","kind":"road","verification":"verified","source":"OpenMapTiles/OpenStreetMap national PMTiles","sourceId":"10/899/515:transportation:277278200:12","sourceLayer":"transportation","archive":"https://its.hanifahseptiani45.workers.dev/v1/map/archive/indonesia.pmtiles","updatedAt":"2026-07-26T09:42:12.415Z"},"geometry":{"type":"LineString","coordinates":[[136.27029418945312,-1.1520277002481691],[136.27046585083008,-1.1521135135861726],[136.2707233428955,-1.1521993269216182],[136.27080917358398,-1.1519418869075508],[136.27089500427246,-1.1516844468702345],[136.2737274169922,-1.1476512165862545],[136.27449989318848,-1.1461065736935865],[136.27432823181152,-1.144733557089566],[136.2751007080078,-1.142845658185692],[136.27595901489258,-1.142159149185602],[136.27647399902344,-1.14052868965328],[136.2784481048584,-1.1402712485900253],[136.27982139587402,-1.1408719443684703],[136.28076553344727,-1.1415584536759837],[136.28110885620117,-1.1431030990184325],[136.28368377685547,-1.1422449628195892],[136.28514289855957,-1.142159149185602],[136.28668785095215,-1.1414726400215045],[136.28806114196777,-1.141301012704858],[136.29072189331055,-1.1401854348971483],[136.29535675048828,-1.1398421801001035],[136.29767417907715,-1.1385549742468157],[136.29981994628906,-1.1389840429284703],[136.30050659179688,-1.1396705526862263],[136.30093574523926,-1.140700317015984],[136.30127906799316,-1.1409577580408694],[136.30539894104004,-1.1399279938031839],[136.31295204162598,-1.1390698566571302],[136.31458282470703,-1.138383346756271],[136.3154411315918,-1.1369245126743692],[136.3161277770996,-1.1364096298811717],[136.31741523742676,-1.1360663746347228],[136.31853103637695,-1.1362380022630418],[136.3205909729004,-1.1353798640194697],[136.32136344909668,-1.1355514916885738],[136.32213592529297,-1.1353798640194697],[136.32582664489746,-1.1332345172965859],[136.33089065551758,-1.1288580050579213],[136.3330364227295,-1.1263693971200013],[136.33458137512207,-1.1255970700862292],[136.3359546661377,-1.1242240437434674],[136.34385108947754,-1.1178737885215924],[136.34591102600098,-1.1165865729486768],[136.34608268737793,-1.1159000577459324],[136.34685516357422,-1.1150419135172172],[136.34788513183594,-1.1145270268598892],[136.34882926940918,-1.1144412124082521],[136.35071754455566,-1.1125532938399374],[136.353120803833,-1.1112660759415007],[136.35397911071777,-1.1104079303641754],[136.3553524017334,-1.106288828128669],[136.3556957244873,-1.1037143863262031],[136.3564682006836,-1.1019122757381297],[136.3564682006836,-1.1008824977696463],[136.35698318481445,-1.0987371258600263],[136.35560989379883,-1.0938456721500245],[136.35526657104492,-1.0918719254107856],[136.3568115234375,-1.0880102432620902],[136.35724067687988,-1.0862081232333622],[136.3574981689453,-1.0839769255185132],[136.35809898376465,-1.0821748030869571],[136.3579273223877,-1.0802868641531518],[136.36033058166504,-1.0814024645741398],[136.36247634887695,-1.0810592029497883],[136.36324882507324,-1.0807159412866412],[136.36496543884277,-1.0792570787856022],[136.36659622192383,-1.0782272930693892],[136.3670253753662,-1.0780556620828037],[136.36788368225098,-1.0782272930693892],[136.3685703277588,-1.0787421859710662],[136.37045860290527,-1.0815740953717494],[136.37131690979004,-1.082260618465142],[136.37303352355957,-1.0827755106832058],[136.37466430664062,-1.0842343714926557],[136.37603759765625,-1.085092524581654],[136.37921333312988,-1.0862939384972066],[136.37964248657227,-1.086723014779892],[136.38032913208008,-1.0885251345012392],[136.3821315765381,-1.0871520910015988],[136.38341903686523,-1.085092524581654],[136.38659477233887,-1.077626584574034],[136.3868522644043,-1.0767684293751643],[136.38659477233887,-1.0759102739347384]]}},{"type":"Feature","id":"pmtiles:10/899/515:transportation:277278200:13","properties":{"class":"secondary","highway":"secondary","kind":"road","verification":"verified","source":"OpenMapTiles/OpenStreetMap national PMTiles","sourceId":"10/899/515:transportation:277278200:13","sourceLayer":"transportation","archive":"https://its.hanifahseptiani45.workers.dev/v1/map/archive/indonesia.pmtiles","updatedAt":"2026-07-26T09:42:12.415Z"},"geometry":{"type":"LineString","coordinates":[[136.27046585083008,-1.1521135135861726],[136.27055168151855,-1.1518560735643604],[136.27080917358398,-1.1519418869075508]]}},{"type":"Feature","id":"pmtiles:10/899/515:transportation:1549183100:0","properties":{"class":"primary","highway":"primary","kind":"road","verification":"verified","source":"OpenMapTiles/OpenStreetMap national PMTiles","sourceId":"10/899/515:transportation:1549183100:0","sourceLayer":"transportation","archive":"https://its.hanifahseptiani45.workers.dev/v1/map/archive/indonesia.pmtiles","updatedAt":"2026-07-26T09:42:12.415Z"},"geometry":{"type":"LineString","coordinates":[[136.06249809265137,-1.1295445172178802],[136.06258392333984,-1.1292870751769044],[136.06249809265137,-1.1295445172178802],[136.06181144714355,-1.1305742851537133],[136.06146812438965,-1.131604052724299],[136.06172561645508,-1.1322905642349355],[136.06266975402832,-1.1334919589872925],[136.0627555847168,-1.1347791670974203],[136.0619831085205,-1.1360663746347228],[136.06249809265137,-1.1388982291972525],[136.06412887573242,-1.141301012704858],[136.0653305053711,-1.1420733355490569],[136.06661796569824,-1.1433605398280804],[136.06773376464844,-1.1457633196042565],[136.06910705566406,-1.147136335714663],[136.06953620910645,-1.1485093511662257],[136.0700511932373,-1.1509979399903756],[136.0697078704834,-1.1538297798035302],[136.0697078704834,-1.156575803596951],[136.06945037841797,-1.1574339354877878],[136.0682487487793,-1.159922516502121],[136.06807708740234,-1.1610380865915175],[136.06618881225586,-1.1635266644347695],[136.06661796569824,-1.1638699163789],[136.067476272583,-1.1643847942167724],[136.06696128845215,-1.1653287366752494],[136.06584548950195,-1.1671308077627742],[136.06627464294434,-1.1697051930271414],[136.06670379638672,-1.1705633209240318],[136.07142448425293,-1.1742532678857174],[136.0806941986084,-1.1783722726934087],[136.08241081237793,-1.1787155228194024],[136.0855007171631,-1.1785438977616849],[136.08884811401367,-1.1772567094918571],[136.09125137329102,-1.1775999597552698],[136.09768867492676,-1.1788871478665328],[136.11167907714844,-1.1840358943543094],[136.11742973327637,-1.1868677008491062],[136.12120628356934,-1.1906434383304116],[136.12584114074707,-1.193732674242142],[136.12772941589355,-1.1960495988987248],[136.12884521484375,-1.197079342562887],[136.12481117248535,-1.1960495988987248],[136.12326622009277,-1.1961354108855033],[136.12034797668457,-1.195191478883416],[136.1128807067871,-1.1938184863012964],[136.10661506652832,-1.1921880567195586],[136.10240936279297,-1.1903001896819063],[136.09477043151855,-1.1878974479468383],[136.09004974365234,-1.1856663287505],[136.08206748962402,-1.184121706714862],[136.08241081237793,-1.1789729603861332],[136.0824966430664,-1.1787155228194024]]}},{"type":"Feature","id":"pmtiles:10/899/515:transportation:1549183100:1","properties":{"class":"primary","highway":"primary","kind":"road","verification":"verified","source":"OpenMapTiles/OpenStreetMap national PMTiles","sourceId":"10/899/515:transportation:1549183100:1","sourceLayer":"transportation","archive":"https://its.hanifahseptiani45.workers.dev/v1/map/archive/indonesia.pmtiles","updatedAt":"2026-07-26T09:42:12.415Z"},"geometry":{"type":"LineString","coordinates":[[136.10240936279297,-1.1903001896819063],[136.10095024108887,-1.1909008747887242],[136.0942554473877,-1.1889271946608204],[136.09219551086426,-1.1878116357033548],[136.09004974365234,-1.1856663287505]]}},{"type":"Feature","id":"pmtiles:10/899/515:transportation:1549183100:2","properties":{"class":"primary","highway":"primary","kind":"road","verification":"verified","source":"OpenMapTiles/OpenStreetMap national PMTiles","sourceId":"10/899/515:transportation:1549183100:2","sourceLayer":"transportation","archive":"https://its.hanifahseptiani45.workers.dev/v1/map/archive/indonesia.pmtiles","updatedAt":"2026-07-26T09:42:12.415Z"},"geometry":{"type":"LineString","coordinates":[[136.08241081237793,-1.1789729603861332],[136.08232498168945,-1.1787155228194024]]}},{"type":"Feature","id":"pmtiles:10/899/515:transportation:1549183100:3","properties":{"class":"primary","highway":"primary","kind":"road","verification":"verified","source":"OpenMapTiles/OpenStreetMap national PMTiles","sourceId":"10/899/515:transportation:1549183100:3","sourceLayer":"transportation","archive":"https://its.hanifahseptiani45.workers.dev/v1/map/archive/indonesia.pmtiles","updatedAt":"2026-07-26T09:42:12.415Z"},"geometry":{"type":"LineString","coordinates":[[136.0697078704834,-1.156575803596951],[136.07030868530273,-1.1567474299958889],[136.06945037841797,-1.1574339354877878]]}},{"type":"Feature","id":"pmtiles:10/899/515:transportation:1549183100:4","properties":{"class":"primary","highway":"primary","kind":"road","verification":"verified","source":"OpenMapTiles/OpenStreetMap national PMTiles","sourceId":"10/899/515:transportation:1549183100:4","sourceLayer":"transportation","archive":"https://its.hanifahseptiani45.workers.dev/v1/map/archive/indonesia.pmtiles","updatedAt":"2026-07-26T09:42:12.415Z"},"geometry":{"type":"LineString","coordinates":[[136.06953620910645,-1.1485093511662257],[136.0690212249756,-1.147222149199692],[136.06773376464844,-1.1458491331304401],[136.06653213500977,-1.1433605398280804],[136.06541633605957,-1.142159149185602],[136.06412887573242,-1.1413868263644673],[136.06361389160156,-1.14052868965328],[136.06103897094727,-1.13795427798523],[136.06266975402832,-1.1346075393824862],[136.06258392333984,-1.133406145092934],[136.06138229370117,-1.131689866672005],[136.0616397857666,-1.1308317270806043],[136.0624122619629,-1.1295445172178802]]}},{"type":"Feature","id":"pmtiles:10/899/515:transportation:1549183100:5","properties":{"class":"primary","highway":"primary","kind":"road","verification":"verified","source":"OpenMapTiles/OpenStreetMap national PMTiles","sourceId":"10/899/515:transportation:1549183100:5","sourceLayer":"transportation","archive":"https://its.hanifahseptiani45.workers.dev/v1/map/archive/indonesia.pmtiles","updatedAt":"2026-07-26T09:42:12.415Z"},"geometry":{"type":"LineString","coordinates":[[136.06696128845215,-1.1653287366752494],[136.06661796569824,-1.1638699163789]]}},{"type":"Feature","id":"pmtiles:10/899/515:transportation:277281250:0","properties":{"class":"trunk","highway":"trunk","kind":"road","verification":"verified","source":"OpenMapTiles/OpenStreetMap national PMTiles","sourceId":"10/899/515:transportation:277281250:0","sourceLayer":"transportation","archive":"https://its.hanifahseptiani45.workers.dev/v1/map/archive/indonesia.pmtiles","updatedAt":"2026-07-26T09:42:12.415Z"},"geometry":{"type":"LineString","coordinates":[[136.06266975402832,-1.1293728891930925],[136.0627555847168,-1.1292012611581583],[136.0635280609131,-1.1276566083879942],[136.063871383667,-1.120791475063399],[136.06378555297852,-1.1188177462498032],[136.06327056884766,-1.1176163454521344],[136.06327056884766,-1.1147844701998082],[136.06378555297852,-1.1121242212694966],[136.06361389160156,-1.1105795594995698],[136.06378555297852,-1.1073186042244885],[136.0627555847168,-1.1053448663935228],[136.06215476989746,-1.1026846089809226],[136.06335639953613,-1.0995952748089195],[136.0627555847168,-1.0961626775350481],[136.0627555847168,-1.094188932320037],[136.0583782196045,-1.0815740953717494],[136.05640411376953,-1.0780556620828037],[136.05297088623047,-1.068186864131519],[136.05116844177246,-1.0647542313129321],[136.05048179626465,-1.0628662816327363],[136.05039596557617,-1.0618364904114799],[136.0491943359375,-1.0595194589098895]]}},{"type":"Feature","id":"pmtiles:10/899/515:transportation:277281250:1","properties":{"class":"trunk","highway":"trunk","kind":"road","verification":"verified","source":"OpenMapTiles/OpenStreetMap national PMTiles","sourceId":"10/899/515:transportation:277281250:1","sourceLayer":"transportation","archive":"https://its.hanifahseptiani45.workers.dev/v1/map/archive/indonesia.pmtiles","updatedAt":"2026-07-26T09:42:12.415Z"},"geometry":{"type":"LineString","coordinates":[[136.06258392333984,-1.1292870751769044],[136.0627555847168,-1.1292012611581583]]}},{"type":"Feature","id":"pmtiles:10/899/515:transportation:277281250:2","properties":{"class":"trunk","highway":"trunk","kind":"road","verification":"verified","source":"OpenMapTiles/OpenStreetMap national PMTiles","sourceId":"10/899/515:transportation:277281250:2","sourceLayer":"transportation","archive":"https://its.hanifahseptiani45.workers.dev/v1/map/archive/indonesia.pmtiles","updatedAt":"2026-07-26T09:42:12.415Z"},"geometry":{"type":"LineString","coordinates":[[136.06618881225586,-1.1635266644347695],[136.06318473815918,-1.1614671518933193],[136.06155395507812,-1.1617245910431393],[136.0590648651123,-1.1612097127200514],[136.05717658996582,-1.1600941426983553],[136.05365753173828,-1.1601799557925716],[136.05331420898438,-1.1570048695748198],[136.052885055542,-1.1562325507679532],[136.0513401031494,-1.154859539037048],[136.0491943359375,-1.1534007133462012]]}},{"type":"Feature","id":"pmtiles:10/899/515:water:380:1","properties":{"class":"ocean","water":"ocean","kind":"waterway","verification":"verified","source":"OpenMapTiles/OpenStreetMap national PMTiles","sourceId":"10/899/515:water:380:1","sourceLayer":"water","archive":"https://its.hanifahseptiani45.workers.dev/v1/map/archive/indonesia.pmtiles","updatedAt":"2026-07-26T09:42:12.415Z"},"geometry":{"type":"Polygon","coordinates":[[[136.0491943359375,-1.4116003389233214],[136.0491943359375,-1.1669591819946419],[136.04962348937988,-1.1688470648678617],[136.05022430419922,-1.1699626314237719],[136.04979515075684,-1.1703058825825394],[136.05314254760742,-1.1743390805478668],[136.05331420898438,-1.1742532678857174],[136.05554580688477,-1.176141145843971],[136.0561466217041,-1.1772567094918571],[136.05734825134277,-1.1775141471933779],[136.0594081878662,-1.1789729603861332],[136.06035232543945,-1.179230397929075],[136.0619831085205,-1.1801743353827163],[136.06369972229004,-1.1806033977557462],[136.06472969055176,-1.181289897414885],[136.06764793395996,-1.1824054589991704],[136.06833457946777,-1.182577083818515],[136.06910705566406,-1.1823196465855403],[136.06987953186035,-1.18309195821287],[136.07391357421875,-1.1842075190727712],[136.07382774353027,-1.1849798301743277],[136.0770034790039,-1.1855805164377955],[136.07708930969238,-1.1854088918043857],[136.07769012451172,-1.1853230794836804],[136.07803344726562,-1.1849798301743277],[136.07897758483887,-1.1847223931643924],[136.07983589172363,-1.1850656425056485],[136.0800075531006,-1.1848082055036997],[136.08026504516602,-1.1848082055036997],[136.0810375213623,-1.1854088918043857],[136.0813808441162,-1.1860095779747581],[136.08232498168945,-1.1863528271564405],[136.0832691192627,-1.1861812025709213],[136.08378410339355,-1.1867818885736483],[136.0843849182129,-1.1864386394451998],[136.0847282409668,-1.1868677008491062],[136.0843849182129,-1.187296762186449],[136.08455657958984,-1.187468386702733],[136.0850715637207,-1.187468386702733],[136.0855007171631,-1.1869535131218925],[136.08678817749023,-1.187296762186449],[136.0873031616211,-1.1872109499242924],[136.08807563781738,-1.1875541989568887],[136.0879898071289,-1.1877258234571855],[136.09065055847168,-1.1890130068696436],[136.0913372039795,-1.1890988190758094],[136.0920238494873,-1.1887555702351449],[136.09296798706055,-1.1889271946608204],[136.0934829711914,-1.1894420678737845],[136.0952854156494,-1.1898711288112196],[136.09657287597656,-1.1905576261722928],[136.10000610351562,-1.1913299354991551],[136.1012077331543,-1.192016432496871],[136.10240936279297,-1.192016432496871],[136.10369682312012,-1.1925313051328317],[136.10687255859375,-1.1933036139061812],[136.11090660095215,-1.1938184863012964],[136.11339569091797,-1.1945049826781116],[136.11554145812988,-1.1947624187751984],[136.1199188232422,-1.1958779749171242],[136.1253261566162,-1.1966502827498005],[136.13313674926758,-1.199310452508115],[136.13622665405273,-1.1997395119045677],[136.14086151123047,-1.1999969475101295],[136.14541053771973,-1.1993962643927887],[136.14764213562012,-1.198623957333922],[136.14798545837402,-1.1988813930444167],[136.14978790283203,-1.1981090858403292],[136.14978790283203,-1.1975942142499605],[136.1550235748291,-1.1945049826781116],[136.15596771240234,-1.1935610501157896],[136.1572551727295,-1.1913299354991551],[136.15897178649902,-1.1892704434801402],[136.16060256958008,-1.1865244517313016],[136.16223335266113,-1.1854947041224193],[136.16352081298828,-1.1856663287505],[136.16472244262695,-1.1849798301743277],[136.16575241088867,-1.184636580822442],[136.1671257019043,-1.1848940178403495],[136.16875648498535,-1.1832635829897526],[136.16944313049316,-1.18309195821287],[136.1697006225586,-1.1826628962242154],[136.1707305908203,-1.182577083818515],[136.1733055114746,-1.1818047720479257],[136.173734664917,-1.181289897414885],[136.1740779876709,-1.1814615223031666],[136.17433547973633,-1.1811182725160023],[136.1744213104248,-1.1812040849667653],[136.17416381835938,-1.1818047720479257],[136.1747646331787,-1.1818047720479257],[136.17536544799805,-1.1815473347433283],[136.17605209350586,-1.1819763969044033],[136.17819786071777,-1.1821480217502653],[136.17931365966797,-1.1813757098603475],[136.17897033691406,-1.181032460062582],[136.1865234375,-1.179230397929075],[136.18772506713867,-1.1794878354481853],[136.1898708343506,-1.179316210438074],[136.19038581848145,-1.1795736479492547],[136.19072914123535,-1.1789729603861332],[136.1916732788086,-1.1788013353443034],[136.19330406188965,-1.1780290225251093],[136.1941623687744,-1.178114835071142],[136.19622230529785,-1.1775141471933779],[136.19879722595215,-1.1770850843442986],[136.2004280090332,-1.1762269584480975],[136.20068550109863,-1.1763985836484636],[136.20257377624512,-1.175969520627774],[136.20351791381836,-1.1754546449159022],[136.20360374450684,-1.1749397691090735],[136.2041187286377,-1.174853956465384],[136.20463371276855,-1.174167455220939],[136.20549201965332,-1.1740816425535456],[136.20652198791504,-1.1746823311700894],[136.20677947998047,-1.1745965185184843],[136.20652198791504,-1.1735667664937637],[136.20686531066895,-1.1739100172108152],[136.20720863342285,-1.1751972070243397],[136.20755195617676,-1.1756262701637326],[136.20755195617676,-1.1746823311700894],[136.20832443237305,-1.1739100172108152],[136.20849609375,-1.1733951411194425],[136.2099552154541,-1.1730518903392095],[136.21021270751953,-1.1732235157345912],[136.21192932128906,-1.172451201372482],[136.21356010437012,-1.172193763204433],[136.22222900390625,-1.171249823052463],[136.22360229492188,-1.1708207592418916],[136.22591972351074,-1.170734946471896],[136.22617721557617,-1.1710781975361186],[136.22652053833008,-1.170734946471896],[136.22763633728027,-1.170734946471896],[136.23347282409668,-1.1708207592418916],[136.23647689819336,-1.1714214485582914],[136.23870849609375,-1.1709065720092582],[136.24042510986328,-1.1709923847739958],[136.24094009399414,-1.1705633209240318],[136.24239921569824,-1.170391695365666],[136.24574661254883,-1.168932877695596],[136.24737739562988,-1.1680747493002883],[136.2484073638916,-1.1680747493002883],[136.2513256072998,-1.1661868659084433],[136.25287055969238,-1.1647280460564389],[136.25510215759277,-1.1643847942167724],[136.25604629516602,-1.1632692254492554],[136.25802040100098,-1.1626685343917416],[136.2601661682129,-1.1611238996570847],[136.26171112060547,-1.1607806473791697],[136.26188278198242,-1.160866460452553],[136.2626552581787,-1.1607806473791697],[136.2630844116211,-1.1603515819731882],[136.26480102539062,-1.1597508902954843],[136.2667751312256,-1.159922516502121],[136.2674617767334,-1.1604373950596027],[136.26832008361816,-1.1604373950596027],[136.27398490905762,-1.1576055618348136],[136.2744140625,-1.158292067118964],[136.27415657043457,-1.157519748662608],[136.2744140625,-1.1572623091303882],[136.27741813659668,-1.1551169787871345],[136.2799072265625,-1.1529716468241986],[136.27896308898926,-1.152714206879935],[136.27887725830078,-1.152628393560022],[136.27904891967773,-1.1520277002481691],[136.27939224243164,-1.1521135135861726],[136.2821388244629,-1.150225619552998],[136.28291130065918,-1.1501398061581511],[136.2831687927246,-1.1506546864884655],[136.2846279144287,-1.1499681793607408],[136.28668785095215,-1.1496249257349689],[136.2879753112793,-1.1490242317905484],[136.28857612609863,-1.1491100452189045],[136.29003524780273,-1.1477370300558363],[136.29218101501465,-1.147136335714663],[136.29364013671875,-1.147136335714663],[136.2956142425537,-1.1455916925441727],[136.30248069763184,-1.142416590079847],[136.30428314208984,-1.1422449628195892],[136.30462646484375,-1.1419875219099396],[136.30582809448242,-1.1416442673278908],[136.3088321685791,-1.1416442673278908],[136.31046295166016,-1.141301012704858],[136.31157875061035,-1.140614503335911],[136.3128662109375,-1.1408719443684703],[136.31458282470703,-1.14035706228033],[136.31784439086914,-1.1380400917445428],[136.31878852844238,-1.1370961402516855],[136.32084846496582,-1.1361521884501542],[136.3223934173584,-1.1358089331731236],[136.32230758666992,-1.1355514916885738],[136.32342338562012,-1.1347791670974203],[136.32634162902832,-1.1331487033945962],[136.33097648620605,-1.129115447136897],[136.3330364227295,-1.1265410253219272],[136.33440971374512,-1.125940326570955],[136.33604049682617,-1.1241382295756068],[136.3443660736084,-1.1177879741676122],[136.34737014770508,-1.1160716865616536],[136.34977340698242,-1.1140979545766925],[136.35088920593262,-1.1135830677543623],[136.35174751281738,-1.1127249228506457],[136.35303497314453,-1.111952592223858],[136.35337829589844,-1.1114377050270434],[136.35329246520996,-1.111180261394992],[136.35363578796387,-1.111180261394992],[136.3546657562256,-1.1103221157927408],[136.35526657104492,-1.1087774530811032],[136.35766983032227,-1.0995952748089195],[136.35869979858398,-1.0972782720812688],[136.35930061340332,-1.0976215318579534],[136.35955810546875,-1.097449901974528],[136.36093139648438,-1.095733602598898],[136.36067390441895,-1.0946180074773366],[136.3608455657959,-1.0938456721500245],[136.3626480102539,-1.0935882269967436],[136.36590957641602,-1.091099589377336],[136.3677978515625,-1.0903272531455883],[136.3696002960205,-1.089898177375673],[136.3721752166748,-1.0895549167157128],[136.375093460083,-1.0900698076909663],[136.3795566558838,-1.090155622844975],[136.38084411621094,-1.0894691015446085],[136.38307571411133,-1.086723014779892],[136.38487815856934,-1.0836336641856121],[136.38582229614258,-1.0815740953717494],[136.38676643371582,-1.0784847395311061],[136.38693809509277,-1.0763393516851352],[136.38659477233887,-1.0757386428176687],[136.38625144958496,-1.0739365155059915],[136.38590812683105,-1.073249990536226],[136.38530731201172,-1.0722202027926784],[136.38436317443848,-1.0714478617576617],[136.38178825378418,-1.0705038891171341],[136.37723922729492,-1.0699031791036475],[136.37020111083984,-1.0661272848997072],[136.36324882507324,-1.0638960725105875],[136.36075973510742,-1.0633811771146071],[136.35990142822266,-1.0635528089228075],[136.35887145996094,-1.064067704290153],[136.3571548461914,-1.0654407581828167],[136.35449409484863,-1.0665563640200304],[136.35114669799805,-1.0668138114635184],[136.34891510009766,-1.0663847323790918],[136.34522438049316,-1.066041469068466],[136.3440227508545,-1.0668138114635184],[136.34239196777344,-1.0686159429644704],[136.34033203125,-1.0703322576967054],[136.3396453857422,-1.070589704823746],[136.3392162322998,-1.0712762303901116],[136.33423805236816,-1.0744514091321093],[136.33131980895996,-1.0759960894896494],[136.3296890258789,-1.0759960894896494],[136.32411003112793,-1.074279777933043],[136.31930351257324,-1.0709329676261348],[136.31896018981934,-1.0701606262666985],[136.3162136077881,-1.067500337874165],[136.31587028503418,-1.0666421798369328],[136.31458282470703,-1.0647542313129321],[136.3139820098877,-1.0632953612069116],[136.31200790405273,-1.0622655701287158],[136.3117504119873,-1.0614932265948056],[136.31123542785645,-1.0613215946721795],[136.3110637664795,-1.0606350668864621],[136.31054878234863,-1.0600343549490105],[136.30943298339844,-1.0609783307983776],[136.3015365600586,-1.0596910909324322],[136.30016326904297,-1.0588329307245914],[136.29578590393066,-1.0548853907117461],[136.29329681396484,-1.0502513156122433],[136.2930393218994,-1.0491357039128246],[136.4117431640625,-1.0491357039128246],[136.4117431640625,-1.276883274387103],[136.41122817993164,-1.2785994613164462],[136.41011238098145,-1.2828899236168354],[136.4099407196045,-1.2848635338604026],[136.41019821166992,-1.2893256035694662],[136.4117431640625,-1.2997942748317826],[136.4117431640625,-1.4116003389233214],[136.0491943359375,-1.4116003389233214]],[[136.37981414794922,-1.2896688393773275],[136.37921333312988,-1.2913850177220496],[136.3787841796875,-1.2926721507202075],[136.37895584106445,-1.292843768404012],[136.37964248657227,-1.2922431064599493],[136.3798999786377,-1.291728253251975],[136.38041496276855,-1.28915398564817],[136.3810157775879,-1.2882100868743578],[136.38067245483398,-1.2884675138473796],[136.37981414794922,-1.2896688393773275]],[[136.37646675109863,-1.2596355323832995],[136.37758255004883,-1.2603220118688654],[136.37784004211426,-1.2609226812703014],[136.37826919555664,-1.2608368713643046],[136.37792587280273,-1.2606652515437986],[136.37706756591797,-1.2577477128657648],[136.37681007385254,-1.2557740819100331],[136.37689590454102,-1.2546585507104737],[136.37784004211426,-1.2520842461274668],[136.37904167175293,-1.2502822314149142],[136.37895584106445,-1.2500248006406736],[136.37792587280273,-1.249252508166549],[136.37414932250977,-1.249252508166549],[136.36762619018555,-1.2476221121980728],[136.3681411743164,-1.248995077291383],[136.36951446533203,-1.250368041667386],[136.36985778808594,-1.2512261440377728],[136.37020111083984,-1.2515693849073557],[136.37088775634766,-1.2515693849073557],[136.37311935424805,-1.2555166516754497],[136.37449264526367,-1.2574044728067122],[136.37646675109863,-1.2596355323832995]],[[136.37423515319824,-1.3039988928965158],[136.37517929077148,-1.3015962548609536],[136.3739776611328,-1.3038272759699936],[136.37354850769043,-1.305200211054526],[136.37346267700195,-1.309233203527569],[136.37389183044434,-1.3099196696858968],[136.37414932250977,-1.3100054779424681],[136.37432098388672,-1.3091473952445511],[136.3739776611328,-1.3065731453895069],[136.37389183044434,-1.3071738039251528],[136.37389183044434,-1.3058866783157583],[136.37423515319824,-1.3039988928965158]],[[136.35303497314453,-1.2228228076178027],[136.35449409484863,-1.2220505072325523],[136.35492324829102,-1.2210207730401237],[136.35475158691406,-1.2205917170101799],[136.35406494140625,-1.2204200945790262],[136.35337829589844,-1.2205059057959744],[136.3527774810791,-1.2210207730401237],[136.35251998901367,-1.222393751875643],[136.35269165039062,-1.2227369964748789],[136.35303497314453,-1.2228228076178027]],[[136.3326072692871,-1.2189613034722413],[136.32265090942383,-1.2179315680974554],[136.3157844543457,-1.218789680937121],[136.30874633789062,-1.2220505072325523],[136.30325317382812,-1.225654573794941],[136.29758834838867,-1.2297735010690474],[136.29243850708008,-1.2338924219867096],[136.29364013671875,-1.2376680938924238],[136.2970733642578,-1.2421302446675924],[136.30102157592773,-1.2444471276768212],[136.30170822143555,-1.2442755067829268],[136.30205154418945,-1.2432457811850952],[136.3026523590088,-1.2427309182355515],[136.30376815795898,-1.242301865700938],[136.30505561828613,-1.242216055185665],[136.30531311035156,-1.241958623623077],[136.30548477172852,-1.2404140337212226],[136.30728721618652,-1.2388694429177463],[136.30943298339844,-1.2359518800552252],[136.31269454956055,-1.2337208004089746],[136.31681442260742,-1.2333775572203365],[136.3241958618164,-1.2299451229010003],[136.32539749145508,-1.2301167447219115],[136.33252143859863,-1.2274566052581406],[136.33380889892578,-1.2274566052581406],[136.33724212646484,-1.2320903948687345],[136.33767127990723,-1.2330343139874174],[136.34393692016602,-1.2368099871125509],[136.34393692016602,-1.235093772720603],[136.34136199951172,-1.233205935609405],[136.34016036987305,-1.230288366531795],[136.3399887084961,-1.226512684166849],[136.3410186767578,-1.2263410621144573],[136.3410186767578,-1.2232518632913951],[136.3381004333496,-1.222393751875643],[136.3377571105957,-1.2206775282216427],[136.3326072692871,-1.2189613034722413]],[[136.3132095336914,-1.2854641975450534],[136.3135528564453,-1.2864939063899214],[136.31406784057617,-1.2870087606565477],[136.3143253326416,-1.28657971544159],[136.31475448608398,-1.28657971544159],[136.31458282470703,-1.2869229516193315],[136.31492614746094,-1.2868371425792162],[136.3150978088379,-1.28657971544159],[136.3150119781494,-1.2863222882779723],[136.31569862365723,-1.2855500066313112],[136.320161819458,-1.2830615419593414],[136.32290840148926,-1.2812595487889382],[136.32359504699707,-1.2804014563573958],[136.32376670837402,-1.279800791484405],[136.32359504699707,-1.279028507869569],[136.32136344909668,-1.2772265118646828],[136.3205909729004,-1.2771407024995796],[136.31990432739258,-1.2767116556311322],[136.31921768188477,-1.276883274387103],[136.3176727294922,-1.279028507869569],[136.3172435760498,-1.2793717450604163],[136.31569862365723,-1.2825466868972484],[136.31552696228027,-1.2835763969178373],[136.31423950195312,-1.2847777247510663],[136.3136386871338,-1.2855500066313112],[136.3132095336914,-1.2854641975450534]],[[136.3161277770996,-1.252599107246482],[136.31535530090332,-1.2541436899963543],[136.31492614746094,-1.2551734113232413],[136.31389617919922,-1.2557740819100331],[136.31406784057617,-1.2574902828257137],[136.31458282470703,-1.2577477128657648],[136.31449699401855,-1.256546372461628],[136.31552696228027,-1.2556024617564532],[136.3161277770996,-1.2556882718346571],[136.316556930542,-1.2554308415916182],[136.31698608398438,-1.2524274868847272],[136.31827354431152,-1.2489092669940618],[136.31810188293457,-1.2488234566939411],[136.31681442260742,-1.2519984359311422],[136.3161277770996,-1.252599107246482]],[[136.19587898254395,-1.2377539045551345],[136.19012832641602,-1.2438464544993337],[136.18884086608887,-1.2445329381195904],[136.18789672851562,-1.2454768528056661],[136.18789672851562,-1.2467640086508567],[136.19012832641602,-1.2500248006406736],[136.19450569152832,-1.2539720697358234],[136.19922637939453,-1.2577477128657648],[136.20068550109863,-1.258262572869711],[136.2026596069336,-1.257661902855233],[136.2055778503418,-1.2563747523587665],[136.2224006652832,-1.2441896963317873],[136.2242889404297,-1.2407572759995844],[136.22540473937988,-1.2402424125653368],[136.22652053833008,-1.2392984960090843],[136.23064041137695,-1.2327768815336952],[136.23072624206543,-1.232176205711525],[136.23046875,-1.2315755297539113],[136.22986793518066,-1.2309748536609106],[136.22892379760742,-1.2309748536609106],[136.22703552246094,-1.2299451229010003],[136.22540473937988,-1.2300309338128272],[136.22197151184082,-1.229087013630874],[136.21905326843262,-1.2288295807960594],[136.21519088745117,-1.2293444464408765],[136.20909690856934,-1.2310606645396263],[136.2004280090332,-1.2338924219867096],[136.199312210083,-1.2340640435533459],[136.19776725769043,-1.2351795834665467],[136.19587898254395,-1.2377539045551345]],[[136.20858192443848,-1.312322299758364],[136.20969772338867,-1.3125797242721688],[136.210298538208,-1.3125797242721688],[136.21089935302734,-1.312236491581217],[136.21115684509277,-1.31052032742015],[136.21021270751953,-1.3081176956194298],[136.2091827392578,-1.3068305704938155],[136.20823860168457,-1.3060582951017778],[136.20712280273438,-1.3058866783157583],[136.2055778503418,-1.3061441034903964],[136.20463371276855,-1.3066589537605466],[136.2041187286377,-1.3076028456483613],[136.20463371276855,-1.3088899703779049],[136.20583534240723,-1.3095764366302376],[136.20858192443848,-1.312322299758364]]]}},{"type":"Feature","id":"pmtiles:10/899/516:park:77514593:0","properties":{"name":"Taman Wisata Perairan Kepulauan Padaido","name_int":"Padaido Islands Marine Park","class":"protected_area","name:latin":"Taman Wisata Perairan Kepulauan Padaido","name_de":"Taman Wisata Perairan Kepulauan Padaido","name_en":"Padaido Islands Marine Park","kind":"green","verification":"verified","source":"OpenMapTiles/OpenStreetMap national PMTiles","sourceId":"10/899/516:park:77514593:0","sourceLayer":"park","archive":"https://its.hanifahseptiani45.workers.dev/v1/map/archive/indonesia.pmtiles","updatedAt":"2026-07-26T09:42:21.317Z"},"geometry":{"type":"Polygon","coordinates":[[[136.4117431640625,-1.4032772738976291],[136.3337230682373,-1.4006173190275177],[136.4117431640625,-1.4006173190275177],[136.4117431640625,-1.4032772738976291]]]}},{"type":"Feature","id":"pmtiles:8/224/128:landcover:12084713632:0","properties":{"subclass":"wetland","class":"wetland","kind":"green","verification":"verified","source":"OpenMapTiles/OpenStreetMap national PMTiles","sourceId":"8/224/128:landcover:12084713632:0","sourceLayer":"landcover","archive":"https://its.hanifahseptiani45.workers.dev/v1/map/archive/indonesia.pmtiles","updatedAt":"2026-07-26T09:35:33.833Z"},"geometry":{"type":"Polygon","coordinates":[[[136.33380889892578,-1.120877289329485],[136.32831573486328,-1.120534032250049],[136.33243560791016,-1.1177879741676122],[136.33346557617188,-1.1088632676973589],[136.34410858154297,-1.0889542104666816],[136.35337829589844,-1.0824322492142073],[136.36367797851562,-1.0810592029497883],[136.3726043701172,-1.0827755106832058],[136.36539459228516,-1.0841485561703763],[136.36367797851562,-1.0868946452758905],[136.36573791503906,-1.0872379062386273],[136.36505126953125,-1.0903272531455883],[136.3564682006836,-1.0965059374397157],[136.3561248779297,-1.0985654960406492],[136.35269165039062,-1.0995952748089195],[136.3509750366211,-1.106803716221279],[136.35440826416016,-1.1085200092174432],[136.35269165039062,-1.1112660759415007],[136.33380889892578,-1.120877289329485]]]}},{"type":"Feature","id":"pmtiles:8/224/128:landcover:104065320:2","properties":{"subclass":"forest","class":"wood","kind":"green","verification":"verified","source":"OpenMapTiles/OpenStreetMap national PMTiles","sourceId":"8/224/128:landcover:104065320:2","sourceLayer":"landcover","archive":"https://its.hanifahseptiani45.workers.dev/v1/map/archive/indonesia.pmtiles","updatedAt":"2026-07-26T09:35:33.833Z"},"geometry":{"type":"Polygon","coordinates":[[[136.30084991455078,-1.2444471276768212],[136.2970733642578,-1.2420444341467203],[136.29261016845703,-1.2338066111992276],[136.30874633789062,-1.222136318397446],[136.32282257080078,-1.2180173793937286],[136.33277893066406,-1.2190471147357158],[136.3410186767578,-1.2231660521621706],[136.34033203125,-1.2303741774326085],[136.34410858154297,-1.2368957978030295],[136.33243560791016,-1.227628227238938],[136.3128662109375,-1.2338066111992276],[136.30084991455078,-1.2444471276768212]]]}},{"type":"Feature","id":"pmtiles:8/224/128:landcover:1968373740:4","properties":{"subclass":"wood","class":"wood","kind":"green","verification":"verified","source":"OpenMapTiles/OpenStreetMap national PMTiles","sourceId":"8/224/128:landcover:1968373740:4","sourceLayer":"landcover","archive":"https://its.hanifahseptiani45.workers.dev/v1/map/archive/indonesia.pmtiles","updatedAt":"2026-07-26T09:35:33.833Z"},"geometry":{"type":"Polygon","coordinates":[[[136.18858337402344,-1.2458200944258664],[136.1981964111328,-1.235522826422553],[136.21776580810547,-1.2310606645396263],[136.2301254272461,-1.2320903948687345],[136.2201690673828,-1.24513361114073],[136.20162963867188,-1.2571470427327966],[136.1927032470703,-1.2516551951177348],[136.18858337402344,-1.2458200944258664]]]}},{"type":"Feature","id":"pmtiles:8/224/128:landuse:2979088990:4","properties":{"class":"residential","kind":"green","verification":"verified","source":"OpenMapTiles/OpenStreetMap national PMTiles","sourceId":"8/224/128:landuse:2979088990:4","sourceLayer":"landuse","archive":"https://its.hanifahseptiani45.workers.dev/v1/map/archive/indonesia.pmtiles","updatedAt":"2026-07-26T09:35:33.833Z"},"geometry":{"type":"Polygon","coordinates":[[[136.219482421875,-1.1696193802230255],[136.2311553955078,-1.1675598721373035],[136.2366485595703,-1.168246375000308],[136.2366485595703,-1.1713356358066846],[136.21261596679688,-1.1720221377459126],[136.219482421875,-1.1696193802230255]]]}},{"type":"Feature","id":"pmtiles:8/224/128:landuse:2979088990:5","properties":{"class":"residential","kind":"green","verification":"verified","source":"OpenMapTiles/OpenStreetMap national PMTiles","sourceId":"8/224/128:landuse:2979088990:5","sourceLayer":"landuse","archive":"https://its.hanifahseptiani45.workers.dev/v1/map/archive/indonesia.pmtiles","updatedAt":"2026-07-26T09:35:33.833Z"},"geometry":{"type":"Polygon","coordinates":[[[136.3125228881836,-1.138726601727143],[136.31526947021484,-1.1390698566571302],[136.30016326904297,-1.1418158946240453],[136.29776000976562,-1.1390698566571302],[136.28917694091797,-1.1404428759680911],[136.29741668701172,-1.138383346756271],[136.30599975585938,-1.1394131115462187],[136.3077163696289,-1.1380400917445428],[136.30599975585938,-1.1373535815985463],[136.30840301513672,-1.1370103264642921],[136.30943298339844,-1.1390698566571302],[136.3125228881836,-1.138726601727143]]]}},{"type":"Feature","id":"pmtiles:8/224/128:park:77514593:0","properties":{"name":"Taman Wisata Perairan Kepulauan Padaido","name_int":"Padaido Islands Marine Park","class":"protected_area","name:latin":"Taman Wisata Perairan Kepulauan Padaido","name_de":"Taman Wisata Perairan Kepulauan Padaido","name_en":"Padaido Islands Marine Park","kind":"green","verification":"verified","source":"OpenMapTiles/OpenStreetMap national PMTiles","sourceId":"8/224/128:park:77514593:0","sourceLayer":"park","archive":"https://its.hanifahseptiani45.workers.dev/v1/map/archive/indonesia.pmtiles","updatedAt":"2026-07-26T09:35:33.834Z"},"geometry":{"type":"Polygon","coordinates":[[[136.42822265625,-1.4040495182935757],[136.24900817871094,-1.3975283353896373],[136.25484466552734,-1.2327768815336952],[136.42822265625,-1.1277424224523145],[136.42822265625,-1.4040495182935757]]]}},{"type":"Feature","id":"pmtiles:8/224/128:transportation:1549183100:1","properties":{"class":"primary","highway":"primary","kind":"road","verification":"verified","source":"OpenMapTiles/OpenStreetMap national PMTiles","sourceId":"8/224/128:transportation:1549183100:1","sourceLayer":"transportation","archive":"https://its.hanifahseptiani45.workers.dev/v1/map/archive/indonesia.pmtiles","updatedAt":"2026-07-26T09:35:33.834Z"},"geometry":{"type":"LineString","coordinates":[[136.10240936279297,-1.1902143775131293],[136.10103607177734,-1.1909008747887242],[136.09416961669922,-1.1888413824493256],[136.09004974365234,-1.1857521410605472]]}},{"type":"Feature","id":"pmtiles:8/224/128:transportation:1549183100:2","properties":{"class":"primary","highway":"primary","kind":"road","verification":"verified","source":"OpenMapTiles/OpenStreetMap national PMTiles","sourceId":"8/224/128:transportation:1549183100:2","sourceLayer":"transportation","archive":"https://its.hanifahseptiani45.workers.dev/v1/map/archive/indonesia.pmtiles","updatedAt":"2026-07-26T09:35:33.834Z"},"geometry":{"type":"LineString","coordinates":[[136.06979370117188,-1.156575803596951],[136.0704803466797,-1.1569190563844387],[136.06945037841797,-1.1572623091303882]]}},{"type":"Feature","id":"pmtiles:8/224/128:transportation:1549183100:3","properties":{"class":"primary","highway":"primary","kind":"road","verification":"verified","source":"OpenMapTiles/OpenStreetMap national PMTiles","sourceId":"8/224/128:transportation:1549183100:3","sourceLayer":"transportation","archive":"https://its.hanifahseptiani45.workers.dev/v1/map/archive/indonesia.pmtiles","updatedAt":"2026-07-26T09:35:33.834Z"},"geometry":{"type":"LineString","coordinates":[[136.06670379638672,-1.1431889126242112],[136.06258392333984,-1.1390698566571302],[136.06189727783203,-1.1359805608167335],[136.06258392333984,-1.1335777728791072],[136.06155395507812,-1.131518238774035],[136.06258392333984,-1.1294587032067653],[136.06155395507812,-1.1318614945598426],[136.06258392333984,-1.1346075393824862],[136.06121063232422,-1.1380400917445428],[136.06670379638672,-1.1431889126242112],[136.06945037841797,-1.1483377242708457],[136.06979370117188,-1.156575803596951],[136.06945037841797,-1.1572623091303882],[136.06670379638672,-1.1637841033967788],[136.06704711914062,-1.1651571107972245],[136.0660171508789,-1.1672166206429182],[136.06670379638672,-1.1706491336992713],[136.0715103149414,-1.174424893207373],[136.0824966430664,-1.1788871478665328],[136.08901977539062,-1.1771708969193924],[136.09142303466797,-1.1775141471933779],[136.09760284423828,-1.1788871478665328],[136.11167907714844,-1.1840358943543094],[136.11751556396484,-1.1867818885736483],[136.12884521484375,-1.197079342562887],[136.10652923583984,-1.192273868826888],[136.10240936279297,-1.1902143775131293],[136.09004974365234,-1.1857521410605472],[136.0821533203125,-1.1840358943543094],[136.0824966430664,-1.1788871478665328],[136.0821533203125,-1.1785438977616849]]}},{"type":"Feature","id":"pmtiles:8/224/129:park:77514593:0","properties":{"name":"Taman Wisata Perairan Kepulauan Padaido","name_int":"Padaido Islands Marine Park","class":"protected_area","name:latin":"Taman Wisata Perairan Kepulauan Padaido","name_de":"Taman Wisata Perairan Kepulauan Padaido","name_en":"Padaido Islands Marine Park","kind":"green","verification":"verified","source":"OpenMapTiles/OpenStreetMap national PMTiles","sourceId":"8/224/129:park:77514593:0","sourceLayer":"park","archive":"https://its.hanifahseptiani45.workers.dev/v1/map/archive/indonesia.pmtiles","updatedAt":"2026-07-26T09:35:36.638Z"},"geometry":{"type":"Polygon","coordinates":[[[136.42822265625,-1.4040495182935757],[136.24900817871094,-1.3975283353896373],[136.24935150146484,-1.3841426927919969],[136.42822265625,-1.3841426927919969],[136.42822265625,-1.4040495182935757]]]}}]}