{"type":"FeatureCollection","features":[{"type":"Feature","id":"pmtiles:10/867/514:water:1200:0","properties":{"class":"ocean","water":"ocean","kind":"waterway","verification":"verified","source":"OpenMapTiles/OpenStreetMap national PMTiles","sourceId":"10/867/514:water:1200:0","sourceLayer":"water","archive":"https://its.hanifahseptiani45.workers.dev/v1/map/archive/indonesia.pmtiles","updatedAt":"2026-07-26T09:41:58.409Z"},"geometry":{"type":"Polygon","coordinates":[[[124.7991943359375,-0.6976145987557061],[125.1617431640625,-0.6976145987557061],[125.1617431640625,-1.060120170947215],[124.7991943359375,-1.060120170947215],[124.7991943359375,-0.6976145987557061]]]}}]}