{"type":"FeatureCollection","features":[{"type":"Feature","id":"pmtiles:10/819/502:transportation:12808014660:0","properties":{"class":"ferry","highway":"ferry","kind":"road","verification":"verified","source":"OpenMapTiles/OpenStreetMap national PMTiles","sourceId":"10/819/502:transportation:12808014660:0","sourceLayer":"transportation","archive":"https://its.hanifahseptiani45.workers.dev/v1/map/archive/indonesia.pmtiles","updatedAt":"2026-07-26T09:39:36.891Z"},"geometry":{"type":"LineString","coordinates":[[107.94805526733398,3.5189038690258627],[107.9241943359375,3.4468535881753155]]}},{"type":"Feature","id":"pmtiles:10/819/502:transportation:12808014660:1","properties":{"class":"ferry","highway":"ferry","kind":"road","verification":"verified","source":"OpenMapTiles/OpenStreetMap national PMTiles","sourceId":"10/819/502:transportation:12808014660:1","sourceLayer":"transportation","archive":"https://its.hanifahseptiani45.workers.dev/v1/map/archive/indonesia.pmtiles","updatedAt":"2026-07-26T09:39:36.891Z"},"geometry":{"type":"LineString","coordinates":[[107.9241943359375,3.1975062272327506],[108.27017784118652,3.5189038690258627]]}},{"type":"Feature","id":"pmtiles:10/819/502:transportation:12808014660:2","properties":{"class":"ferry","highway":"ferry","kind":"road","verification":"verified","source":"OpenMapTiles/OpenStreetMap national PMTiles","sourceId":"10/819/502:transportation:12808014660:2","sourceLayer":"transportation","archive":"https://its.hanifahseptiani45.workers.dev/v1/map/archive/indonesia.pmtiles","updatedAt":"2026-07-26T09:39:36.891Z"},"geometry":{"type":"LineString","coordinates":[[107.9241943359375,3.197763318400476],[108.2699203491211,3.5189038690258627]]}},{"type":"Feature","id":"pmtiles:10/819/502:transportation:12808014660:3","properties":{"class":"ferry","highway":"ferry","kind":"road","verification":"verified","source":"OpenMapTiles/OpenStreetMap national PMTiles","sourceId":"10/819/502:transportation:12808014660:3","sourceLayer":"transportation","archive":"https://its.hanifahseptiani45.workers.dev/v1/map/archive/indonesia.pmtiles","updatedAt":"2026-07-26T09:39:36.891Z"},"geometry":{"type":"LineString","coordinates":[[108.10701370239258,3.5189038690258627],[107.9241943359375,3.2579208685601913]]}},{"type":"Feature","id":"pmtiles:10/819/502:transportation:12808014660:4","properties":{"class":"ferry","highway":"ferry","kind":"road","verification":"verified","source":"OpenMapTiles/OpenStreetMap national PMTiles","sourceId":"10/819/502:transportation:12808014660:4","sourceLayer":"transportation","archive":"https://its.hanifahseptiani45.workers.dev/v1/map/archive/indonesia.pmtiles","updatedAt":"2026-07-26T09:39:36.891Z"},"geometry":{"type":"LineString","coordinates":[[108.24614524841309,3.5189038690258627],[108.27103614807129,3.4913180876955323],[108.2867431640625,3.481294481630755]]}},{"type":"Feature","id":"pmtiles:10/819/502:water:2350:0","properties":{"class":"ocean","water":"ocean","kind":"waterway","verification":"verified","source":"OpenMapTiles/OpenStreetMap national PMTiles","sourceId":"10/819/502:water:2350:0","sourceLayer":"water","archive":"https://its.hanifahseptiani45.workers.dev/v1/map/archive/indonesia.pmtiles","updatedAt":"2026-07-26T09:39:36.891Z"},"geometry":{"type":"Polygon","coordinates":[[[107.9241943359375,3.5189038690258627],[108.2867431640625,3.5189038690258627],[108.2867431640625,3.156970717063345],[107.9241943359375,3.156970717063345],[107.9241943359375,3.5189038690258627]]]}},{"type":"Feature","id":"pmtiles:8/204/125:transportation:10402583400:6","properties":{"class":"ferry","highway":"ferry","kind":"road","verification":"verified","source":"OpenMapTiles/OpenStreetMap national PMTiles","sourceId":"8/204/125:transportation:10402583400:6","sourceLayer":"transportation","archive":"https://its.hanifahseptiani45.workers.dev/v1/map/archive/indonesia.pmtiles","updatedAt":"2026-07-26T09:35:20.784Z"},"geometry":{"type":"LineString","coordinates":[[107.70893096923828,2.7894247770059906],[107.71648406982422,2.96395577937885],[107.73056030273438,2.9920702262748904],[107.74360656738281,2.999270151846318],[107.74463653564453,3.000641560869667],[107.74120330810547,2.999270151846318],[107.73880004882812,3.000298708775105],[107.73674011230469,3.003384373753576],[107.73605346679688,3.0088699788481534],[107.74017333984375,3.0191554139541097],[107.75802612304688,3.043154383251263],[108.30322265625,3.5497441479703156],[107.75768280029297,3.043154383251263],[107.73983001708984,3.0191554139541097],[107.73571014404297,3.0088699788481534],[107.73639678955078,3.0030415225196947],[107.73880004882812,3.000298708775105],[107.74085998535156,2.999270151846318],[107.74463653564453,3.000641560869667],[107.74360656738281,2.998927299321707],[107.73365020751953,2.993441644318935],[107.7315902709961,2.9903559513070803],[107.73536682128906,2.966698683800246],[107.77896881103516,2.934126256123804],[107.83287048339844,2.9097820319554586],[108.12023162841797,2.7894247770059906]]}}]}