{"type":"FeatureCollection","features":[{"type":"Feature","id":"pmtiles:10/870/503:transportation:10318723190:0","properties":{"class":"ferry","highway":"ferry","kind":"road","verification":"verified","source":"OpenMapTiles/OpenStreetMap national PMTiles","sourceId":"10/870/503:transportation:10318723190:0","sourceLayer":"transportation","archive":"https://its.hanifahseptiani45.workers.dev/v1/map/archive/indonesia.pmtiles","updatedAt":"2026-07-26T09:39:47.932Z"},"geometry":{"type":"LineString","coordinates":[[126.2164306640625,3.061496092570664],[126.03464126586914,2.8058846278244687]]}},{"type":"Feature","id":"pmtiles:10/870/503:transportation:10318723190:1","properties":{"class":"ferry","highway":"ferry","kind":"road","verification":"verified","source":"OpenMapTiles/OpenStreetMap national PMTiles","sourceId":"10/870/503:transportation:10318723190:1","sourceLayer":"transportation","archive":"https://its.hanifahseptiani45.workers.dev/v1/map/archive/indonesia.pmtiles","updatedAt":"2026-07-26T09:39:47.932Z"},"geometry":{"type":"LineString","coordinates":[[126.0761833190918,2.8058846278244687],[126.1256217956543,2.8832085111949084],[126.2164306640625,3.0188125676843356]]}},{"type":"Feature","id":"pmtiles:10/870/503:transportation:10318723190:2","properties":{"class":"ferry","highway":"ferry","kind":"road","verification":"verified","source":"OpenMapTiles/OpenStreetMap national PMTiles","sourceId":"10/870/503:transportation:10318723190:2","sourceLayer":"transportation","archive":"https://its.hanifahseptiani45.workers.dev/v1/map/archive/indonesia.pmtiles","updatedAt":"2026-07-26T09:39:47.932Z"},"geometry":{"type":"LineString","coordinates":[[125.88529586791992,2.8058846278244687],[125.89962959289551,2.8232872388561674],[125.95696449279785,2.8943523216091336],[126.13746643066406,3.1119770203931267],[126.18321418762207,3.167940314402756]]}},{"type":"Feature","id":"pmtiles:10/870/503:water:1300:0","properties":{"class":"ocean","water":"ocean","kind":"waterway","verification":"verified","source":"OpenMapTiles/OpenStreetMap national PMTiles","sourceId":"10/870/503:water:1300:0","sourceLayer":"water","archive":"https://its.hanifahseptiani45.workers.dev/v1/map/archive/indonesia.pmtiles","updatedAt":"2026-07-26T09:39:47.932Z"},"geometry":{"type":"Polygon","coordinates":[[[125.8538818359375,3.167940314402756],[126.2164306640625,3.167940314402756],[126.2164306640625,2.8058846278244687],[125.8538818359375,2.8058846278244687],[125.8538818359375,3.167940314402756]]]}}]}