{"type":"FeatureCollection","features":[{"type":"Feature","id":"pmtiles:10/836/493:water:2410:0","properties":{"class":"ocean","water":"ocean","kind":"waterway","verification":"verified","source":"OpenMapTiles/OpenStreetMap national PMTiles","sourceId":"10/836/493:water:2410:0","sourceLayer":"water","archive":"https://its.hanifahseptiani45.workers.dev/v1/map/archive/indonesia.pmtiles","updatedAt":"2026-07-26T09:37:48.779Z"},"geometry":{"type":"Polygon","coordinates":[[[113.9007568359375,6.670063575977281],[114.2633056640625,6.670063575977281],[114.2633056640625,6.309838680093364],[113.9007568359375,6.309838680093364],[113.9007568359375,6.670063575977281]]]}}]}