{"type":"FeatureCollection","features":[{"type":"Feature","id":"pmtiles:10/887/512:landcover:6889913372:0","properties":{"subclass":"wood","class":"wood","kind":"green","verification":"verified","source":"OpenMapTiles/OpenStreetMap national PMTiles","sourceId":"10/887/512:landcover:6889913372:0","sourceLayer":"landcover","archive":"https://its.hanifahseptiani45.workers.dev/v1/map/archive/indonesia.pmtiles","updatedAt":"2026-07-26T09:41:38.055Z"},"geometry":{"type":"Polygon","coordinates":[[[132.16569900512695,-0.3453805987207801],[132.16741561889648,-0.3440931616977849],[132.17093467712402,-0.3434923576942168],[132.1728229522705,-0.34374984512895423],[132.17479705810547,-0.34555225697735636],[132.1758270263672,-0.349843712379581],[132.17308044433594,-0.3512169776949321],[132.17016220092773,-0.3507878323055138],[132.1626091003418,-0.34666803556939385],[132.16106414794922,-0.34426481997758174],[132.16569900512695,-0.3453805987207801]]]}},{"type":"Feature","id":"pmtiles:10/887/512:water:470:0","properties":{"class":"ocean","water":"ocean","kind":"waterway","verification":"verified","source":"OpenMapTiles/OpenStreetMap national PMTiles","sourceId":"10/887/512:water:470:0","sourceLayer":"water","archive":"https://its.hanifahseptiani45.workers.dev/v1/map/archive/indonesia.pmtiles","updatedAt":"2026-07-26T09:41:38.055Z"},"geometry":{"type":"Polygon","coordinates":[[[131.8304443359375,0.005493164054087174],[132.1929931640625,0.005493164054087174],[132.1929931640625,-0.3570533530246962],[131.8304443359375,-0.3570533530246962],[131.8304443359375,0.005493164054087174]],[[132.1739387512207,-0.3445223073914576],[132.17256546020508,-0.3436640159848139],[132.17059135437012,-0.3434923576942168],[132.16904640197754,-0.3440931616977849],[132.167329788208,-0.3440931616977849],[132.1662998199463,-0.34512311133012474],[132.16569900512695,-0.3453805987207801],[132.1614933013916,-0.3440931616977849],[132.16097831726074,-0.34417899083807413],[132.16175079345703,-0.3458955734811866],[132.1629524230957,-0.34692552291812717],[132.1676731109619,-0.34932873783445473],[132.16999053955078,-0.3507878323055138],[132.17265129089355,-0.35130280677044823],[132.1735954284668,-0.3512169776949321],[132.17556953430176,-0.3503586868964277],[132.17591285705566,-0.3500153705549991],[132.17591285705566,-0.34915707964648846],[132.17479705810547,-0.34555225697735636],[132.1739387512207,-0.3445223073914576]]]}},{"type":"Feature","id":"pmtiles:10/887/513:landcover:118421210:0","properties":{"subclass":"wood","class":"wood","kind":"green","verification":"verified","source":"OpenMapTiles/OpenStreetMap national PMTiles","sourceId":"10/887/513:landcover:118421210:0","sourceLayer":"landcover","archive":"https://its.hanifahseptiani45.workers.dev/v1/map/archive/indonesia.pmtiles","updatedAt":"2026-07-26T09:41:51.193Z"},"geometry":{"type":"Polygon","coordinates":[[[132.17496871948242,-0.34606723172845477],[132.1758270263672,-0.349843712379581],[132.17308044433594,-0.3512169776949321],[132.17016220092773,-0.3507878323055138],[132.1626091003418,-0.34666803556939385],[132.1621799468994,-0.34606723172845477],[132.17496871948242,-0.34606723172845477]]]}}]}