{"type":"FeatureCollection","features":[{"type":"Feature","id":"pmtiles:12/3592/1980:water:140:0","properties":{"class":"ocean","water":"ocean","kind":"waterway","verification":"verified","source":"OpenMapTiles/OpenStreetMap national PMTiles","sourceId":"12/3592/1980:water:140:0","sourceLayer":"water","archive":"https://its.hanifahseptiani45.workers.dev/v1/map/archive/indonesia.pmtiles","updatedAt":"2026-07-26T10:38:04.517Z"},"geometry":{"type":"Polygon","coordinates":[[[135.70175170898438,5.967119522904156],[135.79238891601562,5.967119522904156],[135.79238891601562,5.87696603826862],[135.70175170898438,5.87696603826862],[135.70175170898438,5.967119522904156]]]}},{"type":"Feature","id":"pmtiles:12/3593/1980:water:140:0","properties":{"class":"ocean","water":"ocean","kind":"waterway","verification":"verified","source":"OpenMapTiles/OpenStreetMap national PMTiles","sourceId":"12/3593/1980:water:140:0","sourceLayer":"water","archive":"https://its.hanifahseptiani45.workers.dev/v1/map/archive/indonesia.pmtiles","updatedAt":"2026-07-26T10:38:04.631Z"},"geometry":{"type":"Polygon","coordinates":[[[135.78964233398438,5.967119522904156],[135.88027954101562,5.967119522904156],[135.88027954101562,5.87696603826862],[135.78964233398438,5.87696603826862],[135.78964233398438,5.967119522904156]]]}},{"type":"Feature","id":"pmtiles:12/3594/1980:water:140:0","properties":{"class":"ocean","water":"ocean","kind":"waterway","verification":"verified","source":"OpenMapTiles/OpenStreetMap national PMTiles","sourceId":"12/3594/1980:water:140:0","sourceLayer":"water","archive":"https://its.hanifahseptiani45.workers.dev/v1/map/archive/indonesia.pmtiles","updatedAt":"2026-07-26T10:38:04.695Z"},"geometry":{"type":"Polygon","coordinates":[[[135.87753295898438,5.967119522904156],[135.96817016601562,5.967119522904156],[135.96817016601562,5.87696603826862],[135.87753295898438,5.87696603826862],[135.87753295898438,5.967119522904156]]]}},{"type":"Feature","id":"pmtiles:12/3595/1980:water:140:0","properties":{"class":"ocean","water":"ocean","kind":"waterway","verification":"verified","source":"OpenMapTiles/OpenStreetMap national PMTiles","sourceId":"12/3595/1980:water:140:0","sourceLayer":"water","archive":"https://its.hanifahseptiani45.workers.dev/v1/map/archive/indonesia.pmtiles","updatedAt":"2026-07-26T10:38:04.776Z"},"geometry":{"type":"Polygon","coordinates":[[[135.96542358398438,5.967119522904156],[136.05606079101562,5.967119522904156],[136.05606079101562,5.87696603826862],[135.96542358398438,5.87696603826862],[135.96542358398438,5.967119522904156]]]}},{"type":"Feature","id":"pmtiles:12/3592/1981:water:140:0","properties":{"class":"ocean","water":"ocean","kind":"waterway","verification":"verified","source":"OpenMapTiles/OpenStreetMap national PMTiles","sourceId":"12/3592/1981:water:140:0","sourceLayer":"water","archive":"https://its.hanifahseptiani45.workers.dev/v1/map/archive/indonesia.pmtiles","updatedAt":"2026-07-26T10:38:38.799Z"},"geometry":{"type":"Polygon","coordinates":[[[135.70175170898438,5.879698177726667],[135.79238891601562,5.879698177726667],[135.79238891601562,5.789530528448793],[135.70175170898438,5.789530528448793],[135.70175170898438,5.879698177726667]]]}},{"type":"Feature","id":"pmtiles:12/3593/1981:water:140:0","properties":{"class":"ocean","water":"ocean","kind":"waterway","verification":"verified","source":"OpenMapTiles/OpenStreetMap national PMTiles","sourceId":"12/3593/1981:water:140:0","sourceLayer":"water","archive":"https://its.hanifahseptiani45.workers.dev/v1/map/archive/indonesia.pmtiles","updatedAt":"2026-07-26T10:38:38.868Z"},"geometry":{"type":"Polygon","coordinates":[[[135.78964233398438,5.879698177726667],[135.88027954101562,5.879698177726667],[135.88027954101562,5.789530528448793],[135.78964233398438,5.789530528448793],[135.78964233398438,5.879698177726667]]]}},{"type":"Feature","id":"pmtiles:12/3594/1981:water:140:0","properties":{"class":"ocean","water":"ocean","kind":"waterway","verification":"verified","source":"OpenMapTiles/OpenStreetMap national PMTiles","sourceId":"12/3594/1981:water:140:0","sourceLayer":"water","archive":"https://its.hanifahseptiani45.workers.dev/v1/map/archive/indonesia.pmtiles","updatedAt":"2026-07-26T10:38:38.938Z"},"geometry":{"type":"Polygon","coordinates":[[[135.87753295898438,5.879698177726667],[135.96817016601562,5.879698177726667],[135.96817016601562,5.789530528448793],[135.87753295898438,5.789530528448793],[135.87753295898438,5.879698177726667]]]}},{"type":"Feature","id":"pmtiles:12/3595/1981:water:140:0","properties":{"class":"ocean","water":"ocean","kind":"waterway","verification":"verified","source":"OpenMapTiles/OpenStreetMap national PMTiles","sourceId":"12/3595/1981:water:140:0","sourceLayer":"water","archive":"https://its.hanifahseptiani45.workers.dev/v1/map/archive/indonesia.pmtiles","updatedAt":"2026-07-26T10:38:38.986Z"},"geometry":{"type":"Polygon","coordinates":[[[135.96542358398438,5.879698177726667],[136.05606079101562,5.879698177726667],[136.05606079101562,5.789530528448793],[135.96542358398438,5.789530528448793],[135.96542358398438,5.879698177726667]]]}},{"type":"Feature","id":"pmtiles:12/3592/1982:water:140:0","properties":{"class":"ocean","water":"ocean","kind":"waterway","verification":"verified","source":"OpenMapTiles/OpenStreetMap national PMTiles","sourceId":"12/3592/1982:water:140:0","sourceLayer":"water","archive":"https://its.hanifahseptiani45.workers.dev/v1/map/archive/indonesia.pmtiles","updatedAt":"2026-07-26T10:39:11.532Z"},"geometry":{"type":"Polygon","coordinates":[[[135.70175170898438,5.792263093990954],[135.79238891601562,5.792263093990954],[135.79238891601562,5.702081487858422],[135.70175170898438,5.702081487858422],[135.70175170898438,5.792263093990954]]]}},{"type":"Feature","id":"pmtiles:12/3593/1982:water:140:0","properties":{"class":"ocean","water":"ocean","kind":"waterway","verification":"verified","source":"OpenMapTiles/OpenStreetMap national PMTiles","sourceId":"12/3593/1982:water:140:0","sourceLayer":"water","archive":"https://its.hanifahseptiani45.workers.dev/v1/map/archive/indonesia.pmtiles","updatedAt":"2026-07-26T10:39:11.585Z"},"geometry":{"type":"Polygon","coordinates":[[[135.78964233398438,5.792263093990954],[135.88027954101562,5.792263093990954],[135.88027954101562,5.702081487858422],[135.78964233398438,5.702081487858422],[135.78964233398438,5.792263093990954]]]}},{"type":"Feature","id":"pmtiles:12/3594/1982:water:140:0","properties":{"class":"ocean","water":"ocean","kind":"waterway","verification":"verified","source":"OpenMapTiles/OpenStreetMap national PMTiles","sourceId":"12/3594/1982:water:140:0","sourceLayer":"water","archive":"https://its.hanifahseptiani45.workers.dev/v1/map/archive/indonesia.pmtiles","updatedAt":"2026-07-26T10:39:11.660Z"},"geometry":{"type":"Polygon","coordinates":[[[135.87753295898438,5.792263093990954],[135.96817016601562,5.792263093990954],[135.96817016601562,5.702081487858422],[135.87753295898438,5.702081487858422],[135.87753295898438,5.792263093990954]]]}},{"type":"Feature","id":"pmtiles:12/3595/1982:water:140:0","properties":{"class":"ocean","water":"ocean","kind":"waterway","verification":"verified","source":"OpenMapTiles/OpenStreetMap national PMTiles","sourceId":"12/3595/1982:water:140:0","sourceLayer":"water","archive":"https://its.hanifahseptiani45.workers.dev/v1/map/archive/indonesia.pmtiles","updatedAt":"2026-07-26T10:39:11.721Z"},"geometry":{"type":"Polygon","coordinates":[[[135.96542358398438,5.792263093990954],[136.05606079101562,5.792263093990954],[136.05606079101562,5.702081487858422],[135.96542358398438,5.702081487858422],[135.96542358398438,5.792263093990954]]]}},{"type":"Feature","id":"pmtiles:12/3592/1983:water:140:0","properties":{"class":"ocean","water":"ocean","kind":"waterway","verification":"verified","source":"OpenMapTiles/OpenStreetMap national PMTiles","sourceId":"12/3592/1983:water:140:0","sourceLayer":"water","archive":"https://its.hanifahseptiani45.workers.dev/v1/map/archive/indonesia.pmtiles","updatedAt":"2026-07-26T10:39:48.795Z"},"geometry":{"type":"Polygon","coordinates":[[[135.70175170898438,5.70481447318565],[135.79238891601562,5.70481447318565],[135.79238891601562,5.61461911814834],[135.70175170898438,5.61461911814834],[135.70175170898438,5.70481447318565]]]}},{"type":"Feature","id":"pmtiles:12/3593/1983:water:140:0","properties":{"class":"ocean","water":"ocean","kind":"waterway","verification":"verified","source":"OpenMapTiles/OpenStreetMap national PMTiles","sourceId":"12/3593/1983:water:140:0","sourceLayer":"water","archive":"https://its.hanifahseptiani45.workers.dev/v1/map/archive/indonesia.pmtiles","updatedAt":"2026-07-26T10:39:48.875Z"},"geometry":{"type":"Polygon","coordinates":[[[135.78964233398438,5.70481447318565],[135.88027954101562,5.70481447318565],[135.88027954101562,5.61461911814834],[135.78964233398438,5.61461911814834],[135.78964233398438,5.70481447318565]]]}},{"type":"Feature","id":"pmtiles:12/3594/1983:water:140:0","properties":{"class":"ocean","water":"ocean","kind":"waterway","verification":"verified","source":"OpenMapTiles/OpenStreetMap national PMTiles","sourceId":"12/3594/1983:water:140:0","sourceLayer":"water","archive":"https://its.hanifahseptiani45.workers.dev/v1/map/archive/indonesia.pmtiles","updatedAt":"2026-07-26T10:39:48.943Z"},"geometry":{"type":"Polygon","coordinates":[[[135.87753295898438,5.70481447318565],[135.96817016601562,5.70481447318565],[135.96817016601562,5.61461911814834],[135.87753295898438,5.61461911814834],[135.87753295898438,5.70481447318565]]]}},{"type":"Feature","id":"pmtiles:12/3595/1983:water:140:0","properties":{"class":"ocean","water":"ocean","kind":"waterway","verification":"verified","source":"OpenMapTiles/OpenStreetMap national PMTiles","sourceId":"12/3595/1983:water:140:0","sourceLayer":"water","archive":"https://its.hanifahseptiani45.workers.dev/v1/map/archive/indonesia.pmtiles","updatedAt":"2026-07-26T10:39:49.023Z"},"geometry":{"type":"Polygon","coordinates":[[[135.96542358398438,5.70481447318565],[136.05606079101562,5.70481447318565],[136.05606079101562,5.61461911814834],[135.96542358398438,5.61461911814834],[135.96542358398438,5.70481447318565]]]}},{"type":"Feature","id":"pmtiles:10/898/495:water:140:0","properties":{"class":"ocean","water":"ocean","kind":"waterway","verification":"verified","source":"OpenMapTiles/OpenStreetMap national PMTiles","sourceId":"10/898/495:water:140:0","sourceLayer":"water","archive":"https://its.hanifahseptiani45.workers.dev/v1/map/archive/indonesia.pmtiles","updatedAt":"2026-07-26T09:38:18.098Z"},"geometry":{"type":"Polygon","coordinates":[[[135.6976318359375,5.971217057997222],[136.0601806640625,5.971217057997222],[136.0601806640625,5.61051899590089],[135.6976318359375,5.61051899590089],[135.6976318359375,5.971217057997222]]]}}]}