{"type":"FeatureCollection","features":[{"type":"Feature","id":"pmtiles:10/893/507:water:890:0","properties":{"class":"ocean","water":"ocean","kind":"waterway","verification":"verified","source":"OpenMapTiles/OpenStreetMap national PMTiles","sourceId":"10/893/507:water:890:0","sourceLayer":"water","archive":"https://its.hanifahseptiani45.workers.dev/v1/map/archive/indonesia.pmtiles","updatedAt":"2026-07-26T09:40:31.382Z"},"geometry":{"type":"Polygon","coordinates":[[[133.9398193359375,1.7630273831138794],[134.3023681640625,1.7630273831138794],[134.3023681640625,1.4006173190275177],[133.9398193359375,1.4006173190275177],[133.9398193359375,1.7630273831138794]]]}}]}