{"type":"FeatureCollection","features":[{"type":"Feature","id":"pmtiles:12/3496/1988:water:720:0","properties":{"class":"ocean","water":"ocean","kind":"waterway","verification":"verified","source":"OpenMapTiles/OpenStreetMap national PMTiles","sourceId":"12/3496/1988:water:720:0","sourceLayer":"water","archive":"https://its.hanifahseptiani45.workers.dev/v1/map/archive/indonesia.pmtiles","updatedAt":"2026-07-26T10:42:54.586Z"},"geometry":{"type":"Polygon","coordinates":[[[127.26425170898438,5.267375376100517],[127.35488891601562,5.267375376100517],[127.35488891601562,5.177114401298994],[127.26425170898438,5.177114401298994],[127.26425170898438,5.267375376100517]]]}},{"type":"Feature","id":"pmtiles:12/3497/1988:water:720:0","properties":{"class":"ocean","water":"ocean","kind":"waterway","verification":"verified","source":"OpenMapTiles/OpenStreetMap national PMTiles","sourceId":"12/3497/1988:water:720:0","sourceLayer":"water","archive":"https://its.hanifahseptiani45.workers.dev/v1/map/archive/indonesia.pmtiles","updatedAt":"2026-07-26T10:42:54.650Z"},"geometry":{"type":"Polygon","coordinates":[[[127.35214233398438,5.267375376100517],[127.44277954101562,5.267375376100517],[127.44277954101562,5.177114401298994],[127.35214233398438,5.177114401298994],[127.35214233398438,5.267375376100517]]]}},{"type":"Feature","id":"pmtiles:12/3498/1988:water:720:0","properties":{"class":"ocean","water":"ocean","kind":"waterway","verification":"verified","source":"OpenMapTiles/OpenStreetMap national PMTiles","sourceId":"12/3498/1988:water:720:0","sourceLayer":"water","archive":"https://its.hanifahseptiani45.workers.dev/v1/map/archive/indonesia.pmtiles","updatedAt":"2026-07-26T10:42:54.720Z"},"geometry":{"type":"Polygon","coordinates":[[[127.44003295898438,5.267375376100517],[127.53067016601562,5.267375376100517],[127.53067016601562,5.177114401298994],[127.44003295898438,5.177114401298994],[127.44003295898438,5.267375376100517]]]}},{"type":"Feature","id":"pmtiles:12/3499/1988:water:720:0","properties":{"class":"ocean","water":"ocean","kind":"waterway","verification":"verified","source":"OpenMapTiles/OpenStreetMap national PMTiles","sourceId":"12/3499/1988:water:720:0","sourceLayer":"water","archive":"https://its.hanifahseptiani45.workers.dev/v1/map/archive/indonesia.pmtiles","updatedAt":"2026-07-26T10:42:54.794Z"},"geometry":{"type":"Polygon","coordinates":[[[127.52792358398438,5.267375376100517],[127.61856079101562,5.267375376100517],[127.61856079101562,5.177114401298994],[127.52792358398438,5.177114401298994],[127.52792358398438,5.267375376100517]]]}},{"type":"Feature","id":"pmtiles:12/3496/1989:water:720:0","properties":{"class":"ocean","water":"ocean","kind":"waterway","verification":"verified","source":"OpenMapTiles/OpenStreetMap national PMTiles","sourceId":"12/3496/1989:water:720:0","sourceLayer":"water","archive":"https://its.hanifahseptiani45.workers.dev/v1/map/archive/indonesia.pmtiles","updatedAt":"2026-07-26T10:43:28.666Z"},"geometry":{"type":"Polygon","coordinates":[[[127.26425170898438,5.179849772787961],[127.35488891601562,5.179849772787961],[127.35488891601562,5.089576300054759],[127.26425170898438,5.089576300054759],[127.26425170898438,5.179849772787961]]]}},{"type":"Feature","id":"pmtiles:12/3497/1989:water:720:0","properties":{"class":"ocean","water":"ocean","kind":"waterway","verification":"verified","source":"OpenMapTiles/OpenStreetMap national PMTiles","sourceId":"12/3497/1989:water:720:0","sourceLayer":"water","archive":"https://its.hanifahseptiani45.workers.dev/v1/map/archive/indonesia.pmtiles","updatedAt":"2026-07-26T10:43:28.729Z"},"geometry":{"type":"Polygon","coordinates":[[[127.35214233398438,5.179849772787961],[127.44277954101562,5.179849772787961],[127.44277954101562,5.089576300054759],[127.35214233398438,5.089576300054759],[127.35214233398438,5.179849772787961]]]}},{"type":"Feature","id":"pmtiles:12/3498/1989:water:720:0","properties":{"class":"ocean","water":"ocean","kind":"waterway","verification":"verified","source":"OpenMapTiles/OpenStreetMap national PMTiles","sourceId":"12/3498/1989:water:720:0","sourceLayer":"water","archive":"https://its.hanifahseptiani45.workers.dev/v1/map/archive/indonesia.pmtiles","updatedAt":"2026-07-26T10:43:28.794Z"},"geometry":{"type":"Polygon","coordinates":[[[127.44003295898438,5.179849772787961],[127.53067016601562,5.179849772787961],[127.53067016601562,5.089576300054759],[127.44003295898438,5.089576300054759],[127.44003295898438,5.179849772787961]]]}},{"type":"Feature","id":"pmtiles:12/3499/1989:water:720:0","properties":{"class":"ocean","water":"ocean","kind":"waterway","verification":"verified","source":"OpenMapTiles/OpenStreetMap national PMTiles","sourceId":"12/3499/1989:water:720:0","sourceLayer":"water","archive":"https://its.hanifahseptiani45.workers.dev/v1/map/archive/indonesia.pmtiles","updatedAt":"2026-07-26T10:43:28.872Z"},"geometry":{"type":"Polygon","coordinates":[[[127.52792358398438,5.179849772787961],[127.61856079101562,5.179849772787961],[127.61856079101562,5.089576300054759],[127.52792358398438,5.089576300054759],[127.52792358398438,5.179849772787961]]]}},{"type":"Feature","id":"pmtiles:12/3496/1990:water:720:0","properties":{"class":"ocean","water":"ocean","kind":"waterway","verification":"verified","source":"OpenMapTiles/OpenStreetMap national PMTiles","sourceId":"12/3496/1990:water:720:0","sourceLayer":"water","archive":"https://its.hanifahseptiani45.workers.dev/v1/map/archive/indonesia.pmtiles","updatedAt":"2026-07-26T10:44:03.997Z"},"geometry":{"type":"Polygon","coordinates":[[[127.26425170898438,5.092312047102723],[127.35488891601562,5.092312047102723],[127.35488891601562,5.002026285456836],[127.26425170898438,5.002026285456836],[127.26425170898438,5.092312047102723]]]}},{"type":"Feature","id":"pmtiles:12/3497/1990:water:720:0","properties":{"class":"ocean","water":"ocean","kind":"waterway","verification":"verified","source":"OpenMapTiles/OpenStreetMap national PMTiles","sourceId":"12/3497/1990:water:720:0","sourceLayer":"water","archive":"https://its.hanifahseptiani45.workers.dev/v1/map/archive/indonesia.pmtiles","updatedAt":"2026-07-26T10:44:04.057Z"},"geometry":{"type":"Polygon","coordinates":[[[127.35214233398438,5.092312047102723],[127.44277954101562,5.092312047102723],[127.44277954101562,5.002026285456836],[127.35214233398438,5.002026285456836],[127.35214233398438,5.092312047102723]]]}},{"type":"Feature","id":"pmtiles:12/3498/1990:water:720:0","properties":{"class":"ocean","water":"ocean","kind":"waterway","verification":"verified","source":"OpenMapTiles/OpenStreetMap national PMTiles","sourceId":"12/3498/1990:water:720:0","sourceLayer":"water","archive":"https://its.hanifahseptiani45.workers.dev/v1/map/archive/indonesia.pmtiles","updatedAt":"2026-07-26T10:44:04.114Z"},"geometry":{"type":"Polygon","coordinates":[[[127.44003295898438,5.092312047102723],[127.53067016601562,5.092312047102723],[127.53067016601562,5.002026285456836],[127.44003295898438,5.002026285456836],[127.44003295898438,5.092312047102723]]]}},{"type":"Feature","id":"pmtiles:12/3499/1990:water:720:0","properties":{"class":"ocean","water":"ocean","kind":"waterway","verification":"verified","source":"OpenMapTiles/OpenStreetMap national PMTiles","sourceId":"12/3499/1990:water:720:0","sourceLayer":"water","archive":"https://its.hanifahseptiani45.workers.dev/v1/map/archive/indonesia.pmtiles","updatedAt":"2026-07-26T10:44:04.181Z"},"geometry":{"type":"Polygon","coordinates":[[[127.52792358398438,5.092312047102723],[127.61856079101562,5.092312047102723],[127.61856079101562,5.002026285456836],[127.52792358398438,5.002026285456836],[127.52792358398438,5.092312047102723]]]}},{"type":"Feature","id":"pmtiles:12/3496/1991:water:720:0","properties":{"class":"ocean","water":"ocean","kind":"waterway","verification":"verified","source":"OpenMapTiles/OpenStreetMap national PMTiles","sourceId":"12/3496/1991:water:720:0","sourceLayer":"water","archive":"https://its.hanifahseptiani45.workers.dev/v1/map/archive/indonesia.pmtiles","updatedAt":"2026-07-26T10:44:38.277Z"},"geometry":{"type":"Polygon","coordinates":[[[127.26425170898438,5.004762401727689],[127.35488891601562,5.004762401727689],[127.35488891601562,4.914464560331368],[127.26425170898438,4.914464560331368],[127.26425170898438,5.004762401727689]]]}},{"type":"Feature","id":"pmtiles:12/3497/1991:water:720:0","properties":{"class":"ocean","water":"ocean","kind":"waterway","verification":"verified","source":"OpenMapTiles/OpenStreetMap national PMTiles","sourceId":"12/3497/1991:water:720:0","sourceLayer":"water","archive":"https://its.hanifahseptiani45.workers.dev/v1/map/archive/indonesia.pmtiles","updatedAt":"2026-07-26T10:44:38.341Z"},"geometry":{"type":"Polygon","coordinates":[[[127.35214233398438,5.004762401727689],[127.44277954101562,5.004762401727689],[127.44277954101562,4.914464560331368],[127.35214233398438,4.914464560331368],[127.35214233398438,5.004762401727689]]]}},{"type":"Feature","id":"pmtiles:12/3498/1991:water:720:0","properties":{"class":"ocean","water":"ocean","kind":"waterway","verification":"verified","source":"OpenMapTiles/OpenStreetMap national PMTiles","sourceId":"12/3498/1991:water:720:0","sourceLayer":"water","archive":"https://its.hanifahseptiani45.workers.dev/v1/map/archive/indonesia.pmtiles","updatedAt":"2026-07-26T10:44:38.416Z"},"geometry":{"type":"Polygon","coordinates":[[[127.44003295898438,5.004762401727689],[127.53067016601562,5.004762401727689],[127.53067016601562,4.914464560331368],[127.44003295898438,4.914464560331368],[127.44003295898438,5.004762401727689]]]}},{"type":"Feature","id":"pmtiles:12/3499/1991:water:720:0","properties":{"class":"ocean","water":"ocean","kind":"waterway","verification":"verified","source":"OpenMapTiles/OpenStreetMap national PMTiles","sourceId":"12/3499/1991:water:720:0","sourceLayer":"water","archive":"https://its.hanifahseptiani45.workers.dev/v1/map/archive/indonesia.pmtiles","updatedAt":"2026-07-26T10:44:38.475Z"},"geometry":{"type":"Polygon","coordinates":[[[127.52792358398438,5.004762401727689],[127.61856079101562,5.004762401727689],[127.61856079101562,4.914464560331368],[127.52792358398438,4.914464560331368],[127.52792358398438,5.004762401727689]]]}},{"type":"Feature","id":"pmtiles:10/874/497:water:720:0","properties":{"class":"ocean","water":"ocean","kind":"waterway","verification":"verified","source":"OpenMapTiles/OpenStreetMap national PMTiles","sourceId":"10/874/497:water:720:0","sourceLayer":"water","archive":"https://its.hanifahseptiani45.workers.dev/v1/map/archive/indonesia.pmtiles","updatedAt":"2026-07-26T09:38:34.538Z"},"geometry":{"type":"Polygon","coordinates":[[[127.2601318359375,5.271477837928373],[127.6226806640625,5.271477837928373],[127.6226806640625,4.910359820532264],[127.2601318359375,4.910359820532264],[127.2601318359375,5.271477837928373]]]}}]}