{"type":"FeatureCollection","features":[{"type":"Feature","id":"pmtiles:10/878/504:landuse:12027145880:0","properties":{"class":"residential","kind":"green","verification":"verified","source":"OpenMapTiles/OpenStreetMap national PMTiles","sourceId":"10/878/504:landuse:12027145880:0","sourceLayer":"landuse","archive":"https://its.hanifahseptiani45.workers.dev/v1/map/archive/indonesia.pmtiles","updatedAt":"2026-07-26T09:39:58.036Z"},"geometry":{"type":"Polygon","coordinates":[[[128.6839771270752,2.4600954294404005],[128.6832046508789,2.458980658390729],[128.68165969848633,2.4590664100430075],[128.6814022064209,2.4595809198409313],[128.68157386779785,2.4600954294404005],[128.6839771270752,2.4600954294404005]]]}},{"type":"Feature","id":"pmtiles:10/877/505:landcover:12102288702:0","properties":{"subclass":"wetland","class":"wetland","kind":"green","verification":"verified","source":"OpenMapTiles/OpenStreetMap national PMTiles","sourceId":"10/877/505:landcover:12102288702:0","sourceLayer":"landcover","archive":"https://its.hanifahseptiani45.workers.dev/v1/map/archive/indonesia.pmtiles","updatedAt":"2026-07-26T09:40:06.307Z"},"geometry":{"type":"Polygon","coordinates":[[[128.66938591003418,2.398781649593033],[128.6707592010498,2.400153736533298],[128.66990089416504,2.401268556158186],[128.67204666137695,2.401783087985976],[128.67359161376953,2.402983661497103],[128.67530822753906,2.402983661497103],[128.6755657196045,2.40444149934126],[128.6773681640625,2.4046987646814983],[128.6773681640625,2.4016115773982563],[128.6765956878662,2.4009255348320124],[128.67316246032715,2.398781649593033],[128.66938591003418,2.398781649593033]]]}},{"type":"Feature","id":"pmtiles:10/877/505:landcover:12102288822:0","properties":{"subclass":"orchard","class":"farmland","kind":"green","verification":"verified","source":"OpenMapTiles/OpenStreetMap national PMTiles","sourceId":"10/877/505:landcover:12102288822:0","sourceLayer":"landcover","archive":"https://its.hanifahseptiani45.workers.dev/v1/map/archive/indonesia.pmtiles","updatedAt":"2026-07-26T09:40:06.307Z"},"geometry":{"type":"Polygon","coordinates":[[[128.67496490478516,2.406585375694135],[128.67505073547363,2.4070999055172706],[128.67341995239258,2.408043209688529],[128.67307662963867,2.4069283955978023],[128.6725616455078,2.4070999055172706],[128.67324829101562,2.408643493821117],[128.67213249206543,2.4083004743491756],[128.67204666137695,2.408986513206699],[128.67341995239258,2.4102728351330285],[128.67290496826172,2.410958872996744],[128.67307662963867,2.4126739661427052],[128.66990089416504,2.4133600027955],[128.67084503173828,2.414131793616079],[128.67161750793457,2.413703020992088],[128.67307662963867,2.4138745300579103],[128.67307662963867,2.415761128353296],[128.6722183227539,2.4168759352052263],[128.6725616455078,2.4177334783144886],[128.6740207672119,2.4169616895405284],[128.67384910583496,2.415503865103659],[128.67496490478516,2.4155896195256332],[128.67505073547363,2.4149035839983384],[128.6741065979004,2.4144748116178647],[128.67470741271973,2.413274248232838],[128.67427825927734,2.411902174494628],[128.6747932434082,2.4116449105146103],[128.6773681640625,2.4124167023086756],[128.6773681640625,2.4118164198400223],[128.6770248413086,2.4117306651800163],[128.67685317993164,2.41070160883838],[128.6773681640625,2.410187080375735],[128.6773681640625,2.406756885656762],[128.67719650268555,2.406585375694135],[128.67496490478516,2.406585375694135]]]}},{"type":"Feature","id":"pmtiles:10/878/505:landcover:12102288702:0","properties":{"subclass":"wetland","class":"wetland","kind":"green","verification":"verified","source":"OpenMapTiles/OpenStreetMap national PMTiles","sourceId":"10/878/505:landcover:12102288702:0","sourceLayer":"landcover","archive":"https://its.hanifahseptiani45.workers.dev/v1/map/archive/indonesia.pmtiles","updatedAt":"2026-07-26T09:40:06.375Z"},"geometry":{"type":"Polygon","coordinates":[[[128.66938591003418,2.398781649593033],[128.6707592010498,2.400153736533298],[128.66990089416504,2.401268556158186],[128.67204666137695,2.401783087985976],[128.67359161376953,2.402983661497103],[128.67530822753906,2.402983661497103],[128.6755657196045,2.40444149934126],[128.67745399475098,2.4046987646814983],[128.67968559265137,2.406842640629975],[128.68114471435547,2.410530099372451],[128.68157386779785,2.411044627705394],[128.68260383605957,2.41078736356323],[128.68346214294434,2.4126739661427052],[128.68483543395996,2.4138745300579103],[128.6865520477295,2.417047443870416],[128.68844032287598,2.4191055461620863],[128.6894702911377,2.4189340377570403],[128.6916160583496,2.4200488420021316],[128.69067192077637,2.4187625293302943],[128.68852615356445,2.4174762154386116],[128.68826866149902,2.4159326371593153],[128.68886947631836,2.414817829533078],[128.68783950805664,2.4138745300579103],[128.68672370910645,2.4137887755277063],[128.68861198425293,2.4123309476865273],[128.68380546569824,2.4060708456768083],[128.6821746826172,2.4058135805953214],[128.6765956878662,2.4009255348320124],[128.67316246032715,2.398781649593033],[128.66938591003418,2.398781649593033]]]}},{"type":"Feature","id":"pmtiles:10/878/505:landcover:12102288822:0","properties":{"subclass":"orchard","class":"farmland","kind":"green","verification":"verified","source":"OpenMapTiles/OpenStreetMap national PMTiles","sourceId":"10/878/505:landcover:12102288822:0","sourceLayer":"landcover","archive":"https://its.hanifahseptiani45.workers.dev/v1/map/archive/indonesia.pmtiles","updatedAt":"2026-07-26T09:40:06.375Z"},"geometry":{"type":"Polygon","coordinates":[[[128.67496490478516,2.406585375694135],[128.67505073547363,2.4070999055172706],[128.67341995239258,2.408043209688529],[128.67307662963867,2.4069283955978023],[128.6725616455078,2.4070999055172706],[128.67324829101562,2.408643493821117],[128.67213249206543,2.4083004743491756],[128.67204666137695,2.408986513206699],[128.67341995239258,2.4102728351330285],[128.67290496826172,2.410958872996744],[128.67307662963867,2.4126739661427052],[128.66990089416504,2.4133600027955],[128.67084503173828,2.414131793616079],[128.67161750793457,2.413703020992088],[128.67307662963867,2.4138745300579103],[128.67307662963867,2.415761128353296],[128.6722183227539,2.4168759352052263],[128.6725616455078,2.4177334783144886],[128.6740207672119,2.4169616895405284],[128.67384910583496,2.415503865103659],[128.67496490478516,2.4155896195256332],[128.67505073547363,2.4149035839983384],[128.6741065979004,2.4144748116178647],[128.67470741271973,2.413274248232838],[128.67427825927734,2.411902174494628],[128.6747932434082,2.4116449105146103],[128.67762565612793,2.4125024569254236],[128.6788272857666,2.4119879291438195],[128.67934226989746,2.4125882115367716],[128.67985725402832,2.4123309476865273],[128.6795139312744,2.410187080375735],[128.67753982543945,2.411902174494628],[128.6770248413086,2.4117306651800163],[128.67685317993164,2.41070160883838],[128.67839813232422,2.409072268039594],[128.6780548095703,2.4083004743491756],[128.6784839630127,2.4074429252914626],[128.67719650268555,2.406585375694135],[128.67496490478516,2.406585375694135]]]}},{"type":"Feature","id":"pmtiles:10/878/505:landcover:12102367382:0","properties":{"subclass":"wetland","class":"wetland","kind":"green","verification":"verified","source":"OpenMapTiles/OpenStreetMap national PMTiles","sourceId":"10/878/505:landcover:12102367382:0","sourceLayer":"landcover","archive":"https://its.hanifahseptiani45.workers.dev/v1/map/archive/indonesia.pmtiles","updatedAt":"2026-07-26T09:40:06.375Z"},"geometry":{"type":"Polygon","coordinates":[[[128.68826866149902,2.4298247783764566],[128.68818283081055,2.428452721394237],[128.68732452392578,2.427166416707891],[128.68474960327148,2.428795735770464],[128.68311882019043,2.4311110805310534],[128.68329048156738,2.432997654806499],[128.68234634399414,2.434798473243646],[128.68440628051758,2.437799831956511],[128.6861228942871,2.437456819870789],[128.68826866149902,2.439857902634415],[128.6891269683838,2.439600643971872],[128.6862087249756,2.4341124474560303],[128.68732452392578,2.4324831348112212],[128.68646621704102,2.431539847643492],[128.68517875671387,2.4317971078455543],[128.68552207946777,2.431539847643492],[128.68483543395996,2.431196833964435],[128.68680953979492,2.431196833964435],[128.68826866149902,2.4298247783764566]]]}},{"type":"Feature","id":"pmtiles:10/878/505:landcover:162686930:1","properties":{"subclass":"wood","class":"wood","kind":"green","verification":"verified","source":"OpenMapTiles/OpenStreetMap national PMTiles","sourceId":"10/878/505:landcover:162686930:1","sourceLayer":"landcover","archive":"https://its.hanifahseptiani45.workers.dev/v1/map/archive/indonesia.pmtiles","updatedAt":"2026-07-26T09:40:06.375Z"},"geometry":{"type":"Polygon","coordinates":[[[128.6663818359375,2.4277666923805583],[128.6667251586914,2.4268234019180994],[128.66844177246094,2.4277666923805583],[128.66947174072266,2.4268234019180994],[128.66955757141113,2.428538474996472],[128.67084503173828,2.429396010719259],[128.67170333862305,2.429396010719259],[128.67161750793457,2.428881489350914],[128.67230415344238,2.429224503618258],[128.67196083068848,2.4279381996666416],[128.67290496826172,2.4277666923805583],[128.67324829101562,2.429224503618258],[128.67359161376953,2.429224503618258],[128.67281913757324,2.4297390248559054],[128.67033004760742,2.429481764261581],[128.66990089416504,2.430082038905425],[128.67093086242676,2.4296532713299115],[128.67084503173828,2.4304250528677898],[128.67033004760742,2.4299962854012165],[128.6693000793457,2.4303392993853805],[128.66921424865723,2.431539847643492],[128.66981506347656,2.4323973814595945],[128.66938591003418,2.43496997963598],[128.66990089416504,2.4358275112701477],[128.66904258728027,2.436942301578327],[128.66904258728027,2.438485855865636],[128.66827011108398,2.438657361788273],[128.66775512695312,2.4378855849642633],[128.66844177246094,2.437456819870789],[128.66827011108398,2.4370280546407344],[128.6663818359375,2.4368565485104625],[128.6663818359375,2.4656692707025485],[128.66663932800293,2.4656692707025485],[128.6685276031494,2.4656692707025485],[128.66758346557617,2.4644687530171865],[128.66844177246094,2.464383001712534],[128.66938591003418,2.4656692707025485],[128.6715316772461,2.4656692707025485],[128.66947174072266,2.454693068753784],[128.6685276031494,2.4548645726034977],[128.6686134338379,2.454350060988318],[128.6697292327881,2.4540928051064554],[128.67178916931152,2.4656692707025485],[128.67281913757324,2.4656692707025485],[128.6726474761963,2.4648975094576997],[128.67281913757324,2.464383001712534],[128.6740207672119,2.464125747765351],[128.6740207672119,2.463096731479709],[128.6744499206543,2.463868493768487],[128.67470741271973,2.463268234249199],[128.6766815185547,2.462753725874478],[128.67753982543945,2.4618962114750502],[128.6795997619629,2.4619819629398165],[128.68131637573242,2.458466148361339],[128.68311882019043,2.4590664100430075],[128.6835479736328,2.4577801346802346],[128.68234634399414,2.4576943829453057],[128.6821746826172,2.456493858077991],[128.68337631225586,2.456836865293056],[128.68346214294434,2.4560650989352553],[128.6821746826172,2.4558935952396155],[128.68243217468262,2.4548645726034977],[128.68303298950195,2.4544358129379305],[128.6835479736328,2.45520758023693],[128.68389129638672,2.454693068753784],[128.68517875671387,2.455121828336843],[128.6857795715332,2.4546073168206703],[128.68560791015625,2.4537497971869584],[128.68629455566406,2.4541785570725665],[128.6865520477295,2.4537497971869584],[128.68646621704102,2.452463516705265],[128.68715286254883,2.4526350208409724],[128.6890411376953,2.4515202435659376],[128.68878364562988,2.451177234986801],[128.68569374084473,2.451949004166252],[128.68560791015625,2.452978029046392],[128.6839771270752,2.4532352851427532],[128.68329048156738,2.4528922770032864],[128.68380546569824,2.452034756269825],[128.68123054504395,2.4523777646291762],[128.67822647094727,2.455121828336843],[128.6773681640625,2.455121828336843],[128.6773681640625,2.4544358129379305],[128.67856979370117,2.4541785570725665],[128.67865562438965,2.453664045193335],[128.67788314819336,2.4533210371638603],[128.6773681640625,2.4502339609409063],[128.67650985717773,2.450319713154343],[128.67719650268555,2.449547943035583],[128.67796897888184,2.4499767042675984],[128.67908477783203,2.450319713154343],[128.67865562438965,2.451177234986801],[128.67908477783203,2.4527207729005767],[128.68011474609375,2.452978029046392],[128.6806297302246,2.4522062604604855],[128.68706703186035,2.4513487392873543],[128.68809700012207,2.4506627219532504],[128.68698120117188,2.449805199791257],[128.68646621704102,2.4506627219532504],[128.68535041809082,2.450319713154343],[128.68414878845215,2.450834226319728],[128.68474960327148,2.449119181666333],[128.68294715881348,2.449119181666333],[128.68183135986328,2.448518915518818],[128.68165969848633,2.447661391984468],[128.6820888519287,2.447489887211759],[128.682861328125,2.447661391984468],[128.68294715881348,2.448175906170917],[128.6850929260254,2.4483474108558454],[128.68457794189453,2.4473183824171088],[128.68371963500977,2.446975372761983],[128.68423461914062,2.4462036007171264],[128.68389129638672,2.4451745706331707],[128.6835479736328,2.444488550138729],[128.68226051330566,2.4444027975522857],[128.68329048156738,2.4457748382780835],[128.68183135986328,2.4456890857738074],[128.68226051330566,2.4445743027197153],[128.6791706085205,2.4450888180905537],[128.67908477783203,2.444745807865246],[128.68097305297852,2.443716776663365],[128.68114471435547,2.442773497368748],[128.68200302124023,2.442945002744338],[128.682861328125,2.442001722907662],[128.68157386779785,2.4419159701623983],[128.68123054504395,2.4413157007922734],[128.6825180053711,2.4406296783266868],[128.6839771270752,2.440801183975907],[128.682861328125,2.439772149752372],[128.68011474609375,2.4395148910734434],[128.67968559265137,2.4385716088296903],[128.6802864074707,2.437799831956511],[128.6733341217041,2.434026694208029],[128.67307662963867,2.4320543679985747],[128.6722183227539,2.4313683408148705],[128.67238998413086,2.4302535458975143],[128.67307662963867,2.431196833964435],[128.67324829101562,2.432997654806499],[128.67427825927734,2.4330834081199555],[128.67462158203125,2.4323973814595945],[128.67779731750488,2.4324831348112212],[128.67831230163574,2.4318828612353514],[128.67908477783203,2.432997654806499],[128.6807155609131,2.4329119014875715],[128.68183135986328,2.4324831348112212],[128.6817455291748,2.4317971078455543],[128.6799430847168,2.4304250528677898],[128.68200302124023,2.4290529964954857],[128.68183135986328,2.427509431410627],[128.682861328125,2.4267376482070517],[128.6814022064209,2.4266518944905755],[128.68002891540527,2.427595185072718],[128.6795139312744,2.429224503618258],[128.67693901062012,2.4299962854012165],[128.67616653442383,2.429567517798475],[128.67530822753906,2.4302535458975143],[128.67419242858887,2.4297390248559054],[128.67419242858887,2.428795735770464],[128.673677444458,2.4279381996666416],[128.6740207672119,2.426308879570243],[128.6726474761963,2.4264803870412806],[128.67238998413086,2.4269949093238807],[128.67144584655762,2.425622849468539],[128.67650985717773,2.4227072176556845],[128.67745399475098,2.4213351534535263],[128.67908477783203,2.4212493993947533],[128.6795997619629,2.419963087861973],[128.68191719055176,2.4206491208313707],[128.68303298950195,2.419705825408954],[128.682861328125,2.418591020881877],[128.68200302124023,2.41816224966594],[128.68243217468262,2.4165329178098176],[128.68131637573242,2.4166186721667913],[128.6799430847168,2.417904986871335],[128.67942810058594,2.4173047068275935],[128.6807155609131,2.4159326371593153],[128.6773681640625,2.4169616895405284],[128.6751365661621,2.416189900327737],[128.6725616455078,2.4177334783144886],[128.6722183227539,2.4168759352052263],[128.6726474761963,2.416189900327737],[128.67196083068848,2.4149893384581986],[128.67281913757324,2.414646320586286],[128.67307662963867,2.4138745300579103],[128.67161750793457,2.413703020992088],[128.67084503173828,2.414131793616079],[128.66990089416504,2.4133600027955],[128.67307662963867,2.4126739661427052],[128.67290496826172,2.410958872996744],[128.67341995239258,2.4102728351330285],[128.67144584655762,2.408043209688529],[128.67015838623047,2.408986513206699],[128.670072555542,2.41010132561307],[128.66835594177246,2.4098440612926026],[128.6681842803955,2.41078736356323],[128.66766929626465,2.4106158541081015],[128.66758346557617,2.4094152873171595],[128.66766929626465,2.4082147194676935],[128.66835594177246,2.408986513206699],[128.6697292327881,2.4085577389612354],[128.67033004760742,2.407700190065455],[128.670072555542,2.4070141505602436],[128.6715316772461,2.4075286802215317],[128.6722183227539,2.4066711306781485],[128.67084503173828,2.4055563154653186],[128.67281913757324,2.4051275401407963],[128.67324829101562,2.4045272544600778],[128.67247581481934,2.404184233952506],[128.66990089416504,2.404784519784158],[128.6686134338379,2.4042699890874673],[128.66698265075684,2.4049560299732633],[128.66646766662598,2.404613009573481],[128.6663818359375,2.402126109096841],[128.6663818359375,2.4277666923805583]],[[128.67762565612793,2.446803867901508],[128.67822647094727,2.4460320957579427],[128.6777114868164,2.4482616585161168],[128.6784839630127,2.448518915518818],[128.67788314819336,2.448861924778896],[128.67728233337402,2.4486904201598207],[128.67762565612793,2.446803867901508]]]}},{"type":"Feature","id":"pmtiles:10/878/505:landuse:12027145860:0","properties":{"class":"residential","kind":"green","verification":"verified","source":"OpenMapTiles/OpenStreetMap national PMTiles","sourceId":"10/878/505:landuse:12027145860:0","sourceLayer":"landuse","archive":"https://its.hanifahseptiani45.workers.dev/v1/map/archive/indonesia.pmtiles","updatedAt":"2026-07-26T09:40:06.375Z"},"geometry":{"type":"Polygon","coordinates":[[[128.6839771270752,2.4600954294404005],[128.6832046508789,2.458980658390729],[128.68165969848633,2.4590664100430075],[128.6814022064209,2.4595809198409313],[128.68157386779785,2.4600954294404005],[128.6839771270752,2.4600954294404005]]]}},{"type":"Feature","id":"pmtiles:10/878/505:landuse:12027145860:1","properties":{"class":"residential","kind":"green","verification":"verified","source":"OpenMapTiles/OpenStreetMap national PMTiles","sourceId":"10/878/505:landuse:12027145860:1","sourceLayer":"landuse","archive":"https://its.hanifahseptiani45.workers.dev/v1/map/archive/indonesia.pmtiles","updatedAt":"2026-07-26T09:40:06.375Z"},"geometry":{"type":"Polygon","coordinates":[[[128.69101524353027,2.428452721394237],[128.69144439697266,2.426308879570243],[128.6930751800537,2.4267376482070517],[128.69333267211914,2.4261373720774344],[128.69247436523438,2.4257943570265894],[128.69247436523438,2.4245938036636403],[128.68938446044922,2.4242507882214],[128.68844032287598,2.4236505109883097],[128.6876678466797,2.426223125826567],[128.68672370910645,2.426051618322873],[128.68595123291016,2.427852446026307],[128.68715286254883,2.4269091556237044],[128.68955612182617,2.429224503618258],[128.69101524353027,2.428452721394237]]]}},{"type":"Feature","id":"pmtiles:10/878/505:transportation:1957142720:0","properties":{"class":"trunk","highway":"trunk","kind":"road","verification":"verified","source":"OpenMapTiles/OpenStreetMap national PMTiles","sourceId":"10/878/505:transportation:1957142720:0","sourceLayer":"transportation","archive":"https://its.hanifahseptiani45.workers.dev/v1/map/archive/indonesia.pmtiles","updatedAt":"2026-07-26T09:40:06.375Z"},"geometry":{"type":"LineString","coordinates":[[128.6663818359375,2.4015258220963034],[128.6674976348877,2.401097045505864],[128.66844177246094,2.4015258220963034],[128.66912841796875,2.401440066788993],[128.67196083068848,2.401868843271771],[128.67290496826172,2.4028979062813107],[128.67273330688477,2.4040127236663835],[128.67376327514648,2.403926968515222],[128.67427825927734,2.4043557442170567],[128.67462158203125,2.405041785059737],[128.6751365661621,2.4053848053516873],[128.6755657196045,2.4063281107097367],[128.6762523651123,2.4066711306781485],[128.67728233337402,2.4064996207047358],[128.67865562438965,2.4074429252914626],[128.6781406402588,2.4085577389612354],[128.67839813232422,2.4089007583683895],[128.67934226989746,2.4089007583683895],[128.67977142333984,2.409501042123054],[128.67968559265137,2.4113018917989137],[128.68011474609375,2.4126739661427052],[128.68080139160156,2.413102739091272],[128.6814022064209,2.4126739661427052],[128.6820888519287,2.4125882115367716],[128.68337631225586,2.4135315119046084],[128.6835479736328,2.4143890571255326],[128.68492126464844,2.415503865103659],[128.6857795715332,2.417647724027958],[128.68663787841797,2.4187625293302943],[128.68672370910645,2.4200488420021316],[128.68732452392578,2.4209063831053754],[128.68741035461426,2.421935431712967],[128.6886978149414,2.4232217413731405],[128.6894702911377,2.4265661407686423],[128.68886947631836,2.427852446026307],[128.68844032287598,2.427852446026307],[128.68706703186035,2.4269949093238807],[128.6835479736328,2.429481764261581],[128.68268966674805,2.4308538201981804],[128.68260383605957,2.432140121372001],[128.68191719055176,2.4337694344312837],[128.68088722229004,2.4341982006985745],[128.6821746826172,2.439086126499191],[128.6835479736328,2.440458172655582],[128.68483543395996,2.4407154311540324],[128.6850929260254,2.4410584424087176],[128.68449211120605,2.4418302174116633],[128.6839771270752,2.44586059077686],[128.6857795715332,2.447661391984468],[128.68672370910645,2.4494621907727065],[128.6891269683838,2.4514344914293957],[128.68895530700684,2.451863252057194],[128.68672370910645,2.453063781084012],[128.6862087249756,2.4545215648820573],[128.6854362487793,2.4550360764312416],[128.68440628051758,2.456493858077991],[128.68414878845215,2.457522879458921],[128.6832046508789,2.458894906732951],[128.68406295776367,2.4601811810209995],[128.6865520477295,2.4609529449983683],[128.68938446044922,2.4608671934673794],[128.68972778320312,2.4613817025705202],[128.69007110595703,2.464125747765351],[128.6898136138916,2.4656692707025485]]}},{"type":"Feature","id":"pmtiles:10/878/505:water:1890:0","properties":{"class":"ocean","water":"ocean","kind":"waterway","verification":"verified","source":"OpenMapTiles/OpenStreetMap national PMTiles","sourceId":"10/878/505:water:1890:0","sourceLayer":"water","archive":"https://its.hanifahseptiani45.workers.dev/v1/map/archive/indonesia.pmtiles","updatedAt":"2026-07-26T09:40:06.375Z"},"geometry":{"type":"Polygon","coordinates":[[[128.6663818359375,2.1034092060773872],[128.6663818359375,2.396980783395179],[128.66689682006836,2.3974953168364124],[128.66878509521484,2.3986958941135583],[128.6722183227539,2.3986101386286833],[128.67341995239258,2.3989531605358536],[128.6747932434082,2.4000679811398555],[128.6765956878662,2.4009255348320124],[128.6781406402588,2.402640640601618],[128.67977142333984,2.403669703029479],[128.6821746826172,2.4058135805953214],[128.682861328125,2.40615660069318],[128.68329048156738,2.40615660069318],[128.68346214294434,2.405899335627879],[128.68380546569824,2.4060708456768083],[128.68423461914062,2.406842640629975],[128.68569374084473,2.4079574547908464],[128.68595123291016,2.4089007583683895],[128.6865520477295,2.409501042123054],[128.6868953704834,2.410530099372451],[128.68852615356445,2.4119879291438195],[128.68852615356445,2.4124167023086756],[128.6880111694336,2.4125024569254236],[128.68672370910645,2.4137887755277063],[128.68783950805664,2.4138745300579103],[128.68886947631836,2.414817829533078],[128.68826866149902,2.4159326371593153],[128.68861198425293,2.4164471634474154],[128.68852615356445,2.4174762154386116],[128.68921279907227,2.417647724027958],[128.69135856628418,2.419362808728991],[128.6917018890381,2.420134596136876],[128.6931610107422,2.4217639236659636],[128.69359016418457,2.422792971622158],[128.69367599487305,2.425022572844142],[128.69290351867676,2.4273379240701445],[128.69221687316895,2.4279381996666416],[128.69024276733398,2.4289672429259213],[128.6894702911377,2.4296532713299115],[128.69024276733398,2.4310253270922146],[128.69075775146484,2.431539847643492],[128.68964195251465,2.4308538201981804],[128.68938446044922,2.429910531891565],[128.6886978149414,2.4298247783764566],[128.68775367736816,2.4302535458975143],[128.6868953704834,2.4312825873923742],[128.68680953979492,2.4320543679985747],[128.68741035461426,2.4326546414981323],[128.68638038635254,2.43351217460544],[128.6862087249756,2.433940940954571],[128.68646621704102,2.435227239183547],[128.68878364562988,2.4380570909634116],[128.69032859802246,2.440286666962592],[128.69084358215332,2.4413157007922734],[128.69118690490723,2.442945002744338],[128.69110107421875,2.4441455397600294],[128.69067192077637,2.445946343270137],[128.68886947631836,2.449805199791257],[128.68886947631836,2.4506627219532504],[128.68972778320312,2.4510057306642494],[128.6898136138916,2.4513487392873543],[128.68921279907227,2.4523777646291762],[128.68895530700684,2.453492541189604],[128.68809700012207,2.454350060988318],[128.6880111694336,2.455121828336843],[128.68732452392578,2.455550587782298],[128.6872386932373,2.456665361696537],[128.68749618530273,2.4576943829453057],[128.68783950805664,2.458723403400839],[128.68844032287598,2.459409416597026],[128.6890411376953,2.4595809198409313],[128.68955612182617,2.458980658390729],[128.69075775146484,2.4595809198409313],[128.692045211792,2.458980658390729],[128.69247436523438,2.4595809198409313],[128.69213104248047,2.463268234249199],[128.69230270385742,2.4656692707025485],[129.0289306640625,2.4656692707025485],[129.0289306640625,2.1034092060773872],[128.6663818359375,2.1034092060773872]],[[128.68414878845215,2.381801960041102],[128.68423461914062,2.3830883075048774],[128.68329048156738,2.3830025510446973],[128.68148803710938,2.38214498614893],[128.6806297302246,2.380858637804181],[128.68088722229004,2.3800010715738864],[128.681058883667,2.3798295582637934],[128.68131637573242,2.3801725848626205],[128.6820888519287,2.3806871246007972],[128.6835479736328,2.380858637804181],[128.68414878845215,2.381801960041102]]]}},{"type":"Feature","id":"pmtiles:8/219/126:landcover:110233960:1","properties":{"subclass":"wood","class":"wood","kind":"green","verification":"verified","source":"OpenMapTiles/OpenStreetMap national PMTiles","sourceId":"8/219/126:landcover:110233960:1","sourceLayer":"landcover","archive":"https://its.hanifahseptiani45.workers.dev/v1/map/archive/indonesia.pmtiles","updatedAt":"2026-07-26T09:35:24.622Z"},"geometry":{"type":"Polygon","coordinates":[[[128.66981506347656,2.4540070531348306],[128.671875,2.4660122755565794],[128.67359161376953,2.4660122755565794],[128.67393493652344,2.4629252286881353],[128.67942810058594,2.4618962114750502],[128.68114471435547,2.458466148361339],[128.6832046508789,2.4591521616897865],[128.6825180053711,2.4550360764312416],[128.68526458740234,2.4550360764312416],[128.6890411376953,2.451605995697008],[128.68114471435547,2.4522920125475878],[128.6773681640625,2.4550360764312416],[128.6777114868164,2.446803867901508],[128.66981506347656,2.4540070531348306]]]}}]}