{"type":"FeatureCollection","features":[{"type":"Feature","id":"pmtiles:10/811/503:park:105924323:0","properties":{"name":"Taman Wisata Perairan Kepulauan Anambas","name_int":"Anambas Islands Marine Park","class":"marine_park","name:latin":"Taman Wisata Perairan Kepulauan Anambas","name_de":"Taman Wisata Perairan Kepulauan Anambas","name_en":"Anambas Islands Marine Park","kind":"green","verification":"verified","source":"OpenMapTiles/OpenStreetMap national PMTiles","sourceId":"10/811/503:park:105924323:0","sourceLayer":"park","archive":"https://its.hanifahseptiani45.workers.dev/v1/map/archive/indonesia.pmtiles","updatedAt":"2026-07-26T09:39:44.296Z"},"geometry":{"type":"Polygon","coordinates":[[[105.21512031555176,2.8058846278244687],[105.41802406311035,3.167940314402756],[105.4742431640625,3.167940314402756],[105.4742431640625,2.8058846278244687],[105.21512031555176,2.8058846278244687]]]}},{"type":"Feature","id":"pmtiles:10/811/503:water:1130:0","properties":{"class":"ocean","water":"ocean","kind":"waterway","verification":"verified","source":"OpenMapTiles/OpenStreetMap national PMTiles","sourceId":"10/811/503:water:1130:0","sourceLayer":"water","archive":"https://its.hanifahseptiani45.workers.dev/v1/map/archive/indonesia.pmtiles","updatedAt":"2026-07-26T09:39:44.296Z"},"geometry":{"type":"Polygon","coordinates":[[[105.1116943359375,3.167940314402756],[105.4742431640625,3.167940314402756],[105.4742431640625,2.8058846278244687],[105.1116943359375,2.8058846278244687],[105.1116943359375,3.167940314402756]]]}},{"type":"Feature","id":"pmtiles:8/202/125:park:105924323:0","properties":{"name":"Taman Wisata Perairan Kepulauan Anambas","name_int":"Anambas Islands Marine Park","class":"marine_park","name:latin":"Taman Wisata Perairan Kepulauan Anambas","name_de":"Taman Wisata Perairan Kepulauan Anambas","name_en":"Anambas Islands Marine Park","kind":"green","verification":"verified","source":"OpenMapTiles/OpenStreetMap national PMTiles","sourceId":"8/202/125:park:105924323:0","sourceLayer":"park","archive":"https://its.hanifahseptiani45.workers.dev/v1/map/archive/indonesia.pmtiles","updatedAt":"2026-07-26T09:35:20.663Z"},"geometry":{"type":"Polygon","coordinates":[[[105.20576477050781,2.7894247770059906],[105.4306411743164,3.190564741361001],[105.49072265625,3.190564741361001],[105.49072265625,2.7894247770059906],[105.20576477050781,2.7894247770059906]]]}}]}