{"type":"FeatureCollection","features":[{"type":"Feature","id":"pmtiles:10/897/526:transportation:12808931460:0","properties":{"class":"ferry","highway":"ferry","kind":"road","verification":"verified","source":"OpenMapTiles/OpenStreetMap national PMTiles","sourceId":"10/897/526:transportation:12808931460:0","sourceLayer":"transportation","archive":"https://its.hanifahseptiani45.workers.dev/v1/map/archive/indonesia.pmtiles","updatedAt":"2026-07-26T09:44:25.082Z"},"geometry":{"type":"LineString","coordinates":[[135.3460693359375,-5.05760139548066],[135.7086181640625,-5.025710412306495]]}},{"type":"Feature","id":"pmtiles:10/897/526:transportation:12808931460:1","properties":{"class":"ferry","highway":"ferry","kind":"road","verification":"verified","source":"OpenMapTiles/OpenStreetMap national PMTiles","sourceId":"10/897/526:transportation:12808931460:1","sourceLayer":"transportation","archive":"https://its.hanifahseptiani45.workers.dev/v1/map/archive/indonesia.pmtiles","updatedAt":"2026-07-26T09:44:25.082Z"},"geometry":{"type":"LineString","coordinates":[[135.3460693359375,-5.1317226081797145],[135.7086181640625,-5.075982884513351]]}},{"type":"Feature","id":"pmtiles:10/897/526:transportation:12808931460:2","properties":{"class":"ferry","highway":"ferry","kind":"road","verification":"verified","source":"OpenMapTiles/OpenStreetMap national PMTiles","sourceId":"10/897/526:transportation:12808931460:2","sourceLayer":"transportation","archive":"https://its.hanifahseptiani45.workers.dev/v1/map/archive/indonesia.pmtiles","updatedAt":"2026-07-26T09:44:25.082Z"},"geometry":{"type":"LineString","coordinates":[[135.3460693359375,-5.134714634014443],[135.7086181640625,-5.078205726792703]]}},{"type":"Feature","id":"pmtiles:10/897/526:water:190:0","properties":{"class":"ocean","water":"ocean","kind":"waterway","verification":"verified","source":"OpenMapTiles/OpenStreetMap national PMTiles","sourceId":"10/897/526:water:190:0","sourceLayer":"water","archive":"https://its.hanifahseptiani45.workers.dev/v1/map/archive/indonesia.pmtiles","updatedAt":"2026-07-26T09:44:25.082Z"},"geometry":{"type":"Polygon","coordinates":[[[135.3460693359375,-4.910359820532264],[135.7086181640625,-4.910359820532264],[135.7086181640625,-5.271477837928359],[135.3460693359375,-5.271477837928359],[135.3460693359375,-4.910359820532264]]]}}]}