{"type":"FeatureCollection","features":[{"type":"Feature","id":"pmtiles:10/886/505:water:470:0","properties":{"class":"ocean","water":"ocean","kind":"waterway","verification":"verified","source":"OpenMapTiles/OpenStreetMap national PMTiles","sourceId":"10/886/505:water:470:0","sourceLayer":"water","archive":"https://its.hanifahseptiani45.workers.dev/v1/map/archive/indonesia.pmtiles","updatedAt":"2026-07-26T09:40:07.376Z"},"geometry":{"type":"Polygon","coordinates":[[[131.4788818359375,2.4656692707025485],[131.8414306640625,2.4656692707025485],[131.8414306640625,2.1034092060773872],[131.4788818359375,2.1034092060773872],[131.4788818359375,2.4656692707025485]]]}}]}