{"type":"FeatureCollection","features":[{"type":"Feature","id":"pmtiles:10/863/512:transportation:10403565142:0","properties":{"class":"ferry","highway":"ferry","kind":"road","verification":"verified","source":"OpenMapTiles/OpenStreetMap national PMTiles","sourceId":"10/863/512:transportation:10403565142:0","sourceLayer":"transportation","archive":"https://its.hanifahseptiani45.workers.dev/v1/map/archive/indonesia.pmtiles","updatedAt":"2026-07-26T09:41:25.947Z"},"geometry":{"type":"LineString","coordinates":[[123.47757339477539,-0.3570533530246962],[123.3929443359375,-0.18264739573173472]]}},{"type":"Feature","id":"pmtiles:10/863/512:water:30:0","properties":{"class":"ocean","water":"ocean","kind":"waterway","verification":"verified","source":"OpenMapTiles/OpenStreetMap national PMTiles","sourceId":"10/863/512:water:30:0","sourceLayer":"water","archive":"https://its.hanifahseptiani45.workers.dev/v1/map/archive/indonesia.pmtiles","updatedAt":"2026-07-26T09:41:25.947Z"},"geometry":{"type":"Polygon","coordinates":[[[123.3929443359375,0.005493164054087174],[123.7554931640625,0.005493164054087174],[123.7554931640625,-0.3570533530246962],[123.3929443359375,-0.3570533530246962],[123.3929443359375,0.005493164054087174]]]}}]}