{"type":"FeatureCollection","features":[{"type":"Feature","id":"pmtiles:12/3468/1980:water:20:0","properties":{"class":"ocean","water":"ocean","kind":"waterway","verification":"verified","source":"OpenMapTiles/OpenStreetMap national PMTiles","sourceId":"12/3468/1980:water:20:0","sourceLayer":"water","archive":"https://its.hanifahseptiani45.workers.dev/v1/map/archive/indonesia.pmtiles","updatedAt":"2026-07-26T10:37:56.074Z"},"geometry":{"type":"Polygon","coordinates":[[[124.80331420898438,5.90736033306078],[124.80346441268921,5.907274958160684],[124.80563163757324,5.90599433307959],[124.80651140213013,5.905225956609641],[124.80747699737549,5.904628329729476],[124.80775594711304,5.904393547564453],[124.80814218521118,5.904180109146267],[124.80863571166992,5.903731888200468],[124.81056690216064,5.902280503602412],[124.81069564819336,5.902109752223339],[124.81168270111084,5.901320026410815],[124.81224060058594,5.900701051338828],[124.81288433074951,5.9002314835818055],[124.81640338897705,5.896688368595605],[124.81691837310791,5.896090732511709],[124.81897830963135,5.8941910992558775],[124.8201584815979,5.892782378260534],[124.82063055038452,5.892312803800976],[124.82170343399048,5.891416342366185],[124.8232913017273,5.889644759560383],[124.82350587844849,5.889580726341094],[124.82414960861206,5.889580726341094],[124.82470750808716,5.889495348703889],[124.82524394989014,5.889644759560383],[124.82563018798828,5.889644759560383],[124.82612371444702,5.889559381933012],[124.82745409011841,5.889153838023873],[124.82846260070801,5.888641571610165],[124.82953548431396,5.887894515576733],[124.83017921447754,5.887574348397777],[124.83408451080322,5.8861869551571],[124.83470678329468,5.886037543370733],[124.83511447906494,5.885994854281535],[124.83588695526123,5.886037543370733],[124.83695983886719,5.8864217450259275],[124.83790397644043,5.886592501231888],[124.84013557434082,5.88672056835189],[124.84144449234009,5.886677879315172],[124.84485626220703,5.886165610618647],[124.84597206115723,5.885760064232343],[124.84687328338623,5.8855252740839745],[124.84811782836914,5.88505569348969],[124.84959840774536,5.884329977245528],[124.85122919082642,5.883348124348473],[124.85223770141602,5.882921231243728],[124.85459804534912,5.882643750549903],[124.8552417755127,5.882515682490663],[124.85719442367554,5.882280890972126],[124.85925436019897,5.881832652343306],[124.86086368560791,5.881789962931222],[124.8636531829834,5.88208878874687],[124.86654996871948,5.8821101334418415],[124.8692536354065,5.881832652343306],[124.87122774124146,5.8814911369550344],[124.8726224899292,5.881341723906758],[124.87380266189575,5.881149621357096],[124.87616300582886,5.880616002815515],[124.87882375717163,5.8797408672992475],[124.88019704818726,5.8792072474063986],[124.88245010375977,5.878097316390097],[124.88313674926758,5.877649074390604],[124.88435983657837,5.87696603826862],[124.80331420898438,5.87696603826862],[124.80331420898438,5.90736033306078]]]}},{"type":"Feature","id":"pmtiles:12/3471/1980:water:20:0","properties":{"class":"ocean","water":"ocean","kind":"waterway","verification":"verified","source":"OpenMapTiles/OpenStreetMap national PMTiles","sourceId":"12/3471/1980:water:20:0","sourceLayer":"water","archive":"https://its.hanifahseptiani45.workers.dev/v1/map/archive/indonesia.pmtiles","updatedAt":"2026-07-26T10:37:56.151Z"},"geometry":{"type":"Polygon","coordinates":[[[125.0858473777771,5.87696603826862],[125.08425951004028,5.878780351123666],[125.08406639099121,5.8791432129848715],[125.0839376449585,5.879292626623652],[125.08331537246704,5.879762212084316],[125.08254289627075,5.879911625556872],[125.08217811584473,5.880061038989297],[125.08108377456665,5.880722726564784],[125.07906675338745,5.882963920568955],[125.07696390151978,5.886229644231534],[125.0763201713562,5.887830482155707],[125.07616996765137,5.888705604937712],[125.07629871368408,5.889879547967922],[125.0763201713562,5.890882733682105],[125.07640600204468,5.89180054030119],[125.0767707824707,5.893550771973949],[125.07692098617554,5.893934968431751],[125.07726430892944,5.894639327913666],[125.07750034332275,5.894959491018994],[125.0777792930603,5.8955998166754995],[125.07797241210938,5.896304174044147],[125.07812261581421,5.896560303774677],[125.07846593856812,5.896901809898097],[125.07855176925659,5.897328692256735],[125.07840156555176,5.898566649238873],[125.07865905761719,5.899441755093591],[125.07913112640381,5.900423579530482],[125.07996797561646,5.901512121982307],[125.08013963699341,5.901981688654502],[125.08044004440308,5.902408567102199],[125.08209228515625,5.904180109146267],[125.0823712348938,5.904436235238222],[125.08284330368042,5.904713705037537],[125.08350849151611,5.905332675627534],[125.08410930633545,5.9056741763466505],[125.08591175079346,5.90599433307959],[125.08681297302246,5.906271802098459],[125.08732795715332,5.906335833390756],[125.08764982223511,5.906271802098459],[125.08782148361206,5.906314489627476],[125.08844375610352,5.906591958485933],[125.08893728256226,5.906741364736774],[125.09080410003662,5.908619611308353],[125.09101867675781,5.90879036068074],[125.09106159210205,5.908747673342589],[125.0913405418396,5.9090464846405695],[125.09264945983887,5.9099002303174615],[125.09314298629761,5.910455164301297],[125.09376525878906,5.910946066977019],[125.09473085403442,5.911330251376029],[125.09573936462402,5.911607717720528],[125.09640455245972,5.911650404838099],[125.09711265563965,5.911885183925904],[125.0973916053772,5.912055932290826],[125.09775638580322,5.912440115919225],[125.09788513183594,5.913315199854694],[125.09824991226196,5.914318343150882],[125.09852886199951,5.914873272703346],[125.09872198104858,5.915577605564181],[125.09906530380249,5.916367311038286],[125.09921550750732,5.917711942087962],[125.09960174560547,5.919035226594261],[125.0998592376709,5.919675524411446],[125.10028839111328,5.920379851153413],[125.1003098487854,5.92099880421577],[125.1002025604248,5.92119089295619],[125.10000944137573,5.921361638447166],[125.09970903396606,5.921468354352228],[125.09938716888428,5.921511040708481],[125.09865760803223,5.921703129270782],[125.0981855392456,5.922001933568282],[125.09762763977051,5.922492825991824],[125.09702682495117,5.923645354314985],[125.09666204452515,5.924627135804087],[125.09612560272217,5.9256729446004215],[125.09554624557495,5.927337697372565],[125.0949239730835,5.928575587204165],[125.09485960006714,5.92942930271127],[125.09494543075562,5.930048245627816],[125.09485960006714,5.930432416743955],[125.0942587852478,5.931841041880375],[125.09372234344482,5.932950865211183],[125.09340047836304,5.934188742444604],[125.09329319000244,5.93482902268147],[125.09355068206787,5.935511987447626],[125.09397983551025,5.9358321268904035],[125.09438753128052,5.9358534695133045],[125.09473085403442,5.935640043247048],[125.09490251541138,5.93559735798388],[125.09511709213257,5.93557601535106],[125.09552478790283,5.935682728506919],[125.09576082229614,5.936344349612014],[125.09625434875488,5.936941942185385],[125.09644746780396,5.937539534110613],[125.09664058685303,5.938542633384927],[125.09664058685303,5.939353648483973],[125.0967264175415,5.9401433199328295],[125.0969409942627,5.940591511332485],[125.09704828262329,5.9411464144647255],[125.09704828262329,5.941509235441089],[125.0968337059021,5.942064137648359],[125.0967264175415,5.942619039296275],[125.09685516357422,5.943728840913835],[125.09704828262329,5.944390452351826],[125.09713411331177,5.944988036192726],[125.09706974029541,5.945457565898138],[125.097177028656,5.945777699558448],[125.09747743606567,5.946225886369902],[125.09754180908203,5.946417966320183],[125.09758472442627,5.947271654176561],[125.09782075881958,5.9489576837999465],[125.09797096252441,5.949299157524521],[125.09827136993408,5.949725999381997],[125.09846448898315,5.950280893301283],[125.09867906570435,5.951604099617597],[125.09887218475342,5.951966913696239],[125.09947299957275,5.952628515222983],[125.09973049163818,5.95303401253922],[125.10058879852295,5.952436437442444],[125.10063171386719,5.952479121399492],[125.10054588317871,5.952521805353186],[125.1008677482605,5.953012670582666],[125.10110378265381,5.952863276863596],[125.10114669799805,5.952948644708044],[125.10093212127686,5.953098038403894],[125.10149002075195,5.953716954711169],[125.10078191757202,5.954271844600797],[125.10078191757202,5.954463921739688],[125.10037422180176,5.9548053920430135],[125.10061025619507,5.955061494631195],[125.10101795196533,5.954720024487088],[125.1012110710144,5.954762708266699],[125.10179042816162,5.954250502692332],[125.10185480117798,5.954335870321216],[125.10174751281738,5.954527947437725],[125.10179042816162,5.9548053920430135],[125.10215520858765,5.955104178384289],[125.10226249694824,5.955061494631195],[125.1023268699646,5.9550828365081685],[125.10236978530884,5.955146862134072],[125.10224103927612,5.955296255232142],[125.10226249694824,5.955338938966989],[125.10318517684937,5.955744434282579],[125.10327100753784,5.9558298016793],[125.10331392288208,5.956534082195859],[125.10359287261963,5.956619449469812],[125.10397911071777,5.956384689434472],[125.10419368743896,5.956470056731661],[125.10485887527466,5.957451779695461],[125.10518074035645,5.958070691096594],[125.1058030128479,5.958646918325599],[125.10621070861816,5.959308511805602],[125.10638236999512,5.9594792454774534],[125.10784149169922,5.960524988058538],[125.10880708694458,5.961101212710872],[125.1098370552063,5.962872566186022],[125.11020183563232,5.963320739050218],[125.11090993881226,5.963982326894751],[125.11198282241821,5.964686596949079],[125.11224031448364,5.964622572436056],[125.11224031448364,5.964814645952686],[125.11217594146729,5.964814645952686],[125.1121973991394,5.965284158710119],[125.11191844940186,5.965518914938073],[125.11232614517212,5.966073792895514],[125.11307716369629,5.966521963143478],[125.11382818222046,5.966778060263536],[125.1139783859253,5.966714035994741],[125.11402130126953,5.966457938844783],[125.11408567428589,5.966457938844783],[125.11404275894165,5.966863425943629],[125.11359214782715,5.967119522904156],[125.15762329101562,5.967119522904156],[125.15762329101562,5.87696603826862],[125.0858473777771,5.87696603826862]]]}},{"type":"Feature","id":"pmtiles:12/3468/1981:water:20:0","properties":{"class":"ocean","water":"ocean","kind":"waterway","verification":"verified","source":"OpenMapTiles/OpenStreetMap national PMTiles","sourceId":"12/3468/1981:water:20:0","sourceLayer":"water","archive":"https://its.hanifahseptiani45.workers.dev/v1/map/archive/indonesia.pmtiles","updatedAt":"2026-07-26T10:38:31.069Z"},"geometry":{"type":"Polygon","coordinates":[[[124.87890958786011,5.879698177726667],[124.88019704818726,5.8792072474063986],[124.88245010375977,5.878097316390097],[124.88313674926758,5.877649074390604],[124.88543272018433,5.876368380974341],[124.88732099533081,5.875087684611756],[124.88942384719849,5.873550845088374],[124.88974571228027,5.873209324618358],[124.89051818847656,5.8726543534079525],[124.8922348022461,5.871971311159214],[124.89395141601562,5.8714163387154485],[124.89395141601562,5.789530528448793],[124.80331420898438,5.789530528448793],[124.80331420898438,5.879698177726667],[124.87890958786011,5.879698177726667]]]}},{"type":"Feature","id":"pmtiles:12/3469/1981:water:20:0","properties":{"class":"ocean","water":"ocean","kind":"waterway","verification":"verified","source":"OpenMapTiles/OpenStreetMap national PMTiles","sourceId":"12/3469/1981:water:20:0","sourceLayer":"water","archive":"https://its.hanifahseptiani45.workers.dev/v1/map/archive/indonesia.pmtiles","updatedAt":"2026-07-26T10:38:31.153Z"},"geometry":{"type":"Polygon","coordinates":[[[124.89120483398438,5.872376867595406],[124.8922348022461,5.871971311159214],[124.89410161972046,5.871352303397913],[124.89526033401489,5.871202887628371],[124.89744901657104,5.870583879013367],[124.89985227584839,5.870605224149472],[124.90135431289673,5.8704131178951116],[124.90231990814209,5.870114285812264],[124.90455150604248,5.869602001868856],[124.90843534469604,5.8688762654763025],[124.91122484207153,5.868022456745933],[124.91412162780762,5.867019229816833],[124.91459369659424,5.866677705344003],[124.91798400878906,5.864671244842157],[124.92085933685303,5.862515359025338],[124.92124557495117,5.8621097954160035],[124.92214679718018,5.861384049274193],[124.92328405380249,5.8607436842477085],[124.92409944534302,5.86016735509574],[124.92427110671997,5.860188700630502],[124.92455005645752,5.860444846983924],[124.92470026016235,5.860722338734163],[124.92506504058838,5.860999830346458],[124.92678165435791,5.861939031702832],[124.92729663848877,5.8621097954160035],[124.92884159088135,5.862472668132966],[124.93085861206055,5.8625580499144405],[124.93236064910889,5.862408631788298],[124.93594408035278,5.862323249983973],[124.9365234375,5.862280559076908],[124.93712425231934,5.862131140876485],[124.9379825592041,5.862045759029684],[124.93911981582642,5.86206710449261],[124.93991374969482,5.861896340766378],[124.94163036346436,5.86174692246307],[124.9431324005127,5.861341358295292],[124.9434757232666,5.861106557852921],[124.94452714920044,5.860679647704643],[124.94611501693726,5.859548334232727],[124.94682312011719,5.858886621516717],[124.94892597198486,5.857200317824052],[124.95017051696777,5.856581293671923],[124.95156526565552,5.856090342994506],[124.95278835296631,5.855812848942492],[124.95358228683472,5.855727466129522],[124.95695114135742,5.855727466129522],[124.95813131332397,5.855812848942492],[124.95901107788086,5.85619707143934],[124.96214389801025,5.857178972175049],[124.96244430541992,5.857435119909184],[124.96278762817383,5.857968760644624],[124.96313095092773,5.858267599233741],[124.96375322341919,5.858609128854027],[124.96452569961548,5.858865275932175],[124.96497631072998,5.858886621516717],[124.96592044830322,5.8590787317408655],[124.96716499328613,5.859484297552541],[124.96744394302368,5.859655062016685],[124.96787309646606,5.859804480879973],[124.9683666229248,5.860081972948535],[124.96984720230103,5.8607650297604295],[124.97061967849731,5.860999830346458],[124.97132778167725,5.8611492488497845],[124.9725079536438,5.861277321820808],[124.97390270233154,5.861341358295292],[124.97480392456055,5.861298667313108],[124.97557640075684,5.861341358295292],[124.97628450393677,5.8615121221913284],[124.9770998954773,5.861896340766378],[124.97812986373901,5.862173831794962],[124.97885942459106,5.862237868166574],[124.97961044311523,5.862237868166574],[124.9809193611145,5.862045759029684],[124.98184204101562,5.861768267937421],[124.98184204101562,5.789530528448793],[124.89120483398438,5.789530528448793],[124.89120483398438,5.872376867595406]]]}},{"type":"Feature","id":"pmtiles:12/3470/1981:water:20:0","properties":{"class":"ocean","water":"ocean","kind":"waterway","verification":"verified","source":"OpenMapTiles/OpenStreetMap national PMTiles","sourceId":"12/3470/1981:water:20:0","sourceLayer":"water","archive":"https://its.hanifahseptiani45.workers.dev/v1/map/archive/indonesia.pmtiles","updatedAt":"2026-07-26T10:38:31.233Z"},"geometry":{"type":"Polygon","coordinates":[[[124.97909545898438,5.862237868166574],[124.97961044311523,5.862237868166574],[124.9809193611145,5.862045759029684],[124.98317241668701,5.861384049274193],[124.98486757278442,5.861341358295292],[124.9854040145874,5.861362703785161],[124.98722791671753,5.861106557852921],[124.9885368347168,5.8606156111542305],[124.99126195907593,5.860572920116553],[124.99184131622314,5.860722338734163],[124.99278545379639,5.860807720783413],[124.99353647232056,5.8607650297604295],[124.99460935592651,5.860594265635811],[124.99600410461426,5.86016735509574],[124.99669075012207,5.859804480879973],[124.99860048294067,5.859441606428348],[124.99933004379272,5.859228150758383],[125.00048875808716,5.858694511226474],[125.00126123428345,5.85822490801651],[125.00409364700317,5.8567947503536],[125.00529527664185,5.856068997303083],[125.00583171844482,5.855898231742401],[125.00651836395264,5.855834194643691],[125.00686168670654,5.855855540344095],[125.00776290893555,5.856068997303083],[125.00954389572144,5.8563678369086745],[125.01020908355713,5.85628245418053],[125.01053094863892,5.85619707143934],[125.01113176345825,5.855834194643691],[125.01183986663818,5.85525786042497],[125.01254796981812,5.854959020225635],[125.01385688781738,5.854745562842552],[125.01480102539062,5.854638834120422],[125.01688241958618,5.854553451128055],[125.02070188522339,5.854105190204024],[125.02248287200928,5.854297302072624],[125.02439260482788,5.854254610551976],[125.02585172653198,5.854019807130086],[125.02628087997437,5.853891732494759],[125.02842664718628,5.853592891564816],[125.02975702285767,5.853294050475085],[125.03177404403687,5.852461563739723],[125.0329327583313,5.851799842629717],[125.03342628479004,5.851586384040061],[125.03456354141235,5.851287541877596],[125.03533601760864,5.851159466616224],[125.03600120544434,5.85111677485591],[125.03668785095215,5.851138120736479],[125.03939151763916,5.851565038176616],[125.04024982452393,5.851821188484223],[125.04151582717896,5.852354834581405],[125.042245388031,5.852760405274566],[125.04269599914551,5.852909825982067],[125.0433611869812,5.853059246649622],[125.04398345947266,5.853101938261602],[125.04642963409424,5.852973863415912],[125.04685878753662,5.853016555034415],[125.04814624786377,5.853294050475085],[125.05001306533813,5.853998461359566],[125.05078554153442,5.854468068122628],[125.05190134048462,5.85534324330969],[125.05295276641846,5.855684774718156],[125.05361795425415,5.855812848942492],[125.0554633140564,5.855855540344095],[125.05612850189209,5.856111688685104],[125.05664348602295,5.8563678369086745],[125.05705118179321,5.856495910976406],[125.05773782730103,5.8565172566515145],[125.05954027175903,5.85628245418053],[125.06009817123413,5.855962268833778],[125.06091356277466,5.855599391885619],[125.06215810775757,5.855556700464447],[125.06303787231445,5.855620737594975],[125.06445407867432,5.855919577440346],[125.06526947021484,5.85619707143934],[125.06576299667358,5.856261108496454],[125.06816625595093,5.856239762811569],[125.06857395172119,5.856325145546236],[125.0690245628357,5.856602639343777],[125.06973266601562,5.8568160960172975],[125.06973266601562,5.789530528448793],[124.97909545898438,5.789530528448793],[124.97909545898438,5.862237868166574]]]}},{"type":"Feature","id":"pmtiles:12/3471/1981:water:20:0","properties":{"class":"ocean","water":"ocean","kind":"waterway","verification":"verified","source":"OpenMapTiles/OpenStreetMap national PMTiles","sourceId":"12/3471/1981:water:20:0","sourceLayer":"water","archive":"https://its.hanifahseptiani45.workers.dev/v1/map/archive/indonesia.pmtiles","updatedAt":"2026-07-26T10:38:31.312Z"},"geometry":{"type":"Polygon","coordinates":[[[125.06698608398438,5.856261108496454],[125.06816625595093,5.856239762811569],[125.06857395172119,5.856325145546236],[125.0690245628357,5.856602639343777],[125.07084846496582,5.857178972175049],[125.07187843322754,5.857733958783854],[125.07269382476807,5.858288944841121],[125.07481813430786,5.860124664023758],[125.07619142532349,5.860935793832795],[125.07810115814209,5.862387286338446],[125.08054733276367,5.8647566262871464],[125.08140563964844,5.865823893246812],[125.08211374282837,5.867083265632189],[125.0824785232544,5.868086492446068],[125.08245706558228,5.868193218596616],[125.08254289627075,5.868513396925692],[125.08254289627075,5.868961646277413],[125.08262872695923,5.8692818241651],[125.08378744125366,5.870904055969049],[125.08479595184326,5.871651134816815],[125.0879716873169,5.8738283303160586],[125.08807897567749,5.874020435392723],[125.08803606033325,5.874297920386425],[125.08784294128418,5.874596750225038],[125.08743524551392,5.874959614813463],[125.08683443069458,5.875386514026516],[125.08638381958008,5.8758774477168885],[125.08614778518677,5.876624519893312],[125.08425951004028,5.878780351123666],[125.08406639099121,5.8791432129848715],[125.0839376449585,5.879292626623652],[125.0833797454834,5.879698177726667],[125.15762329101562,5.879698177726667],[125.15762329101562,5.789530528448793],[125.06698608398438,5.789530528448793],[125.06698608398438,5.856261108496454]]]}},{"type":"Feature","id":"pmtiles:12/3468/1982:water:20:0","properties":{"class":"ocean","water":"ocean","kind":"waterway","verification":"verified","source":"OpenMapTiles/OpenStreetMap national PMTiles","sourceId":"12/3468/1982:water:20:0","sourceLayer":"water","archive":"https://its.hanifahseptiani45.workers.dev/v1/map/archive/indonesia.pmtiles","updatedAt":"2026-07-26T10:39:03.196Z"},"geometry":{"type":"Polygon","coordinates":[[[124.80331420898438,5.792263093990954],[124.89395141601562,5.792263093990954],[124.89395141601562,5.702081487858422],[124.80331420898438,5.702081487858422],[124.80331420898438,5.792263093990954]]]}},{"type":"Feature","id":"pmtiles:12/3469/1982:water:20:0","properties":{"class":"ocean","water":"ocean","kind":"waterway","verification":"verified","source":"OpenMapTiles/OpenStreetMap national PMTiles","sourceId":"12/3469/1982:water:20:0","sourceLayer":"water","archive":"https://its.hanifahseptiani45.workers.dev/v1/map/archive/indonesia.pmtiles","updatedAt":"2026-07-26T10:39:03.269Z"},"geometry":{"type":"Polygon","coordinates":[[[124.89120483398438,5.792263093990954],[124.98184204101562,5.792263093990954],[124.98184204101562,5.702081487858422],[124.89120483398438,5.702081487858422],[124.89120483398438,5.792263093990954]]]}},{"type":"Feature","id":"pmtiles:12/3470/1982:water:20:0","properties":{"class":"ocean","water":"ocean","kind":"waterway","verification":"verified","source":"OpenMapTiles/OpenStreetMap national PMTiles","sourceId":"12/3470/1982:water:20:0","sourceLayer":"water","archive":"https://its.hanifahseptiani45.workers.dev/v1/map/archive/indonesia.pmtiles","updatedAt":"2026-07-26T10:39:03.340Z"},"geometry":{"type":"Polygon","coordinates":[[[124.97909545898438,5.792263093990954],[125.06973266601562,5.792263093990954],[125.06973266601562,5.702081487858422],[124.97909545898438,5.702081487858422],[124.97909545898438,5.792263093990954]]]}},{"type":"Feature","id":"pmtiles:12/3471/1982:water:20:0","properties":{"class":"ocean","water":"ocean","kind":"waterway","verification":"verified","source":"OpenMapTiles/OpenStreetMap national PMTiles","sourceId":"12/3471/1982:water:20:0","sourceLayer":"water","archive":"https://its.hanifahseptiani45.workers.dev/v1/map/archive/indonesia.pmtiles","updatedAt":"2026-07-26T10:39:03.398Z"},"geometry":{"type":"Polygon","coordinates":[[[125.06698608398438,5.792263093990954],[125.15762329101562,5.792263093990954],[125.15762329101562,5.702081487858422],[125.06698608398438,5.702081487858422],[125.06698608398438,5.792263093990954]]]}},{"type":"Feature","id":"pmtiles:12/3468/1983:water:20:0","properties":{"class":"ocean","water":"ocean","kind":"waterway","verification":"verified","source":"OpenMapTiles/OpenStreetMap national PMTiles","sourceId":"12/3468/1983:water:20:0","sourceLayer":"water","archive":"https://its.hanifahseptiani45.workers.dev/v1/map/archive/indonesia.pmtiles","updatedAt":"2026-07-26T10:39:38.901Z"},"geometry":{"type":"Polygon","coordinates":[[[124.80331420898438,5.70481447318565],[124.89395141601562,5.70481447318565],[124.89395141601562,5.61461911814834],[124.80331420898438,5.61461911814834],[124.80331420898438,5.70481447318565]]]}},{"type":"Feature","id":"pmtiles:12/3469/1983:water:20:0","properties":{"class":"ocean","water":"ocean","kind":"waterway","verification":"verified","source":"OpenMapTiles/OpenStreetMap national PMTiles","sourceId":"12/3469/1983:water:20:0","sourceLayer":"water","archive":"https://its.hanifahseptiani45.workers.dev/v1/map/archive/indonesia.pmtiles","updatedAt":"2026-07-26T10:39:38.977Z"},"geometry":{"type":"Polygon","coordinates":[[[124.89120483398438,5.70481447318565],[124.98184204101562,5.70481447318565],[124.98184204101562,5.61461911814834],[124.89120483398438,5.61461911814834],[124.89120483398438,5.70481447318565]]]}},{"type":"Feature","id":"pmtiles:12/3470/1983:water:20:0","properties":{"class":"ocean","water":"ocean","kind":"waterway","verification":"verified","source":"OpenMapTiles/OpenStreetMap national PMTiles","sourceId":"12/3470/1983:water:20:0","sourceLayer":"water","archive":"https://its.hanifahseptiani45.workers.dev/v1/map/archive/indonesia.pmtiles","updatedAt":"2026-07-26T10:39:39.060Z"},"geometry":{"type":"Polygon","coordinates":[[[124.97909545898438,5.70481447318565],[125.06973266601562,5.70481447318565],[125.06973266601562,5.61461911814834],[124.97909545898438,5.61461911814834],[124.97909545898438,5.70481447318565]]]}},{"type":"Feature","id":"pmtiles:12/3471/1983:water:20:0","properties":{"class":"ocean","water":"ocean","kind":"waterway","verification":"verified","source":"OpenMapTiles/OpenStreetMap national PMTiles","sourceId":"12/3471/1983:water:20:0","sourceLayer":"water","archive":"https://its.hanifahseptiani45.workers.dev/v1/map/archive/indonesia.pmtiles","updatedAt":"2026-07-26T10:39:39.139Z"},"geometry":{"type":"Polygon","coordinates":[[[125.06698608398438,5.70481447318565],[125.15762329101562,5.70481447318565],[125.15762329101562,5.61461911814834],[125.06698608398438,5.61461911814834],[125.06698608398438,5.70481447318565]]]}},{"type":"Feature","id":"pmtiles:10/867/495:water:20:0","properties":{"class":"ocean","water":"ocean","kind":"waterway","verification":"verified","source":"OpenMapTiles/OpenStreetMap national PMTiles","sourceId":"10/867/495:water:20:0","sourceLayer":"water","archive":"https://its.hanifahseptiani45.workers.dev/v1/map/archive/indonesia.pmtiles","updatedAt":"2026-07-26T09:38:15.771Z"},"geometry":{"type":"Polygon","coordinates":[[[124.7991943359375,5.909323952129981],[124.79936599731445,5.909238577532662],[124.80142593383789,5.9083848308353595],[124.80563163757324,5.90599433307959],[124.8105239868164,5.902237815762575],[124.81893539428711,5.894212443485884],[124.82331275939941,5.889687448369131],[124.82468605041504,5.88951669311443],[124.82563018798828,5.889602070748339],[124.82743263244629,5.8891751824475165],[124.83017921447754,5.8875530039126005],[124.8347282409668,5.886016198826553],[124.83584403991699,5.886016198826553],[124.83790397644043,5.886613845753942],[124.84013557434082,5.8866992238339435],[124.84485626220703,5.8861869551571],[124.84811782836914,5.885077038070776],[124.85223770141602,5.882942575906753],[124.8592758178711,5.881832652343306],[124.8665714263916,5.88208878874687],[124.87266540527344,5.881320379182284],[124.87618446350098,5.880637347567017],[124.88021850585938,5.879185902600042],[124.88245010375977,5.878075971541165],[124.88734245300293,5.875087684611756],[124.89051818847656,5.872611663291934],[124.8922348022461,5.871928620990857],[124.89747047424316,5.870562533876452],[124.90133285522461,5.8703917727516455],[124.90845680236816,5.868854920273989],[124.91412162780762,5.86697653926916],[124.91798400878906,5.864671244842157],[124.92218971252441,5.861341358295292],[124.9240779876709,5.860146009560154],[124.92502212524414,5.860999830346458],[124.92682456970215,5.861939031702832],[124.92888450622559,5.862451322685573],[124.93592262268066,5.86236594088777],[124.9416732788086,5.861768267937421],[124.9431324005127,5.861341358295292],[124.94450569152832,5.860658302188668],[124.9489688873291,5.8572430091196],[124.95017051696777,5.856559947999273],[124.95283126831055,5.855791503240482],[124.95695114135742,5.855706120424244],[124.9581527709961,5.855791503240482],[124.96218681335449,5.857157626525236],[124.96278762817383,5.857926069404542],[124.96373176574707,5.858609128854027],[124.96716499328613,5.859462951990849],[124.9705982208252,5.860999830346458],[124.97248649597168,5.861255976327669],[124.97557640075684,5.861341358295292],[124.97815132141113,5.8621951772529854],[124.97961044311523,5.8621951772529854],[124.98312950134277,5.861341358295292],[124.98544692993164,5.861341358295292],[124.98724937438965,5.8610852123532595],[124.9885368347168,5.860572920116553],[124.99128341674805,5.860572920116553],[124.99274253845215,5.8608290662936895],[124.99463081359863,5.860572920116553],[124.99669075012207,5.859804480879973],[124.99935150146484,5.859206805186886],[125.00587463378906,5.85587688604366],[125.0068187713623,5.85587688604366],[125.00956535339355,5.856389182588671],[125.0105094909668,5.856218417125859],[125.01256942749023,5.854937674490998],[125.01385688781738,5.854766908584523],[125.02072334289551,5.854083844436744],[125.0244140625,5.854254610551976],[125.02973556518555,5.853315396272507],[125.03342628479004,5.851607729902696],[125.03600120544434,5.851095428974517],[125.03934860229492,5.851522346447268],[125.04338264465332,5.853059246649622],[125.04638671875,5.852973863415912],[125.04810333251953,5.853315396272507],[125.04999160766602,5.853998461359566],[125.0518798828125,5.855364589028852],[125.05359649658203,5.855791503240482],[125.05548477172852,5.85587688604366],[125.0570297241211,5.856474565300488],[125.05951881408691,5.856303799863795],[125.06089210510254,5.855620737594975],[125.06303787231445,5.855620737594975],[125.0657844543457,5.856303799863795],[125.06861686706543,5.856303799863795],[125.07084846496582,5.857157626525236],[125.0727367401123,5.858267599233741],[125.07479667663574,5.860146009560154],[125.07805824279785,5.86236594088777],[125.08054733276367,5.8647566262871464],[125.08209228515625,5.867061920361223],[125.08260726928711,5.8692818241651],[125.08380889892578,5.870904055969049],[125.08810043334961,5.8740631254007525],[125.08784294128418,5.874575405241885],[125.08638381958008,5.875856102782819],[125.08612632751465,5.876624519893312],[125.08389472961426,5.879271281820579],[125.08106231689453,5.880722726564784],[125.07908821105957,5.882942575906753],[125.07694244384766,5.8861869551571],[125.07634162902832,5.887809137680392],[125.07616996765137,5.888662916053491],[125.0764274597168,5.891821884623113],[125.07694244384766,5.893956312671605],[125.07797241210938,5.896261485744233],[125.07848739624023,5.8968591216441695],[125.07840156555176,5.898566649238873],[125.07865905761719,5.899420411064781],[125.0804615020752,5.902408567102199],[125.08209228515625,5.904201452991799],[125.08406639099121,5.905652832557877],[125.08681297302246,5.906250458332707],[125.08784294128418,5.906335833390756],[125.08895874023438,5.906762708483583],[125.09084701538086,5.9086409549828005],[125.09264945983887,5.909921573942512],[125.09376525878906,5.910946066977019],[125.09711265563965,5.911885183925904],[125.09779930114746,5.91248280297259],[125.09788513183594,5.913336543348038],[125.09908676147461,5.916324624284741],[125.09960174560547,5.9190565698667825],[125.10028839111328,5.920422537593765],[125.10028839111328,5.921020147412449],[125.10003089904785,5.921361638447166],[125.09814262390137,5.922044619883309],[125.09762763977051,5.92247148285206],[125.09702682495117,5.923666697409402],[125.09496688842773,5.928532901394135],[125.09488105773926,5.9304110739111735],[125.09367942810059,5.932972207945653],[125.09333610534668,5.934850365343223],[125.09350776672363,5.935533330082919],[125.09393692016602,5.9357894416421],[125.0943660736084,5.935874812135381],[125.09488105773926,5.935618700615862],[125.0954818725586,5.9357040711356035],[125.09625434875488,5.936984627344401],[125.09668350219727,5.9385212908662055],[125.09668350219727,5.9401433199328295],[125.09702682495117,5.941167756881725],[125.09676933288574,5.942619039296275],[125.09711265563965,5.945436223647505],[125.09754180908203,5.9463752818925855],[125.09779930114746,5.94893634168514],[125.09848594665527,5.950302235363921],[125.09865760803223,5.951582757605507],[125.09968757629395,5.95303401253922],[125.10063171386719,5.952436437442444],[125.10088920593262,5.95303401253922],[125.10114669799805,5.952948644708044],[125.10088920593262,5.953119380357137],[125.10149002075195,5.953716954711169],[125.10037422180176,5.95482673392992],[125.10063171386719,5.9550828365081685],[125.10183334350586,5.954229160783029],[125.10174751281738,5.95482673392992],[125.10234832763672,5.9550828365081685],[125.10226249694824,5.955338938966989],[125.10329246520996,5.955851143526388],[125.10329246520996,5.956534082195859],[125.1042366027832,5.956448714908618],[125.10621070861816,5.959351195228535],[125.10878562927246,5.961058529424065],[125.10981559753418,5.962851224611924],[125.11093139648438,5.9639609853638405],[125.1119613647461,5.964643913941231],[125.11221885681152,5.964643913941231],[125.11221885681152,5.9652414757487975],[125.1119613647461,5.965497573466962],[125.1123046875,5.966095134344201],[125.11384963989258,5.966778060263536],[125.11410713195801,5.9664365974102225],[125.11402130126953,5.966863425943629],[125.11307716369629,5.967460985332096],[125.11316299438477,5.967631716466286],[125.11384963989258,5.967204888531086],[125.11402130126953,5.967460985332096],[125.11333465576172,5.967887813067847],[125.11393547058105,5.969424390164207],[125.11453628540039,5.9702780422448285],[125.11445045471191,5.971217057997222],[125.1617431640625,5.971217057997222],[125.1617431640625,5.616412912562637],[125.1617431640625,5.6155587254349655],[125.1617431640625,5.61051899590089],[124.7991943359375,5.61051899590089],[124.7991943359375,5.6155587254349655],[124.7991943359375,5.616412912562637],[124.7991943359375,5.909323952129981]]]}}]}