{"type":"FeatureCollection","features":[{"type":"Feature","id":"pmtiles:10/867/515:water:1200:0","properties":{"class":"ocean","water":"ocean","kind":"waterway","verification":"verified","source":"OpenMapTiles/OpenStreetMap national PMTiles","sourceId":"10/867/515:water:1200:0","sourceLayer":"water","archive":"https://its.hanifahseptiani45.workers.dev/v1/map/archive/indonesia.pmtiles","updatedAt":"2026-07-26T09:42:09.868Z"},"geometry":{"type":"Polygon","coordinates":[[[124.7991943359375,-1.0491357039128246],[125.1617431640625,-1.0491357039128246],[125.1617431640625,-1.4116003389233214],[124.7991943359375,-1.4116003389233214],[124.7991943359375,-1.0491357039128246]]]}}]}