{"type":"FeatureCollection","features":[{"type":"Feature","id":"pmtiles:12/3588/1973:water:140:0","properties":{"class":"ocean","water":"ocean","kind":"waterway","verification":"verified","source":"OpenMapTiles/OpenStreetMap national PMTiles","sourceId":"12/3588/1973:water:140:0","sourceLayer":"water","archive":"https://its.hanifahseptiani45.workers.dev/v1/map/archive/indonesia.pmtiles","updatedAt":"2026-07-26T10:34:16.286Z"},"geometry":{"type":"Polygon","coordinates":[[[135.35018920898438,6.578667368565007],[135.44082641601562,6.578667368565007],[135.44082641601562,6.488618840362278],[135.35018920898438,6.488618840362278],[135.35018920898438,6.578667368565007]]]}},{"type":"Feature","id":"pmtiles:12/3589/1973:water:140:0","properties":{"class":"ocean","water":"ocean","kind":"waterway","verification":"verified","source":"OpenMapTiles/OpenStreetMap national PMTiles","sourceId":"12/3589/1973:water:140:0","sourceLayer":"water","archive":"https://its.hanifahseptiani45.workers.dev/v1/map/archive/indonesia.pmtiles","updatedAt":"2026-07-26T10:34:16.355Z"},"geometry":{"type":"Polygon","coordinates":[[[135.43807983398438,6.578667368565007],[135.52871704101562,6.578667368565007],[135.52871704101562,6.488618840362278],[135.43807983398438,6.488618840362278],[135.43807983398438,6.578667368565007]]]}},{"type":"Feature","id":"pmtiles:12/3590/1973:water:140:0","properties":{"class":"ocean","water":"ocean","kind":"waterway","verification":"verified","source":"OpenMapTiles/OpenStreetMap national PMTiles","sourceId":"12/3590/1973:water:140:0","sourceLayer":"water","archive":"https://its.hanifahseptiani45.workers.dev/v1/map/archive/indonesia.pmtiles","updatedAt":"2026-07-26T10:34:16.426Z"},"geometry":{"type":"Polygon","coordinates":[[[135.52597045898438,6.578667368565007],[135.61660766601562,6.578667368565007],[135.61660766601562,6.488618840362278],[135.52597045898438,6.488618840362278],[135.52597045898438,6.578667368565007]]]}},{"type":"Feature","id":"pmtiles:12/3591/1973:water:140:0","properties":{"class":"ocean","water":"ocean","kind":"waterway","verification":"verified","source":"OpenMapTiles/OpenStreetMap national PMTiles","sourceId":"12/3591/1973:water:140:0","sourceLayer":"water","archive":"https://its.hanifahseptiani45.workers.dev/v1/map/archive/indonesia.pmtiles","updatedAt":"2026-07-26T10:34:16.488Z"},"geometry":{"type":"Polygon","coordinates":[[[135.61386108398438,6.578667368565007],[135.70449829101562,6.578667368565007],[135.70449829101562,6.488618840362278],[135.61386108398438,6.488618840362278],[135.61386108398438,6.578667368565007]]]}},{"type":"Feature","id":"pmtiles:12/3588/1974:water:140:0","properties":{"class":"ocean","water":"ocean","kind":"waterway","verification":"verified","source":"OpenMapTiles/OpenStreetMap national PMTiles","sourceId":"12/3588/1974:water:140:0","sourceLayer":"water","archive":"https://its.hanifahseptiani45.workers.dev/v1/map/archive/indonesia.pmtiles","updatedAt":"2026-07-26T10:34:48.473Z"},"geometry":{"type":"Polygon","coordinates":[[[135.35018920898438,6.491347821282432],[135.44082641601562,6.491347821282432],[135.44082641601562,6.4012836786624945],[135.35018920898438,6.4012836786624945],[135.35018920898438,6.491347821282432]]]}},{"type":"Feature","id":"pmtiles:12/3589/1974:water:140:0","properties":{"class":"ocean","water":"ocean","kind":"waterway","verification":"verified","source":"OpenMapTiles/OpenStreetMap national PMTiles","sourceId":"12/3589/1974:water:140:0","sourceLayer":"water","archive":"https://its.hanifahseptiani45.workers.dev/v1/map/archive/indonesia.pmtiles","updatedAt":"2026-07-26T10:34:48.555Z"},"geometry":{"type":"Polygon","coordinates":[[[135.43807983398438,6.491347821282432],[135.52871704101562,6.491347821282432],[135.52871704101562,6.4012836786624945],[135.43807983398438,6.4012836786624945],[135.43807983398438,6.491347821282432]]]}},{"type":"Feature","id":"pmtiles:12/3590/1974:water:140:0","properties":{"class":"ocean","water":"ocean","kind":"waterway","verification":"verified","source":"OpenMapTiles/OpenStreetMap national PMTiles","sourceId":"12/3590/1974:water:140:0","sourceLayer":"water","archive":"https://its.hanifahseptiani45.workers.dev/v1/map/archive/indonesia.pmtiles","updatedAt":"2026-07-26T10:34:48.625Z"},"geometry":{"type":"Polygon","coordinates":[[[135.52597045898438,6.491347821282432],[135.61660766601562,6.491347821282432],[135.61660766601562,6.4012836786624945],[135.52597045898438,6.4012836786624945],[135.52597045898438,6.491347821282432]]]}},{"type":"Feature","id":"pmtiles:12/3591/1974:water:140:0","properties":{"class":"ocean","water":"ocean","kind":"waterway","verification":"verified","source":"OpenMapTiles/OpenStreetMap national PMTiles","sourceId":"12/3591/1974:water:140:0","sourceLayer":"water","archive":"https://its.hanifahseptiani45.workers.dev/v1/map/archive/indonesia.pmtiles","updatedAt":"2026-07-26T10:34:48.683Z"},"geometry":{"type":"Polygon","coordinates":[[[135.61386108398438,6.491347821282432],[135.70449829101562,6.491347821282432],[135.70449829101562,6.4012836786624945],[135.61386108398438,6.4012836786624945],[135.61386108398438,6.491347821282432]]]}},{"type":"Feature","id":"pmtiles:12/3588/1975:water:140:0","properties":{"class":"ocean","water":"ocean","kind":"waterway","verification":"verified","source":"OpenMapTiles/OpenStreetMap national PMTiles","sourceId":"12/3588/1975:water:140:0","sourceLayer":"water","archive":"https://its.hanifahseptiani45.workers.dev/v1/map/archive/indonesia.pmtiles","updatedAt":"2026-07-26T10:35:19.765Z"},"geometry":{"type":"Polygon","coordinates":[[[135.35018920898438,6.40401312961761],[135.44082641601562,6.40401312961761],[135.44082641601562,6.31393357916707],[135.35018920898438,6.31393357916707],[135.35018920898438,6.40401312961761]]]}},{"type":"Feature","id":"pmtiles:12/3589/1975:water:140:0","properties":{"class":"ocean","water":"ocean","kind":"waterway","verification":"verified","source":"OpenMapTiles/OpenStreetMap national PMTiles","sourceId":"12/3589/1975:water:140:0","sourceLayer":"water","archive":"https://its.hanifahseptiani45.workers.dev/v1/map/archive/indonesia.pmtiles","updatedAt":"2026-07-26T10:35:19.830Z"},"geometry":{"type":"Polygon","coordinates":[[[135.43807983398438,6.40401312961761],[135.52871704101562,6.40401312961761],[135.52871704101562,6.31393357916707],[135.43807983398438,6.31393357916707],[135.43807983398438,6.40401312961761]]]}},{"type":"Feature","id":"pmtiles:12/3590/1975:water:140:0","properties":{"class":"ocean","water":"ocean","kind":"waterway","verification":"verified","source":"OpenMapTiles/OpenStreetMap national PMTiles","sourceId":"12/3590/1975:water:140:0","sourceLayer":"water","archive":"https://its.hanifahseptiani45.workers.dev/v1/map/archive/indonesia.pmtiles","updatedAt":"2026-07-26T10:35:19.883Z"},"geometry":{"type":"Polygon","coordinates":[[[135.52597045898438,6.40401312961761],[135.61660766601562,6.40401312961761],[135.61660766601562,6.31393357916707],[135.52597045898438,6.31393357916707],[135.52597045898438,6.40401312961761]]]}},{"type":"Feature","id":"pmtiles:12/3591/1975:water:140:0","properties":{"class":"ocean","water":"ocean","kind":"waterway","verification":"verified","source":"OpenMapTiles/OpenStreetMap national PMTiles","sourceId":"12/3591/1975:water:140:0","sourceLayer":"water","archive":"https://its.hanifahseptiani45.workers.dev/v1/map/archive/indonesia.pmtiles","updatedAt":"2026-07-26T10:35:19.935Z"},"geometry":{"type":"Polygon","coordinates":[[[135.61386108398438,6.40401312961761],[135.70449829101562,6.40401312961761],[135.70449829101562,6.31393357916707],[135.61386108398438,6.31393357916707],[135.61386108398438,6.40401312961761]]]}},{"type":"Feature","id":"pmtiles:10/897/493:water:140:0","properties":{"class":"ocean","water":"ocean","kind":"waterway","verification":"verified","source":"OpenMapTiles/OpenStreetMap national PMTiles","sourceId":"10/897/493:water:140:0","sourceLayer":"water","archive":"https://its.hanifahseptiani45.workers.dev/v1/map/archive/indonesia.pmtiles","updatedAt":"2026-07-26T09:37:53.000Z"},"geometry":{"type":"Polygon","coordinates":[[[135.3460693359375,6.670063575977281],[135.7086181640625,6.670063575977281],[135.7086181640625,6.309838680093364],[135.3460693359375,6.309838680093364],[135.3460693359375,6.670063575977281]]]}}]}