{"type":"FeatureCollection","features":[{"type":"Feature","id":"pmtiles:12/3460/1975:water:20:0","properties":{"class":"ocean","water":"ocean","kind":"waterway","verification":"verified","source":"OpenMapTiles/OpenStreetMap national PMTiles","sourceId":"12/3460/1975:water:20:0","sourceLayer":"water","archive":"https://its.hanifahseptiani45.workers.dev/v1/map/archive/indonesia.pmtiles","updatedAt":"2026-07-26T10:35:12.733Z"},"geometry":{"type":"Polygon","coordinates":[[[124.10018920898438,6.31393357916707],[124.10018920898438,6.332893392575528],[124.1002106666565,6.332850739107812],[124.10104751586914,6.330803368514239],[124.10117626190186,6.330611427104898],[124.10274267196655,6.3289692587982245],[124.10609006881714,6.325002441096004],[124.1085147857666,6.321867353955071],[124.10868644714355,6.321440810017933],[124.10870790481567,6.32092895682905],[124.1085147857666,6.320609048328777],[124.10823583602905,6.320737011752627],[124.10810708999634,6.320651702806913],[124.10802125930786,6.319990558000583],[124.10808563232422,6.319819939848884],[124.10819292068481,6.319819939848884],[124.10868644714355,6.319969230734699],[124.10885810852051,6.319798612575951],[124.10887956619263,6.319585339798422],[124.10881519317627,6.31941472151307],[124.10866498947144,6.319372066932942],[124.10857915878296,6.319436048801819],[124.10842895507812,6.319436048801819],[124.10830020904541,6.31935073964155],[124.10849332809448,6.318838884384633],[124.10866498947144,6.318796229757041],[124.10890102386475,6.318902866319462],[124.10877227783203,6.31920144857726],[124.10883665084839,6.319286757762129],[124.10902976989746,6.31941472151307],[124.10958766937256,6.319372066932942],[124.11025285720825,6.31920144857726],[124.11104679107666,6.318817557071284],[124.11317110061646,6.3172180060640954],[124.11486625671387,6.315789069650236],[124.11641120910645,6.314381456789064],[124.11686182022095,6.31393357916707],[124.10018920898438,6.31393357916707]]]}},{"type":"Feature","id":"pmtiles:10/865/493:water:20:0","properties":{"class":"ocean","water":"ocean","kind":"waterway","verification":"verified","source":"OpenMapTiles/OpenStreetMap national PMTiles","sourceId":"10/865/493:water:20:0","sourceLayer":"water","archive":"https://its.hanifahseptiani45.workers.dev/v1/map/archive/indonesia.pmtiles","updatedAt":"2026-07-26T09:37:50.916Z"},"geometry":{"type":"Polygon","coordinates":[[[124.0960693359375,6.309838680093364],[124.0960693359375,6.343961848265025],[124.09615516662598,6.3437912380341],[124.09795761108398,6.337308007421072],[124.10104751586914,6.330824695333092],[124.10611152648926,6.32502376815431],[124.1085147857666,6.321867353955071],[124.10868644714355,6.32092895682905],[124.1085147857666,6.320587721088387],[124.10808563232422,6.320673030044674],[124.10799980163574,6.319990558000583],[124.10808563232422,6.319819939848884],[124.10868644714355,6.319990558000583],[124.10885810852051,6.319819939848884],[124.10877227783203,6.3193933942234395],[124.10834312438965,6.3193933942234395],[124.1085147857666,6.3188815390087285],[124.10885810852051,6.3188815390087285],[124.10877227783203,6.319222775874806],[124.10902976989746,6.3193933942234395],[124.11023139953613,6.319222775874806],[124.11314964294434,6.317175351302907],[124.11641120910645,6.314360129292027],[124.12104606628418,6.309838680093364],[124.0960693359375,6.309838680093364]]]}}]}