{"type":"FeatureCollection","features":[{"type":"Feature","id":"pmtiles:10/803/507:transportation:4044148350:0","properties":{"class":"ferry","highway":"ferry","kind":"road","verification":"verified","source":"OpenMapTiles/OpenStreetMap national PMTiles","sourceId":"10/803/507:transportation:4044148350:0","sourceLayer":"transportation","archive":"https://its.hanifahseptiani45.workers.dev/v1/map/archive/indonesia.pmtiles","updatedAt":"2026-07-26T09:40:21.782Z"},"geometry":{"type":"LineString","coordinates":[[102.33816146850586,1.7630273831138794],[102.6617431640625,1.5357562420685298]]}},{"type":"Feature","id":"pmtiles:10/803/507:transportation:4044148350:1","properties":{"class":"ferry","highway":"ferry","kind":"road","verification":"verified","source":"OpenMapTiles/OpenStreetMap national PMTiles","sourceId":"10/803/507:transportation:4044148350:1","sourceLayer":"transportation","archive":"https://its.hanifahseptiani45.workers.dev/v1/map/archive/indonesia.pmtiles","updatedAt":"2026-07-26T09:40:21.782Z"},"geometry":{"type":"LineString","coordinates":[[102.33901977539062,1.7630273831138794],[102.6617431640625,1.5361852413134613]]}},{"type":"Feature","id":"pmtiles:10/803/507:transportation:4044148350:2","properties":{"class":"ferry","highway":"ferry","kind":"road","verification":"verified","source":"OpenMapTiles/OpenStreetMap national PMTiles","sourceId":"10/803/507:transportation:4044148350:2","sourceLayer":"transportation","archive":"https://its.hanifahseptiani45.workers.dev/v1/map/archive/indonesia.pmtiles","updatedAt":"2026-07-26T09:40:21.782Z"},"geometry":{"type":"LineString","coordinates":[[102.2991943359375,1.5963300717695716],[102.50553131103516,1.5459664006782532],[102.6617431640625,1.495515733309034]]}},{"type":"Feature","id":"pmtiles:10/803/507:transportation:4044148350:3","properties":{"class":"ferry","highway":"ferry","kind":"road","verification":"verified","source":"OpenMapTiles/OpenStreetMap national PMTiles","sourceId":"10/803/507:transportation:4044148350:3","sourceLayer":"transportation","archive":"https://its.hanifahseptiani45.workers.dev/v1/map/archive/indonesia.pmtiles","updatedAt":"2026-07-26T09:40:21.782Z"},"geometry":{"type":"LineString","coordinates":[[102.2991943359375,1.4140886721744579],[102.31206893920898,1.4006173190275177]]}},{"type":"Feature","id":"pmtiles:10/803/507:transportation:3197521790:0","properties":{"class":"secondary","highway":"secondary","kind":"road","verification":"verified","source":"OpenMapTiles/OpenStreetMap national PMTiles","sourceId":"10/803/507:transportation:3197521790:0","sourceLayer":"transportation","archive":"https://its.hanifahseptiani45.workers.dev/v1/map/archive/indonesia.pmtiles","updatedAt":"2026-07-26T09:40:21.782Z"},"geometry":{"type":"LineString","coordinates":[[102.2991943359375,1.5287206421820798],[102.29970932006836,1.528892242454063],[102.29979515075684,1.5239158290036983],[102.30082511901855,1.52117021665822],[102.33035087585449,1.5356704422092236],[102.34030723571777,1.5447652080901264],[102.34262466430664,1.5459664006782532],[102.35069274902344,1.5441646115413477],[102.35652923583984,1.5422770212834962],[102.35884666442871,1.541848023264052],[102.36202239990234,1.542019622482215],[102.36528396606445,1.5416764240320617],[102.37283706665039,1.5381586367302305],[102.37772941589355,1.5363568409873238],[102.38785743713379,1.5337828444330626],[102.39197731018066,1.532410045004454],[102.40579605102539,1.532410045004454],[102.41729736328125,1.5307798445401346],[102.41738319396973,1.5305224443534797],[102.41506576538086,1.5239158290036983],[102.42982864379883,1.5206554139542874],[102.42914199829102,1.5164511872796567],[102.42888450622559,1.5117321476116672],[102.42794036865234,1.5074421026479428],[102.4269962310791,1.5048680716106588],[102.4269962310791,1.5030662480766495],[102.42639541625977,1.4988619873849984],[102.42321968078613,1.4875361837897003],[102.4229621887207,1.4873645802566813],[102.41815567016602,1.490625045100046],[102.4148941040039,1.4923410772895238],[102.40819931030273,1.493542299025549],[102.40433692932129,1.490196036843642],[102.39815711975098,1.4841041105957373],[102.38974571228027,1.4782695739486371],[102.38905906677246,1.4774973547127246],[102.3870849609375,1.4731214406426432],[102.38390922546387,1.4625677302219344],[102.37961769104004,1.4549312746378291],[102.37343788146973,1.4503837101464825],[102.37395286560059,1.4448922993373543],[102.3665714263916,1.4428330168586143],[102.35498428344727,1.4389718571884629],[102.3512077331543,1.4383712317629715],[102.34837532043457,1.4386286426789638],[102.34554290771484,1.4398298932362081],[102.34339714050293,1.4412885537760332],[102.34133720397949,1.4369983730539957],[102.33438491821289,1.441545964362561],[102.32786178588867,1.4464367599714052],[102.31996536254883,1.4388860535659376]]}},{"type":"Feature","id":"pmtiles:10/803/507:transportation:3197521790:1","properties":{"class":"secondary","highway":"secondary","kind":"road","verification":"verified","source":"OpenMapTiles/OpenStreetMap national PMTiles","sourceId":"10/803/507:transportation:3197521790:1","sourceLayer":"transportation","archive":"https://its.hanifahseptiani45.workers.dev/v1/map/archive/indonesia.pmtiles","updatedAt":"2026-07-26T09:40:21.783Z"},"geometry":{"type":"LineString","coordinates":[[102.31876373291016,1.4123725805623195],[102.3197078704834,1.4109139016955652],[102.32279777526855,1.4081681507599342],[102.32511520385742,1.4053365917198306],[102.32614517211914,1.404564347749158],[102.32786178588867,1.403792103523287],[102.32914924621582,1.406623664436779],[102.33060836791992,1.4073959077262117],[102.33644485473633,1.4006173190275177]]}},{"type":"Feature","id":"pmtiles:10/803/507:transportation:3197521790:2","properties":{"class":"secondary","highway":"secondary","kind":"road","verification":"verified","source":"OpenMapTiles/OpenStreetMap national PMTiles","sourceId":"10/803/507:transportation:3197521790:2","sourceLayer":"transportation","archive":"https://its.hanifahseptiani45.workers.dev/v1/map/archive/indonesia.pmtiles","updatedAt":"2026-07-26T09:40:21.783Z"},"geometry":{"type":"LineString","coordinates":[[102.45068550109863,1.4738936613979234],[102.4504280090332,1.4720918125526339],[102.45059967041016,1.4688313204655827],[102.44999885559082,1.464455389399518],[102.4489688873291,1.4617955055551448],[102.44596481323242,1.4549312746378291],[102.43892669677734,1.4443774788925765],[102.43987083435059,1.4436052480067332],[102.44158744812012,1.440173107564874],[102.4420166015625,1.4350248872143823],[102.44287490844727,1.43270818427348],[102.44381904602051,1.4289328114997204],[102.44399070739746,1.4219826772240083],[102.44433403015137,1.4206956130214508],[102.44356155395508,1.4185505044240472],[102.44647979736328,1.411257120334767],[102.45017051696777,1.4122009713313872],[102.45162963867188,1.4123725805623195],[102.46862411499023,1.41177194819862],[102.47171401977539,1.411257120334767],[102.47368812561035,1.4105706830057159],[102.47377395629883,1.4103990736417984],[102.46819496154785,1.4019043943420542],[102.46896743774414,1.4006173190275177]]}},{"type":"Feature","id":"pmtiles:10/803/507:transportation:3158718240:0","properties":{"class":"primary","highway":"primary","kind":"road","verification":"verified","source":"OpenMapTiles/OpenStreetMap national PMTiles","sourceId":"10/803/507:transportation:3158718240:0","sourceLayer":"transportation","archive":"https://its.hanifahseptiani45.workers.dev/v1/map/archive/indonesia.pmtiles","updatedAt":"2026-07-26T09:40:21.783Z"},"geometry":{"type":"LineString","coordinates":[[102.2991943359375,1.4446348891295315],[102.30005264282227,1.444463282308135],[102.30262756347656,1.4445490857204675],[102.30528831481934,1.444978102733458],[102.31352806091309,1.4443774788925765],[102.31472969055176,1.4447206925353697],[102.3160171508789,1.443948461766169],[102.31653213500977,1.4426614099011914],[102.31996536254883,1.4388860535659376],[102.31850624084473,1.4372557841248295],[102.31884956359863,1.436740961954186],[102.31979370117188,1.4329655958271275],[102.32022285461426,1.424985824237865],[102.3200511932373,1.4240419784550653],[102.31927871704102,1.4226691111719703],[102.3185920715332,1.4207814173239228],[102.31773376464844,1.4162337849051454],[102.31773376464844,1.415547349047202],[102.31876373291016,1.4123725805623195]]}},{"type":"Feature","id":"pmtiles:10/803/507:transportation_name:32647704221:0","properties":{"subclass":"junction","class":"primary","highway":"primary","kind":"road","verification":"verified","source":"OpenMapTiles/OpenStreetMap national PMTiles","sourceId":"10/803/507:transportation_name:32647704221:0","sourceLayer":"transportation_name","archive":"https://its.hanifahseptiani45.workers.dev/v1/map/archive/indonesia.pmtiles","updatedAt":"2026-07-26T09:40:21.783Z"},"geometry":{"type":"Point","coordinates":[102.31575965881348,1.4441200686264466]}},{"type":"Feature","id":"pmtiles:10/803/507:water:540:0","properties":{"class":"ocean","water":"ocean","kind":"waterway","verification":"verified","source":"OpenMapTiles/OpenStreetMap national PMTiles","sourceId":"10/803/507:water:540:0","sourceLayer":"water","archive":"https://its.hanifahseptiani45.workers.dev/v1/map/archive/indonesia.pmtiles","updatedAt":"2026-07-26T09:40:21.783Z"},"geometry":{"type":"Polygon","coordinates":[[[102.2991943359375,1.5531735419159247],[102.2991943359375,1.7630273831138794],[102.6617431640625,1.7630273831138794],[102.6617431640625,1.4006173190275177],[102.49265670776367,1.4006173190275177],[102.49351501464844,1.4103132689551074],[102.49523162841797,1.4272167309137984],[102.49463081359863,1.4323649688236486],[102.49428749084473,1.4329655958271275],[102.49360084533691,1.4334804188476227],[102.49171257019043,1.4339952417523705],[102.4917984008789,1.4359687284807165],[102.49128341674805,1.4369125693572897],[102.49059677124023,1.4376848025116828],[102.48827934265137,1.4389718571884629],[102.48827934265137,1.4418891784326746],[102.48905181884766,1.4438626583311702],[102.48930931091309,1.4460935465879743],[102.4917984008789,1.4552744866805796],[102.49428749084473,1.4606800694564726],[102.49574661254883,1.4646269947004953],[102.49617576599121,1.4673726777278233],[102.49608993530273,1.4690887279087264],[102.48647689819336,1.478526980300927],[102.48587608337402,1.4799856157332982],[102.4815845489502,1.48599175151233],[102.47926712036133,1.4903676401562365],[102.47746467590332,1.4931132913380338],[102.47677803039551,1.4951725274740966],[102.47703552246094,1.4960305419608062],[102.47617721557617,1.496287946241381],[102.47446060180664,1.4990335900203888],[102.47308731079102,1.500578013133378],[102.47282981872559,1.5010928205954173],[102.47282981872559,1.5018650315612092],[102.4720573425293,1.5028088445932468],[102.47222900390625,1.5035810549524484],[102.47179985046387,1.5038384583448163],[102.47128486633301,1.5048680716106588],[102.46991157531738,1.505640281241071],[102.46733665466309,1.510616736735642],[102.46330261230469,1.5159363834516881],[102.46098518371582,1.51730919338749],[102.4581527709961,1.5185962019110093],[102.45231628417969,1.5201406111275588],[102.4486255645752,1.5215992188176841],[102.43978500366211,1.5240874296591471],[102.43523597717285,1.5254602344102466],[102.43523597717285,1.5256318349425726],[102.43480682373047,1.525546034678129],[102.43266105651855,1.5264040371685894],[102.42828369140625,1.5271762391172672],[102.42399215698242,1.5287206421820798],[102.41995811462402,1.5306940444813506],[102.41867065429688,1.5316378449390982],[102.41695404052734,1.5322384450139737],[102.41240501403809,1.5328390449204505],[102.40880012512207,1.53404024422791],[102.40862846374512,1.5342976439917777],[102.40837097167969,1.534126044152643],[102.4032211303711,1.5353272427374947],[102.3914623260498,1.5386734352345428],[102.38880157470703,1.5389308344401087],[102.38253593444824,1.5407326280088967],[102.37421035766602,1.54244862046707],[102.37017631530762,1.5439072129684916],[102.36700057983398,1.5457090023237043],[102.36494064331055,1.5450226065590584],[102.36030578613281,1.5454516039379484],[102.35060691833496,1.5479397870258964],[102.34090805053711,1.5483687838150502],[102.33893394470215,1.5505137664578825],[102.33678817749023,1.5505137664578825],[102.33541488647461,1.5520581526149897],[102.33369827270508,1.5511143612084766],[102.32605934143066,1.5492267771328159],[102.32090950012207,1.5494841750603854],[102.31069564819336,1.5509427627256969],[102.30812072753906,1.5518865542087639],[102.30606079101562,1.5530877427598284],[102.30365753173828,1.5529161444371766],[102.2991943359375,1.5531735419159247]]]}},{"type":"Feature","id":"pmtiles:10/803/507:water:540:1","properties":{"class":"ocean","water":"ocean","kind":"waterway","verification":"verified","source":"OpenMapTiles/OpenStreetMap national PMTiles","sourceId":"10/803/507:water:540:1","sourceLayer":"water","archive":"https://its.hanifahseptiani45.workers.dev/v1/map/archive/indonesia.pmtiles","updatedAt":"2026-07-26T09:40:21.783Z"},"geometry":{"type":"Polygon","coordinates":[[[102.2991943359375,1.4061088354351625],[102.2991943359375,1.424985824237865],[102.30245590209961,1.4218968729661583],[102.30915069580078,1.414346085806855],[102.31987953186035,1.4035346887246334],[102.32391357421875,1.4006173190275177],[102.30408668518066,1.4006173190275177],[102.30305671691895,1.4018185893430797],[102.2991943359375,1.4061088354351625]]]}},{"type":"Feature","id":"pmtiles:10/803/507:water:3163231052:0","properties":{"intermittent":0,"class":"river","id":316323105,"water":"river","kind":"waterway","verification":"verified","source":"OpenMapTiles/OpenStreetMap national PMTiles","sourceId":"10/803/507:water:3163231052:0","sourceLayer":"water","archive":"https://its.hanifahseptiani45.workers.dev/v1/map/archive/indonesia.pmtiles","updatedAt":"2026-07-26T09:40:21.783Z"},"geometry":{"type":"Polygon","coordinates":[[[102.44150161743164,1.4643695867441124],[102.44193077087402,1.4646269947004953],[102.44381904602051,1.4629109410996648],[102.44536399841309,1.4619671110596073],[102.45506286621094,1.4593930271161355],[102.45720863342285,1.4579343782400258],[102.45780944824219,1.4571621519817626],[102.45806694030762,1.456046713585792],[102.45746612548828,1.4549312746378291],[102.4555778503418,1.4539874412510585],[102.45532035827637,1.4533868197994337],[102.45549201965332,1.452786198188079],[102.45643615722656,1.452013970167414],[102.46038436889648,1.451155938723943],[102.4625301361084,1.4498688909484372],[102.46356010437012,1.4487534489510665],[102.46527671813965,1.4457503331526453],[102.46647834777832,1.444806495937982],[102.46750831604004,1.4446348891295315],[102.47008323669434,1.444806495937982],[102.47128486633301,1.4445490857204675],[102.4724006652832,1.4440342651979137],[102.47471809387207,1.4419749819421241],[102.47566223144531,1.441717571404098],[102.4801254272461,1.4424898029308508],[102.48793601989746,1.4431762307345934],[102.48896598815918,1.4436052480067332],[102.48827934265137,1.4418891784326746],[102.48827934265137,1.4389718571884629],[102.48690605163574,1.440516321841855],[102.4859619140625,1.4407737325156802],[102.48055458068848,1.4408595360671654],[102.47737884521484,1.4404305182774664],[102.47694969177246,1.4400873039875535],[102.47514724731445,1.440173107564874],[102.47368812561035,1.4406879289609549],[102.47257232666016,1.4412885537760332],[102.47042655944824,1.4434336411076032],[102.46956825256348,1.4436052480067332],[102.46716499328613,1.4435194445587882],[102.46553421020508,1.4440342651979137],[102.46450424194336,1.4448922993373543],[102.46270179748535,1.4478954162716633],[102.46115684509277,1.4493540716333086],[102.45952606201172,1.450212103760137],[102.45566368103027,1.4508985292274161],[102.45420455932617,1.4524429857670356],[102.45429039001465,1.45450225951096],[102.45626449584961,1.4563041224953963],[102.45635032653809,1.4567331372794285],[102.45617866516113,1.4570763490478384],[102.45471954345703,1.4579343782400258],[102.45308876037598,1.4586208013583501],[102.44708061218262,1.4607658722529493],[102.44433403015137,1.4614522945068558],[102.44124412536621,1.4638547707426568],[102.44150161743164,1.4643695867441124]]]}},{"type":"Feature","id":"pmtiles:10/803/507:water:3163235932:0","properties":{"intermittent":0,"class":"river","id":316323593,"water":"river","kind":"waterway","verification":"verified","source":"OpenMapTiles/OpenStreetMap national PMTiles","sourceId":"10/803/507:water:3163235932:0","sourceLayer":"water","archive":"https://its.hanifahseptiani45.workers.dev/v1/map/archive/indonesia.pmtiles","updatedAt":"2026-07-26T09:40:21.783Z"},"geometry":{"type":"Polygon","coordinates":[[[102.45832443237305,1.442146588951303],[102.45858192443848,1.4422323924510465],[102.45892524719238,1.4412027502407199],[102.45952606201172,1.4407737325156802],[102.46175765991211,1.4403447147098234],[102.46295928955078,1.4399156968232205],[102.46407508850098,1.4396582860524774],[102.46501922607422,1.4398298932362081],[102.46767997741699,1.4407737325156802],[102.46845245361328,1.440602125403018],[102.4698257446289,1.4394008752526872],[102.47154235839844,1.439057660807748],[102.47214317321777,1.4393150716462912],[102.47265815734863,1.4399156968232205],[102.47179985046387,1.4412027502407199],[102.47154235839844,1.442146588951303],[102.47111320495605,1.4429188203324657],[102.47257232666016,1.4412885537760332],[102.47248649597168,1.4411169467021807],[102.47282981872559,1.4407737325156802],[102.47308731079102,1.440001500407007],[102.47274398803711,1.4392292680366836],[102.47188568115234,1.4385428390435209],[102.4698257446289,1.4389718571884629],[102.46785163879395,1.4403447147098234],[102.46716499328613,1.4402589111389545],[102.46596336364746,1.4396582860524774],[102.46373176574707,1.4393150716462912],[102.46115684509277,1.4400873039875535],[102.4596118927002,1.4403447147098234],[102.45866775512695,1.4410311431604015],[102.45832443237305,1.442146588951303]]]}},{"type":"Feature","id":"pmtiles:10/802/508:transportation:3139932520:3","properties":{"class":"ferry","highway":"ferry","kind":"road","verification":"verified","source":"OpenMapTiles/OpenStreetMap national PMTiles","sourceId":"10/802/508:transportation:3139932520:3","sourceLayer":"transportation","archive":"https://its.hanifahseptiani45.workers.dev/v1/map/archive/indonesia.pmtiles","updatedAt":"2026-07-26T09:40:36.015Z"},"geometry":{"type":"LineString","coordinates":[[102.30159759521484,1.4116003389233356],[102.3101806640625,1.4025908342205327]]}},{"type":"Feature","id":"pmtiles:10/803/508:transportation:3199658680:1","properties":{"class":"secondary","highway":"secondary","kind":"road","verification":"verified","source":"OpenMapTiles/OpenStreetMap national PMTiles","sourceId":"10/803/508:transportation:3199658680:1","sourceLayer":"transportation","archive":"https://its.hanifahseptiani45.workers.dev/v1/map/archive/indonesia.pmtiles","updatedAt":"2026-07-26T09:40:37.393Z"},"geometry":{"type":"LineString","coordinates":[[102.44630813598633,1.4116003389233356],[102.44647979736328,1.411257120334767],[102.4478530883789,1.4116003389233356]]}},{"type":"Feature","id":"pmtiles:8/200/127:transportation:305745390:58","properties":{"class":"primary","highway":"primary","kind":"road","verification":"verified","source":"OpenMapTiles/OpenStreetMap national PMTiles","sourceId":"8/200/127:transportation:305745390:58","sourceLayer":"transportation","archive":"https://its.hanifahseptiani45.workers.dev/v1/map/archive/indonesia.pmtiles","updatedAt":"2026-07-26T09:35:28.600Z"},"geometry":{"type":"LineString","coordinates":[[102.32013702392578,1.4280747713669228],[102.32013702392578,1.4239561742738118],[102.31773376464844,1.416405393837863],[102.31876373291016,1.412286775948445]]}}]}