{"type":"FeatureCollection","features":[{"type":"Feature","id":"pmtiles:10/882/518:water:2100:2","properties":{"class":"ocean","water":"ocean","kind":"waterway","verification":"verified","source":"OpenMapTiles/OpenStreetMap national PMTiles","sourceId":"10/882/518:water:2100:2","sourceLayer":"water","archive":"https://its.hanifahseptiani45.workers.dev/v1/map/archive/indonesia.pmtiles","updatedAt":"2026-07-26T09:42:49.806Z"},"geometry":{"type":"Polygon","coordinates":[[[130.4351806640625,-2.122193348279339],[130.4351806640625,-2.122622207316624],[130.4348373413086,-2.122707979109805],[130.43475151062012,-2.1225364355186827],[130.43509483337402,-2.122193348279339],[130.4351806640625,-2.122193348279339]]]}},{"type":"Feature","id":"pmtiles:10/883/518:water:2100:0","properties":{"class":"ocean","water":"ocean","kind":"waterway","verification":"verified","source":"OpenMapTiles/OpenStreetMap national PMTiles","sourceId":"10/883/518:water:2100:0","sourceLayer":"water","archive":"https://its.hanifahseptiani45.workers.dev/v1/map/archive/indonesia.pmtiles","updatedAt":"2026-07-26T09:42:49.873Z"},"geometry":{"type":"Polygon","coordinates":[[[130.4241943359375,-2.196555706527505],[130.4241943359375,-2.103409206077373],[130.7867431640625,-2.103409206077373],[130.7867431640625,-2.4656692707025485],[130.4241943359375,-2.4656692707025485],[130.4241943359375,-2.215252930777112],[130.4253101348877,-2.2150813976793557],[130.4274559020996,-2.2151671642307065],[130.42771339416504,-2.214909864561733],[130.42917251586914,-2.215252930777112],[130.43097496032715,-2.215252930777112],[130.43363571166992,-2.2156817634345742],[130.4340648651123,-2.216024829471138],[130.4351806640625,-2.2163678954282204],[130.4358673095703,-2.2162821289464034],[130.43766975402832,-2.2165394283769473],[130.4384422302246,-2.2163678954282204],[130.44015884399414,-2.2165394283769473],[130.44230461120605,-2.2172255599730732],[130.44264793395996,-2.217568625651836],[130.4443645477295,-2.2182547567707473],[130.44556617736816,-2.218340523138238],[130.4483127593994,-2.2192839528523223],[130.4495143890381,-2.2192839528523223],[130.45028686523438,-2.2186835885584486],[130.4508876800537,-2.2186835885584486],[130.45071601867676,-2.2184262895007407],[130.45037269592285,-2.218512055858284],[130.44994354248047,-2.217740158461396],[130.44994354248047,-2.217311326400221],[130.45045852661133,-2.217054027103856],[130.45174598693848,-2.2174828592395954],[130.4527759552002,-2.2168824942147722],[130.45475006103516,-2.214652564848066],[130.45475006103516,-2.213880665438978],[130.4550075531006,-2.213451832260219],[130.45483589172363,-2.213022998957399],[130.45406341552734,-2.212422632125083],[130.45303344726562,-2.2120795652546263],[130.4520034790039,-2.212336865414912],[130.45148849487305,-2.211479198040422],[130.4508876800537,-2.211479198040422],[130.45063018798828,-2.2112218977314058],[130.44977188110352,-2.2111361309518145],[130.44934272766113,-2.2107930637838678],[130.44771194458008,-2.210964597377753],[130.4465103149414,-2.210278462883281],[130.44453620910645,-2.2100211623660897],[130.44307708740234,-2.209592328071693],[130.44187545776367,-2.209935395517121],[130.44084548950195,-2.209763861804319],[130.44007301330566,-2.209077726754927],[130.43895721435547,-2.2087346591113857],[130.43818473815918,-2.2075339217351058],[130.43715476989746,-2.2075339217351058],[130.43638229370117,-2.206933552683182],[130.43432235717773,-2.2071908537351277],[130.43397903442383,-2.206933552683182],[130.43389320373535,-2.2063331833888356],[130.4326057434082,-2.207019319705452],[130.43217658996582,-2.206933552683182],[130.4319190979004,-2.206418950445709],[130.4311466217041,-2.20676201862382],[130.43063163757324,-2.2072766207425474],[130.4300308227539,-2.2065904845446624],[130.4296875,-2.2072766207425474],[130.42874336242676,-2.2076196887227297],[130.42805671691895,-2.2085631252599],[130.42685508728027,-2.208048523586612],[130.42556762695312,-2.208134290544521],[130.42462348937988,-2.2085631252599],[130.4241943359375,-2.208477358326718],[130.4241943359375,-2.202902497059256],[130.42436599731445,-2.202988264313845],[130.4249668121338,-2.202387893427982],[130.42539596557617,-2.201015616209034],[130.42582511901855,-2.200586779319025],[130.42548179626465,-2.199986407465815],[130.42539596557617,-2.1986998955380557],[130.42591094970703,-2.1978422203033716],[130.4256534576416,-2.1974133825012245],[130.4256534576416,-2.1968987769760986],[130.42522430419922,-2.196727241761664],[130.42462348937988,-2.197070312170851],[130.42436599731445,-2.1969845445759404],[130.4241943359375,-2.196555706527505]],[[130.6325912475586,-2.188236224055956],[130.6295871734619,-2.188321992152268],[130.6281280517578,-2.1884077602436918],[130.62752723693848,-2.189179672845526],[130.62692642211914,-2.190208889029577],[130.62623977661133,-2.1907234968564495],[130.62581062316895,-2.1914096403505994],[130.62443733215332,-2.1921815514056675],[130.6245231628418,-2.192438855002237],[130.62847137451172,-2.1910665686428246],[130.6285572052002,-2.190551960933803],[130.62941551208496,-2.1896942810259077],[130.6300163269043,-2.1896942810259077],[130.63061714172363,-2.190380424991517],[130.6311321258545,-2.190037353047998],[130.6318187713623,-2.1899515850498403],[130.63233375549316,-2.1895227449854104],[130.63207626342773,-2.189093904798284],[130.63276290893555,-2.1884935283301843],[130.6325912475586,-2.188236224055956]],[[130.5758571624756,-2.2542761911726785],[130.57637214660645,-2.254619248189826],[130.5762004852295,-2.255133833563903],[130.57645797729492,-2.255048069347538],[130.5765438079834,-2.255305361981513],[130.57714462280273,-2.254876540899616],[130.5776596069336,-2.2552195977752376],[130.57748794555664,-2.2545334839431064],[130.57791709899902,-2.254361955434547],[130.57843208312988,-2.254619248189826],[130.57843208312988,-2.254876540899616],[130.5786895751953,-2.255048069347538],[130.57971954345703,-2.254190426905751],[130.58186531066895,-2.2534185482760876],[130.58246612548828,-2.2524751405063768],[130.58289527893066,-2.2526466692372225],[130.5828094482422,-2.2535900768958186],[130.58444023132324,-2.2532470196361345],[130.58504104614258,-2.252732433595071],[130.58538436889648,-2.2528181979478745],[130.5915641784668,-2.2518747897893263],[130.59362411499023,-2.2517890253809725],[130.5941390991211,-2.252132082984062],[130.5970573425293,-2.252132082984062],[130.5992031097412,-2.2524751405063768],[130.59954643249512,-2.252732433595071],[130.59988975524902,-2.2526466692372225],[130.60023307800293,-2.253075490975988],[130.60057640075684,-2.2529039622956333],[130.60083389282227,-2.2531612553085836],[130.6010913848877,-2.252989726638333],[130.60194969177246,-2.2533327839586406],[130.60315132141113,-2.2534185482760876],[130.60315132141113,-2.2536758411981026],[130.60409545898438,-2.2535043125884755],[130.60452461242676,-2.2539331340746713],[130.60452461242676,-2.2545334839431064],[130.6051254272461,-2.254361955434547],[130.60521125793457,-2.2536758411981026],[130.60564041137695,-2.253847369787536],[130.60589790344238,-2.2535900768958186],[130.60632705688477,-2.254190426905751],[130.60684204101562,-2.254104662633779],[130.60684204101562,-2.2545334839431064],[130.60752868652344,-2.2545334839431064],[130.60778617858887,-2.254190426905751],[130.60778617858887,-2.2534185482760876],[130.60812950134277,-2.253075490975988],[130.61070442199707,-2.2531612553085836],[130.61267852783203,-2.252732433595071],[130.61473846435547,-2.253075490975988],[130.6149959564209,-2.2528181979478745],[130.61602592468262,-2.2526466692372225],[130.61705589294434,-2.2529039622956333],[130.6186866760254,-2.2528181979478745],[130.6190299987793,-2.2531612553085836],[130.61945915222168,-2.2531612553085836],[130.61954498291016,-2.2523893761333653],[130.6208324432373,-2.2517890253809725],[130.62314987182617,-2.2528181979478745],[130.6227207183838,-2.252132082984062],[130.6227207183838,-2.2516174965491444],[130.62289237976074,-2.251531732125656],[130.6219482421875,-2.2512744388249217],[130.62143325805664,-2.250759852087157],[130.61963081359863,-2.24947338444818],[130.61911582946777,-2.2487015033201203],[130.61894416809082,-2.24784385714338],[130.61842918395996,-2.248358444909897],[130.61654090881348,-2.2468146810661267],[130.61559677124023,-2.2468146810661267],[130.61542510986328,-2.2466431516494083],[130.61525344848633,-2.24690044576694],[130.61482429504395,-2.24690044576694],[130.614652633667,-2.24630009275549],[130.61362266540527,-2.246128563278333],[130.6131935119629,-2.2466431516494083],[130.61285018920898,-2.246728916360283],[130.61224937438965,-2.246042798532187],[130.6091594696045,-2.2452709155904103],[130.60684204101562,-2.24578550426358],[130.60443878173828,-2.244842091557686],[130.60023307800293,-2.244756326736038],[130.59954643249512,-2.244499032240924],[130.5992889404297,-2.244842091557686],[130.59903144836426,-2.244499032240924],[130.59825897216797,-2.244670561909359],[130.59748649597168,-2.244499032240924],[130.5970573425293,-2.244670561909359],[130.59645652770996,-2.244584797077664],[130.59645652770996,-2.244842091557686],[130.5937099456787,-2.2449278563742894],[130.5882167816162,-2.2458712690248035],[130.58692932128906,-2.2456997394972973],[130.58246612548828,-2.246128563278333],[130.5809211730957,-2.2458712690248035],[130.57954788208008,-2.246128563278333],[130.57757377624512,-2.2456997394972973],[130.57259559631348,-2.2452709155904103],[130.57276725769043,-2.2465573869334747],[130.5721664428711,-2.2490445616496686],[130.57225227355957,-2.2516174965491444],[130.57147979736328,-2.2534185482760876],[130.57208061218262,-2.2528181979478745],[130.57268142700195,-2.2528181979478745],[130.5732822418213,-2.2535900768958186],[130.57345390319824,-2.254619248189826],[130.5736255645752,-2.254104662633779],[130.5747413635254,-2.253075490975988],[130.5750846862793,-2.2549623051260994],[130.57525634765625,-2.2547050124314865],[130.57525634765625,-2.253847369787536],[130.57559967041016,-2.2535900768958186],[130.57594299316406,-2.2535900768958186],[130.5758571624756,-2.2542761911726785]],[[130.60555458068848,-2.2228003673899934],[130.60503959655762,-2.223057665685971],[130.60486793518066,-2.2232291978583874],[130.6051254272461,-2.2233149639371135],[130.60675621032715,-2.223572262143378],[130.60718536376953,-2.2234007300108516],[130.60830116271973,-2.2233149639371135],[130.6087303161621,-2.2228003673899934],[130.60941696166992,-2.2225430690491805],[130.60890197753906,-2.221856939921082],[130.60830116271973,-2.2223715367970414],[130.6080436706543,-2.2229718995923093],[130.607271194458,-2.222714601281382],[130.6065845489502,-2.2233149639371135],[130.60606956481934,-2.2233149639371135],[130.60598373413086,-2.223057665685971],[130.60555458068848,-2.2228003673899934]],[[130.60246467590332,-2.1768290236059613],[130.5996322631836,-2.177086329832619],[130.59954643249512,-2.1776009421541715],[130.59980392456055,-2.1778582482490236],[130.60083389282227,-2.17811555429995],[130.60134887695312,-2.178715934914507],[130.60349464416504,-2.1790590094439466],[130.60598373413086,-2.17863016626994],[130.60684204101562,-2.1782013229738197],[130.60701370239258,-2.1778582482490236],[130.60641288757324,-2.1764001797972554],[130.60675621032715,-2.1751994164839914],[130.60649871826172,-2.1744274967064143],[130.60606956481934,-2.1739986522149053],[130.60572624206543,-2.174170190026132],[130.60546875,-2.1736555765339745],[130.60495376586914,-2.1735698076015524],[130.60521125793457,-2.1752851853238013],[130.60349464416504,-2.1757140294496082],[130.6033229827881,-2.1762286422396073],[130.60246467590332,-2.1768290236059613]],[[130.5977439880371,-2.190294657012984],[130.59679985046387,-2.1898658170467655],[130.59611320495605,-2.1896085130081246],[130.59439659118652,-2.1896942810259077],[130.59165000915527,-2.1889223686890773],[130.58727264404297,-2.188750832560231],[130.58813095092773,-2.1896942810259077],[130.5882167816162,-2.1899515850498403],[130.58795928955078,-2.190294657012984],[130.5882167816162,-2.1907234968564495],[130.58916091918945,-2.1907234968564495],[130.58984756469727,-2.190380424991517],[130.59019088745117,-2.1904661929651184],[130.59019088745117,-2.190895032759471],[130.5896759033203,-2.1912381045065388],[130.58984756469727,-2.191838479874775],[130.58950424194336,-2.192438855002237],[130.58993339538574,-2.1927819263954973],[130.59036254882812,-2.1919242477648737],[130.59096336364746,-2.192267319276098],[130.59087753295898,-2.192696158554554],[130.59182167053223,-2.1928676942315377],[130.5919075012207,-2.1921815514056675],[130.592679977417,-2.19209578353032],[130.59285163879395,-2.1923530871416403],[130.5923366546631,-2.1928676942315377],[130.5923366546631,-2.1933823011444673],[130.59362411499023,-2.193296533337943],[130.59491157531738,-2.1941542111819103],[130.59568405151367,-2.1941542111819103],[130.59722900390625,-2.194754585380025],[130.5981731414795,-2.1945830499194443],[130.59860229492188,-2.194840353102933],[130.59954643249512,-2.1950976562421403],[130.60134887695312,-2.1945830499194443],[130.6017780303955,-2.194325746691689],[130.60194969177246,-2.194411514439196],[130.60194969177246,-2.194754585380025],[130.6021213531494,-2.1949261208209236],[130.60237884521484,-2.1949261208209236],[130.6025505065918,-2.1944972821817856],[130.60297966003418,-2.194840353102933],[130.60297966003418,-2.1945830499194443],[130.60358047485352,-2.1944972821817856],[130.6040096282959,-2.1942399789392653],[130.60409545898438,-2.194411514439196],[130.60392379760742,-2.194754585380025],[130.60426712036133,-2.1949261208209236],[130.60486793518066,-2.1941542111819103],[130.60555458068848,-2.194411514439196],[130.6047821044922,-2.1933823011444673],[130.6028938293457,-2.19209578353032],[130.59971809387207,-2.1904661929651184],[130.5977439880371,-2.190294657012984]],[[130.59911727905273,-2.2234007300108516],[130.60126304626465,-2.2234864960796017],[130.6028938293457,-2.223829560304779],[130.60418128967285,-2.2234864960796017],[130.60461044311523,-2.223057665685971],[130.60392379760742,-2.2225430690491805],[130.60358047485352,-2.222628835167768],[130.6022071838379,-2.222028472232992],[130.60194969177246,-2.222114238381465],[130.60152053833008,-2.221856939921082],[130.60049057006836,-2.2224573029255907],[130.5999755859375,-2.221856939921082],[130.59903144836426,-2.2215996414158496],[130.59834480285645,-2.2215996414158496],[130.59748649597168,-2.2211708104741916],[130.59679985046387,-2.221513875237477],[130.5959415435791,-2.221513875237477],[130.59439659118652,-2.221256576672488],[130.59422492980957,-2.221513875237477],[130.592679977417,-2.2215996414158496],[130.59242248535156,-2.221256576672488],[130.5922508239746,-2.221513875237477],[130.59104919433594,-2.2214281090541164],[130.59062004089355,-2.2210850442709216],[130.58924674987793,-2.2214281090541164],[130.5911350250244,-2.2223715367970414],[130.59534072875977,-2.223143431774673],[130.59722900390625,-2.2232291978583874],[130.59808731079102,-2.2228861334936454],[130.5985164642334,-2.2229718995923093],[130.59911727905273,-2.2234007300108516]],[[130.59946060180664,-2.173741345461522],[130.59911727905273,-2.1739128833019947],[130.59825897216797,-2.174513265590093],[130.59765815734863,-2.1745990344688977],[130.59654235839844,-2.1739986522149053],[130.59576988220215,-2.17408442112297],[130.59542655944824,-2.1742559589244337],[130.59542655944824,-2.1745990344688977],[130.5967140197754,-2.1753709541587085],[130.59731483459473,-2.1752851853238013],[130.59988975524902,-2.1743417278178754],[130.60006141662598,-2.1739128833019947],[130.59946060180664,-2.173741345461522]],[[130.58435440063477,-2.2209135118494316],[130.58538436889648,-2.221342342865796],[130.58847427368164,-2.221513875237477],[130.58778762817383,-2.2211708104741916],[130.58778762817383,-2.2209135118494316],[130.58598518371582,-2.2204846807086227],[130.58581352233887,-2.2201416157063534],[130.5849552154541,-2.220055849443355],[130.58375358581543,-2.220656213179879],[130.58349609375,-2.2205704469467378],[130.58323860168457,-2.2201416157063534],[130.58229446411133,-2.2199700831753546],[130.581693649292,-2.218855121238718],[130.58160781860352,-2.2190266538990784],[130.58177947998047,-2.219369719160099],[130.58152198791504,-2.2198843169023945],[130.58117866516113,-2.2197985506244464],[130.58109283447266,-2.220055849443355],[130.58066368103027,-2.220227381964392],[130.5827236175537,-2.2209992780626777],[130.58435440063477,-2.2209135118494316]],[[130.55834770202637,-2.244842091557686],[130.55843353271484,-2.2451851507939296],[130.55869102478027,-2.24638585748653],[130.55851936340332,-2.247157739839153],[130.5586051940918,-2.2474150338660195],[130.55920600891113,-2.2474150338660195],[130.55912017822266,-2.247157739839153],[130.5593776702881,-2.24690044576694],[130.55920600891113,-2.2464716222125247],[130.5592918395996,-2.2455282099496543],[130.559720993042,-2.245013621185862],[130.5592918395996,-2.2449278563742894],[130.55851936340332,-2.244499032240924],[130.55834770202637,-2.244842091557686]],[[130.54547309875488,-2.248101151049326],[130.5458164215088,-2.247929621783726],[130.5461597442627,-2.248358444909897],[130.54770469665527,-2.2493018553439015],[130.5494213104248,-2.2485299741250913],[130.55036544799805,-2.2490445616496686],[130.55105209350586,-2.2486157387251353],[130.5512237548828,-2.24784385714338],[130.55182456970215,-2.247329269195447],[130.55191040039062,-2.2468146810661267],[130.55242538452148,-2.2468146810661267],[130.55285453796387,-2.247672327847553],[130.55336952209473,-2.246728916360283],[130.55397033691406,-2.2466431516494083],[130.55431365966797,-2.2456997394972973],[130.55465698242188,-2.2454424451682655],[130.55560111999512,-2.245099385992418],[130.55663108825684,-2.246128563278333],[130.55706024169922,-2.2449278563742894],[130.55620193481445,-2.244842091557686],[130.5556869506836,-2.244499032240924],[130.55551528930664,-2.2436413835968096],[130.55431365966797,-2.2436413835968096],[130.55397033691406,-2.242869499387055],[130.55062294006348,-2.242183379747587],[130.54882049560547,-2.242183379747587],[130.54693222045898,-2.242955264319363],[130.5461597442627,-2.243727148483856],[130.54512977600098,-2.2472435045198154],[130.54452896118164,-2.2481869156745518],[130.54461479187012,-2.2487872679100605],[130.54487228393555,-2.2490445616496686],[130.5453872680664,-2.2490445616496686],[130.54555892944336,-2.24887303249497],[130.54547309875488,-2.248101151049326]],[[130.54821968078613,-2.2210850442709216],[130.54933547973633,-2.2214281090541164],[130.55027961730957,-2.2216854075892343],[130.55062294006348,-2.221342342865796],[130.55079460144043,-2.220656213179879],[130.55045127868652,-2.2204846807086227],[130.54933547973633,-2.22082774563124],[130.54864883422852,-2.2205704469467378],[130.54787635803223,-2.2191981865395434],[130.54736137390137,-2.2201416157063534],[130.5458164215088,-2.2201416157063534],[130.54555892944336,-2.2198843169023945],[130.54555892944336,-2.217911691251061],[130.54495811462402,-2.218340523138238],[130.54461479187012,-2.218083224020859],[130.54478645324707,-2.217740158461396],[130.54444313049316,-2.217568625651836],[130.54341316223145,-2.218168990398283],[130.5428981781006,-2.218769354901056],[130.5421257019043,-2.2184262895007407],[130.541353225708,-2.218940887571378],[130.54049491882324,-2.218940887571378],[130.54040908813477,-2.2186835885584486],[130.53972244262695,-2.2182547567707473],[130.53946495056152,-2.218769354901056],[130.53955078125,-2.2191981865395434],[130.5387783050537,-2.2197127843415387],[130.53860664367676,-2.219627018053643],[130.5384349822998,-2.2190266538990784],[130.53783416748047,-2.218940887571378],[130.5344009399414,-2.219627018053643],[130.53345680236816,-2.2194554854629303],[130.5319118499756,-2.219627018053643],[130.530366897583,-2.2199700831753546],[130.52976608276367,-2.2205704469467378],[130.52899360656738,-2.2204846807086227],[130.52865028381348,-2.2197127843415387],[130.5274486541748,-2.2204846807086227],[130.5264186859131,-2.2203131482174427],[130.52590370178223,-2.2199700831753546],[130.5248737335205,-2.2209992780626777],[130.52392959594727,-2.2209135118494316],[130.52332878112793,-2.2211708104741916],[130.5230712890625,-2.2217711737576593],[130.52247047424316,-2.2214281090541164],[130.52144050598145,-2.221256576672488],[130.52186965942383,-2.221856939921082],[130.52178382873535,-2.222114238381465],[130.52109718322754,-2.222114238381465],[130.51989555358887,-2.222628835167768],[130.519380569458,-2.2225430690491805],[130.5197238922119,-2.2232291978583874],[130.51955223083496,-2.223572262143378],[130.51817893981934,-2.2239153263486173],[130.51706314086914,-2.2239153263486173],[130.51654815673828,-2.2234864960796017],[130.51594734191895,-2.224001092387468],[130.51448822021484,-2.2245156885158224],[130.5138874053955,-2.224086858421316],[130.51337242126465,-2.2245156885158224],[130.5132007598877,-2.2251160504386576],[130.51302909851074,-2.2245156885158224],[130.5127716064453,-2.2244299225068858],[130.51251411437988,-2.2248587525016745],[130.5120849609375,-2.2245156885158224],[130.51182746887207,-2.2249445184856427],[130.51122665405273,-2.2246872205187174],[130.5106258392334,-2.2251160504386576],[130.51019668579102,-2.2246872205187174],[130.5095100402832,-2.2252875823717346],[130.5091667175293,-2.2250302844646512],[130.508394241333,-2.22520181640769],[130.50813674926758,-2.22477298651269],[130.50745010375977,-2.22477298651269],[130.50753593444824,-2.2257164121170803],[130.50650596618652,-2.226059475823547],[130.5062484741211,-2.225973709904423],[130.50607681274414,-2.2255448802339117],[130.50556182861328,-2.2258021780511825],[130.50539016723633,-2.2252875823717346],[130.50504684448242,-2.225373348330777],[130.5051326751709,-2.2262310076468452],[130.50461769104004,-2.22683136887116],[130.5043601989746,-2.2266598371177366],[130.5044460296631,-2.2262310076468452],[130.50418853759766,-2.225973709904423],[130.5036735534668,-2.2266598371177366],[130.50307273864746,-2.22683136887116],[130.50298690795898,-2.225973709904423],[130.50212860107422,-2.226145241737683],[130.50101280212402,-2.22477298651269],[130.50066947937012,-2.2251160504386576],[130.5007553100586,-2.2255448802339117],[130.5010986328125,-2.2254591142848454],[130.50195693969727,-2.227345964011576],[130.50264358520508,-2.2269171347403756],[130.50418853759766,-2.2288897483541206],[130.50521850585938,-2.229147045587183],[130.5051326751709,-2.22957587420899],[130.50470352172852,-2.229833171322099],[130.50470352172852,-2.2302619997439592],[130.5062484741211,-2.2303477654133417],[130.50787925720215,-2.230690828040835],[130.50830841064453,-2.230433531077722],[130.5088233947754,-2.2306050623914615],[130.50942420959473,-2.2301762340695888],[130.51088333129883,-2.229918937016464],[130.51088333129883,-2.2296616399183478],[130.51054000854492,-2.2297474056227173],[130.51011085510254,-2.22931857705089],[130.51011085510254,-2.2287182168404343],[130.51105499267578,-2.227603261514375],[130.51148414611816,-2.227517495685106],[130.5128574371338,-2.2287182168404343],[130.5127716064453,-2.2289755141034675],[130.51182746887207,-2.22931857705089],[130.51165580749512,-2.2296616399183478],[130.5124282836914,-2.230433531077722],[130.5120849609375,-2.2308623593245756],[130.5120849609375,-2.231119656212684],[130.51294326782227,-2.2312054218320583],[130.51328659057617,-2.2307765936852064],[130.51311492919922,-2.230433531077722],[130.51345825195312,-2.2302619997439592],[130.51414489746094,-2.2310338905883214],[130.51517486572266,-2.2312911874464163],[130.515775680542,-2.231119656212684],[130.51620483398438,-2.231376953055772],[130.5179214477539,-2.2312054218320583],[130.5186939239502,-2.23146271866014],[130.51955223083496,-2.231119656212684],[130.52109718322754,-2.2315484842594913],[130.52144050598145,-2.231376953055772],[130.52186965942383,-2.2309481249589567],[130.52590370178223,-2.229918937016464],[130.52830696105957,-2.228375153753106],[130.53302764892578,-2.2279463247815414],[130.5344009399414,-2.227431729850835],[130.53525924682617,-2.226488305344347],[130.53594589233398,-2.2263167735510194],[130.5374050140381,-2.22683136887116],[130.53766250610352,-2.226574071233543],[130.53757667541504,-2.226059475823547],[130.53791999816895,-2.2255448802339117],[130.5403232574463,-2.2244299225068858],[130.54126739501953,-2.223829560304779],[130.54203987121582,-2.223572262143378],[130.54255485534668,-2.2232291978583874],[130.54375648498535,-2.2229718995923093],[130.54495811462402,-2.2217711737576593],[130.54564476013184,-2.221342342865796],[130.54821968078613,-2.2210850442709216]],[[130.53242683410645,-2.233178029696532],[130.5322551727295,-2.232920733168683],[130.53234100341797,-2.2326634365958],[130.53277015686035,-2.2326634365958],[130.53268432617188,-2.2324061399778827],[130.53122520446777,-2.232148843314903],[130.530366897583,-2.2324061399778827],[130.5292510986328,-2.2332637951957963],[130.5293369293213,-2.233435326179304],[130.53199768066406,-2.233349560690044],[130.53242683410645,-2.233178029696532]],[[130.4867649078369,-2.1337725004554784],[130.48547744750977,-2.133257873317774],[130.48470497131348,-2.132743246007877],[130.4838466644287,-2.1326574747728273],[130.4798126220703,-2.1339440427964433],[130.47929763793945,-2.133429415716151],[130.47895431518555,-2.1325717035329887],[130.47783851623535,-2.1328290172381514],[130.4768943786621,-2.13231438978481],[130.47517776489258,-2.1328290172381514],[130.4736328125,-2.1325717035329887],[130.4728603363037,-2.1318855334422153],[130.4729461669922,-2.1308562777325193],[130.47268867492676,-2.1306847350473532],[130.47165870666504,-2.1312851343618604],[130.47054290771484,-2.1312851343618604],[130.46942710876465,-2.1307705063923237],[130.46762466430664,-2.131456676980136],[130.4673671722412,-2.1311993630455532],[130.46762466430664,-2.1303416496196803],[130.46582221984863,-2.129055078585367],[130.46539306640625,-2.1281115924775804],[130.4652214050293,-2.128283135449223],[130.46496391296387,-2.129398164299559],[130.46453475952148,-2.1298270213348616],[130.4641056060791,-2.129912792727609],[130.46273231506348,-2.1287119927948055],[130.46024322509766,-2.127082334247021],[130.45766830444336,-2.1264819332953806],[130.45509338378906,-2.125538445613671],[130.45483589172363,-2.124938044061423],[130.45517921447754,-2.124080327153294],[130.4545783996582,-2.1236514685206345],[130.4542350769043,-2.123908783714512],[130.45432090759277,-2.124766500717911],[130.45397758483887,-2.1248522723920615],[130.45329093933105,-2.1246807290389995],[130.4520034790039,-2.1237372402566876],[130.4513168334961,-2.123479925034232],[130.45002937316895,-2.124080327153294],[130.4509735107422,-2.125452673977648],[130.4527759552002,-2.125709988871421],[130.4531192779541,-2.126053075329736],[130.45320510864258,-2.1266534764482543],[130.45208930969238,-2.1268250195820713],[130.45123100280762,-2.1274254204002006],[130.45148849487305,-2.1277685064770537],[130.4523468017578,-2.1275111919265584],[130.45260429382324,-2.1278542779843406],[130.45251846313477,-2.129055078585367],[130.4531192779541,-2.1291408500210736],[130.45363426208496,-2.1297412499373536],[130.4545783996582,-2.129912792727609],[130.4549217224121,-2.1301701068771735],[130.45509338378906,-2.1313709056733785],[130.45543670654297,-2.1319713047202953],[130.4564666748047,-2.1315424482821044],[130.45672416687012,-2.129398164299559],[130.45732498168945,-2.1284546784017664],[130.45775413513184,-2.1283689069278893],[130.45809745788574,-2.1286262213352245],[130.45809745788574,-2.129055078585367],[130.45801162719727,-2.132057075993586],[130.4586124420166,-2.132914788463637],[130.46170234680176,-2.133429415716151],[130.46324729919434,-2.1351448386472924],[130.46367645263672,-2.135230609743587],[130.46530723571777,-2.1348017542141946],[130.4659938812256,-2.1348875253296598],[130.46659469604492,-2.135316380835107],[130.46728134155273,-2.1360883204433208],[130.4689121246338,-2.1362598625258045],[130.47045707702637,-2.1360883204433208],[130.47131538391113,-2.13634563355987],[130.47534942626953,-2.1391760749956035],[130.4787826538086,-2.139690700150254],[130.4805850982666,-2.1388329914632322],[130.48333168029785,-2.1392618458666988],[130.48470497131348,-2.1387472205681632],[130.48504829406738,-2.1388329914632322],[130.48504829406738,-2.139519158451222],[130.48556327819824,-2.1397764709925724],[130.48882484436035,-2.140033783490736],[130.49036979675293,-2.140634179151874],[130.4915714263916,-2.1398622418300874],[130.49260139465332,-2.1399480126628134],[130.49354553222656,-2.1397764709925724],[130.4948329925537,-2.1402910959457273],[130.4949188232422,-2.1408057207261493],[130.4944896697998,-2.141148803817117],[130.49406051635742,-2.141063033051566],[130.49354553222656,-2.1409772622812255],[130.49285888671875,-2.1403768667544654],[130.4926872253418,-2.141234574577851],[130.493803024292,-2.141491886831261],[130.49543380737305,-2.141491886831261],[130.49654960632324,-2.141148803817117],[130.49723625183105,-2.141148803817117],[130.49792289733887,-2.1413203453337815],[130.49826622009277,-2.1419207404909173],[130.49878120422363,-2.1418349697685812],[130.49938201904297,-2.141234574577851],[130.4992961883545,-2.1396049293031325],[130.50049781799316,-2.139433387594508],[130.49972534179688,-2.139090304119705],[130.49860954284668,-2.1390045332390173],[130.4970645904541,-2.1397764709925724],[130.49654960632324,-2.139519158451222],[130.49569129943848,-2.138404136939897],[130.49569129943848,-2.1389187623535264],[130.49457550048828,-2.1392618458666988],[130.49200057983398,-2.138404136939897],[130.49002647399902,-2.1385756787636154],[130.48925399780273,-2.1379752822966935],[130.48813819885254,-2.137717969453263],[130.48770904541016,-2.137374885594909],[130.486421585083,-2.137374885594909],[130.48479080200195,-2.1369460306641486],[130.48410415649414,-2.1362598625258045],[130.4831600189209,-2.135916778341681],[130.48367500305176,-2.135402151921852],[130.4838466644287,-2.1347159830939546],[130.484619140625,-2.1343728985651325],[130.48479080200195,-2.1343728985651325],[130.48487663269043,-2.1348017542141946],[130.4853916168213,-2.1346302119689256],[130.48590660095215,-2.1348875253296598],[130.48736572265625,-2.1350590675462087],[130.4901123046875,-2.1348017542141946],[130.49148559570312,-2.1358310072836844],[130.49277305603027,-2.135916778341681],[130.4933738708496,-2.135316380835107],[130.49466133117676,-2.1348875253296598],[130.49586296081543,-2.1335151869081415],[130.49543380737305,-2.1330005596843478],[130.4934597015381,-2.1331721021114163],[130.4923439025879,-2.1337725004554784],[130.49105644226074,-2.1340298139597564],[130.4867649078369,-2.1337725004554784]],[[130.48556327819824,-2.157359392095742],[130.4857349395752,-2.1576167016312553],[130.48590660095215,-2.1578740111232406],[130.48624992370605,-2.157359392095742],[130.48667907714844,-2.15753093179093],[130.4875373840332,-2.1583886299765425],[130.4875373840332,-2.1577024714667488],[130.4879665374756,-2.157359392095742],[130.4893398284912,-2.1570163126473574],[130.48968315124512,-2.156158613687907],[130.4901123046875,-2.1562443836056104],[130.4901123046875,-2.1566732331215945],[130.49036979675293,-2.1569305427731678],[130.4904556274414,-2.155729764026873],[130.49019813537598,-2.155472454172269],[130.48951148986816,-2.155472454172269],[130.48848152160645,-2.155043604317939],[130.4883098602295,-2.1553866842110665],[130.4875373840332,-2.1553866842110665],[130.4871940612793,-2.1556439940801795],[130.4871940612793,-2.156158613687907],[130.4879665374756,-2.156587463228064],[130.48770904541016,-2.156587463228064],[130.48770904541016,-2.1567590030102934],[130.48710823059082,-2.1567590030102934],[130.48659324645996,-2.1570163126473574],[130.4860782623291,-2.1567590030102934],[130.48556327819824,-2.157359392095742]],[[130.4860782623291,-2.2228861334936454],[130.48599243164062,-2.224258390474091],[130.48616409301758,-2.2248587525016745],[130.4868507385254,-2.22520181640769],[130.48710823059082,-2.225973709904423],[130.48762321472168,-2.2251160504386576],[130.48736572265625,-2.2245156885158224],[130.48762321472168,-2.223829560304779],[130.4883098602295,-2.223658028202152],[130.48882484436035,-2.2239153263486173],[130.4886531829834,-2.2250302844646512],[130.48916816711426,-2.2249445184856427],[130.48951148986816,-2.223572262143378],[130.48916816711426,-2.223829560304779],[130.4878807067871,-2.223143431774673],[130.48710823059082,-2.2233149639371135],[130.48667907714844,-2.222628835167768],[130.4867649078369,-2.2217711737576593],[130.486421585083,-2.222628835167768],[130.4860782623291,-2.2228861334936454]],[[130.4842758178711,-2.144493859926868],[130.4831600189209,-2.144751171632535],[130.48049926757812,-2.1451800243791865],[130.47998428344727,-2.145951959020124],[130.48007011413574,-2.1462092704805116],[130.48049926757812,-2.1461234999985237],[130.48067092895508,-2.145866188523698],[130.48264503479004,-2.145437335969447],[130.4835033416748,-2.145523106489918],[130.48376083374023,-2.145866188523698],[130.48504829406738,-2.145866188523698],[130.48582077026367,-2.1461234999985237],[130.48564910888672,-2.1448369421915032],[130.48513412475586,-2.144751171632535],[130.48513412475586,-2.144408089348687],[130.48479080200195,-2.1442365481779007],[130.4849624633789,-2.144065006987887],[130.48436164855957,-2.144065006987887],[130.4842758178711,-2.144493859926868]],[[130.46573638916016,-2.2225430690491805],[130.4659080505371,-2.222714601281382],[130.4655647277832,-2.2232291978583874],[130.46728134155273,-2.2237437942559666],[130.46676635742188,-2.223057665685971],[130.46685218811035,-2.2228861334936454],[130.46728134155273,-2.223143431774673],[130.46805381774902,-2.2232291978583874],[130.46977043151855,-2.222714601281382],[130.4699420928955,-2.2246872205187174],[130.47114372253418,-2.2237437942559666],[130.47191619873047,-2.2245156885158224],[130.47234535217285,-2.224601454519771],[130.47320365905762,-2.2254591142848454],[130.47303199768066,-2.224601454519771],[130.47346115112305,-2.2241726244501905],[130.47423362731934,-2.22563064617799],[130.47457695007324,-2.2257164121170803],[130.4750919342041,-2.2244299225068858],[130.47534942626953,-2.224601454519771],[130.475435256958,-2.2255448802339117],[130.4757785797119,-2.2257164121170803],[130.47569274902344,-2.2251160504386576],[130.4765510559082,-2.2244299225068858],[130.4773235321045,-2.2244299225068858],[130.47783851623535,-2.2241726244501905],[130.47809600830078,-2.2244299225068858],[130.47749519348145,-2.2258879439802968],[130.47852516174316,-2.226059475823547],[130.47869682312012,-2.2257164121170803],[130.4791259765625,-2.22563064617799],[130.47938346862793,-2.2258879439802968],[130.47921180725098,-2.2263167735510194],[130.482816696167,-2.22683136887116],[130.48358917236328,-2.226488305344347],[130.4839324951172,-2.2267456029969424],[130.48418998718262,-2.225973709904423],[130.48453330993652,-2.2257164121170803],[130.48513412475586,-2.2243441564929896],[130.48513412475586,-2.2234864960796017],[130.48564910888672,-2.2229718995923093],[130.48479080200195,-2.2223715367970414],[130.4853057861328,-2.2216854075892343],[130.48521995544434,-2.2199700831753546],[130.484619140625,-2.2199700831753546],[130.4849624633789,-2.221342342865796],[130.484619140625,-2.2216854075892343],[130.48436164855957,-2.221513875237477],[130.48436164855957,-2.2209135118494316],[130.48376083374023,-2.22082774563124],[130.48333168029785,-2.2203989144655196],[130.48273086547852,-2.2192839528523223],[130.48049926757812,-2.2210850442709216],[130.4802417755127,-2.22082774563124],[130.48049926757812,-2.219627018053643],[130.47929763793945,-2.2197985506244464],[130.4791259765625,-2.2190266538990784],[130.47869682312012,-2.2191981865395434],[130.4784393310547,-2.219627018053643],[130.4783535003662,-2.2191981865395434],[130.4780101776123,-2.2191124202217907],[130.47783851623535,-2.219369719160099],[130.47818183898926,-2.2199700831753546],[130.47775268554688,-2.2210850442709216],[130.47749519348145,-2.221256576672488],[130.4769802093506,-2.2205704469467378],[130.47706604003906,-2.219369719160099],[130.47612190246582,-2.218940887571378],[130.47457695007324,-2.218512055858284],[130.47483444213867,-2.2195412517607878],[130.4747486114502,-2.2197127843415387],[130.4736328125,-2.2191124202217907],[130.47243118286133,-2.219369719160099],[130.47234535217285,-2.218855121238718],[130.47191619873047,-2.218168990398283],[130.47114372253418,-2.218512055858284],[130.4702854156494,-2.218597822210853],[130.47002792358398,-2.218340523138238],[130.47019958496094,-2.2178259248587153],[130.4695987701416,-2.217740158461396],[130.46908378601074,-2.218083224020859],[130.46874046325684,-2.2179974576384467],[130.46796798706055,-2.2182547567707473],[130.46685218811035,-2.2182547567707473],[130.46650886535645,-2.218597822210853],[130.46607971191406,-2.2182547567707473],[130.4659080505371,-2.218340523138238],[130.46582221984863,-2.218855121238718],[130.4652214050293,-2.2199700831753546],[130.46539306640625,-2.2205704469467378],[130.46607971191406,-2.2214281090541164],[130.46607971191406,-2.221942706079517],[130.46573638916016,-2.2225430690491805]],[[130.47045707702637,-2.146723893271357],[130.4729461669922,-2.1464665818975845],[130.47354698181152,-2.146723893271357],[130.47560691833496,-2.1464665818975845],[130.47637939453125,-2.1462950409576678],[130.47680854797363,-2.145694647516436],[130.47715187072754,-2.1456088770055857],[130.47646522521973,-2.1448369421915032],[130.47560691833496,-2.144493859926868],[130.47483444213867,-2.143378842035588],[130.47457695007324,-2.1435503833024967],[130.47406196594238,-2.144751171632535],[130.47346115112305,-2.1450084832949585],[130.47234535217285,-2.1448369421915032],[130.4714012145996,-2.1450084832949585],[130.47088623046875,-2.1443223187657026],[130.47088623046875,-2.143636153928753],[130.4707145690918,-2.143464612671451],[130.46942710876465,-2.143636153928753],[130.46805381774902,-2.1442365481779007],[130.4674530029297,-2.143378842035588],[130.46676635742188,-2.1432073007494523],[130.46573638916016,-2.143464612671451],[130.46496391296387,-2.1443223187657026],[130.46401977539062,-2.144751171632535],[130.46101570129395,-2.1441507775852955],[130.45844078063965,-2.1441507775852955],[130.45732498168945,-2.144493859926868],[130.4571533203125,-2.144065006987887],[130.45595169067383,-2.1443223187657026],[130.45552253723145,-2.1450084832949585],[130.45578002929688,-2.145094253839474],[130.45612335205078,-2.144493859926868],[130.45689582824707,-2.144493859926868],[130.45741081237793,-2.145437335969447],[130.45741081237793,-2.1469812046018006],[130.4593849182129,-2.1466381228182314],[130.4605007171631,-2.1461234999985237],[130.46178817749023,-2.1469812046018006],[130.46247482299805,-2.146380811430035],[130.46324729919434,-2.1469812046018006],[130.46419143676758,-2.1466381228182314],[130.46530723571777,-2.147324286308333],[130.46693801879883,-2.1470669750356564],[130.4674530029297,-2.1472385158889296],[130.46874046325684,-2.1471527454646946],[130.47045707702637,-2.146723893271357]],[[130.46015739440918,-2.1733125007750687],[130.45981407165527,-2.172883655966814],[130.46127319335938,-2.1715971208113842],[130.46204566955566,-2.1716828898558447],[130.46213150024414,-2.1722832730306436],[130.4619598388672,-2.172797886990537],[130.46144485473633,-2.172883655966814],[130.46135902404785,-2.1732267318231635],[130.4623031616211,-2.1727121180094002],[130.46290397644043,-2.172797886990537],[130.4629898071289,-2.172197504020275],[130.4634189605713,-2.17194019695998],[130.4633331298828,-2.1711682755161235],[130.46393394470215,-2.170739430099175],[130.46393394470215,-2.1696244314457402],[130.46367645263672,-2.1692813547715843],[130.46393394470215,-2.168938278019624],[130.46453475952148,-2.168766739614469],[130.46496391296387,-2.169538662284495],[130.4655647277832,-2.1698817389002727],[130.4663372039795,-2.1690240472149043],[130.46753883361816,-2.168680970404594],[130.46788215637207,-2.1679948165506033],[130.46874046325684,-2.168680970404594],[130.46934127807617,-2.1668798158744096],[130.46985626220703,-2.1667940465576407],[130.46951293945312,-2.1657648143772406],[130.47019958496094,-2.1661078918484122],[130.47054290771484,-2.1660221224879024],[130.47080039978027,-2.1657648143772406],[130.4714012145996,-2.1658505837523165],[130.47165870666504,-2.1656790449973045],[130.47165870666504,-2.164821350931007],[130.471830368042,-2.164735581497652],[130.4728603363037,-2.1655075062228804],[130.47268867492676,-2.1661078918484122],[130.47234535217285,-2.1660221224879024],[130.4721736907959,-2.166193661204062],[130.47225952148438,-2.167137123795655],[130.47208786010742,-2.1673086623855227],[130.4725170135498,-2.1673944316731593],[130.47303199768066,-2.166965585186361],[130.47337532043457,-2.1673944316731593],[130.47346115112305,-2.166965585186361],[130.47320365905762,-2.1667082772359834],[130.4739761352539,-2.1662794305548516],[130.4743194580078,-2.165164428615782],[130.47389030456543,-2.164821350931007],[130.47303199768066,-2.164821350931007],[130.47277450561523,-2.164564042616462],[130.47234535217285,-2.1644782731685552],[130.47277450561523,-2.1636205784228224],[130.47268867492676,-2.163363269904494],[130.47174453735352,-2.1631059613425236],[130.4710578918457,-2.1637063479192165],[130.47088623046875,-2.1631917308680215],[130.47097206115723,-2.1628486527368977],[130.4714012145996,-2.1630201918121514],[130.47243118286133,-2.162419804963875],[130.47243118286133,-2.1614763394366605],[130.4703712463379,-2.161905187476293],[130.46968460083008,-2.162248265820736],[130.46865463256836,-2.161905187476293],[130.46753883361816,-2.1623340353947356],[130.46582221984863,-2.163792117410779],[130.46573638916016,-2.16464981205948],[130.4655647277832,-2.164907120359473],[130.4663372039795,-2.1655075062228804],[130.46565055847168,-2.1660221224879024],[130.4659938812256,-2.1662794305548516],[130.46650886535645,-2.1660221224879024],[130.46650886535645,-2.1665367385781025],[130.46685218811035,-2.167051354493424],[130.46659469604492,-2.1673086623855227],[130.4666805267334,-2.167651739506937],[130.46650886535645,-2.1679090472969733],[130.46496391296387,-2.168423662745809],[130.46453475952148,-2.1681663550432546],[130.464448928833,-2.1662794305548516],[130.4647922515869,-2.1657648143772406],[130.46496391296387,-2.1650786592018676],[130.46290397644043,-2.1661078918484122],[130.46281814575195,-2.166450969241879],[130.46316146850586,-2.166622507909466],[130.4629898071289,-2.1673086623855227],[130.46324729919434,-2.1675659702338805],[130.462646484375,-2.1681663550432546],[130.46359062194824,-2.1683378935164797],[130.46316146850586,-2.1691098164053244],[130.4634189605713,-2.1694528931183896],[130.46273231506348,-2.169710200602111],[130.46256065368652,-2.1701390463110357],[130.4618740081787,-2.1701390463110357],[130.46178817749023,-2.1711682755161235],[130.45998573303223,-2.171254044584913],[130.46015739440918,-2.170739430099175],[130.460844039917,-2.1703105845605393],[130.46015739440918,-2.1698817389002727],[130.4600715637207,-2.1692813547715843],[130.45955657958984,-2.168766739614469],[130.46015739440918,-2.168423662745809],[130.46067237854004,-2.168595201189845],[130.4604148864746,-2.169367123947424],[130.4611873626709,-2.169795969753622],[130.46178817749023,-2.1690240472149043],[130.46161651611328,-2.168595201189845],[130.46092987060547,-2.1685094319702642],[130.46067237854004,-2.1679948165506033],[130.45981407165527,-2.167651739506937],[130.45878410339355,-2.1685094319702642],[130.45869827270508,-2.168766739614469],[130.45801162719727,-2.1690240472149043],[130.45758247375488,-2.168766739614469],[130.45672416687012,-2.1692813547715843],[130.4550075531006,-2.169795969753622],[130.4527759552002,-2.170910968280552],[130.45208930969238,-2.170910968280552],[130.45217514038086,-2.171254044584913],[130.45251846313477,-2.171254044584913],[130.45251846313477,-2.1716828898558447],[130.4523468017578,-2.1718544279301284],[130.45174598693848,-2.172025965984929],[130.45157432556152,-2.1725405800325177],[130.45226097106934,-2.173140962866384],[130.4527759552002,-2.172883655966814],[130.45294761657715,-2.172197504020275],[130.45320510864258,-2.172025965984929],[130.4542350769043,-2.1724548110367436],[130.45595169067383,-2.1724548110367436],[130.45612335205078,-2.17194019695998],[130.45586585998535,-2.171511351762078],[130.4560375213623,-2.171425582707883],[130.4564666748047,-2.1717686588954166],[130.45758247375488,-2.1722832730306436],[130.4578399658203,-2.1721117350050463],[130.4579257965088,-2.171511351762078],[130.45809745788574,-2.171339813648828],[130.45886993408203,-2.1716828898558447],[130.45844078063965,-2.1721117350050463],[130.4579257965088,-2.172197504020275],[130.4582691192627,-2.1727121180094002],[130.45801162719727,-2.172969424938202],[130.45869827270508,-2.1732267318231635],[130.4592990875244,-2.1730551939047302],[130.4592990875244,-2.173741345461522],[130.45981407165527,-2.17408442112297],[130.46024322509766,-2.173741345461522],[130.46015739440918,-2.1733125007750687]],[[130.46676635742188,-2.1608759519776726],[130.4655647277832,-2.161390569814202],[130.46530723571777,-2.1615621090542874],[130.4652214050293,-2.1620767266582135],[130.46642303466797,-2.1625055745281827],[130.4674530029297,-2.161905187476293],[130.4674530029297,-2.1614763394366605],[130.46805381774902,-2.1613048001868975],[130.4681396484375,-2.160532873323092],[130.46728134155273,-2.1609617216292065],[130.46676635742188,-2.1608759519776726]],[[130.45904159545898,-2.221942706079517],[130.46032905578613,-2.2222000045249786],[130.46256065368652,-2.2223715367970414],[130.46256065368652,-2.221942706079517],[130.46204566955566,-2.2215996414158496],[130.46256065368652,-2.221513875237477],[130.46247482299805,-2.2209992780626777],[130.46470642089844,-2.2198843169023945],[130.4648780822754,-2.218855121238718],[130.4655647277832,-2.2179974576384467],[130.46539306640625,-2.216625194843843],[130.46496391296387,-2.215510230386471],[130.46367645263672,-2.216110595967862],[130.46307563781738,-2.215510230386471],[130.46238899230957,-2.2151671642307065],[130.4623031616211,-2.215424463854987],[130.46273231506348,-2.2158532964627824],[130.46273231506348,-2.2162821289464034],[130.46213150024414,-2.217311326400221],[130.46144485473633,-2.2174828592395954],[130.4611873626709,-2.216024829471138],[130.4605007171631,-2.214995631123017],[130.4605007171631,-2.213880665438978],[130.46015739440918,-2.2143094984936766],[130.45981407165527,-2.2143952650897205],[130.45904159545898,-2.214137965286696],[130.45886993408203,-2.2147383314242575],[130.45818328857422,-2.214824097995475],[130.45775413513184,-2.2147383314242575],[130.45766830444336,-2.214137965286696],[130.45732498168945,-2.2137948988131484],[130.45698165893555,-2.214909864561733],[130.4563808441162,-2.214909864561733],[130.4556941986084,-2.2151671642307065],[130.45543670654297,-2.214995631123017],[130.4545783996582,-2.2158532964627824],[130.45466423034668,-2.2163678954282204],[130.45432090759277,-2.216625194843843],[130.4545783996582,-2.2167967277627554],[130.45483589172363,-2.217740158461396],[130.45517921447754,-2.218168990398283],[130.45552253723145,-2.217911691251061],[130.45612335205078,-2.218940887571378],[130.45586585998535,-2.219369719160099],[130.45543670654297,-2.219369719160099],[130.45509338378906,-2.2190266538990784],[130.4549217224121,-2.2192839528523223],[130.45612335205078,-2.220656213179879],[130.4563808441162,-2.2203989144655196],[130.4571533203125,-2.2205704469467378],[130.45723915100098,-2.2203989144655196],[130.45655250549316,-2.2194554854629303],[130.45663833618164,-2.2190266538990784],[130.45706748962402,-2.218940887571378],[130.45741081237793,-2.2192839528523223],[130.45741081237793,-2.2198843169023945],[130.4578399658203,-2.220227381964392],[130.45775413513184,-2.220656213179879],[130.4574966430664,-2.2207419794080465],[130.45904159545898,-2.221942706079517]],[[130.45578002929688,-2.173741345461522],[130.45543670654297,-2.1733125007750687],[130.45517921447754,-2.173140962866384],[130.45483589172363,-2.1732267318231635],[130.4545783996582,-2.1727121180094002],[130.4542350769043,-2.172797886990537],[130.45337677001953,-2.1736555765339745],[130.45260429382324,-2.1738271143841956],[130.45251846313477,-2.1747705722118837],[130.45217514038086,-2.175542491813914],[130.45286178588867,-2.1753709541587085],[130.45269012451172,-2.1748563410760653],[130.453462600708,-2.175027878789777],[130.45329093933105,-2.1754567229887556],[130.4538917541504,-2.1753709541587085],[130.4538917541504,-2.1747705722118837],[130.45432090759277,-2.1739986522149053],[130.4545783996582,-2.17408442112297],[130.45483589172363,-2.1738271143841956],[130.45526504516602,-2.17408442112297],[130.45578002929688,-2.173741345461522]],[[130.4472827911377,-2.171425582707883],[130.44599533081055,-2.1718544279301284],[130.4453945159912,-2.172025965984929],[130.4447078704834,-2.1727121180094002],[130.44487953186035,-2.1733125007750687],[130.44573783874512,-2.1735698076015524],[130.44573783874512,-2.1743417278178754],[130.44719696044922,-2.17408442112297],[130.4476261138916,-2.1732267318231635],[130.44805526733398,-2.1733982697220995],[130.44814109802246,-2.1735698076015524],[130.44865608215332,-2.17348403866427],[130.44925689697266,-2.1739986522149053],[130.44960021972656,-2.17348403866427],[130.44960021972656,-2.172969424938202],[130.44917106628418,-2.172626349023389],[130.44805526733398,-2.1724548110367436],[130.44805526733398,-2.172197504020275],[130.4483985900879,-2.172025965984929],[130.4490852355957,-2.1722832730306436],[130.44994354248047,-2.1715971208113842],[130.44994354248047,-2.171254044584913],[130.4505443572998,-2.1715971208113842],[130.45063018798828,-2.1711682755161235],[130.45045852661133,-2.17099673736395],[130.449857711792,-2.17099673736395],[130.44917106628418,-2.171254044584913],[130.44917106628418,-2.1715971208113842],[130.44865608215332,-2.171425582707883],[130.4472827911377,-2.171425582707883]],[[130.44161796569824,-2.1284546784017664],[130.4414463043213,-2.1281115924775804],[130.44127464294434,-2.128283135449223],[130.4413604736328,-2.1287977642495974],[130.44350624084473,-2.1294839357161663],[130.4440212249756,-2.1294839357161663],[130.44453620910645,-2.129055078585367],[130.4450511932373,-2.1296554785350708],[130.4454803466797,-2.1297412499373536],[130.44599533081055,-2.1294839357161663],[130.44719696044922,-2.1297412499373536],[130.44779777526855,-2.1296554785350708],[130.44771194458008,-2.129398164299559],[130.4472827911377,-2.1292266214520197],[130.44702529907227,-2.1287977642495974],[130.44702529907227,-2.1281115924775804],[130.4468536376953,-2.127682734964992],[130.4453945159912,-2.126567704874205],[130.44376373291016,-2.1264819332953806],[130.44350624084473,-2.1269107911418246],[130.4439353942871,-2.127682734964992],[130.44384956359863,-2.1281115924775804],[130.44307708740234,-2.1277685064770537],[130.44196128845215,-2.1277685064770537],[130.44161796569824,-2.1284546784017664]],[[130.43912887573242,-2.1252811306912918],[130.4392147064209,-2.125709988871421],[130.43878555297852,-2.1269107911418246],[130.438871383667,-2.127253877333146],[130.43981552124023,-2.1274254204002006],[130.44024467468262,-2.1269965626968173],[130.44058799743652,-2.1275969634481697],[130.44110298156738,-2.1277685064770537],[130.44350624084473,-2.125709988871421],[130.4440212249756,-2.1246807290389995],[130.44384956359863,-2.124509185666909],[130.4432487487793,-2.1245949573553418],[130.44299125671387,-2.1250238157260384],[130.44256210327148,-2.1250238157260384],[130.442476272583,-2.1246807290389995],[130.44204711914062,-2.1244234139737017],[130.44204711914062,-2.1239945554362833],[130.4417896270752,-2.1236514685206345],[130.44118881225586,-2.124337642275748],[130.44204711914062,-2.1252811306912918],[130.44187545776367,-2.125538445613671],[130.4413604736328,-2.12536690233685],[130.44015884399414,-2.125881532110114],[130.43972969055176,-2.1257957604931477],[130.43964385986328,-2.12536690233685],[130.4399871826172,-2.1250238157260384],[130.4410171508789,-2.124766500717911],[130.4403305053711,-2.124337642275748],[130.44024467468262,-2.1239945554362833],[130.43964385986328,-2.12382301198798],[130.43930053710938,-2.124080327153294],[130.43972969055176,-2.1246807290389995],[130.43912887573242,-2.1252811306912918]],[[130.43861389160156,-2.1742559589244337],[130.438871383667,-2.1739128833019947],[130.43912887573242,-2.17408442112297],[130.43904304504395,-2.174513265590093],[130.43947219848633,-2.1748563410760653],[130.43981552124023,-2.1748563410760653],[130.44015884399414,-2.174513265590093],[130.44024467468262,-2.1749421099353583],[130.44050216674805,-2.1751136476393214],[130.44110298156738,-2.175027878789777],[130.44110298156738,-2.174684803342828],[130.44084548950195,-2.1747705722118837],[130.44024467468262,-2.1739128833019947],[130.44041633605957,-2.172969424938202],[130.44024467468262,-2.172197504020275],[130.4392147064209,-2.172025965984929],[130.43835639953613,-2.1724548110367436],[130.43749809265137,-2.1725405800325177],[130.43827056884766,-2.1742559589244337],[130.43861389160156,-2.1742559589244337]],[[130.43672561645508,-2.1208209985608164],[130.43621063232422,-2.1200490513091808],[130.4351806640625,-2.119191331689123],[130.43397903442383,-2.1187624717009186],[130.4337215423584,-2.1195344195941743],[130.43389320373535,-2.1198775074231975],[130.43432235717773,-2.1198775074231975],[130.43432235717773,-2.1213356298479766],[130.43354988098145,-2.1215071735722972],[130.43346405029297,-2.12056368285306],[130.43243408203125,-2.1208209985608164],[130.43157577514648,-2.1215929454273237],[130.43131828308105,-2.122622207316624],[130.4318332672119,-2.1229652944607977],[130.4322624206543,-2.1229652944607977],[130.43251991271973,-2.1227937508982393],[130.43277740478516,-2.122193348279339],[130.4329490661621,-2.1227937508982393],[130.43346405029297,-2.123308381528787],[130.4333782196045,-2.124080327153294],[130.43363571166992,-2.1244234139737017],[130.4351806640625,-2.124766500717911],[130.4359531402588,-2.124166098865544],[130.43638229370117,-2.124938044061423],[130.4358673095703,-2.125881532110114],[130.4373264312744,-2.1263103901234217],[130.43818473815918,-2.1257957604931477],[130.438871383667,-2.12382301198798],[130.43878555297852,-2.123308381528787],[130.4380989074707,-2.1228795226818846],[130.4380989074707,-2.1225364355186827],[130.43869972229004,-2.121850260963882],[130.43930053710938,-2.120392139024119],[130.44041633605957,-2.1198775074231975],[130.44050216674805,-2.1191055597009836],[130.4395580291748,-2.1186766996890185],[130.43930053710938,-2.1181620675179005],[130.43869972229004,-2.1182478395582933],[130.4384422302246,-2.1190197877080834],[130.43930053710938,-2.1195344195941743],[130.43930053710938,-2.1198775074231975],[130.4384422302246,-2.1211640861045993],[130.43706893920898,-2.120735226663001],[130.43766975402832,-2.12142140171251],[130.43655395507812,-2.1233941532838827],[130.4359531402588,-2.12382301198798],[130.43578147888184,-2.1236514685206345],[130.4358673095703,-2.122707979109805],[130.43560981750488,-2.1225364355186827],[130.4348373413086,-2.122707979109805],[130.43475151062012,-2.1225364355186827],[130.43509483337402,-2.122193348279339],[130.43578147888184,-2.122193348279339],[130.43603897094727,-2.1213356298479766],[130.43672561645508,-2.1208209985608164]],[[130.43020248413086,-2.118590927672372],[130.42977333068848,-2.1181620675179005],[130.42848587036133,-2.117647435175826],[130.42874336242676,-2.119191331689123],[130.42805671691895,-2.1197059635181716],[130.427885055542,-2.1201348232450385],[130.427885055542,-2.12056368285306],[130.42848587036133,-2.120992542342236],[130.42874336242676,-2.1197059635181716],[130.43011665344238,-2.1190197877080834],[130.43020248413086,-2.118590927672372]]]}}]}