{"type":"FeatureCollection","features":[{"type":"Feature","id":"pmtiles:10/849/541:water:1800:0","properties":{"class":"ocean","water":"ocean","kind":"waterway","verification":"verified","source":"OpenMapTiles/OpenStreetMap national PMTiles","sourceId":"10/849/541:water:1800:0","sourceLayer":"water","archive":"https://its.hanifahseptiani45.workers.dev/v1/map/archive/indonesia.pmtiles","updatedAt":"2026-07-26T09:47:11.792Z"},"geometry":{"type":"Polygon","coordinates":[[[118.4710693359375,-10.13652430945622],[118.8336181640625,-10.13652430945622],[118.8336181640625,-10.493213228263954],[118.4710693359375,-10.493213228263954],[118.4710693359375,-10.13652430945622]]]}}]}