{"type":"FeatureCollection","features":[{"type":"Feature","id":"pmtiles:10/851/531:water:500:0","properties":{"class":"ocean","water":"ocean","kind":"waterway","verification":"verified","source":"OpenMapTiles/OpenStreetMap national PMTiles","sourceId":"10/851/531:water:500:0","sourceLayer":"water","archive":"https://its.hanifahseptiani45.workers.dev/v1/map/archive/indonesia.pmtiles","updatedAt":"2026-07-26T09:45:10.549Z"},"geometry":{"type":"Polygon","coordinates":[[[119.1741943359375,-6.825960352262015],[119.1741943359375,-6.659151487659315],[119.5367431640625,-6.659151487659315],[119.5367431640625,-7.019119954643813],[119.1741943359375,-7.019119954643813],[119.1741943359375,-6.841044461468158],[119.17573928833008,-6.838658306395175],[119.17728424072266,-6.83524949276115],[119.17994499206543,-6.831755433557092],[119.18200492858887,-6.829539675468027],[119.19230461120605,-6.8213583259550035],[119.19342041015625,-6.820250424128147],[119.1935920715332,-6.819057296218389],[119.19384956359863,-6.8188868491316015],[119.19350624084473,-6.818716401984176],[119.19127464294434,-6.820335647436565],[119.18998718261719,-6.821443549066316],[119.18818473815918,-6.823574121920444],[119.18646812438965,-6.8247672385779765],[119.18603897094727,-6.824596793523213],[119.18569564819336,-6.823659344637434],[119.18603897094727,-6.821613995243453],[119.18655395507812,-6.819994754111903],[119.18595314025879,-6.819227743244554],[119.18612480163574,-6.8188868491316015],[119.18535232543945,-6.818290283850331],[119.18492317199707,-6.817864165337582],[119.18457984924316,-6.818631178387719],[119.1822624206543,-6.820335647436565],[119.18045997619629,-6.822892339638429],[119.1793441772461,-6.8234036764409325],[119.17960166931152,-6.824170680620867],[119.17943000793457,-6.8246820160581905],[119.17694091796875,-6.824596793523213],[119.1753101348877,-6.825108128505434],[119.1741943359375,-6.825960352262015]]]}}]}