{"type":"FeatureCollection","features":[{"type":"Feature","id":"pmtiles:10/820/535:water:1020:0","properties":{"class":"ocean","water":"ocean","kind":"waterway","verification":"verified","source":"OpenMapTiles/OpenStreetMap national PMTiles","sourceId":"10/820/535:water:1020:0","sourceLayer":"water","archive":"https://its.hanifahseptiani45.workers.dev/v1/map/archive/indonesia.pmtiles","updatedAt":"2026-07-26T09:45:47.889Z"},"geometry":{"type":"Polygon","coordinates":[[[108.2757568359375,-8.053790678898523],[108.6383056640625,-8.053790678898523],[108.6383056640625,-8.412602260297831],[108.2757568359375,-8.412602260297831],[108.2757568359375,-8.053790678898523]]]}}]}