{"type":"FeatureCollection","features":[{"type":"Feature","id":"pmtiles:10/879/512:landcover:190356460:0","properties":{"subclass":"wood","class":"wood","kind":"green","verification":"verified","source":"OpenMapTiles/OpenStreetMap national PMTiles","sourceId":"10/879/512:landcover:190356460:0","sourceLayer":"landcover","archive":"https://its.hanifahseptiani45.workers.dev/v1/map/archive/indonesia.pmtiles","updatedAt":"2026-07-26T09:41:32.446Z"},"geometry":{"type":"Polygon","coordinates":[[[129.36710357666016,0.005493164054087174],[129.37251091003418,0.0024890899650387155],[129.3753433227539,0.0002574920654296875],[129.3804931640625,-0.0024890899650387155],[129.3804931640625,-0.014505386197583903],[129.37843322753906,-0.014247894140268613],[129.37766075134277,-0.014762878254614975],[129.37697410583496,-0.013990402082640685],[129.37379837036133,-0.013904571396722076],[129.37405586242676,-0.015535354423889203],[129.37517166137695,-0.015878677164906208],[129.37491416931152,-0.016565322645192282],[129.3753433227539,-0.017166137438493934],[129.37620162963867,-0.017251968123105144],[129.37705993652344,-0.01630783059034968],[129.3779182434082,-0.01673698401489787],[129.37671661376953,-0.01759529086113787],[129.37671661376953,-0.018367767019370262],[129.37808990478516,-0.018796920439186238],[129.3790340423584,-0.018196105651156813],[129.37860488891602,-0.01905441249056139],[129.37954902648926,-0.019655227275620746],[129.37602996826172,-0.022659301167152535],[129.37448501586914,-0.020427703424644506],[129.37259674072266,-0.0192260738579364],[129.3654727935791,-0.006694793685937839],[129.36264038085938,-0.003347396848681683],[129.35843467712402,-0.0021457672114166826],[129.35388565063477,0.0027465820301983968],[129.34804916381836,0.005493164054087174],[129.36710357666016,0.005493164054087174]]]}},{"type":"Feature","id":"pmtiles:10/879/512:transportation:10394700962:0","properties":{"class":"ferry","highway":"ferry","kind":"road","verification":"verified","source":"OpenMapTiles/OpenStreetMap national PMTiles","sourceId":"10/879/512:transportation:10394700962:0","sourceLayer":"transportation","archive":"https://its.hanifahseptiani45.workers.dev/v1/map/archive/indonesia.pmtiles","updatedAt":"2026-07-26T09:41:32.446Z"},"geometry":{"type":"LineString","coordinates":[[129.3804931640625,-0.07759091866708445],[129.3757724761963,-0.07707593500531118],[129.3522548675537,-0.06952284060572822],[129.20831680297852,0.005493164054087174]]}},{"type":"Feature","id":"pmtiles:10/879/512:water:470:0","properties":{"class":"ocean","water":"ocean","kind":"waterway","verification":"verified","source":"OpenMapTiles/OpenStreetMap national PMTiles","sourceId":"10/879/512:water:470:0","sourceLayer":"water","archive":"https://its.hanifahseptiani45.workers.dev/v1/map/archive/indonesia.pmtiles","updatedAt":"2026-07-26T09:41:32.446Z"},"geometry":{"type":"Polygon","coordinates":[[[129.0179443359375,0.005493164054087174],[129.34813499450684,0.005493164054087174],[129.3522548675537,0.0038623809785320873],[129.35388565063477,0.0027465820301983968],[129.35646057128906,-0.00025749206541547665],[129.35843467712402,-0.0021457672114166826],[129.35980796813965,-0.002403259276647418],[129.36015129089355,-0.0026607513418213102],[129.36092376708984,-0.0026607513418213102],[129.36152458190918,-0.0030040740953012346],[129.362211227417,-0.0030040740953012346],[129.36264038085938,-0.003347396848681683],[129.36487197875977,-0.006351470934262693],[129.3654727935791,-0.006694793685937839],[129.36779022216797,-0.011157989431424653],[129.3687343597412,-0.012445449731231406],[129.3695068359375,-0.013990402082640685],[129.3713092803955,-0.01673698401489787],[129.37148094177246,-0.017423629492185455],[129.3720817565918,-0.018281936335284854],[129.3720817565918,-0.01853942838741318],[129.37251091003418,-0.018796920439186238],[129.3728542327881,-0.019655227275620746],[129.37379837036133,-0.019741057959024033],[129.37448501586914,-0.020427703424644506],[129.37457084655762,-0.020685195473504336],[129.37457084655762,-0.02059936479059843],[129.37474250793457,-0.021114348887337542],[129.37542915344238,-0.02205848639356134],[129.37560081481934,-0.022315978439678474],[129.37774658203125,-0.024461745472692087],[129.37886238098145,-0.02669334315058336],[129.3793773651123,-0.027122496545629815],[129.3797206878662,-0.02840995672157476],[129.3804931640625,-0.029783247560075665],[129.3804931640625,-0.3570533530246962],[129.37542915344238,-0.3570533530246962],[129.37457084655762,-0.3570533530246962],[129.0179443359375,-0.3570533530246962],[129.0179443359375,-0.0004291534423828125],[129.0179443359375,0.00042915344239702335],[129.0179443359375,0.005493164054087174]]]}},{"type":"Feature","id":"pmtiles:8/220/127:water:470:1","properties":{"class":"ocean","water":"ocean","kind":"waterway","verification":"verified","source":"OpenMapTiles/OpenStreetMap national PMTiles","sourceId":"8/220/127:water:470:1","sourceLayer":"water","archive":"https://its.hanifahseptiani45.workers.dev/v1/map/archive/indonesia.pmtiles","updatedAt":"2026-07-26T09:35:30.869Z"},"geometry":{"type":"Polygon","coordinates":[[[129.35302734375,0.00034332275390625],[129.35302734375,0.0030899047836641103],[129.35405731201172,0.0027465820301983968],[129.35680389404297,-0.00034332275390625],[129.35646057128906,-0.00034332275390625],[129.3585205078125,-0.0020599365229827526],[129.36229705810547,-0.0030899047836641103],[129.36538696289062,-0.006523132310121582],[129.37225341796875,-0.01853942838741318],[129.3746566772461,-0.02128601025252408],[129.3746566772461,-0.02059936479059843],[129.3756866455078,-0.021972655711422817],[129.3753433227539,-0.021972655711422817],[129.3746566772461,-0.021972655711422817],[129.35302734375,-0.021972655711422817],[129.35302734375,-0.00034332275390625],[129.35302734375,0.00034332275390625]]]}},{"type":"Feature","id":"pmtiles:8/219/128:landcover:190356460:1","properties":{"subclass":"wood","class":"wood","kind":"green","verification":"verified","source":"OpenMapTiles/OpenStreetMap national PMTiles","sourceId":"8/219/128:landcover:190356460:1","sourceLayer":"landcover","archive":"https://its.hanifahseptiani45.workers.dev/v1/map/archive/indonesia.pmtiles","updatedAt":"2026-07-26T09:35:33.511Z"},"geometry":{"type":"Polygon","coordinates":[[[129.342041015625,0.021972655711437028],[129.35508728027344,0.012702941790465161],[129.39697265625,-0.01132965080508086],[129.39697265625,-0.029182432820292092],[129.3966293334961,-0.029182432820292092],[129.39491271972656,-0.024719237514403858],[129.38770294189453,-0.023345946619613756],[129.38873291015625,-0.018196105651156813],[129.3808364868164,-0.01613616922027461],[129.38220977783203,-0.014076232768545083],[129.37397003173828,-0.013732910024756961],[129.37946319580078,-0.019569396592160615],[129.37602996826172,-0.022659301167152535],[129.36264038085938,-0.003433227537001926],[129.3475341796875,0.005836486806302332],[129.34410095214844,0.01064300530990181],[129.33002471923828,0.02128601025253829],[129.32865142822266,0.021972655711437028],[129.342041015625,0.021972655711437028]]]}},{"type":"Feature","id":"pmtiles:8/219/128:transportation:10318605490:2","properties":{"class":"ferry","highway":"ferry","kind":"road","verification":"verified","source":"OpenMapTiles/OpenStreetMap national PMTiles","sourceId":"8/219/128:transportation:10318605490:2","sourceLayer":"transportation","archive":"https://its.hanifahseptiani45.workers.dev/v1/map/archive/indonesia.pmtiles","updatedAt":"2026-07-26T09:35:33.512Z"},"geometry":{"type":"LineString","coordinates":[[129.39697265625,-0.07690427378334164],[129.38220977783203,-0.07793424110478497],[129.3756866455078,-0.0772475962265986],[129.3523406982422,-0.06935117935483959],[129.1765594482422,0.021972655711437028]]}}]}