{"type":"FeatureCollection","features":[{"type":"Feature","id":"pmtiles:10/852/516:mountain_peak:10701622501:0","properties":{"name_int":"Bulu Haluki","name_de":"Bulu Haluki","name":"Bulu Haluki","rank":3,"class":"peak","name:latin":"Bulu Haluki","name_en":"Bulu Haluki","kind":"poi","verification":"verified","source":"OpenMapTiles/OpenStreetMap national PMTiles","sourceId":"10/852/516:mountain_peak:10701622501:0","sourceLayer":"mountain_peak","archive":"https://its.hanifahseptiani45.workers.dev/v1/map/archive/indonesia.pmtiles","updatedAt":"2026-07-26T09:42:18.417Z"},"geometry":{"type":"Point","coordinates":[119.95044708251953,-1.7692042570343602]}},{"type":"Feature","id":"pmtiles:10/852/516:mountain_peak:10701879301:0","properties":{"name_int":"Bulu Podolea","name_de":"Bulu Podolea","name":"Bulu Podolea","rank":3,"class":"peak","name:latin":"Bulu Podolea","name_en":"Bulu Podolea","kind":"poi","verification":"verified","source":"OpenMapTiles/OpenStreetMap national PMTiles","sourceId":"10/852/516:mountain_peak:10701879301:0","sourceLayer":"mountain_peak","archive":"https://its.hanifahseptiani45.workers.dev/v1/map/archive/indonesia.pmtiles","updatedAt":"2026-07-26T09:42:18.417Z"},"geometry":{"type":"Point","coordinates":[119.96512413024902,-1.8253956981511834]}},{"type":"Feature","id":"pmtiles:10/853/516:mountain_peak:10701590451:0","properties":{"name_int":"Bulu Halumunte","name_de":"Bulu Halumunte","name":"Bulu Halumunte","rank":1,"class":"peak","name:latin":"Bulu Halumunte","name_en":"Bulu Halumunte","kind":"poi","verification":"verified","source":"OpenMapTiles/OpenStreetMap national PMTiles","sourceId":"10/853/516:mountain_peak:10701590451:0","sourceLayer":"mountain_peak","archive":"https://its.hanifahseptiani45.workers.dev/v1/map/archive/indonesia.pmtiles","updatedAt":"2026-07-26T09:42:18.471Z"},"geometry":{"type":"Point","coordinates":[119.97971534729004,-1.807723462214355]}},{"type":"Feature","id":"pmtiles:10/853/516:mountain_peak:10701616631:0","properties":{"name_int":"Tutu Toriate","name_de":"Tutu Toriate","name":"Tutu Toriate","rank":3,"class":"peak","name:latin":"Tutu Toriate","name_en":"Tutu Toriate","kind":"poi","verification":"verified","source":"OpenMapTiles/OpenStreetMap national PMTiles","sourceId":"10/853/516:mountain_peak:10701616631:0","sourceLayer":"mountain_peak","archive":"https://its.hanifahseptiani45.workers.dev/v1/map/archive/indonesia.pmtiles","updatedAt":"2026-07-26T09:42:18.471Z"},"geometry":{"type":"Point","coordinates":[120.00606536865234,-1.7627700129218908]}},{"type":"Feature","id":"pmtiles:10/853/516:mountain_peak:10701622501:0","properties":{"name_int":"Bulu Haluki","name_de":"Bulu Haluki","name":"Bulu Haluki","rank":4,"class":"peak","name:latin":"Bulu Haluki","name_en":"Bulu Haluki","kind":"poi","verification":"verified","source":"OpenMapTiles/OpenStreetMap national PMTiles","sourceId":"10/853/516:mountain_peak:10701622501:0","sourceLayer":"mountain_peak","archive":"https://its.hanifahseptiani45.workers.dev/v1/map/archive/indonesia.pmtiles","updatedAt":"2026-07-26T09:42:18.471Z"},"geometry":{"type":"Point","coordinates":[119.95044708251953,-1.7692042570343602]}},{"type":"Feature","id":"pmtiles:10/853/516:mountain_peak:10701618391:0","properties":{"name_int":"Tutu Tiroamada","name_de":"Tutu Tiroamada","name":"Tutu Tiroamada","rank":1,"class":"peak","name:latin":"Tutu Tiroamada","name_en":"Tutu Tiroamada","kind":"poi","verification":"verified","source":"OpenMapTiles/OpenStreetMap national PMTiles","sourceId":"10/853/516:mountain_peak:10701618391:0","sourceLayer":"mountain_peak","archive":"https://its.hanifahseptiani45.workers.dev/v1/map/archive/indonesia.pmtiles","updatedAt":"2026-07-26T09:42:18.471Z"},"geometry":{"type":"Point","coordinates":[120.05996704101562,-1.8267682917520744]}},{"type":"Feature","id":"pmtiles:10/853/516:mountain_peak:10701622321:0","properties":{"name_int":"Bulu Bubulanti","name_de":"Bulu Bubulanti","name":"Bulu Bubulanti","rank":4,"class":"peak","name:latin":"Bulu Bubulanti","name_en":"Bulu Bubulanti","kind":"poi","verification":"verified","source":"OpenMapTiles/OpenStreetMap national PMTiles","sourceId":"10/853/516:mountain_peak:10701622321:0","sourceLayer":"mountain_peak","archive":"https://its.hanifahseptiani45.workers.dev/v1/map/archive/indonesia.pmtiles","updatedAt":"2026-07-26T09:42:18.471Z"},"geometry":{"type":"Point","coordinates":[120.1845932006836,-1.7941689121606998]}},{"type":"Feature","id":"pmtiles:10/853/516:mountain_peak:10701645551:0","properties":{"name_int":"Bulu Meseli","name_de":"Bulu Meseli","name":"Bulu Meseli","rank":5,"class":"peak","name:latin":"Bulu Meseli","name_en":"Bulu Meseli","kind":"poi","verification":"verified","source":"OpenMapTiles/OpenStreetMap national PMTiles","sourceId":"10/853/516:mountain_peak:10701645551:0","sourceLayer":"mountain_peak","archive":"https://its.hanifahseptiani45.workers.dev/v1/map/archive/indonesia.pmtiles","updatedAt":"2026-07-26T09:42:18.471Z"},"geometry":{"type":"Point","coordinates":[120.19652366638184,-1.810297099549544]}},{"type":"Feature","id":"pmtiles:10/853/516:mountain_peak:10701589871:0","properties":{"name_int":"Bulu Pawuli","name_de":"Bulu Pawuli","name":"Bulu Pawuli","rank":1,"class":"peak","name:latin":"Bulu Pawuli","name_en":"Bulu Pawuli","kind":"poi","verification":"verified","source":"OpenMapTiles/OpenStreetMap national PMTiles","sourceId":"10/853/516:mountain_peak:10701589871:0","sourceLayer":"mountain_peak","archive":"https://its.hanifahseptiani45.workers.dev/v1/map/archive/indonesia.pmtiles","updatedAt":"2026-07-26T09:42:18.471Z"},"geometry":{"type":"Point","coordinates":[120.19721031188965,-1.8400652378517606]}},{"type":"Feature","id":"pmtiles:10/853/516:mountain_peak:10701615981:0","properties":{"name_int":"Bulu Tomobepahalo","name_de":"Bulu Tomobepahalo","name":"Bulu Tomobepahalo","rank":5,"class":"peak","name:latin":"Bulu Tomobepahalo","name_en":"Bulu Tomobepahalo","kind":"poi","verification":"verified","source":"OpenMapTiles/OpenStreetMap national PMTiles","sourceId":"10/853/516:mountain_peak:10701615981:0","sourceLayer":"mountain_peak","archive":"https://its.hanifahseptiani45.workers.dev/v1/map/archive/indonesia.pmtiles","updatedAt":"2026-07-26T09:42:18.471Z"},"geometry":{"type":"Point","coordinates":[120.19832611083984,-1.8241946778907447]}},{"type":"Feature","id":"pmtiles:10/853/516:mountain_peak:10701713871:0","properties":{"name_int":"Bulu Sepe","name_de":"Bulu Sepe","name":"Bulu Sepe","rank":5,"class":"peak","name:latin":"Bulu Sepe","name_en":"Bulu Sepe","kind":"poi","verification":"verified","source":"OpenMapTiles/OpenStreetMap national PMTiles","sourceId":"10/853/516:mountain_peak:10701713871:0","sourceLayer":"mountain_peak","archive":"https://its.hanifahseptiani45.workers.dev/v1/map/archive/indonesia.pmtiles","updatedAt":"2026-07-26T09:42:18.471Z"},"geometry":{"type":"Point","coordinates":[120.23283004760742,-1.8126991577659766]}},{"type":"Feature","id":"pmtiles:10/854/516:mountain_peak:10701622321:0","properties":{"name_int":"Bulu Bubulanti","name_de":"Bulu Bubulanti","name":"Bulu Bubulanti","rank":3,"class":"peak","name:latin":"Bulu Bubulanti","name_en":"Bulu Bubulanti","kind":"poi","verification":"verified","source":"OpenMapTiles/OpenStreetMap national PMTiles","sourceId":"10/854/516:mountain_peak:10701622321:0","sourceLayer":"mountain_peak","archive":"https://its.hanifahseptiani45.workers.dev/v1/map/archive/indonesia.pmtiles","updatedAt":"2026-07-26T09:42:18.539Z"},"geometry":{"type":"Point","coordinates":[120.1845932006836,-1.7941689121606998]}},{"type":"Feature","id":"pmtiles:10/854/516:mountain_peak:10701645551:0","properties":{"name_int":"Bulu Meseli","name_de":"Bulu Meseli","name":"Bulu Meseli","rank":4,"class":"peak","name:latin":"Bulu Meseli","name_en":"Bulu Meseli","kind":"poi","verification":"verified","source":"OpenMapTiles/OpenStreetMap national PMTiles","sourceId":"10/854/516:mountain_peak:10701645551:0","sourceLayer":"mountain_peak","archive":"https://its.hanifahseptiani45.workers.dev/v1/map/archive/indonesia.pmtiles","updatedAt":"2026-07-26T09:42:18.539Z"},"geometry":{"type":"Point","coordinates":[120.19652366638184,-1.810297099549544]}},{"type":"Feature","id":"pmtiles:10/854/516:mountain_peak:10701589871:0","properties":{"name_int":"Bulu Pawuli","name_de":"Bulu Pawuli","name":"Bulu Pawuli","rank":1,"class":"peak","name:latin":"Bulu Pawuli","name_en":"Bulu Pawuli","kind":"poi","verification":"verified","source":"OpenMapTiles/OpenStreetMap national PMTiles","sourceId":"10/854/516:mountain_peak:10701589871:0","sourceLayer":"mountain_peak","archive":"https://its.hanifahseptiani45.workers.dev/v1/map/archive/indonesia.pmtiles","updatedAt":"2026-07-26T09:42:18.539Z"},"geometry":{"type":"Point","coordinates":[120.19721031188965,-1.8400652378517606]}},{"type":"Feature","id":"pmtiles:10/854/516:mountain_peak:10701615981:0","properties":{"name_int":"Bulu Tomobepahalo","name_de":"Bulu Tomobepahalo","name":"Bulu Tomobepahalo","rank":4,"class":"peak","name:latin":"Bulu Tomobepahalo","name_en":"Bulu Tomobepahalo","kind":"poi","verification":"verified","source":"OpenMapTiles/OpenStreetMap national PMTiles","sourceId":"10/854/516:mountain_peak:10701615981:0","sourceLayer":"mountain_peak","archive":"https://its.hanifahseptiani45.workers.dev/v1/map/archive/indonesia.pmtiles","updatedAt":"2026-07-26T09:42:18.539Z"},"geometry":{"type":"Point","coordinates":[120.19832611083984,-1.8241946778907447]}},{"type":"Feature","id":"pmtiles:10/854/516:mountain_peak:10701713871:0","properties":{"name_int":"Bulu Sepe","name_de":"Bulu Sepe","name":"Bulu Sepe","rank":5,"class":"peak","name:latin":"Bulu Sepe","name_en":"Bulu Sepe","kind":"poi","verification":"verified","source":"OpenMapTiles/OpenStreetMap national PMTiles","sourceId":"10/854/516:mountain_peak:10701713871:0","sourceLayer":"mountain_peak","archive":"https://its.hanifahseptiani45.workers.dev/v1/map/archive/indonesia.pmtiles","updatedAt":"2026-07-26T09:42:18.539Z"},"geometry":{"type":"Point","coordinates":[120.23283004760742,-1.8126991577659766]}},{"type":"Feature","id":"pmtiles:10/852/517:mountain_peak:10701575911:0","properties":{"name_int":"Bulu Waturangka","name_de":"Bulu Waturangka","name":"Bulu Waturangka","rank":1,"class":"peak","name:latin":"Bulu Waturangka","name_en":"Bulu Waturangka","kind":"poi","verification":"verified","source":"OpenMapTiles/OpenStreetMap national PMTiles","sourceId":"10/852/517:mountain_peak:10701575911:0","sourceLayer":"mountain_peak","archive":"https://its.hanifahseptiani45.workers.dev/v1/map/archive/indonesia.pmtiles","updatedAt":"2026-07-26T09:42:39.076Z"},"geometry":{"type":"Point","coordinates":[119.91311073303223,-1.8700044492594259]}},{"type":"Feature","id":"pmtiles:10/852/517:mountain_peak:10701792561:0","properties":{"name_int":"Bulu Makaki","name_de":"Bulu Makaki","name":"Bulu Makaki","rank":3,"class":"peak","name:latin":"Bulu Makaki","name_en":"Bulu Makaki","kind":"poi","verification":"verified","source":"OpenMapTiles/OpenStreetMap national PMTiles","sourceId":"10/852/517:mountain_peak:10701792561:0","sourceLayer":"mountain_peak","archive":"https://its.hanifahseptiani45.workers.dev/v1/map/archive/indonesia.pmtiles","updatedAt":"2026-07-26T09:42:39.076Z"},"geometry":{"type":"Point","coordinates":[119.92469787597656,-1.9130679758680316]}},{"type":"Feature","id":"pmtiles:10/852/517:mountain_peak:10701593781:0","properties":{"name_int":"Buntu Takalak","name_de":"Buntu Takalak","name":"Buntu Takalak","rank":1,"class":"peak","name:latin":"Buntu Takalak","name_en":"Buntu Takalak","kind":"poi","verification":"verified","source":"OpenMapTiles/OpenStreetMap national PMTiles","sourceId":"10/852/517:mountain_peak:10701593781:0","sourceLayer":"mountain_peak","archive":"https://its.hanifahseptiani45.workers.dev/v1/map/archive/indonesia.pmtiles","updatedAt":"2026-07-26T09:42:39.077Z"},"geometry":{"type":"Point","coordinates":[119.89877700805664,-2.0324734589325715]}},{"type":"Feature","id":"pmtiles:10/852/517:mountain_peak:10701605811:0","properties":{"name_int":"Buntu Poporea","name_de":"Buntu Poporea","name":"Buntu Poporea","rank":2,"class":"peak","name:latin":"Buntu Poporea","name_en":"Buntu Poporea","kind":"poi","verification":"verified","source":"OpenMapTiles/OpenStreetMap national PMTiles","sourceId":"10/852/517:mountain_peak:10701605811:0","sourceLayer":"mountain_peak","archive":"https://its.hanifahseptiani45.workers.dev/v1/map/archive/indonesia.pmtiles","updatedAt":"2026-07-26T09:42:39.077Z"},"geometry":{"type":"Point","coordinates":[119.91019248962402,-2.0510011176063045]}},{"type":"Feature","id":"pmtiles:10/852/517:mountain_peak:10701640761:0","properties":{"name_int":"Buntu Tutu","name_de":"Buntu Tutu","name":"Buntu Tutu","rank":4,"class":"peak","name:latin":"Buntu Tutu","name_en":"Buntu Tutu","kind":"poi","verification":"verified","source":"OpenMapTiles/OpenStreetMap national PMTiles","sourceId":"10/852/517:mountain_peak:10701640761:0","sourceLayer":"mountain_peak","archive":"https://its.hanifahseptiani45.workers.dev/v1/map/archive/indonesia.pmtiles","updatedAt":"2026-07-26T09:42:39.077Z"},"geometry":{"type":"Point","coordinates":[119.91697311401367,-2.0261259713163327]}},{"type":"Feature","id":"pmtiles:10/852/517:mountain_peak:10701622501:0","properties":{"name_int":"Bulu Haluki","name_de":"Bulu Haluki","name":"Bulu Haluki","rank":3,"class":"peak","name:latin":"Bulu Haluki","name_en":"Bulu Haluki","kind":"poi","verification":"verified","source":"OpenMapTiles/OpenStreetMap national PMTiles","sourceId":"10/852/517:mountain_peak:10701622501:0","sourceLayer":"mountain_peak","archive":"https://its.hanifahseptiani45.workers.dev/v1/map/archive/indonesia.pmtiles","updatedAt":"2026-07-26T09:42:39.077Z"},"geometry":{"type":"Point","coordinates":[119.95044708251953,-1.7692042570343602]}},{"type":"Feature","id":"pmtiles:10/852/517:mountain_peak:10701879301:0","properties":{"name_int":"Bulu Podolea","name_de":"Bulu Podolea","name":"Bulu Podolea","rank":5,"class":"peak","name:latin":"Bulu Podolea","name_en":"Bulu Podolea","kind":"poi","verification":"verified","source":"OpenMapTiles/OpenStreetMap national PMTiles","sourceId":"10/852/517:mountain_peak:10701879301:0","sourceLayer":"mountain_peak","archive":"https://its.hanifahseptiani45.workers.dev/v1/map/archive/indonesia.pmtiles","updatedAt":"2026-07-26T09:42:39.077Z"},"geometry":{"type":"Point","coordinates":[119.96512413024902,-1.8253956981511834]}},{"type":"Feature","id":"pmtiles:10/852/517:mountain_peak:10701633301:0","properties":{"name_int":"Buntu Tumikaraing","name_de":"Buntu Tumikaraing","name":"Buntu Tumikaraing","rank":1,"class":"peak","name:latin":"Buntu Tumikaraing","name_en":"Buntu Tumikaraing","kind":"poi","verification":"verified","source":"OpenMapTiles/OpenStreetMap national PMTiles","sourceId":"10/852/517:mountain_peak:10701633301:0","sourceLayer":"mountain_peak","archive":"https://its.hanifahseptiani45.workers.dev/v1/map/archive/indonesia.pmtiles","updatedAt":"2026-07-26T09:42:39.077Z"},"geometry":{"type":"Point","coordinates":[119.9571418762207,-2.0928591090815587]}},{"type":"Feature","id":"pmtiles:10/852/517:mountain_peak:10701704211:0","properties":{"name_int":"Buntu Talabi","name_de":"Buntu Talabi","name":"Buntu Talabi","rank":4,"class":"peak","name:latin":"Buntu Talabi","name_en":"Buntu Talabi","kind":"poi","verification":"verified","source":"OpenMapTiles/OpenStreetMap national PMTiles","sourceId":"10/852/517:mountain_peak:10701704211:0","sourceLayer":"mountain_peak","archive":"https://its.hanifahseptiani45.workers.dev/v1/map/archive/indonesia.pmtiles","updatedAt":"2026-07-26T09:42:39.077Z"},"geometry":{"type":"Point","coordinates":[119.96898651123047,-2.021236673349236]}},{"type":"Feature","id":"pmtiles:10/852/517:mountain_peak:10701711421:0","properties":{"name_int":"Buntu Waliongu","name_de":"Buntu Waliongu","name":"Buntu Waliongu","rank":5,"class":"peak","name:latin":"Buntu Waliongu","name_en":"Buntu Waliongu","kind":"poi","verification":"verified","source":"OpenMapTiles/OpenStreetMap national PMTiles","sourceId":"10/852/517:mountain_peak:10701711421:0","sourceLayer":"mountain_peak","archive":"https://its.hanifahseptiani45.workers.dev/v1/map/archive/indonesia.pmtiles","updatedAt":"2026-07-26T09:42:39.077Z"},"geometry":{"type":"Point","coordinates":[119.94426727294922,-2.0172909133744668]}},{"type":"Feature","id":"pmtiles:10/853/517:landcover:147572043:0","properties":{"subclass":"wood","class":"wood","kind":"green","verification":"verified","source":"OpenMapTiles/OpenStreetMap national PMTiles","sourceId":"10/853/517:landcover:147572043:0","sourceLayer":"landcover","archive":"https://its.hanifahseptiani45.workers.dev/v1/map/archive/indonesia.pmtiles","updatedAt":"2026-07-26T09:42:39.162Z"},"geometry":{"type":"Polygon","coordinates":[[[119.8773193359375,-2.0370196171627413],[119.87963676452637,-2.0381347106193743],[119.88221168518066,-2.043538614115036],[119.88547325134277,-2.0462834470242512],[119.8908805847168,-2.0496287057794547],[119.89603042602539,-2.0539174888285174],[119.90109443664551,-2.0562334268894062],[119.90907669067383,-2.05366016216999],[119.9146556854248,-2.0452541352335345],[119.92032051086426,-2.0347036513638272],[119.92435455322266,-2.0344463216252393],[119.92941856384277,-2.038306263390311],[119.9337100982666,-2.0358187464231463],[119.93611335754395,-2.0358187464231463],[119.94057655334473,-2.031015254523183],[119.94589805603027,-2.028441949414301],[119.9443531036377,-2.022780663773375],[119.94529724121094,-2.020636232232107],[119.94495391845703,-2.0160042504428475],[119.94778633117676,-2.011458033276469],[119.95791435241699,-2.0037380128541002],[119.96967315673828,-1.998162419908013],[119.97533798217773,-1.9879547468852365],[119.97739791870117,-1.9752594016445215],[119.98563766479492,-1.973458027216168],[119.99113082885742,-1.966595630579235],[120.00984191894531,-1.965394708263375],[120.01524925231934,-1.9700268324316426],[120.02323150634766,-1.9695979325863675],[120.03378868103027,-1.9720855501512915],[120.04202842712402,-1.9816070864307989],[120.05249977111816,-1.9843520236718604],[120.06365776062012,-1.981178189575715],[120.08502960205078,-1.9792910420942604],[120.09223937988281,-1.981521307068661],[120.09876251220703,-1.9850382572704461],[120.10271072387695,-1.9884694209884515],[120.11507034301758,-1.9904423368967485],[120.1406478881836,-1.9895845476613658],[120.21686553955078,-1.9940450468093616],[120.2398681640625,-1.9959321774262833],[120.2398681640625,-2.114388093041839],[119.8773193359375,-2.114388093041839],[119.8773193359375,-2.0370196171627413]]]}},{"type":"Feature","id":"pmtiles:10/853/517:mountain_peak:10701575911:0","properties":{"name_int":"Bulu Waturangka","name_de":"Bulu Waturangka","name":"Bulu Waturangka","rank":1,"class":"peak","name:latin":"Bulu Waturangka","name_en":"Bulu Waturangka","kind":"poi","verification":"verified","source":"OpenMapTiles/OpenStreetMap national PMTiles","sourceId":"10/853/517:mountain_peak:10701575911:0","sourceLayer":"mountain_peak","archive":"https://its.hanifahseptiani45.workers.dev/v1/map/archive/indonesia.pmtiles","updatedAt":"2026-07-26T09:42:39.162Z"},"geometry":{"type":"Point","coordinates":[119.91311073303223,-1.8700044492594259]}},{"type":"Feature","id":"pmtiles:10/853/517:mountain_peak:10701792561:0","properties":{"name_int":"Bulu Makaki","name_de":"Bulu Makaki","name":"Bulu Makaki","rank":3,"class":"peak","name:latin":"Bulu Makaki","name_en":"Bulu Makaki","kind":"poi","verification":"verified","source":"OpenMapTiles/OpenStreetMap national PMTiles","sourceId":"10/853/517:mountain_peak:10701792561:0","sourceLayer":"mountain_peak","archive":"https://its.hanifahseptiani45.workers.dev/v1/map/archive/indonesia.pmtiles","updatedAt":"2026-07-26T09:42:39.162Z"},"geometry":{"type":"Point","coordinates":[119.92469787597656,-1.9130679758680316]}},{"type":"Feature","id":"pmtiles:10/853/517:mountain_peak:10701593781:0","properties":{"name_int":"Buntu Takalak","name_de":"Buntu Takalak","name":"Buntu Takalak","rank":1,"class":"peak","name:latin":"Buntu Takalak","name_en":"Buntu Takalak","kind":"poi","verification":"verified","source":"OpenMapTiles/OpenStreetMap national PMTiles","sourceId":"10/853/517:mountain_peak:10701593781:0","sourceLayer":"mountain_peak","archive":"https://its.hanifahseptiani45.workers.dev/v1/map/archive/indonesia.pmtiles","updatedAt":"2026-07-26T09:42:39.162Z"},"geometry":{"type":"Point","coordinates":[119.89877700805664,-2.0324734589325715]}},{"type":"Feature","id":"pmtiles:10/853/517:mountain_peak:10701605811:0","properties":{"name_int":"Buntu Poporea","name_de":"Buntu Poporea","name":"Buntu Poporea","rank":2,"class":"peak","name:latin":"Buntu Poporea","name_en":"Buntu Poporea","kind":"poi","verification":"verified","source":"OpenMapTiles/OpenStreetMap national PMTiles","sourceId":"10/853/517:mountain_peak:10701605811:0","sourceLayer":"mountain_peak","archive":"https://its.hanifahseptiani45.workers.dev/v1/map/archive/indonesia.pmtiles","updatedAt":"2026-07-26T09:42:39.162Z"},"geometry":{"type":"Point","coordinates":[119.91019248962402,-2.0510011176063045]}},{"type":"Feature","id":"pmtiles:10/853/517:mountain_peak:10701640761:0","properties":{"name_int":"Buntu Tutu","name_de":"Buntu Tutu","name":"Buntu Tutu","rank":4,"class":"peak","name:latin":"Buntu Tutu","name_en":"Buntu Tutu","kind":"poi","verification":"verified","source":"OpenMapTiles/OpenStreetMap national PMTiles","sourceId":"10/853/517:mountain_peak:10701640761:0","sourceLayer":"mountain_peak","archive":"https://its.hanifahseptiani45.workers.dev/v1/map/archive/indonesia.pmtiles","updatedAt":"2026-07-26T09:42:39.162Z"},"geometry":{"type":"Point","coordinates":[119.91697311401367,-2.0261259713163327]}},{"type":"Feature","id":"pmtiles:10/853/517:mountain_peak:10701590451:0","properties":{"name_int":"Bulu Halumunte","name_de":"Bulu Halumunte","name":"Bulu Halumunte","rank":1,"class":"peak","name:latin":"Bulu Halumunte","name_en":"Bulu Halumunte","kind":"poi","verification":"verified","source":"OpenMapTiles/OpenStreetMap national PMTiles","sourceId":"10/853/517:mountain_peak:10701590451:0","sourceLayer":"mountain_peak","archive":"https://its.hanifahseptiani45.workers.dev/v1/map/archive/indonesia.pmtiles","updatedAt":"2026-07-26T09:42:39.162Z"},"geometry":{"type":"Point","coordinates":[119.97971534729004,-1.807723462214355]}},{"type":"Feature","id":"pmtiles:10/853/517:mountain_peak:10701616631:0","properties":{"name_int":"Tutu Toriate","name_de":"Tutu Toriate","name":"Tutu Toriate","rank":3,"class":"peak","name:latin":"Tutu Toriate","name_en":"Tutu Toriate","kind":"poi","verification":"verified","source":"OpenMapTiles/OpenStreetMap national PMTiles","sourceId":"10/853/517:mountain_peak:10701616631:0","sourceLayer":"mountain_peak","archive":"https://its.hanifahseptiani45.workers.dev/v1/map/archive/indonesia.pmtiles","updatedAt":"2026-07-26T09:42:39.162Z"},"geometry":{"type":"Point","coordinates":[120.00606536865234,-1.7627700129218908]}},{"type":"Feature","id":"pmtiles:10/853/517:mountain_peak:10701622501:0","properties":{"name_int":"Bulu Haluki","name_de":"Bulu Haluki","name":"Bulu Haluki","rank":4,"class":"peak","name:latin":"Bulu Haluki","name_en":"Bulu Haluki","kind":"poi","verification":"verified","source":"OpenMapTiles/OpenStreetMap national PMTiles","sourceId":"10/853/517:mountain_peak:10701622501:0","sourceLayer":"mountain_peak","archive":"https://its.hanifahseptiani45.workers.dev/v1/map/archive/indonesia.pmtiles","updatedAt":"2026-07-26T09:42:39.162Z"},"geometry":{"type":"Point","coordinates":[119.95044708251953,-1.7692042570343602]}},{"type":"Feature","id":"pmtiles:10/853/517:mountain_peak:10701568671:0","properties":{"name_int":"Bulu Lumia","name_de":"Bulu Lumia","name":"Bulu Lumia","rank":1,"class":"peak","name:latin":"Bulu Lumia","name_en":"Bulu Lumia","kind":"poi","verification":"verified","source":"OpenMapTiles/OpenStreetMap national PMTiles","sourceId":"10/853/517:mountain_peak:10701568671:0","sourceLayer":"mountain_peak","archive":"https://its.hanifahseptiani45.workers.dev/v1/map/archive/indonesia.pmtiles","updatedAt":"2026-07-26T09:42:39.162Z"},"geometry":{"type":"Point","coordinates":[119.98349189758301,-1.9258495726205496]}},{"type":"Feature","id":"pmtiles:10/853/517:mountain_peak:10701575311:0","properties":{"name_int":"Tutu Eki","name_de":"Tutu Eki","name":"Tutu Eki","rank":2,"class":"peak","name:latin":"Tutu Eki","name_en":"Tutu Eki","kind":"poi","verification":"verified","source":"OpenMapTiles/OpenStreetMap national PMTiles","sourceId":"10/853/517:mountain_peak:10701575311:0","sourceLayer":"mountain_peak","archive":"https://its.hanifahseptiani45.workers.dev/v1/map/archive/indonesia.pmtiles","updatedAt":"2026-07-26T09:42:39.162Z"},"geometry":{"type":"Point","coordinates":[120.05207061767578,-1.948495924325286]}},{"type":"Feature","id":"pmtiles:10/853/517:mountain_peak:10701614861:0","properties":{"name_int":"Bulu Mungkualipah","name_de":"Bulu Mungkualipah","name":"Bulu Mungkualipah","rank":3,"class":"peak","name:latin":"Bulu Mungkualipah","name_en":"Bulu Mungkualipah","kind":"poi","verification":"verified","source":"OpenMapTiles/OpenStreetMap national PMTiles","sourceId":"10/853/517:mountain_peak:10701614861:0","sourceLayer":"mountain_peak","archive":"https://its.hanifahseptiani45.workers.dev/v1/map/archive/indonesia.pmtiles","updatedAt":"2026-07-26T09:42:39.162Z"},"geometry":{"type":"Point","coordinates":[120.01773834228516,-1.917957591277542]}},{"type":"Feature","id":"pmtiles:10/853/517:mountain_peak:10701618391:0","properties":{"name_int":"Tutu Tiroamada","name_de":"Tutu Tiroamada","name":"Tutu Tiroamada","rank":4,"class":"peak","name:latin":"Tutu Tiroamada","name_en":"Tutu Tiroamada","kind":"poi","verification":"verified","source":"OpenMapTiles/OpenStreetMap national PMTiles","sourceId":"10/853/517:mountain_peak:10701618391:0","sourceLayer":"mountain_peak","archive":"https://its.hanifahseptiani45.workers.dev/v1/map/archive/indonesia.pmtiles","updatedAt":"2026-07-26T09:42:39.162Z"},"geometry":{"type":"Point","coordinates":[120.05996704101562,-1.8267682917520744]}},{"type":"Feature","id":"pmtiles:10/853/517:mountain_peak:10701755861:0","properties":{"name_int":"Bulu Peula","name_de":"Bulu Peula","name":"Bulu Peula","rank":5,"class":"peak","name:latin":"Bulu Peula","name_en":"Bulu Peula","kind":"poi","verification":"verified","source":"OpenMapTiles/OpenStreetMap national PMTiles","sourceId":"10/853/517:mountain_peak:10701755861:0","sourceLayer":"mountain_peak","archive":"https://its.hanifahseptiani45.workers.dev/v1/map/archive/indonesia.pmtiles","updatedAt":"2026-07-26T09:42:39.162Z"},"geometry":{"type":"Point","coordinates":[119.99971389770508,-1.8838157762628356]}},{"type":"Feature","id":"pmtiles:10/853/517:mountain_peak:10701633301:0","properties":{"name_int":"Buntu Tumikaraing","name_de":"Buntu Tumikaraing","name":"Buntu Tumikaraing","rank":1,"class":"peak","name:latin":"Buntu Tumikaraing","name_en":"Buntu Tumikaraing","kind":"poi","verification":"verified","source":"OpenMapTiles/OpenStreetMap national PMTiles","sourceId":"10/853/517:mountain_peak:10701633301:0","sourceLayer":"mountain_peak","archive":"https://its.hanifahseptiani45.workers.dev/v1/map/archive/indonesia.pmtiles","updatedAt":"2026-07-26T09:42:39.162Z"},"geometry":{"type":"Point","coordinates":[119.9571418762207,-2.0928591090815587]}},{"type":"Feature","id":"pmtiles:10/853/517:mountain_peak:10701650631:0","properties":{"name_int":"Buntu Tutulumie","name_de":"Buntu Tutulumie","name":"Buntu Tutulumie","rank":2,"class":"peak","name:latin":"Buntu Tutulumie","name_en":"Buntu Tutulumie","kind":"poi","verification":"verified","source":"OpenMapTiles/OpenStreetMap national PMTiles","sourceId":"10/853/517:mountain_peak:10701650631:0","sourceLayer":"mountain_peak","archive":"https://its.hanifahseptiani45.workers.dev/v1/map/archive/indonesia.pmtiles","updatedAt":"2026-07-26T09:42:39.162Z"},"geometry":{"type":"Point","coordinates":[119.99070167541504,-2.0347036513638272]}},{"type":"Feature","id":"pmtiles:10/853/517:mountain_peak:10701701491:0","properties":{"name_int":"Buntu Siburu","name_de":"Buntu Siburu","name":"Buntu Siburu","rank":3,"class":"peak","name:latin":"Buntu Siburu","name_en":"Buntu Siburu","kind":"poi","verification":"verified","source":"OpenMapTiles/OpenStreetMap national PMTiles","sourceId":"10/853/517:mountain_peak:10701701491:0","sourceLayer":"mountain_peak","archive":"https://its.hanifahseptiani45.workers.dev/v1/map/archive/indonesia.pmtiles","updatedAt":"2026-07-26T09:42:39.162Z"},"geometry":{"type":"Point","coordinates":[119.98812675476074,-2.085396802466832]}},{"type":"Feature","id":"pmtiles:10/853/517:mountain_peak:10701704211:0","properties":{"name_int":"Buntu Talabi","name_de":"Buntu Talabi","name":"Buntu Talabi","rank":4,"class":"peak","name:latin":"Buntu Talabi","name_en":"Buntu Talabi","kind":"poi","verification":"verified","source":"OpenMapTiles/OpenStreetMap national PMTiles","sourceId":"10/853/517:mountain_peak:10701704211:0","sourceLayer":"mountain_peak","archive":"https://its.hanifahseptiani45.workers.dev/v1/map/archive/indonesia.pmtiles","updatedAt":"2026-07-26T09:42:39.162Z"},"geometry":{"type":"Point","coordinates":[119.96898651123047,-2.021236673349236]}},{"type":"Feature","id":"pmtiles:10/853/517:mountain_peak:10701711421:0","properties":{"name_int":"Buntu Waliongu","name_de":"Buntu Waliongu","name":"Buntu Waliongu","rank":5,"class":"peak","name:latin":"Buntu Waliongu","name_en":"Buntu Waliongu","kind":"poi","verification":"verified","source":"OpenMapTiles/OpenStreetMap national PMTiles","sourceId":"10/853/517:mountain_peak:10701711421:0","sourceLayer":"mountain_peak","archive":"https://its.hanifahseptiani45.workers.dev/v1/map/archive/indonesia.pmtiles","updatedAt":"2026-07-26T09:42:39.162Z"},"geometry":{"type":"Point","coordinates":[119.94426727294922,-2.0172909133744668]}},{"type":"Feature","id":"pmtiles:10/853/517:mountain_peak:10701706951:0","properties":{"name_int":"Buntu Mubolong","name_de":"Buntu Mubolong","name":"Buntu Mubolong","rank":4,"class":"peak","name:latin":"Buntu Mubolong","name_en":"Buntu Mubolong","kind":"poi","verification":"verified","source":"OpenMapTiles/OpenStreetMap national PMTiles","sourceId":"10/853/517:mountain_peak:10701706951:0","sourceLayer":"mountain_peak","archive":"https://its.hanifahseptiani45.workers.dev/v1/map/archive/indonesia.pmtiles","updatedAt":"2026-07-26T09:42:39.162Z"},"geometry":{"type":"Point","coordinates":[119.98108863830566,-2.1056392987585184]}},{"type":"Feature","id":"pmtiles:10/853/517:mountain_peak:10701622321:0","properties":{"name_int":"Bulu Bubulanti","name_de":"Bulu Bubulanti","name":"Bulu Bubulanti","rank":4,"class":"peak","name:latin":"Bulu Bubulanti","name_en":"Bulu Bubulanti","kind":"poi","verification":"verified","source":"OpenMapTiles/OpenStreetMap national PMTiles","sourceId":"10/853/517:mountain_peak:10701622321:0","sourceLayer":"mountain_peak","archive":"https://its.hanifahseptiani45.workers.dev/v1/map/archive/indonesia.pmtiles","updatedAt":"2026-07-26T09:42:39.163Z"},"geometry":{"type":"Point","coordinates":[120.1845932006836,-1.7941689121606998]}},{"type":"Feature","id":"pmtiles:10/853/517:mountain_peak:10701645551:0","properties":{"name_int":"Bulu Meseli","name_de":"Bulu Meseli","name":"Bulu Meseli","rank":5,"class":"peak","name:latin":"Bulu Meseli","name_en":"Bulu Meseli","kind":"poi","verification":"verified","source":"OpenMapTiles/OpenStreetMap national PMTiles","sourceId":"10/853/517:mountain_peak:10701645551:0","sourceLayer":"mountain_peak","archive":"https://its.hanifahseptiani45.workers.dev/v1/map/archive/indonesia.pmtiles","updatedAt":"2026-07-26T09:42:39.163Z"},"geometry":{"type":"Point","coordinates":[120.19652366638184,-1.810297099549544]}},{"type":"Feature","id":"pmtiles:10/853/517:mountain_peak:10701551111:0","properties":{"name_int":"Bulu Towelo","name_de":"Bulu Towelo","name":"Bulu Towelo","rank":1,"class":"peak","name:latin":"Bulu Towelo","name_en":"Bulu Towelo","kind":"poi","verification":"verified","source":"OpenMapTiles/OpenStreetMap national PMTiles","sourceId":"10/853/517:mountain_peak:10701551111:0","sourceLayer":"mountain_peak","archive":"https://its.hanifahseptiani45.workers.dev/v1/map/archive/indonesia.pmtiles","updatedAt":"2026-07-26T09:42:39.163Z"},"geometry":{"type":"Point","coordinates":[120.17601013183594,-1.953642780098079]}},{"type":"Feature","id":"pmtiles:10/853/517:mountain_peak:10701566261:0","properties":{"name_int":"Bulu Popotondoa","name_de":"Bulu Popotondoa","name":"Bulu Popotondoa","rank":2,"class":"peak","name:latin":"Bulu Popotondoa","name_en":"Bulu Popotondoa","kind":"poi","verification":"verified","source":"OpenMapTiles/OpenStreetMap national PMTiles","sourceId":"10/853/517:mountain_peak:10701566261:0","sourceLayer":"mountain_peak","archive":"https://its.hanifahseptiani45.workers.dev/v1/map/archive/indonesia.pmtiles","updatedAt":"2026-07-26T09:42:39.163Z"},"geometry":{"type":"Point","coordinates":[120.1673412322998,-1.9305675874971229]}},{"type":"Feature","id":"pmtiles:10/853/517:mountain_peak:10701589871:0","properties":{"name_int":"Bulu Pawuli","name_de":"Bulu Pawuli","name":"Bulu Pawuli","rank":3,"class":"peak","name:latin":"Bulu Pawuli","name_en":"Bulu Pawuli","kind":"poi","verification":"verified","source":"OpenMapTiles/OpenStreetMap national PMTiles","sourceId":"10/853/517:mountain_peak:10701589871:0","sourceLayer":"mountain_peak","archive":"https://its.hanifahseptiani45.workers.dev/v1/map/archive/indonesia.pmtiles","updatedAt":"2026-07-26T09:42:39.163Z"},"geometry":{"type":"Point","coordinates":[120.19721031188965,-1.8400652378517606]}},{"type":"Feature","id":"pmtiles:10/853/517:mountain_peak:10701594911:0","properties":{"name_int":"Bulu Padalolo","name_de":"Bulu Padalolo","name":"Bulu Padalolo","rank":4,"class":"peak","name:latin":"Bulu Padalolo","name_en":"Bulu Padalolo","kind":"poi","verification":"verified","source":"OpenMapTiles/OpenStreetMap national PMTiles","sourceId":"10/853/517:mountain_peak:10701594911:0","sourceLayer":"mountain_peak","archive":"https://its.hanifahseptiani45.workers.dev/v1/map/archive/indonesia.pmtiles","updatedAt":"2026-07-26T09:42:39.163Z"},"geometry":{"type":"Point","coordinates":[120.15386581420898,-1.8900780189337496]}},{"type":"Feature","id":"pmtiles:10/853/517:mountain_peak:10701601361:0","properties":{"name_int":"Tutu Walowulu","name_de":"Tutu Walowulu","name":"Tutu Walowulu","rank":5,"class":"peak","name:latin":"Tutu Walowulu","name_en":"Tutu Walowulu","kind":"poi","verification":"verified","source":"OpenMapTiles/OpenStreetMap national PMTiles","sourceId":"10/853/517:mountain_peak:10701601361:0","sourceLayer":"mountain_peak","archive":"https://its.hanifahseptiani45.workers.dev/v1/map/archive/indonesia.pmtiles","updatedAt":"2026-07-26T09:42:39.163Z"},"geometry":{"type":"Point","coordinates":[120.06691932678223,-1.847957571923871]}},{"type":"Feature","id":"pmtiles:10/853/517:mountain_peak:10701606431:0","properties":{"name_int":"Biri Rante","name_de":"Biri Rante","name":"Biri Rante","rank":1,"class":"peak","name:latin":"Biri Rante","name_en":"Biri Rante","kind":"poi","verification":"verified","source":"OpenMapTiles/OpenStreetMap national PMTiles","sourceId":"10/853/517:mountain_peak:10701606431:0","sourceLayer":"mountain_peak","archive":"https://its.hanifahseptiani45.workers.dev/v1/map/archive/indonesia.pmtiles","updatedAt":"2026-07-26T09:42:39.163Z"},"geometry":{"type":"Point","coordinates":[120.19909858703613,-2.063524321043815]}},{"type":"Feature","id":"pmtiles:10/853/517:mountain_peak:10701609621:0","properties":{"name_int":"Bulu Towo","name_de":"Bulu Towo","name":"Bulu Towo","rank":2,"class":"peak","name:latin":"Bulu Towo","name_en":"Bulu Towo","kind":"poi","verification":"verified","source":"OpenMapTiles/OpenStreetMap national PMTiles","sourceId":"10/853/517:mountain_peak:10701609621:0","sourceLayer":"mountain_peak","archive":"https://its.hanifahseptiani45.workers.dev/v1/map/archive/indonesia.pmtiles","updatedAt":"2026-07-26T09:42:39.163Z"},"geometry":{"type":"Point","coordinates":[120.18588066101074,-1.9682254523396239]}},{"type":"Feature","id":"pmtiles:10/853/517:mountain_peak:10701631401:0","properties":{"name_int":"Bulu Tomotaipa","name_de":"Bulu Tomotaipa","name":"Bulu Tomotaipa","rank":3,"class":"peak","name:latin":"Bulu Tomotaipa","name_en":"Bulu Tomotaipa","kind":"poi","verification":"verified","source":"OpenMapTiles/OpenStreetMap national PMTiles","sourceId":"10/853/517:mountain_peak:10701631401:0","sourceLayer":"mountain_peak","archive":"https://its.hanifahseptiani45.workers.dev/v1/map/archive/indonesia.pmtiles","updatedAt":"2026-07-26T09:42:39.163Z"},"geometry":{"type":"Point","coordinates":[120.09481430053711,-1.9619634968888136]}},{"type":"Feature","id":"pmtiles:10/853/517:mountain_peak:10701731391:0","properties":{"name_int":"Biri Pentowa","name_de":"Biri Pentowa","name":"Biri Pentowa","rank":4,"class":"peak","name:latin":"Biri Pentowa","name_en":"Biri Pentowa","kind":"poi","verification":"verified","source":"OpenMapTiles/OpenStreetMap national PMTiles","sourceId":"10/853/517:mountain_peak:10701731391:0","sourceLayer":"mountain_peak","archive":"https://its.hanifahseptiani45.workers.dev/v1/map/archive/indonesia.pmtiles","updatedAt":"2026-07-26T09:42:39.163Z"},"geometry":{"type":"Point","coordinates":[120.1644229888916,-2.039764461205081]}},{"type":"Feature","id":"pmtiles:10/853/517:mountain_peak:10701788911:0","properties":{"name_int":"Tutu Tokuni","name_de":"Tutu Tokuni","name":"Tutu Tokuni","rank":5,"class":"peak","name:latin":"Tutu Tokuni","name_en":"Tutu Tokuni","kind":"poi","verification":"verified","source":"OpenMapTiles/OpenStreetMap national PMTiles","sourceId":"10/853/517:mountain_peak:10701788911:0","sourceLayer":"mountain_peak","archive":"https://its.hanifahseptiani45.workers.dev/v1/map/archive/indonesia.pmtiles","updatedAt":"2026-07-26T09:42:39.163Z"},"geometry":{"type":"Point","coordinates":[120.08691787719727,-1.9797199394378282]}},{"type":"Feature","id":"pmtiles:10/853/517:mountain_peak:10701713871:0","properties":{"name_int":"Bulu Sepe","name_de":"Bulu Sepe","name":"Bulu Sepe","rank":5,"class":"peak","name:latin":"Bulu Sepe","name_en":"Bulu Sepe","kind":"poi","verification":"verified","source":"OpenMapTiles/OpenStreetMap national PMTiles","sourceId":"10/853/517:mountain_peak:10701713871:0","sourceLayer":"mountain_peak","archive":"https://its.hanifahseptiani45.workers.dev/v1/map/archive/indonesia.pmtiles","updatedAt":"2026-07-26T09:42:39.163Z"},"geometry":{"type":"Point","coordinates":[120.23283004760742,-1.8126991577659766]}},{"type":"Feature","id":"pmtiles:10/853/517:mountain_peak:10701610811:0","properties":{"name_int":"Bulu Talamati","name_de":"Bulu Talamati","name":"Bulu Talamati","rank":1,"class":"peak","name:latin":"Bulu Talamati","name_en":"Bulu Talamati","kind":"poi","verification":"verified","source":"OpenMapTiles/OpenStreetMap national PMTiles","sourceId":"10/853/517:mountain_peak:10701610811:0","sourceLayer":"mountain_peak","archive":"https://its.hanifahseptiani45.workers.dev/v1/map/archive/indonesia.pmtiles","updatedAt":"2026-07-26T09:42:39.163Z"},"geometry":{"type":"Point","coordinates":[120.21986961364746,-1.861940642810552]}},{"type":"Feature","id":"pmtiles:10/853/517:mountain_peak:10701767801:0","properties":{"name_int":"Bulu Talumbongo","name_de":"Bulu Talumbongo","name":"Bulu Talumbongo","rank":4,"class":"peak","name:latin":"Bulu Talumbongo","name_en":"Bulu Talumbongo","kind":"poi","verification":"verified","source":"OpenMapTiles/OpenStreetMap national PMTiles","sourceId":"10/853/517:mountain_peak:10701767801:0","sourceLayer":"mountain_peak","archive":"https://its.hanifahseptiani45.workers.dev/v1/map/archive/indonesia.pmtiles","updatedAt":"2026-07-26T09:42:39.163Z"},"geometry":{"type":"Point","coordinates":[120.20278930664062,-1.9390599812528677]}},{"type":"Feature","id":"pmtiles:10/853/517:mountain_peak:10701612181:0","properties":{"name_int":"Bulu Bobongko","name_de":"Bulu Bobongko","name":"Bulu Bobongko","rank":4,"class":"peak","name:latin":"Bulu Bobongko","name_en":"Bulu Bobongko","kind":"poi","verification":"verified","source":"OpenMapTiles/OpenStreetMap national PMTiles","sourceId":"10/853/517:mountain_peak:10701612181:0","sourceLayer":"mountain_peak","archive":"https://its.hanifahseptiani45.workers.dev/v1/map/archive/indonesia.pmtiles","updatedAt":"2026-07-26T09:42:39.163Z"},"geometry":{"type":"Point","coordinates":[120.23128509521484,-1.9810924101913656]}},{"type":"Feature","id":"pmtiles:10/853/517:park:87672773:0","properties":{"name":"Taman Nasional Lore Lindu","name_int":"Lore Lindu National Park","class":"national_park","name:latin":"Taman Nasional Lore Lindu","name_de":"Taman Nasional Lore Lindu","name_en":"Lore Lindu National Park","kind":"green","verification":"verified","source":"OpenMapTiles/OpenStreetMap national PMTiles","sourceId":"10/853/517:park:87672773:0","sourceLayer":"park","archive":"https://its.hanifahseptiani45.workers.dev/v1/map/archive/indonesia.pmtiles","updatedAt":"2026-07-26T09:42:39.163Z"},"geometry":{"type":"Polygon","coordinates":[[[120.2398681640625,-1.7520462233579792],[120.2398681640625,-1.8516463682210258],[120.23617744445801,-1.8507885093016228],[120.23531913757324,-1.8507885093016228],[120.23205757141113,-1.8522468692175664],[120.23188591003418,-1.8540483709856943],[120.23154258728027,-1.8548204426108583],[120.22905349731445,-1.8556782995769936],[120.22845268249512,-1.8562787992056826],[120.22613525390625,-1.8575655834373919],[120.22536277770996,-1.8591955087853052],[120.2164363861084,-1.8591955087853052],[120.21566390991211,-1.8597102217404284],[120.21480560302734,-1.8598817926921072],[120.21454811096191,-1.86168328667722],[120.2094841003418,-1.8648573430274382],[120.20896911621094,-1.8645999873202896],[120.20888328552246,-1.865972550656707],[120.20776748657227,-1.8660583358296918],[120.20819664001465,-1.8677740384099764],[120.20819664001465,-1.868631889071949],[120.20742416381836,-1.8689750292194134],[120.2065658569336,-1.868631889071949],[120.2057933807373,-1.8690608142458132],[120.20519256591797,-1.869661309313173],[120.2043342590332,-1.8699186642791545],[120.2028751373291,-1.8710338686955623],[120.20193099975586,-1.870776513893162],[120.20072937011719,-1.869747094306021],[120.20038604736328,-1.8688892441888356],[120.1988410949707,-1.868631889071949],[120.19806861877441,-1.8700902342354908],[120.19781112670898,-1.8732642754007145],[120.19755363464355,-1.8740363385987564],[120.19437789916992,-1.8760093874468424],[120.19394874572754,-1.8767814494339063],[120.1933479309082,-1.8773819418548499],[120.19171714782715,-1.8778108648863565],[120.19128799438477,-1.8784113569536203],[120.19068717956543,-1.8782397878125892],[120.19017219543457,-1.8774677264695754],[120.1878547668457,-1.8774677264695754],[120.18699645996094,-1.877296157235918],[120.18622398376465,-1.8767814494339063],[120.18562316894531,-1.8760951721289132],[120.18648147583008,-1.8746368319618654],[120.18716812133789,-1.8740363385987564],[120.1878547668457,-1.8715485781870882],[120.18776893615723,-1.8706049440039152],[120.18742561340332,-1.8698328792946768],[120.18725395202637,-1.8681171787250292],[120.18622398376465,-1.8666588319232602],[120.18630981445312,-1.8634847788212454],[120.18648147583008,-1.862626925649053],[120.18485069274902,-1.8594528652816251],[120.18364906311035,-1.8585950101479511],[120.18193244934082,-1.8582518679777706],[120.179443359375,-1.8567077273870183],[120.17867088317871,-1.8558498709202809],[120.17669677734375,-1.855935656585686],[120.17515182495117,-1.8551635854472437],[120.17480850219727,-1.8545630854399064],[120.17343521118164,-1.8548204426108583],[120.17266273498535,-1.8543057282315232],[120.17214775085449,-1.853619442159527],[120.17094612121582,-1.8538767994676988],[120.16974449157715,-1.8537910137024767],[120.1688003540039,-1.8532762990237757],[120.16768455505371,-1.8544772997079377],[120.16656875610352,-1.8587665812080445],[120.1658821105957,-1.8592812942882517],[120.16416549682617,-1.8596244362583292],[120.16279220581055,-1.8607396472002335],[120.16227722167969,-1.8614259305063143],[120.1615047454834,-1.8618548574369669],[120.15978813171387,-1.8613401451076612],[120.15978813171387,-1.8604822908916105],[120.1589298248291,-1.8602249345454283],[120.15841484069824,-1.860911218051811],[120.15764236450195,-1.8614259305063143],[120.15661239624023,-1.8628842816445683],[120.15583992004395,-1.8633132082202195],[120.15403747558594,-1.863656349405531],[120.15335083007812,-1.8642568463189093],[120.15420913696289,-1.8657151951126991],[120.15369415283203,-1.8664014764796946],[120.15214920043945,-1.8672593278117375],[120.1508617401123,-1.8698328792946768],[120.1516342163086,-1.87223485727408],[120.15154838562012,-1.8748941861973094],[120.15137672424316,-1.87575203337542],[120.15026092529297,-1.8771245879854206],[120.14991760253906,-1.8779824340694802],[120.14983177185059,-1.883215286055588],[120.14871597290039,-1.8845878347965623],[120.1479434967041,-1.885016756056288],[120.14751434326172,-1.8857888140574772],[120.14811515808105,-1.8874187131571603],[120.14777183532715,-1.8882765541749365],[120.14897346496582,-1.8905927228073267],[120.14974594116211,-1.890850074686881],[120.15060424804688,-1.8907642907312692],[120.15257835388184,-1.891707914009757],[120.15403747558594,-1.892737320637238],[120.15506744384766,-1.894109861856407],[120.15609741210938,-1.8975412101454623],[120.15755653381348,-1.8985706133051252],[120.15789985656738,-1.9002862838753742],[120.15944480895996,-1.9010583350759873],[120.15961647033691,-1.9019161693383353],[120.15867233276367,-1.903460269935664],[120.15970230102539,-1.906033767857437],[120.15978813171387,-1.9068915996434441],[120.15910148620605,-1.9094650924350702],[120.15789985656738,-1.9108376203485307],[120.15721321105957,-1.912467495821005],[120.15729904174805,-1.913325324395288],[120.1585865020752,-1.915555676679972],[120.15918731689453,-1.916241938337393],[120.15935897827148,-1.9170997650223995],[120.16124725341797,-1.9188154171025928],[120.16210556030273,-1.9189869822159835],[120.1629638671875,-1.9189869822159835],[120.16339302062988,-1.918214939070225],[120.16425132751465,-1.9180433738794136],[120.1658821105957,-1.9185580694002482],[120.16742706298828,-1.9177002434461485],[120.16914367675781,-1.918300721659179],[120.16974449157715,-1.9177002434461485],[120.17034530639648,-1.917957591277542],[120.17060279846191,-1.919072764766213],[120.17111778259277,-1.9198448075246688],[120.17377853393555,-1.9219893689125058],[120.17498016357422,-1.9253348792976936],[120.17678260803223,-1.926621612313312],[120.17661094665527,-1.9283372548219404],[120.17609596252441,-1.929109293386631],[120.1768684387207,-1.9306533694646788],[120.17669677734375,-1.9324547897828097],[120.17721176147461,-1.934084644614515],[120.17695426940918,-1.9362291880601674],[120.17635345458984,-1.9379448208630237],[120.17523765563965,-1.9393173258538638],[120.17480850219727,-1.940947174084485],[120.17369270324707,-1.9423196766390447],[120.17343521118164,-1.9431774901694894],[120.17189025878906,-1.9440353032642008],[120.17068862915039,-1.9462656152698656],[120.16759872436523,-1.9506404494778593],[120.16751289367676,-1.9535569992976463],[120.16828536987305,-1.956988227895934],[120.16837120056152,-1.9587038395629008],[120.17060279846191,-1.9613630341742265],[120.17189025878906,-1.9635933231701586],[120.17163276672363,-1.9653089280648999],[120.17043113708496,-1.9666814107115869],[120.17025947570801,-1.9675392117925128],[120.16948699951172,-1.9679681121675685],[120.1688003540039,-1.9672818715145581],[120.1681137084961,-1.9656520488323679],[120.16828536987305,-1.9647942467814943],[120.16716957092285,-1.9623923986958403],[120.16639709472656,-1.9618777165142092],[120.16468048095703,-1.961534594971809],[120.16390800476074,-1.9611056929448552],[120.16347885131836,-1.9602478885611418],[120.16390800476074,-1.9585322784752464],[120.16347885131836,-1.9577602533633893],[120.1618480682373,-1.957159789141656],[120.16030311584473,-1.9561304214041115],[120.1600456237793,-1.955272614473671],[120.16030311584473,-1.9544148071047829],[120.16081809997559,-1.9486674864380262],[120.16116142272949,-1.9478096756995882],[120.16098976135254,-1.9469518645243795],[120.16047477722168,-1.9461798340933996],[120.15961647033691,-1.9459224905378534],[120.15807151794434,-1.9468660833828437],[120.15721321105957,-1.9470376456615526],[120.157470703125,-1.9461798340933996],[120.15738487243652,-1.9442926471076305],[120.15566825866699,-1.9433490528232937],[120.15523910522461,-1.9407756111868224],[120.15446662902832,-1.9404324853392296],[120.1516342163086,-1.940689829731454],[120.1508617401123,-1.9403467038664672],[120.15060424804688,-1.9394888888994615],[120.1508617401123,-1.938459510365007],[120.15077590942383,-1.9366580964237556],[120.14983177185059,-1.9351140258068966],[120.14631271362305,-1.9321116622504348],[120.1453685760498,-1.9317685346487536],[120.1439094543457,-1.9307391514278862],[120.14339447021484,-1.9299671136030838],[120.14322280883789,-1.929109293386631],[120.1424503326416,-1.9285946010490989],[120.14167785644531,-1.9291950754277423],[120.14081954956055,-1.9288519472373338],[120.1398754119873,-1.9269647409533377],[120.13833045959473,-1.9260211370269644],[120.13678550720215,-1.9227614103528907],[120.13566970825195,-1.9213031095613218],[120.13566970825195,-1.9204452849846092],[120.13721466064453,-1.9195874599772509],[120.13858795166016,-1.918300721659179],[120.13918876647949,-1.9166708517336275],[120.14081954956055,-1.914526283678427],[120.1409912109375,-1.9136684557048653],[120.14004707336426,-1.9122101471650836],[120.1398754119873,-1.9113523180333232],[120.14030456542969,-1.909808224516226],[120.14021873474121,-1.9088646111281804],[120.1395320892334,-1.9072347322381233],[120.13815879821777,-1.9049185858966666],[120.13738632202148,-1.904489669565649],[120.13601303100586,-1.9032887032709027],[120.13541221618652,-1.9023450863095803],[120.13541221618652,-1.901658819104398],[120.1358413696289,-1.9008867681723558],[120.13669967651367,-1.9009725516263103],[120.13747215270996,-1.9013156853994673],[120.1380729675293,-1.9019161693383353],[120.13978958129883,-1.9023450863095803],[120.1406478881836,-1.9021735195338891],[120.14202117919922,-1.9008867681723558],[120.1424503326416,-1.9002005003873421],[120.14167785644531,-1.8998573663925669],[120.14107704162598,-1.8981416953964185],[120.14107704162598,-1.8955681857103457],[120.1413345336914,-1.89376672665351],[120.14107704162598,-1.8929088883490692],[120.13815879821777,-1.8909358586382439],[120.13781547546387,-1.8900780189337496],[120.13772964477539,-1.8883623382534296],[120.13824462890625,-1.8875902813945657],[120.13815879821777,-1.8867324400381733],[120.13747215270996,-1.8863035192013058],[120.13566970825195,-1.886475087548746],[120.13481140136719,-1.8862177350212335],[120.13446807861328,-1.885359892987978],[120.13627052307129,-1.8836442076533046],[120.13712882995605,-1.8821858737903199],[120.13738632202148,-1.8813280297716517],[120.13687133789062,-1.8804701853310917],[120.13498306274414,-1.8801270474367868],[120.13429641723633,-1.878325572385208],[120.13275146484375,-1.8761809568067491],[120.13283729553223,-1.8744652624505562],[120.13197898864746,-1.8728353512547784],[120.13154983520508,-1.8711196536213066],[120.12923240661621,-1.868288748857438],[120.1288890838623,-1.8665730467795925],[120.12828826904297,-1.8658867654795728],[120.12648582458496,-1.8656294099230024],[120.12639999389648,-1.8647715577959048],[120.12700080871582,-1.86314163760251],[120.12700080871582,-1.8613401451076612],[120.12760162353516,-1.8596244362583292],[120.1274299621582,-1.8587665812080445],[120.12682914733887,-1.8580802968676693],[120.12519836425781,-1.857222441067222],[120.12348175048828,-1.8567077273870183],[120.12313842773438,-1.855935656585686],[120.12373924255371,-1.855335156840468],[120.12459754943848,-1.8552493711459306],[120.12494087219238,-1.8537910137024767],[120.1248550415039,-1.8529331558215176],[120.12373924255371,-1.851474796470356],[120.12219429016113,-1.8505311515448568],[120.12090682983398,-1.849244362200892],[120.11833190917969,-1.8487296462020026],[120.1175594329834,-1.8482149300538993],[120.11730194091797,-1.8473570694754642],[120.11850357055664,-1.8461560639697012],[120.11893272399902,-1.8454697747449131],[120.11858940124512,-1.8446119128414722],[120.11695861816406,-1.843839836774677],[120.1164436340332,-1.8431535466563673],[120.11627197265625,-1.842295683636479],[120.1164436340332,-1.8414378202034527],[120.11507034301758,-1.8398936649835065],[120.11343955993652,-1.8391215868721247],[120.11163711547852,-1.838864227427436],[120.11077880859375,-1.8385210814434316],[120.11043548583984,-1.837663216194855],[120.11112213134766,-1.8360332710873735],[120.11146545410156,-1.8342317510814325],[120.11258125305176,-1.8328591631925946],[120.11292457580566,-1.8320870820426478],[120.11172294616699,-1.8308002793866223],[120.11129379272461,-1.8300281973495487],[120.11163711547852,-1.829256114980069],[120.11232376098633,-1.8286556062407158],[120.11249542236328,-1.8277977362645288],[120.11189460754395,-1.8271114399884567],[120.11198043823242,-1.8262535692745985],[120.11335372924805,-1.8251383367343266],[120.1138687133789,-1.824366252262763],[120.1138687133789,-1.8215352730328362],[120.11292457580566,-1.8199911006683465],[120.11283874511719,-1.8191332265610498],[120.11301040649414,-1.8173316896080536],[120.113525390625,-1.8166453893435772],[120.11438369750977,-1.816816964434139],[120.11515617370605,-1.8164738142367156],[120.11524200439453,-1.8156159384580235],[120.11721611022949,-1.8141575486998818],[120.11764526367188,-1.8134712472303391],[120.11747360229492,-1.8125275822847442],[120.11635780334473,-1.8111549778495828],[120.11695861816406,-1.8104686752420491],[120.11695861816406,-1.809610796617207],[120.1164436340332,-1.8088387055078812],[120.11670112609863,-1.8070371583085318],[120.11618614196777,-1.8063508541433748],[120.11404037475586,-1.8046350925964134],[120.11301040649414,-1.8031766940086271],[120.11335372924805,-1.8023188119404239],[120.11421203613281,-1.8020614472411296],[120.11489868164062,-1.8015467177334585],[120.11472702026367,-1.7997451633114423],[120.11395454406738,-1.799402009886336],[120.113525390625,-1.7985441260411363],[120.11421203613281,-1.7979436071095023],[120.11455535888672,-1.7971715110499673],[120.11395454406738,-1.796399414663938],[120.11361122131348,-1.7955415294078705],[120.1138687133789,-1.7946836437491385],[120.11335372924805,-1.7939973349323566],[120.1131820678711,-1.7929678712244197],[120.11120796203613,-1.7910805195896273],[120.1094913482666,-1.7884210662595024],[120.10906219482422,-1.7867052878716265],[120.10846138000488,-1.7860189760676093],[120.10811805725098,-1.785246874981695],[120.10794639587402,-1.7834453045202991],[120.10640144348145,-1.7782979506318952],[120.10348320007324,-1.773579530287492],[120.1021957397461,-1.7723784759137686],[120.10176658630371,-1.7706626826000047],[120.10116577148438,-1.7699763648296596],[120.10090827941895,-1.7691184672594886],[120.09944915771484,-1.7679174099947375],[120.09833335876465,-1.7655152931344702],[120.09764671325684,-1.7650863433683526],[120.0967025756836,-1.7651721333295],[120.09498596191406,-1.764571603518391],[120.0941276550293,-1.7647431834842138],[120.09232521057129,-1.7677458303220561],[120.09241104125977,-1.7695474160941842],[120.09318351745605,-1.7710916310774252],[120.09326934814453,-1.7719495277343214],[120.09275436401367,-1.7726358447737312],[120.0918960571289,-1.7729790031980457],[120.0912094116211,-1.7724642655377352],[120.08846282958984,-1.7722926862858372],[120.08769035339355,-1.771863738086509],[120.08683204650879,-1.7721211070180232],[120.08623123168945,-1.7728074239938536],[120.08545875549316,-1.7732363719745194],[120.08511543273926,-1.7724642655377352],[120.08502960205078,-1.7706626826000047],[120.0846004486084,-1.7699763648296596],[120.08477210998535,-1.7691184672594886],[120.08563041687012,-1.7674884607832695],[120.08563041687012,-1.7666305620630425],[120.08511543273926,-1.7658584528760883],[120.08485794067383,-1.7641426535345914],[120.08417129516602,-1.7635421233911046],[120.08382797241211,-1.7598531482605182],[120.08365631103516,-1.758995246020902],[120.08305549621582,-1.7582231336679683],[120.08254051208496,-1.7565073272958784],[120.08236885070801,-1.7547915193481032],[120.08142471313477,-1.7520462233579792],[120.2398681640625,-1.7520462233579792]]]}},{"type":"Feature","id":"pmtiles:10/853/517:water:170856913:0","properties":{"intermittent":0,"class":"river","id":17085691,"water":"river","kind":"waterway","verification":"verified","source":"OpenMapTiles/OpenStreetMap national PMTiles","sourceId":"10/853/517:water:170856913:0","sourceLayer":"water","archive":"https://its.hanifahseptiani45.workers.dev/v1/map/archive/indonesia.pmtiles","updatedAt":"2026-07-26T09:42:39.164Z"},"geometry":{"type":"Polygon","coordinates":[[[120.2398681640625,-1.8745510472083282],[120.23961067199707,-1.8745510472083282],[120.23789405822754,-1.8751515403948957],[120.23755073547363,-1.8755804639734492],[120.23720741271973,-1.8750657556665686],[120.23540496826172,-1.8751515403948957],[120.23351669311523,-1.8737789842372194],[120.22982597351074,-1.8737789842372194],[120.22879600524902,-1.8743794776886062],[120.22725105285645,-1.8742936929224498],[120.22553443908691,-1.8728353512547784],[120.2245044708252,-1.872492211862422],[120.22201538085938,-1.8732642754007145],[120.22158622741699,-1.873607414641853],[120.22141456604004,-1.8732642754007145],[120.22012710571289,-1.8728353512547784],[120.21626472473145,-1.8725779967168137],[120.21549224853516,-1.8730069209257607],[120.21411895751953,-1.87223485727408],[120.2135181427002,-1.873607414641853],[120.2127456665039,-1.8739505538157744],[120.21137237548828,-1.8739505538157744],[120.21068572998047,-1.873607414641853],[120.20939826965332,-1.8743794776886062],[120.20630836486816,-1.8742936929224498],[120.2057933807373,-1.8746368319618654],[120.20587921142578,-1.8748941861973094],[120.20442008972168,-1.8766098801329179],[120.20390510559082,-1.8770388033538552],[120.20167350769043,-1.8775535110800803],[120.19987106323242,-1.8777250802884708],[120.19918441772461,-1.878154003235764],[120.19755363464355,-1.8784113569536203],[120.19326210021973,-1.881499598609139],[120.19257545471191,-1.881671167429758],[120.1907730102539,-1.8814138141925127],[120.18922805786133,-1.8820143050203626],[120.18768310546875,-1.885016756056288],[120.18708229064941,-1.8855314614284566],[120.18622398376465,-1.8862177350212335],[120.18364906311035,-1.8871613607692694],[120.18081665039062,-1.8888770426354284],[120.17892837524414,-1.8888770426354284],[120.17712593078613,-1.8879334178186156],[120.17566680908203,-1.888019201914048],[120.1739501953125,-1.8899922349399816],[120.17292022705078,-1.8951392670572602],[120.1724910736084,-1.8951392670572602],[120.1699161529541,-1.8968549410319042],[120.16682624816895,-1.8982274789866693],[120.16665458679199,-1.8980559118019187],[120.16665458679199,-1.897884344600115],[120.1673412322998,-1.8974554265211623],[120.17231941223145,-1.894796132058275],[120.17231941223145,-1.8940240780620456],[120.17292022705078,-1.8923941851626296],[120.17292022705078,-1.8914505622574183],[120.17386436462402,-1.888962826684292],[120.1750659942627,-1.8877618496150603],[120.17618179321289,-1.8871613607692694],[120.17678260803223,-1.8865608717161138],[120.17746925354004,-1.8863035192013058],[120.17824172973633,-1.8877618496150603],[120.1791000366211,-1.8881907700921943],[120.18021583557129,-1.8884481223276737],[120.18115997314453,-1.8881907700921943],[120.18321990966797,-1.8867324400381733],[120.18476486206055,-1.8862177350212335],[120.18716812133789,-1.8848451875650767],[120.1875114440918,-1.884416266263088],[120.18854141235352,-1.8818427362334944],[120.18939971923828,-1.8810706764837732],[120.19034385681152,-1.8808133231579234],[120.19111633300781,-1.881156460917282],[120.19257545471191,-1.8813280297716517],[120.19360542297363,-1.8808133231579234],[120.19746780395508,-1.878154003235764],[120.19841194152832,-1.8779824340694802],[120.20021438598633,-1.8773819418548499],[120.2028751373291,-1.8771245879854206],[120.20390510559082,-1.8767814494339063],[120.2057933807373,-1.8742079081520728],[120.20622253417969,-1.873864769028586],[120.20811080932617,-1.8739505538157744],[120.20905494689941,-1.8741221233775178],[120.21068572998047,-1.8733500602173052],[120.21162986755371,-1.8737789842372194],[120.21240234375,-1.8737789842372194],[120.21326065063477,-1.8732642754007145],[120.21360397338867,-1.8724064270038525],[120.21403312683105,-1.871977502647951],[120.21446228027344,-1.871977502647951],[120.2153205871582,-1.8725779967168137],[120.21583557128906,-1.87223485727408],[120.21712303161621,-1.8723206421410623],[120.2175521850586,-1.8718917177641714],[120.2208137512207,-1.8728353512547784],[120.2222728729248,-1.8727495664129918],[120.22390365600586,-1.872149072402891],[120.22493362426758,-1.872149072402891],[120.22613525390625,-1.872663781567013],[120.2274227142334,-1.8737789842372194],[120.2285385131836,-1.8739505538157744],[120.22913932800293,-1.8737789842372194],[120.22982597351074,-1.8730069209257607],[120.2303409576416,-1.8718917177641714],[120.23137092590332,-1.8708622988314971],[120.23162841796875,-1.8711196536213066],[120.23102760314941,-1.8718917177641714],[120.23051261901855,-1.8731784905799316],[120.23077011108398,-1.8735216298378674],[120.23171424865723,-1.8732642754007145],[120.23368835449219,-1.8734358450297037],[120.2347183227539,-1.8742079081520728],[120.23643493652344,-1.8746368319618654],[120.23737907409668,-1.8746368319618654],[120.2398681640625,-1.8741221233775178],[120.2398681640625,-1.8745510472083282]]]}},{"type":"Feature","id":"pmtiles:10/853/517:waterway:589428442:0","properties":{"name":"Salo Lariang","name_int":"Salo Lariang","class":"river","name:latin":"Salo Lariang","name_de":"Salo Lariang","name_en":"Salo Lariang","waterway":"river","kind":"waterway","verification":"verified","source":"OpenMapTiles/OpenStreetMap national PMTiles","sourceId":"10/853/517:waterway:589428442:0","sourceLayer":"waterway","archive":"https://its.hanifahseptiani45.workers.dev/v1/map/archive/indonesia.pmtiles","updatedAt":"2026-07-26T09:42:39.164Z"},"geometry":{"type":"LineString","coordinates":[[120.17197608947754,-1.9657378290132073],[120.17025947570801,-1.9681396722866822],[120.16888618469238,-1.9672818715145581],[120.16751289367676,-1.9631644216712232],[120.1640796661377,-1.9614488145752063],[120.16339302062988,-1.9606767908079519],[120.1633071899414,-1.9599905471603023],[120.16365051269531,-1.9585322784752464],[120.16098976135254,-1.9572455697579159],[120.1600456237793,-1.9559588600531157],[120.16013145446777,-1.9503831066038373],[120.16064643859863,-1.9488390485332872],[120.1603889465332,-1.9472092079227963],[120.15944480895996,-1.9465229587730448],[120.1571273803711,-1.9477238946017081],[120.15678405761719,-1.947294989046867],[120.15669822692871,-1.9456651469430284],[120.15644073486328,-1.9449788971648871],[120.15532493591309,-1.9436063967713437],[120.15480995178223,-1.941204518398365],[120.15094757080078,-1.9411187369647536],[120.15034675598145,-1.9394031073788511],[120.1505184173584,-1.937344349579675],[120.14880180358887,-1.9345135535205884],[120.14373779296875,-1.931425406977752],[120.14322280883789,-1.9306533694646788],[120.14296531677246,-1.9293666394969904],[120.14262199401855,-1.9292808574645193],[120.1413345336914,-1.9299671136030838],[120.14056205749512,-1.9297097675835744],[120.14039039611816,-1.9291950754277423],[120.1406478881836,-1.9285946010490989],[120.14039039611816,-1.9279941264585432],[120.1384162902832,-1.9267073944798057],[120.13721466064453,-1.9241339276066753],[120.13532638549805,-1.9214746744249709],[120.13532638549805,-1.9202737200175903],[120.13618469238281,-1.9203595025032598],[120.13712882995605,-1.9199305900318535],[120.1380729675293,-1.918643851972007],[120.13858795166016,-1.9173571129440887],[120.14030456542969,-1.9150409802564923],[120.1406478881836,-1.914097369745292],[120.13936042785645,-1.9114381009657961],[120.14021873474121,-1.9095508754617754],[120.13961791992188,-1.9079209972221918],[120.13858795166016,-1.9061195510552693],[120.13635635375977,-1.904747019377055],[120.13541221618652,-1.9028597865343073],[120.13524055480957,-1.901744602519969],[120.13541221618652,-1.9013156853994673],[120.13575553894043,-1.9013156853994673],[120.1369571685791,-1.9014872522604662],[120.13901710510254,-1.9025166530682185],[120.14021873474121,-1.9022593029238664],[120.14081954956055,-1.8997715828832185],[120.14056205749512,-1.897369642892599],[120.14081954956055,-1.8943672132139682],[120.14047622680664,-1.8934235913826853],[120.1398754119873,-1.892823104495264],[120.13833045959473,-1.8923084012833726],[120.13755798339844,-1.8916221300965503],[120.13730049133301,-1.8897348829332685],[120.13747215270996,-1.8873329290320981],[120.13481140136719,-1.8869040083433077],[120.13421058654785,-1.88475940331314],[120.13592720031738,-1.8837299919601946],[120.13687133789062,-1.8818427362334944],[120.1366138458252,-1.88124224534657],[120.13532638549805,-1.8810706764837732],[120.13429641723633,-1.8804701853310917],[120.13300895690918,-1.877639295686393],[120.13163566589355,-1.8732642754007145],[120.1288890838623,-1.868460318973078],[120.12476921081543,-1.8681171787250292],[120.1259708404541,-1.8658867654795728],[120.12665748596191,-1.8621122135452453],[120.12665748596191,-1.8591955087853052],[120.12605667114258,-1.8584234390711885],[120.12245178222656,-1.8569650842458714],[120.12210845947266,-1.8560214422469272],[120.12270927429199,-1.8555925138990972],[120.12382507324219,-1.8555067282170512],[120.12434005737305,-1.8543915139718052],[120.12425422668457,-1.8532762990237757],[120.12219429016113,-1.8513890105888038],[120.11807441711426,-1.850102221867246],[120.11704444885254,-1.848558074169219],[120.11695861816406,-1.847271283394818],[120.11841773986816,-1.8453839885731895],[120.11635780334473,-1.8435824780113137],[120.11601448059082,-1.8417809656262278],[120.11404037475586,-1.83997945141968],[120.11000633239746,-1.8389500139131343],[120.10992050170898,-1.837920575812717],[120.11077880859375,-1.8352611913070689],[120.11189460754395,-1.8335454572685848],[120.11223793029785,-1.8323444424629542],[120.11129379272461,-1.8311434268519236],[120.11009216308594,-1.8304571318556384],[120.10725975036621,-1.8307144925100403],[120.1065731048584,-1.8299424104360185],[120.10614395141602,-1.8270256529355038],[120.10519981384277,-1.8261677821806757],[120.10468482971191,-1.8262535692745985],[120.10391235351562,-1.8279693102925734],[120.10296821594238,-1.8285698192615598],[120.10082244873047,-1.8285698192615598],[120.09987831115723,-1.8283124582994361],[120.09919166564941,-1.8275403751917452],[120.09919166564941,-1.8253956981511834],[120.09730339050293,-1.8252241238773905],[120.09635925292969,-1.824366252262763],[120.09455680847168,-1.8235941674598024],[120.09395599365234,-1.8214494857139556],[120.09309768676758,-1.8199053132759815],[120.0912094116211,-1.8184469269814656],[120.09103775024414,-1.817503264633416],[120.09146690368652,-1.816816964434139],[120.09326934814453,-1.817503264633416],[120.09481430053711,-1.8163022391135684],[120.0955867767334,-1.8142433363652657],[120.0967025756836,-1.812870733230966],[120.09756088256836,-1.810897614402208],[120.09601593017578,-1.808066614069972],[120.09387016296387,-1.8082381899734372],[120.09223937988281,-1.8075518862622175],[120.09060859680176,-1.8061792780615633],[120.08829116821289,-1.8036914230554544],[120.08648872375488,-1.7992304331495887],[120.0857162475586,-1.7967425686535847],[120.08468627929688,-1.796227837644949],[120.08425712585449,-1.7939973349323566],[120.08485794067383,-1.7926247165264186],[120.08666038513184,-1.7911663083424827],[120.08777618408203,-1.7897936878147647],[120.08769035339355,-1.7886784328793368],[120.08691787719727,-1.7871342326189108],[120.08683204650879,-1.7860189760676093],[120.0857162475586,-1.7831879371675114],[120.08648872375488,-1.7804426831659015],[120.08588790893555,-1.7797563690264013],[120.0846004486084,-1.7794990011582144],[120.08322715759277,-1.776839531084832],[120.08133888244629,-1.7696332058492175],[120.08056640625,-1.7689468876978367],[120.07893562316895,-1.7687753081203113],[120.07790565490723,-1.767660040479754],[120.07739067077637,-1.7650863433683526],[120.07781982421875,-1.7634563333547817],[120.07730484008789,-1.7623410625228075],[120.0754165649414,-1.7617405317981536],[120.0736141204834,-1.7598531482605182],[120.0721549987793,-1.757622601617058],[120.07164001464844,-1.755906794693317],[120.07387161254883,-1.7538478243057227],[120.0739574432373,-1.7531615003396013],[120.07344245910645,-1.7520462233579792],[120.07164001464844,-1.7509309457123265]]}},{"type":"Feature","id":"pmtiles:10/853/517:waterway:8730343552:0","properties":{"name_int":"Lariang","name_de":"Salo Lariang","name":"Salo Lariang","name:id":"Sungai Lariang","class":"river","name:latin":"Salo Lariang","name_en":"Salo Lariang","waterway":"river","kind":"waterway","verification":"verified","source":"OpenMapTiles/OpenStreetMap national PMTiles","sourceId":"10/853/517:waterway:8730343552:0","sourceLayer":"waterway","archive":"https://its.hanifahseptiani45.workers.dev/v1/map/archive/indonesia.pmtiles","updatedAt":"2026-07-26T09:42:39.164Z"},"geometry":{"type":"LineString","coordinates":[[120.24175643920898,-1.8739505538157744],[120.23900985717773,-1.8745510472083282],[120.23506164550781,-1.8742079081520728],[120.23334503173828,-1.8742936929224498],[120.23197174072266,-1.8733500602173052],[120.23119926452637,-1.87206328752751],[120.22956848144531,-1.8712912234602186],[120.22871017456055,-1.8716343630876509],[120.22828102111816,-1.8739505538157744],[120.22802352905273,-1.8742079081520728],[120.22699356079102,-1.8737789842372194],[120.22562026977539,-1.8725779967168137],[120.2248477935791,-1.8723206421410623],[120.2219295501709,-1.8730927057549422],[120.2190113067627,-1.8725779967168137],[120.21772384643555,-1.872663781567013],[120.2164363861084,-1.8723206421410623],[120.2153205871582,-1.8728353512547784],[120.21420478820801,-1.872149072402891],[120.21377563476562,-1.87223485727408],[120.21360397338867,-1.8730927057549422],[120.21291732788086,-1.8737789842372194],[120.21171569824219,-1.8739505538157744],[120.21059989929199,-1.8735216298378674],[120.20922660827637,-1.8742936929224498],[120.20630836486816,-1.8740363385987564],[120.20596504211426,-1.8742079081520728],[120.20459175109863,-1.8763525261498444],[120.20373344421387,-1.8770388033538552],[120.20021438598633,-1.8774677264695754],[120.19918441772461,-1.8780682186547324],[120.19746780395508,-1.8782397878125892],[120.19686698913574,-1.8788402797324153],[120.19274711608887,-1.881499598609139],[120.19017219543457,-1.88124224534657],[120.18914222717285,-1.881499598609139],[120.18862724304199,-1.8821000894074444],[120.18768310546875,-1.884416266263088],[120.18708229064941,-1.885359892987978],[120.18321990966797,-1.8871613607692694],[120.1809024810791,-1.8887054745250396],[120.17918586730957,-1.8887054745250396],[120.17643928527832,-1.8875044972779875],[120.17566680908203,-1.8876760655069234],[120.17489433288574,-1.8881907700921943],[120.17343521118164,-1.8905069388389961],[120.17266273498535,-1.8948819158143948],[120.17000198364258,-1.8965118063730415],[120.16639709472656,-1.8982274789866693],[120.16613960266113,-1.8985706133051252],[120.16613960266113,-1.899171098198508],[120.16656875610352,-1.899943149897652],[120.16759872436523,-1.9007152012516713],[120.16871452331543,-1.9025166530682185],[120.16854286193848,-1.9040607531278795],[120.16785621643066,-1.905433285352899],[120.16785621643066,-1.906033767857437],[120.16974449157715,-1.9087788280672129],[120.17111778259277,-1.9116954497374792],[120.17317771911621,-1.914097369745292],[120.17437934875488,-1.916241938337393],[120.17515182495117,-1.918214939070225],[120.17661094665527,-1.9200163725347466],[120.17643928527832,-1.9213031095613218],[120.17489433288574,-1.922589845618532],[120.17575263977051,-1.9237050160834883],[120.17764091491699,-1.9245628390220162],[120.17807006835938,-1.9269647409533377],[120.1779842376709,-1.9291950754277423],[120.17678260803223,-1.9326263535229913],[120.17721176147461,-1.9361434063744127],[120.17695426940918,-1.937344349579675],[120.17532348632812,-1.940604048271723],[120.17343521118164,-1.9436063967713437],[120.17189025878906,-1.9449788971648871],[120.1710319519043,-1.9465229587730448],[120.16931533813477,-1.948067018966995],[120.1688003540039,-1.9488390485332872],[120.16785621643066,-1.9516698205802498],[120.16845703125,-1.9577602533633893],[120.1695728302002,-1.9603336690192918],[120.17146110534668,-1.9623923986958403],[120.17189025878906,-1.9640222245590166],[120.17197608947754,-1.9657378290132073]]}},{"type":"Feature","id":"pmtiles:10/854/517:mountain_peak:10701622321:0","properties":{"name_int":"Bulu Bubulanti","name_de":"Bulu Bubulanti","name":"Bulu Bubulanti","rank":3,"class":"peak","name:latin":"Bulu Bubulanti","name_en":"Bulu Bubulanti","kind":"poi","verification":"verified","source":"OpenMapTiles/OpenStreetMap national PMTiles","sourceId":"10/854/517:mountain_peak:10701622321:0","sourceLayer":"mountain_peak","archive":"https://its.hanifahseptiani45.workers.dev/v1/map/archive/indonesia.pmtiles","updatedAt":"2026-07-26T09:42:39.337Z"},"geometry":{"type":"Point","coordinates":[120.1845932006836,-1.7941689121606998]}},{"type":"Feature","id":"pmtiles:10/854/517:mountain_peak:10701645551:0","properties":{"name_int":"Bulu Meseli","name_de":"Bulu Meseli","name":"Bulu Meseli","rank":4,"class":"peak","name:latin":"Bulu Meseli","name_en":"Bulu Meseli","kind":"poi","verification":"verified","source":"OpenMapTiles/OpenStreetMap national PMTiles","sourceId":"10/854/517:mountain_peak:10701645551:0","sourceLayer":"mountain_peak","archive":"https://its.hanifahseptiani45.workers.dev/v1/map/archive/indonesia.pmtiles","updatedAt":"2026-07-26T09:42:39.337Z"},"geometry":{"type":"Point","coordinates":[120.19652366638184,-1.810297099549544]}},{"type":"Feature","id":"pmtiles:10/854/517:mountain_peak:10701551111:0","properties":{"name_int":"Bulu Towelo","name_de":"Bulu Towelo","name":"Bulu Towelo","rank":1,"class":"peak","name:latin":"Bulu Towelo","name_en":"Bulu Towelo","kind":"poi","verification":"verified","source":"OpenMapTiles/OpenStreetMap national PMTiles","sourceId":"10/854/517:mountain_peak:10701551111:0","sourceLayer":"mountain_peak","archive":"https://its.hanifahseptiani45.workers.dev/v1/map/archive/indonesia.pmtiles","updatedAt":"2026-07-26T09:42:39.337Z"},"geometry":{"type":"Point","coordinates":[120.17601013183594,-1.953642780098079]}},{"type":"Feature","id":"pmtiles:10/854/517:mountain_peak:10701566261:0","properties":{"name_int":"Bulu Popotondoa","name_de":"Bulu Popotondoa","name":"Bulu Popotondoa","rank":2,"class":"peak","name:latin":"Bulu Popotondoa","name_en":"Bulu Popotondoa","kind":"poi","verification":"verified","source":"OpenMapTiles/OpenStreetMap national PMTiles","sourceId":"10/854/517:mountain_peak:10701566261:0","sourceLayer":"mountain_peak","archive":"https://its.hanifahseptiani45.workers.dev/v1/map/archive/indonesia.pmtiles","updatedAt":"2026-07-26T09:42:39.337Z"},"geometry":{"type":"Point","coordinates":[120.1673412322998,-1.9305675874971229]}},{"type":"Feature","id":"pmtiles:10/854/517:mountain_peak:10701589871:0","properties":{"name_int":"Bulu Pawuli","name_de":"Bulu Pawuli","name":"Bulu Pawuli","rank":3,"class":"peak","name:latin":"Bulu Pawuli","name_en":"Bulu Pawuli","kind":"poi","verification":"verified","source":"OpenMapTiles/OpenStreetMap national PMTiles","sourceId":"10/854/517:mountain_peak:10701589871:0","sourceLayer":"mountain_peak","archive":"https://its.hanifahseptiani45.workers.dev/v1/map/archive/indonesia.pmtiles","updatedAt":"2026-07-26T09:42:39.337Z"},"geometry":{"type":"Point","coordinates":[120.19721031188965,-1.8400652378517606]}},{"type":"Feature","id":"pmtiles:10/854/517:mountain_peak:10701594911:0","properties":{"name_int":"Bulu Padalolo","name_de":"Bulu Padalolo","name":"Bulu Padalolo","rank":4,"class":"peak","name:latin":"Bulu Padalolo","name_en":"Bulu Padalolo","kind":"poi","verification":"verified","source":"OpenMapTiles/OpenStreetMap national PMTiles","sourceId":"10/854/517:mountain_peak:10701594911:0","sourceLayer":"mountain_peak","archive":"https://its.hanifahseptiani45.workers.dev/v1/map/archive/indonesia.pmtiles","updatedAt":"2026-07-26T09:42:39.337Z"},"geometry":{"type":"Point","coordinates":[120.15386581420898,-1.8900780189337496]}},{"type":"Feature","id":"pmtiles:10/854/517:mountain_peak:10701604991:0","properties":{"name_int":"Bulu Hohawa","name_de":"Bulu Hohawa","name":"Bulu Hohawa","rank":5,"class":"peak","name:latin":"Bulu Hohawa","name_en":"Bulu Hohawa","kind":"poi","verification":"verified","source":"OpenMapTiles/OpenStreetMap national PMTiles","sourceId":"10/854/517:mountain_peak:10701604991:0","sourceLayer":"mountain_peak","archive":"https://its.hanifahseptiani45.workers.dev/v1/map/archive/indonesia.pmtiles","updatedAt":"2026-07-26T09:42:39.337Z"},"geometry":{"type":"Point","coordinates":[120.17343521118164,-1.8539625852287855]}},{"type":"Feature","id":"pmtiles:10/854/517:mountain_peak:10701606431:0","properties":{"name_int":"Biri Rante","name_de":"Biri Rante","name":"Biri Rante","rank":1,"class":"peak","name:latin":"Biri Rante","name_en":"Biri Rante","kind":"poi","verification":"verified","source":"OpenMapTiles/OpenStreetMap national PMTiles","sourceId":"10/854/517:mountain_peak:10701606431:0","sourceLayer":"mountain_peak","archive":"https://its.hanifahseptiani45.workers.dev/v1/map/archive/indonesia.pmtiles","updatedAt":"2026-07-26T09:42:39.337Z"},"geometry":{"type":"Point","coordinates":[120.19909858703613,-2.063524321043815]}},{"type":"Feature","id":"pmtiles:10/854/517:mountain_peak:10701609621:0","properties":{"name_int":"Bulu Towo","name_de":"Bulu Towo","name":"Bulu Towo","rank":2,"class":"peak","name:latin":"Bulu Towo","name_en":"Bulu Towo","kind":"poi","verification":"verified","source":"OpenMapTiles/OpenStreetMap national PMTiles","sourceId":"10/854/517:mountain_peak:10701609621:0","sourceLayer":"mountain_peak","archive":"https://its.hanifahseptiani45.workers.dev/v1/map/archive/indonesia.pmtiles","updatedAt":"2026-07-26T09:42:39.337Z"},"geometry":{"type":"Point","coordinates":[120.18588066101074,-1.9682254523396239]}},{"type":"Feature","id":"pmtiles:10/854/517:mountain_peak:10701731391:0","properties":{"name_int":"Biri Pentowa","name_de":"Biri Pentowa","name":"Biri Pentowa","rank":3,"class":"peak","name:latin":"Biri Pentowa","name_en":"Biri Pentowa","kind":"poi","verification":"verified","source":"OpenMapTiles/OpenStreetMap national PMTiles","sourceId":"10/854/517:mountain_peak:10701731391:0","sourceLayer":"mountain_peak","archive":"https://its.hanifahseptiani45.workers.dev/v1/map/archive/indonesia.pmtiles","updatedAt":"2026-07-26T09:42:39.337Z"},"geometry":{"type":"Point","coordinates":[120.1644229888916,-2.039764461205081]}},{"type":"Feature","id":"pmtiles:10/854/517:mountain_peak:10701713871:0","properties":{"name_int":"Bulu Sepe","name_de":"Bulu Sepe","name":"Bulu Sepe","rank":5,"class":"peak","name:latin":"Bulu Sepe","name_en":"Bulu Sepe","kind":"poi","verification":"verified","source":"OpenMapTiles/OpenStreetMap national PMTiles","sourceId":"10/854/517:mountain_peak:10701713871:0","sourceLayer":"mountain_peak","archive":"https://its.hanifahseptiani45.workers.dev/v1/map/archive/indonesia.pmtiles","updatedAt":"2026-07-26T09:42:39.337Z"},"geometry":{"type":"Point","coordinates":[120.23283004760742,-1.8126991577659766]}},{"type":"Feature","id":"pmtiles:10/854/517:mountain_peak:10701610811:0","properties":{"name_int":"Bulu Talamati","name_de":"Bulu Talamati","name":"Bulu Talamati","rank":1,"class":"peak","name:latin":"Bulu Talamati","name_en":"Bulu Talamati","kind":"poi","verification":"verified","source":"OpenMapTiles/OpenStreetMap national PMTiles","sourceId":"10/854/517:mountain_peak:10701610811:0","sourceLayer":"mountain_peak","archive":"https://its.hanifahseptiani45.workers.dev/v1/map/archive/indonesia.pmtiles","updatedAt":"2026-07-26T09:42:39.337Z"},"geometry":{"type":"Point","coordinates":[120.21986961364746,-1.861940642810552]}},{"type":"Feature","id":"pmtiles:10/854/517:mountain_peak:10701767801:0","properties":{"name_int":"Bulu Talumbongo","name_de":"Bulu Talumbongo","name":"Bulu Talumbongo","rank":4,"class":"peak","name:latin":"Bulu Talumbongo","name_en":"Bulu Talumbongo","kind":"poi","verification":"verified","source":"OpenMapTiles/OpenStreetMap national PMTiles","sourceId":"10/854/517:mountain_peak:10701767801:0","sourceLayer":"mountain_peak","archive":"https://its.hanifahseptiani45.workers.dev/v1/map/archive/indonesia.pmtiles","updatedAt":"2026-07-26T09:42:39.337Z"},"geometry":{"type":"Point","coordinates":[120.20278930664062,-1.9390599812528677]}},{"type":"Feature","id":"pmtiles:10/854/517:mountain_peak:10701612181:0","properties":{"name_int":"Bulu Bobongko","name_de":"Bulu Bobongko","name":"Bulu Bobongko","rank":4,"class":"peak","name:latin":"Bulu Bobongko","name_en":"Bulu Bobongko","kind":"poi","verification":"verified","source":"OpenMapTiles/OpenStreetMap national PMTiles","sourceId":"10/854/517:mountain_peak:10701612181:0","sourceLayer":"mountain_peak","archive":"https://its.hanifahseptiani45.workers.dev/v1/map/archive/indonesia.pmtiles","updatedAt":"2026-07-26T09:42:39.337Z"},"geometry":{"type":"Point","coordinates":[120.23128509521484,-1.9810924101913656]}},{"type":"Feature","id":"pmtiles:10/852/518:mountain_peak:10701593781:0","properties":{"name_int":"Buntu Takalak","name_de":"Buntu Takalak","name":"Buntu Takalak","rank":1,"class":"peak","name:latin":"Buntu Takalak","name_en":"Buntu Takalak","kind":"poi","verification":"verified","source":"OpenMapTiles/OpenStreetMap national PMTiles","sourceId":"10/852/518:mountain_peak:10701593781:0","sourceLayer":"mountain_peak","archive":"https://its.hanifahseptiani45.workers.dev/v1/map/archive/indonesia.pmtiles","updatedAt":"2026-07-26T09:42:47.876Z"},"geometry":{"type":"Point","coordinates":[119.89877700805664,-2.0324734589325715]}},{"type":"Feature","id":"pmtiles:10/852/518:mountain_peak:10701605811:0","properties":{"name_int":"Buntu Poporea","name_de":"Buntu Poporea","name":"Buntu Poporea","rank":2,"class":"peak","name:latin":"Buntu Poporea","name_en":"Buntu Poporea","kind":"poi","verification":"verified","source":"OpenMapTiles/OpenStreetMap national PMTiles","sourceId":"10/852/518:mountain_peak:10701605811:0","sourceLayer":"mountain_peak","archive":"https://its.hanifahseptiani45.workers.dev/v1/map/archive/indonesia.pmtiles","updatedAt":"2026-07-26T09:42:47.876Z"},"geometry":{"type":"Point","coordinates":[119.91019248962402,-2.0510011176063045]}},{"type":"Feature","id":"pmtiles:10/852/518:mountain_peak:10701640761:0","properties":{"name_int":"Buntu Tutu","name_de":"Buntu Tutu","name":"Buntu Tutu","rank":4,"class":"peak","name:latin":"Buntu Tutu","name_en":"Buntu Tutu","kind":"poi","verification":"verified","source":"OpenMapTiles/OpenStreetMap national PMTiles","sourceId":"10/852/518:mountain_peak:10701640761:0","sourceLayer":"mountain_peak","archive":"https://its.hanifahseptiani45.workers.dev/v1/map/archive/indonesia.pmtiles","updatedAt":"2026-07-26T09:42:47.876Z"},"geometry":{"type":"Point","coordinates":[119.91697311401367,-2.0261259713163327]}},{"type":"Feature","id":"pmtiles:10/852/518:mountain_peak:10701633301:0","properties":{"name_int":"Buntu Tumikaraing","name_de":"Buntu Tumikaraing","name":"Buntu Tumikaraing","rank":1,"class":"peak","name:latin":"Buntu Tumikaraing","name_en":"Buntu Tumikaraing","kind":"poi","verification":"verified","source":"OpenMapTiles/OpenStreetMap national PMTiles","sourceId":"10/852/518:mountain_peak:10701633301:0","sourceLayer":"mountain_peak","archive":"https://its.hanifahseptiani45.workers.dev/v1/map/archive/indonesia.pmtiles","updatedAt":"2026-07-26T09:42:47.876Z"},"geometry":{"type":"Point","coordinates":[119.9571418762207,-2.0928591090815587]}},{"type":"Feature","id":"pmtiles:10/852/518:mountain_peak:10701704211:0","properties":{"name_int":"Buntu Talabi","name_de":"Buntu Talabi","name":"Buntu Talabi","rank":4,"class":"peak","name:latin":"Buntu Talabi","name_en":"Buntu Talabi","kind":"poi","verification":"verified","source":"OpenMapTiles/OpenStreetMap national PMTiles","sourceId":"10/852/518:mountain_peak:10701704211:0","sourceLayer":"mountain_peak","archive":"https://its.hanifahseptiani45.workers.dev/v1/map/archive/indonesia.pmtiles","updatedAt":"2026-07-26T09:42:47.876Z"},"geometry":{"type":"Point","coordinates":[119.96898651123047,-2.021236673349236]}},{"type":"Feature","id":"pmtiles:10/853/518:mountain_peak:10701593781:0","properties":{"name_int":"Buntu Takalak","name_de":"Buntu Takalak","name":"Buntu Takalak","rank":1,"class":"peak","name:latin":"Buntu Takalak","name_en":"Buntu Takalak","kind":"poi","verification":"verified","source":"OpenMapTiles/OpenStreetMap national PMTiles","sourceId":"10/853/518:mountain_peak:10701593781:0","sourceLayer":"mountain_peak","archive":"https://its.hanifahseptiani45.workers.dev/v1/map/archive/indonesia.pmtiles","updatedAt":"2026-07-26T09:42:47.936Z"},"geometry":{"type":"Point","coordinates":[119.89877700805664,-2.0324734589325715]}},{"type":"Feature","id":"pmtiles:10/853/518:mountain_peak:10701605811:0","properties":{"name_int":"Buntu Poporea","name_de":"Buntu Poporea","name":"Buntu Poporea","rank":2,"class":"peak","name:latin":"Buntu Poporea","name_en":"Buntu Poporea","kind":"poi","verification":"verified","source":"OpenMapTiles/OpenStreetMap national PMTiles","sourceId":"10/853/518:mountain_peak:10701605811:0","sourceLayer":"mountain_peak","archive":"https://its.hanifahseptiani45.workers.dev/v1/map/archive/indonesia.pmtiles","updatedAt":"2026-07-26T09:42:47.936Z"},"geometry":{"type":"Point","coordinates":[119.91019248962402,-2.0510011176063045]}},{"type":"Feature","id":"pmtiles:10/853/518:mountain_peak:10701640761:0","properties":{"name_int":"Buntu Tutu","name_de":"Buntu Tutu","name":"Buntu Tutu","rank":4,"class":"peak","name:latin":"Buntu Tutu","name_en":"Buntu Tutu","kind":"poi","verification":"verified","source":"OpenMapTiles/OpenStreetMap national PMTiles","sourceId":"10/853/518:mountain_peak:10701640761:0","sourceLayer":"mountain_peak","archive":"https://its.hanifahseptiani45.workers.dev/v1/map/archive/indonesia.pmtiles","updatedAt":"2026-07-26T09:42:47.936Z"},"geometry":{"type":"Point","coordinates":[119.91697311401367,-2.0261259713163327]}},{"type":"Feature","id":"pmtiles:10/853/518:mountain_peak:10701633301:0","properties":{"name_int":"Buntu Tumikaraing","name_de":"Buntu Tumikaraing","name":"Buntu Tumikaraing","rank":1,"class":"peak","name:latin":"Buntu Tumikaraing","name_en":"Buntu Tumikaraing","kind":"poi","verification":"verified","source":"OpenMapTiles/OpenStreetMap national PMTiles","sourceId":"10/853/518:mountain_peak:10701633301:0","sourceLayer":"mountain_peak","archive":"https://its.hanifahseptiani45.workers.dev/v1/map/archive/indonesia.pmtiles","updatedAt":"2026-07-26T09:42:47.936Z"},"geometry":{"type":"Point","coordinates":[119.9571418762207,-2.0928591090815587]}},{"type":"Feature","id":"pmtiles:10/853/518:mountain_peak:10701650631:0","properties":{"name_int":"Buntu Tutulumie","name_de":"Buntu Tutulumie","name":"Buntu Tutulumie","rank":2,"class":"peak","name:latin":"Buntu Tutulumie","name_en":"Buntu Tutulumie","kind":"poi","verification":"verified","source":"OpenMapTiles/OpenStreetMap national PMTiles","sourceId":"10/853/518:mountain_peak:10701650631:0","sourceLayer":"mountain_peak","archive":"https://its.hanifahseptiani45.workers.dev/v1/map/archive/indonesia.pmtiles","updatedAt":"2026-07-26T09:42:47.936Z"},"geometry":{"type":"Point","coordinates":[119.99070167541504,-2.0347036513638272]}},{"type":"Feature","id":"pmtiles:10/853/518:mountain_peak:10701701491:0","properties":{"name_int":"Buntu Siburu","name_de":"Buntu Siburu","name":"Buntu Siburu","rank":3,"class":"peak","name:latin":"Buntu Siburu","name_en":"Buntu Siburu","kind":"poi","verification":"verified","source":"OpenMapTiles/OpenStreetMap national PMTiles","sourceId":"10/853/518:mountain_peak:10701701491:0","sourceLayer":"mountain_peak","archive":"https://its.hanifahseptiani45.workers.dev/v1/map/archive/indonesia.pmtiles","updatedAt":"2026-07-26T09:42:47.936Z"},"geometry":{"type":"Point","coordinates":[119.98812675476074,-2.085396802466832]}},{"type":"Feature","id":"pmtiles:10/853/518:mountain_peak:10701704211:0","properties":{"name_int":"Buntu Talabi","name_de":"Buntu Talabi","name":"Buntu Talabi","rank":4,"class":"peak","name:latin":"Buntu Talabi","name_en":"Buntu Talabi","kind":"poi","verification":"verified","source":"OpenMapTiles/OpenStreetMap national PMTiles","sourceId":"10/853/518:mountain_peak:10701704211:0","sourceLayer":"mountain_peak","archive":"https://its.hanifahseptiani45.workers.dev/v1/map/archive/indonesia.pmtiles","updatedAt":"2026-07-26T09:42:47.936Z"},"geometry":{"type":"Point","coordinates":[119.96898651123047,-2.021236673349236]}},{"type":"Feature","id":"pmtiles:10/853/518:mountain_peak:10701706951:0","properties":{"name_int":"Buntu Mubolong","name_de":"Buntu Mubolong","name":"Buntu Mubolong","rank":4,"class":"peak","name:latin":"Buntu Mubolong","name_en":"Buntu Mubolong","kind":"poi","verification":"verified","source":"OpenMapTiles/OpenStreetMap national PMTiles","sourceId":"10/853/518:mountain_peak:10701706951:0","sourceLayer":"mountain_peak","archive":"https://its.hanifahseptiani45.workers.dev/v1/map/archive/indonesia.pmtiles","updatedAt":"2026-07-26T09:42:47.936Z"},"geometry":{"type":"Point","coordinates":[119.98108863830566,-2.1056392987585184]}},{"type":"Feature","id":"pmtiles:10/853/518:mountain_peak:10701606431:0","properties":{"name_int":"Biri Rante","name_de":"Biri Rante","name":"Biri Rante","rank":1,"class":"peak","name:latin":"Biri Rante","name_en":"Biri Rante","kind":"poi","verification":"verified","source":"OpenMapTiles/OpenStreetMap national PMTiles","sourceId":"10/853/518:mountain_peak:10701606431:0","sourceLayer":"mountain_peak","archive":"https://its.hanifahseptiani45.workers.dev/v1/map/archive/indonesia.pmtiles","updatedAt":"2026-07-26T09:42:47.937Z"},"geometry":{"type":"Point","coordinates":[120.19909858703613,-2.063524321043815]}},{"type":"Feature","id":"pmtiles:10/853/518:mountain_peak:10701731391:0","properties":{"name_int":"Biri Pentowa","name_de":"Biri Pentowa","name":"Biri Pentowa","rank":2,"class":"peak","name:latin":"Biri Pentowa","name_en":"Biri Pentowa","kind":"poi","verification":"verified","source":"OpenMapTiles/OpenStreetMap national PMTiles","sourceId":"10/853/518:mountain_peak:10701731391:0","sourceLayer":"mountain_peak","archive":"https://its.hanifahseptiani45.workers.dev/v1/map/archive/indonesia.pmtiles","updatedAt":"2026-07-26T09:42:47.937Z"},"geometry":{"type":"Point","coordinates":[120.1644229888916,-2.039764461205081]}},{"type":"Feature","id":"pmtiles:10/853/518:mountain_peak:10701860961:0","properties":{"name_int":"Biri Pongka","name_de":"Biri Pongka","name":"Biri Pongka","rank":5,"class":"peak","name:latin":"Biri Pongka","name_en":"Biri Pongka","kind":"poi","verification":"verified","source":"OpenMapTiles/OpenStreetMap national PMTiles","sourceId":"10/853/518:mountain_peak:10701860961:0","sourceLayer":"mountain_peak","archive":"https://its.hanifahseptiani45.workers.dev/v1/map/archive/indonesia.pmtiles","updatedAt":"2026-07-26T09:42:47.937Z"},"geometry":{"type":"Point","coordinates":[120.10648727416992,-2.0740746145451823]}},{"type":"Feature","id":"pmtiles:10/853/518:mountain_peak:10701660441:0","properties":{"name_int":"Biri Kalibamba","name_de":"Biri Kalibamba","name":"Biri Kalibamba","rank":5,"class":"peak","name:latin":"Biri Kalibamba","name_en":"Biri Kalibamba","kind":"poi","verification":"verified","source":"OpenMapTiles/OpenStreetMap national PMTiles","sourceId":"10/853/518:mountain_peak:10701660441:0","sourceLayer":"mountain_peak","archive":"https://its.hanifahseptiani45.workers.dev/v1/map/archive/indonesia.pmtiles","updatedAt":"2026-07-26T09:42:47.937Z"},"geometry":{"type":"Point","coordinates":[120.21180152893066,-2.0979197335949067]}},{"type":"Feature","id":"pmtiles:10/854/518:mountain_peak:10701606431:0","properties":{"name_int":"Biri Rante","name_de":"Biri Rante","name":"Biri Rante","rank":1,"class":"peak","name:latin":"Biri Rante","name_en":"Biri Rante","kind":"poi","verification":"verified","source":"OpenMapTiles/OpenStreetMap national PMTiles","sourceId":"10/854/518:mountain_peak:10701606431:0","sourceLayer":"mountain_peak","archive":"https://its.hanifahseptiani45.workers.dev/v1/map/archive/indonesia.pmtiles","updatedAt":"2026-07-26T09:42:48.000Z"},"geometry":{"type":"Point","coordinates":[120.19909858703613,-2.063524321043815]}},{"type":"Feature","id":"pmtiles:10/854/518:mountain_peak:10701731391:0","properties":{"name_int":"Biri Pentowa","name_de":"Biri Pentowa","name":"Biri Pentowa","rank":2,"class":"peak","name:latin":"Biri Pentowa","name_en":"Biri Pentowa","kind":"poi","verification":"verified","source":"OpenMapTiles/OpenStreetMap national PMTiles","sourceId":"10/854/518:mountain_peak:10701731391:0","sourceLayer":"mountain_peak","archive":"https://its.hanifahseptiani45.workers.dev/v1/map/archive/indonesia.pmtiles","updatedAt":"2026-07-26T09:42:48.000Z"},"geometry":{"type":"Point","coordinates":[120.1644229888916,-2.039764461205081]}},{"type":"Feature","id":"pmtiles:10/854/518:mountain_peak:10701660441:0","properties":{"name_int":"Biri Kalibamba","name_de":"Biri Kalibamba","name":"Biri Kalibamba","rank":5,"class":"peak","name:latin":"Biri Kalibamba","name_en":"Biri Kalibamba","kind":"poi","verification":"verified","source":"OpenMapTiles/OpenStreetMap national PMTiles","sourceId":"10/854/518:mountain_peak:10701660441:0","sourceLayer":"mountain_peak","archive":"https://its.hanifahseptiani45.workers.dev/v1/map/archive/indonesia.pmtiles","updatedAt":"2026-07-26T09:42:48.000Z"},"geometry":{"type":"Point","coordinates":[120.21180152893066,-2.0979197335949067]}},{"type":"Feature","id":"pmtiles:8/213/129:mountain_peak:10701551111:0","properties":{"name_int":"Bulu Towelo","name_de":"Bulu Towelo","name":"Bulu Towelo","rank":1,"class":"peak","name:latin":"Bulu Towelo","name_en":"Bulu Towelo","kind":"poi","verification":"verified","source":"OpenMapTiles/OpenStreetMap national PMTiles","sourceId":"8/213/129:mountain_peak:10701551111:0","sourceLayer":"mountain_peak","archive":"https://its.hanifahseptiani45.workers.dev/v1/map/archive/indonesia.pmtiles","updatedAt":"2026-07-26T09:35:35.832Z"},"geometry":{"type":"Point","coordinates":[120.17601013183594,-1.9534712184928367]}},{"type":"Feature","id":"pmtiles:8/213/129:mountain_peak:10701566261:0","properties":{"name_int":"Bulu Popotondoa","name_de":"Bulu Popotondoa","name":"Bulu Popotondoa","rank":5,"class":"peak","name:latin":"Bulu Popotondoa","name_en":"Bulu Popotondoa","kind":"poi","verification":"verified","source":"OpenMapTiles/OpenStreetMap national PMTiles","sourceId":"8/213/129:mountain_peak:10701566261:0","sourceLayer":"mountain_peak","archive":"https://its.hanifahseptiani45.workers.dev/v1/map/archive/indonesia.pmtiles","updatedAt":"2026-07-26T09:35:35.832Z"},"geometry":{"type":"Point","coordinates":[120.16742706298828,-1.9304818055252468]}}]}