{"type":"FeatureCollection","features":[{"type":"Feature","id":"pmtiles:12/3532/1988:water:80:0","properties":{"class":"ocean","water":"ocean","kind":"waterway","verification":"verified","source":"OpenMapTiles/OpenStreetMap national PMTiles","sourceId":"12/3532/1988:water:80:0","sourceLayer":"water","archive":"https://its.hanifahseptiani45.workers.dev/v1/map/archive/indonesia.pmtiles","updatedAt":"2026-07-26T10:42:57.134Z"},"geometry":{"type":"Polygon","coordinates":[[[130.42831420898438,5.267375376100517],[130.51895141601562,5.267375376100517],[130.51895141601562,5.177114401298994],[130.42831420898438,5.177114401298994],[130.42831420898438,5.267375376100517]]]}},{"type":"Feature","id":"pmtiles:12/3533/1988:water:80:0","properties":{"class":"ocean","water":"ocean","kind":"waterway","verification":"verified","source":"OpenMapTiles/OpenStreetMap national PMTiles","sourceId":"12/3533/1988:water:80:0","sourceLayer":"water","archive":"https://its.hanifahseptiani45.workers.dev/v1/map/archive/indonesia.pmtiles","updatedAt":"2026-07-26T10:42:57.209Z"},"geometry":{"type":"Polygon","coordinates":[[[130.51620483398438,5.267375376100517],[130.60684204101562,5.267375376100517],[130.60684204101562,5.177114401298994],[130.51620483398438,5.177114401298994],[130.51620483398438,5.267375376100517]]]}},{"type":"Feature","id":"pmtiles:12/3534/1988:water:80:0","properties":{"class":"ocean","water":"ocean","kind":"waterway","verification":"verified","source":"OpenMapTiles/OpenStreetMap national PMTiles","sourceId":"12/3534/1988:water:80:0","sourceLayer":"water","archive":"https://its.hanifahseptiani45.workers.dev/v1/map/archive/indonesia.pmtiles","updatedAt":"2026-07-26T10:42:57.269Z"},"geometry":{"type":"Polygon","coordinates":[[[130.60409545898438,5.267375376100517],[130.69473266601562,5.267375376100517],[130.69473266601562,5.177114401298994],[130.60409545898438,5.177114401298994],[130.60409545898438,5.267375376100517]]]}},{"type":"Feature","id":"pmtiles:12/3535/1988:water:80:0","properties":{"class":"ocean","water":"ocean","kind":"waterway","verification":"verified","source":"OpenMapTiles/OpenStreetMap national PMTiles","sourceId":"12/3535/1988:water:80:0","sourceLayer":"water","archive":"https://its.hanifahseptiani45.workers.dev/v1/map/archive/indonesia.pmtiles","updatedAt":"2026-07-26T10:42:57.331Z"},"geometry":{"type":"Polygon","coordinates":[[[130.69198608398438,5.267375376100517],[130.78262329101562,5.267375376100517],[130.78262329101562,5.177114401298994],[130.69198608398438,5.177114401298994],[130.69198608398438,5.267375376100517]]]}},{"type":"Feature","id":"pmtiles:12/3532/1989:water:80:0","properties":{"class":"ocean","water":"ocean","kind":"waterway","verification":"verified","source":"OpenMapTiles/OpenStreetMap national PMTiles","sourceId":"12/3532/1989:water:80:0","sourceLayer":"water","archive":"https://its.hanifahseptiani45.workers.dev/v1/map/archive/indonesia.pmtiles","updatedAt":"2026-07-26T10:43:31.314Z"},"geometry":{"type":"Polygon","coordinates":[[[130.42831420898438,5.179849772787961],[130.51895141601562,5.179849772787961],[130.51895141601562,5.089576300054759],[130.42831420898438,5.089576300054759],[130.42831420898438,5.179849772787961]]]}},{"type":"Feature","id":"pmtiles:12/3533/1989:water:80:0","properties":{"class":"ocean","water":"ocean","kind":"waterway","verification":"verified","source":"OpenMapTiles/OpenStreetMap national PMTiles","sourceId":"12/3533/1989:water:80:0","sourceLayer":"water","archive":"https://its.hanifahseptiani45.workers.dev/v1/map/archive/indonesia.pmtiles","updatedAt":"2026-07-26T10:43:31.378Z"},"geometry":{"type":"Polygon","coordinates":[[[130.51620483398438,5.179849772787961],[130.60684204101562,5.179849772787961],[130.60684204101562,5.089576300054759],[130.51620483398438,5.089576300054759],[130.51620483398438,5.179849772787961]]]}},{"type":"Feature","id":"pmtiles:12/3534/1989:water:80:0","properties":{"class":"ocean","water":"ocean","kind":"waterway","verification":"verified","source":"OpenMapTiles/OpenStreetMap national PMTiles","sourceId":"12/3534/1989:water:80:0","sourceLayer":"water","archive":"https://its.hanifahseptiani45.workers.dev/v1/map/archive/indonesia.pmtiles","updatedAt":"2026-07-26T10:43:31.444Z"},"geometry":{"type":"Polygon","coordinates":[[[130.60409545898438,5.179849772787961],[130.69473266601562,5.179849772787961],[130.69473266601562,5.089576300054759],[130.60409545898438,5.089576300054759],[130.60409545898438,5.179849772787961]]]}},{"type":"Feature","id":"pmtiles:12/3535/1989:water:80:0","properties":{"class":"ocean","water":"ocean","kind":"waterway","verification":"verified","source":"OpenMapTiles/OpenStreetMap national PMTiles","sourceId":"12/3535/1989:water:80:0","sourceLayer":"water","archive":"https://its.hanifahseptiani45.workers.dev/v1/map/archive/indonesia.pmtiles","updatedAt":"2026-07-26T10:43:31.508Z"},"geometry":{"type":"Polygon","coordinates":[[[130.69198608398438,5.179849772787961],[130.78262329101562,5.179849772787961],[130.78262329101562,5.089576300054759],[130.69198608398438,5.089576300054759],[130.69198608398438,5.179849772787961]]]}},{"type":"Feature","id":"pmtiles:12/3532/1990:water:80:0","properties":{"class":"ocean","water":"ocean","kind":"waterway","verification":"verified","source":"OpenMapTiles/OpenStreetMap national PMTiles","sourceId":"12/3532/1990:water:80:0","sourceLayer":"water","archive":"https://its.hanifahseptiani45.workers.dev/v1/map/archive/indonesia.pmtiles","updatedAt":"2026-07-26T10:44:06.495Z"},"geometry":{"type":"Polygon","coordinates":[[[130.42831420898438,5.092312047102723],[130.51895141601562,5.092312047102723],[130.51895141601562,5.002026285456836],[130.42831420898438,5.002026285456836],[130.42831420898438,5.092312047102723]]]}},{"type":"Feature","id":"pmtiles:12/3533/1990:water:80:0","properties":{"class":"ocean","water":"ocean","kind":"waterway","verification":"verified","source":"OpenMapTiles/OpenStreetMap national PMTiles","sourceId":"12/3533/1990:water:80:0","sourceLayer":"water","archive":"https://its.hanifahseptiani45.workers.dev/v1/map/archive/indonesia.pmtiles","updatedAt":"2026-07-26T10:44:06.565Z"},"geometry":{"type":"Polygon","coordinates":[[[130.51620483398438,5.092312047102723],[130.60684204101562,5.092312047102723],[130.60684204101562,5.002026285456836],[130.51620483398438,5.002026285456836],[130.51620483398438,5.092312047102723]]]}},{"type":"Feature","id":"pmtiles:12/3534/1990:water:80:0","properties":{"class":"ocean","water":"ocean","kind":"waterway","verification":"verified","source":"OpenMapTiles/OpenStreetMap national PMTiles","sourceId":"12/3534/1990:water:80:0","sourceLayer":"water","archive":"https://its.hanifahseptiani45.workers.dev/v1/map/archive/indonesia.pmtiles","updatedAt":"2026-07-26T10:44:06.654Z"},"geometry":{"type":"Polygon","coordinates":[[[130.60409545898438,5.092312047102723],[130.69473266601562,5.092312047102723],[130.69473266601562,5.002026285456836],[130.60409545898438,5.002026285456836],[130.60409545898438,5.092312047102723]]]}},{"type":"Feature","id":"pmtiles:12/3535/1990:water:80:0","properties":{"class":"ocean","water":"ocean","kind":"waterway","verification":"verified","source":"OpenMapTiles/OpenStreetMap national PMTiles","sourceId":"12/3535/1990:water:80:0","sourceLayer":"water","archive":"https://its.hanifahseptiani45.workers.dev/v1/map/archive/indonesia.pmtiles","updatedAt":"2026-07-26T10:44:06.741Z"},"geometry":{"type":"Polygon","coordinates":[[[130.69198608398438,5.092312047102723],[130.78262329101562,5.092312047102723],[130.78262329101562,5.002026285456836],[130.69198608398438,5.002026285456836],[130.69198608398438,5.092312047102723]]]}},{"type":"Feature","id":"pmtiles:12/3532/1991:water:80:0","properties":{"class":"ocean","water":"ocean","kind":"waterway","verification":"verified","source":"OpenMapTiles/OpenStreetMap national PMTiles","sourceId":"12/3532/1991:water:80:0","sourceLayer":"water","archive":"https://its.hanifahseptiani45.workers.dev/v1/map/archive/indonesia.pmtiles","updatedAt":"2026-07-26T10:44:40.948Z"},"geometry":{"type":"Polygon","coordinates":[[[130.42831420898438,5.004762401727689],[130.51895141601562,5.004762401727689],[130.51895141601562,4.914464560331368],[130.42831420898438,4.914464560331368],[130.42831420898438,5.004762401727689]]]}},{"type":"Feature","id":"pmtiles:12/3533/1991:water:80:0","properties":{"class":"ocean","water":"ocean","kind":"waterway","verification":"verified","source":"OpenMapTiles/OpenStreetMap national PMTiles","sourceId":"12/3533/1991:water:80:0","sourceLayer":"water","archive":"https://its.hanifahseptiani45.workers.dev/v1/map/archive/indonesia.pmtiles","updatedAt":"2026-07-26T10:44:41.020Z"},"geometry":{"type":"Polygon","coordinates":[[[130.51620483398438,5.004762401727689],[130.60684204101562,5.004762401727689],[130.60684204101562,4.914464560331368],[130.51620483398438,4.914464560331368],[130.51620483398438,5.004762401727689]]]}},{"type":"Feature","id":"pmtiles:12/3534/1991:water:80:0","properties":{"class":"ocean","water":"ocean","kind":"waterway","verification":"verified","source":"OpenMapTiles/OpenStreetMap national PMTiles","sourceId":"12/3534/1991:water:80:0","sourceLayer":"water","archive":"https://its.hanifahseptiani45.workers.dev/v1/map/archive/indonesia.pmtiles","updatedAt":"2026-07-26T10:44:41.085Z"},"geometry":{"type":"Polygon","coordinates":[[[130.60409545898438,5.004762401727689],[130.69473266601562,5.004762401727689],[130.69473266601562,4.914464560331368],[130.60409545898438,4.914464560331368],[130.60409545898438,5.004762401727689]]]}},{"type":"Feature","id":"pmtiles:12/3535/1991:water:80:0","properties":{"class":"ocean","water":"ocean","kind":"waterway","verification":"verified","source":"OpenMapTiles/OpenStreetMap national PMTiles","sourceId":"12/3535/1991:water:80:0","sourceLayer":"water","archive":"https://its.hanifahseptiani45.workers.dev/v1/map/archive/indonesia.pmtiles","updatedAt":"2026-07-26T10:44:41.146Z"},"geometry":{"type":"Polygon","coordinates":[[[130.69198608398438,5.004762401727689],[130.78262329101562,5.004762401727689],[130.78262329101562,4.914464560331368],[130.69198608398438,4.914464560331368],[130.69198608398438,5.004762401727689]]]}},{"type":"Feature","id":"pmtiles:10/883/497:water:80:0","properties":{"class":"ocean","water":"ocean","kind":"waterway","verification":"verified","source":"OpenMapTiles/OpenStreetMap national PMTiles","sourceId":"10/883/497:water:80:0","sourceLayer":"water","archive":"https://its.hanifahseptiani45.workers.dev/v1/map/archive/indonesia.pmtiles","updatedAt":"2026-07-26T09:38:35.448Z"},"geometry":{"type":"Polygon","coordinates":[[[130.4241943359375,5.271477837928373],[130.7867431640625,5.271477837928373],[130.7867431640625,4.910359820532264],[130.4241943359375,4.910359820532264],[130.4241943359375,5.271477837928373]]]}}]}