{"type":"FeatureCollection","features":[{"type":"Feature","id":"pmtiles:10/899/542:water:650:0","properties":{"class":"ocean","water":"ocean","kind":"waterway","verification":"verified","source":"OpenMapTiles/OpenStreetMap national PMTiles","sourceId":"10/899/542:water:650:0","sourceLayer":"water","archive":"https://its.hanifahseptiani45.workers.dev/v1/map/archive/indonesia.pmtiles","updatedAt":"2026-07-26T09:47:24.227Z"},"geometry":{"type":"Polygon","coordinates":[[[136.0491943359375,-10.482410441586666],[136.4117431640625,-10.482410441586666],[136.4117431640625,-10.838701200796791],[136.0491943359375,-10.838701200796791],[136.0491943359375,-10.482410441586666]]]}}]}