{"type":"FeatureCollection","features":[{"type":"Feature","id":"pmtiles:10/825/504:water:880:0","properties":{"class":"ocean","water":"ocean","kind":"waterway","verification":"verified","source":"OpenMapTiles/OpenStreetMap national PMTiles","sourceId":"10/825/504:water:880:0","sourceLayer":"water","archive":"https://its.hanifahseptiani45.workers.dev/v1/map/archive/indonesia.pmtiles","updatedAt":"2026-07-26T09:39:54.841Z"},"geometry":{"type":"Polygon","coordinates":[[[110.0335693359375,2.816857733037736],[110.3961181640625,2.816857733037736],[110.3961181640625,2.454693068753784],[110.0335693359375,2.454693068753784],[110.0335693359375,2.816857733037736]]]}}]}