{"type":"FeatureCollection","features":[{"type":"Feature","id":"pmtiles:10/816/525:transportation:4044148410:0","properties":{"class":"ferry","highway":"ferry","kind":"road","verification":"verified","source":"OpenMapTiles/OpenStreetMap national PMTiles","sourceId":"10/816/525:transportation:4044148410:0","sourceLayer":"transportation","archive":"https://its.hanifahseptiani45.workers.dev/v1/map/archive/indonesia.pmtiles","updatedAt":"2026-07-26T09:44:10.427Z"},"geometry":{"type":"LineString","coordinates":[[107.05636024475098,-4.559997795432579],[107.02631950378418,-4.921305737130197]]}},{"type":"Feature","id":"pmtiles:10/816/525:transportation:4044148410:1","properties":{"class":"ferry","highway":"ferry","kind":"road","verification":"verified","source":"OpenMapTiles/OpenStreetMap national PMTiles","sourceId":"10/816/525:transportation:4044148410:1","sourceLayer":"transportation","archive":"https://its.hanifahseptiani45.workers.dev/v1/map/archive/indonesia.pmtiles","updatedAt":"2026-07-26T09:44:10.427Z"},"geometry":{"type":"LineString","coordinates":[[107.0588493347168,-4.559997795432579],[107.02898025512695,-4.921305737130197]]}},{"type":"Feature","id":"pmtiles:10/816/525:transportation:4044148410:2","properties":{"class":"ferry","highway":"ferry","kind":"road","verification":"verified","source":"OpenMapTiles/OpenStreetMap national PMTiles","sourceId":"10/816/525:transportation:4044148410:2","sourceLayer":"transportation","archive":"https://its.hanifahseptiani45.workers.dev/v1/map/archive/indonesia.pmtiles","updatedAt":"2026-07-26T09:44:10.427Z"},"geometry":{"type":"LineString","coordinates":[[107.06073760986328,-4.559997795432579],[107.03095436096191,-4.921305737130197]]}},{"type":"Feature","id":"pmtiles:10/816/525:transportation:4044148410:3","properties":{"class":"ferry","highway":"ferry","kind":"road","verification":"verified","source":"OpenMapTiles/OpenStreetMap national PMTiles","sourceId":"10/816/525:transportation:4044148410:3","sourceLayer":"transportation","archive":"https://its.hanifahseptiani45.workers.dev/v1/map/archive/indonesia.pmtiles","updatedAt":"2026-07-26T09:44:10.427Z"},"geometry":{"type":"LineString","coordinates":[[107.07026481628418,-4.559997795432579],[107.03919410705566,-4.921305737130197]]}},{"type":"Feature","id":"pmtiles:10/816/525:transportation:4044148410:4","properties":{"class":"ferry","highway":"ferry","kind":"road","verification":"verified","source":"OpenMapTiles/OpenStreetMap national PMTiles","sourceId":"10/816/525:transportation:4044148410:4","sourceLayer":"transportation","archive":"https://its.hanifahseptiani45.workers.dev/v1/map/archive/indonesia.pmtiles","updatedAt":"2026-07-26T09:44:10.427Z"},"geometry":{"type":"LineString","coordinates":[[107.05927848815918,-4.921305737130197],[107.06974983215332,-4.863581110596343],[107.105712890625,-4.656330727305047],[107.12287902832031,-4.559997795432579]]}},{"type":"Feature","id":"pmtiles:10/816/525:water:940:0","properties":{"class":"ocean","water":"ocean","kind":"waterway","verification":"verified","source":"OpenMapTiles/OpenStreetMap national PMTiles","sourceId":"10/816/525:water:940:0","sourceLayer":"water","archive":"https://its.hanifahseptiani45.workers.dev/v1/map/archive/indonesia.pmtiles","updatedAt":"2026-07-26T09:44:10.427Z"},"geometry":{"type":"Polygon","coordinates":[[[106.8695068359375,-4.559997795432579],[107.2320556640625,-4.559997795432579],[107.2320556640625,-4.921305737130197],[106.8695068359375,-4.921305737130197],[106.8695068359375,-4.559997795432579]]]}},{"type":"Feature","id":"pmtiles:8/204/131:transportation:4044148410:0","properties":{"class":"ferry","highway":"ferry","kind":"road","verification":"verified","source":"OpenMapTiles/OpenStreetMap national PMTiles","sourceId":"8/204/131:transportation:4044148410:0","sourceLayer":"transportation","archive":"https://its.hanifahseptiani45.workers.dev/v1/map/archive/indonesia.pmtiles","updatedAt":"2026-07-26T09:35:39.990Z"},"geometry":{"type":"LineString","coordinates":[[107.08683013916016,-4.193029605360749],[106.96769714355469,-5.6378525987708485]]}},{"type":"Feature","id":"pmtiles:8/204/131:transportation:4044148410:1","properties":{"class":"ferry","highway":"ferry","kind":"road","verification":"verified","source":"OpenMapTiles/OpenStreetMap national PMTiles","sourceId":"8/204/131:transportation:4044148410:1","sourceLayer":"transportation","archive":"https://its.hanifahseptiani45.workers.dev/v1/map/archive/indonesia.pmtiles","updatedAt":"2026-07-26T09:35:39.990Z"},"geometry":{"type":"LineString","coordinates":[[107.0892333984375,-4.193029605360749],[106.96975708007812,-5.6378525987708485]]}},{"type":"Feature","id":"pmtiles:8/204/131:transportation:4044148410:2","properties":{"class":"ferry","highway":"ferry","kind":"road","verification":"verified","source":"OpenMapTiles/OpenStreetMap national PMTiles","sourceId":"8/204/131:transportation:4044148410:2","sourceLayer":"transportation","archive":"https://its.hanifahseptiani45.workers.dev/v1/map/archive/indonesia.pmtiles","updatedAt":"2026-07-26T09:35:39.990Z"},"geometry":{"type":"LineString","coordinates":[[107.09095001220703,-4.193029605360749],[106.97181701660156,-5.6378525987708485]]}},{"type":"Feature","id":"pmtiles:8/204/131:transportation:4044148410:3","properties":{"class":"ferry","highway":"ferry","kind":"road","verification":"verified","source":"OpenMapTiles/OpenStreetMap national PMTiles","sourceId":"8/204/131:transportation:4044148410:3","sourceLayer":"transportation","archive":"https://its.hanifahseptiani45.workers.dev/v1/map/archive/indonesia.pmtiles","updatedAt":"2026-07-26T09:35:39.990Z"},"geometry":{"type":"LineString","coordinates":[[107.10193634033203,-4.193029605360749],[106.97765350341797,-5.6378525987708485]]}},{"type":"Feature","id":"pmtiles:8/204/131:transportation:4044148410:4","properties":{"class":"ferry","highway":"ferry","kind":"road","verification":"verified","source":"OpenMapTiles/OpenStreetMap national PMTiles","sourceId":"8/204/131:transportation:4044148410:4","sourceLayer":"transportation","archive":"https://its.hanifahseptiani45.workers.dev/v1/map/archive/indonesia.pmtiles","updatedAt":"2026-07-26T09:35:39.990Z"},"geometry":{"type":"LineString","coordinates":[[106.98143005371094,-5.6378525987708485],[107.03224182128906,-5.0711097034856465],[107.06966400146484,-4.8634955889453835],[107.1877670288086,-4.193029605360749]]}}]}