{"type":"FeatureCollection","features":[{"type":"Feature","id":"pmtiles:10/819/544:water:2670:0","properties":{"class":"ocean","water":"ocean","kind":"waterway","verification":"verified","source":"OpenMapTiles/OpenStreetMap national PMTiles","sourceId":"10/819/544:water:2670:0","sourceLayer":"water","archive":"https://its.hanifahseptiani45.workers.dev/v1/map/archive/indonesia.pmtiles","updatedAt":"2026-07-26T09:47:37.764Z"},"geometry":{"type":"Polygon","coordinates":[[[107.9241943359375,-11.173012874215061],[108.2867431640625,-11.173012874215061],[108.2867431640625,-11.52846990075463],[107.9241943359375,-11.52846990075463],[107.9241943359375,-11.173012874215061]]]}}]}