{"type":"FeatureCollection","features":[{"type":"Feature","id":"pmtiles:10/842/495:water:760:0","properties":{"class":"ocean","water":"ocean","kind":"waterway","verification":"verified","source":"OpenMapTiles/OpenStreetMap national PMTiles","sourceId":"10/842/495:water:760:0","sourceLayer":"water","archive":"https://its.hanifahseptiani45.workers.dev/v1/map/archive/indonesia.pmtiles","updatedAt":"2026-07-26T09:38:13.801Z"},"geometry":{"type":"Polygon","coordinates":[[[116.05690956115723,5.971217057997222],[116.0569953918457,5.970960962951665],[116.05605125427246,5.968143909549767],[116.05613708496094,5.967717082013436],[116.0566520690918,5.968400005912017],[116.05733871459961,5.968229275017151],[116.05742454528809,5.966351231663651],[116.05587959289551,5.966180500130648],[116.05476379394531,5.967119522904156],[116.05545043945312,5.9679731785751216],[116.05545043945312,5.968400005912017],[116.05527877807617,5.968400005912017],[116.05527877807617,5.9679731785751216],[116.05459213256836,5.967290254144729],[116.05527877807617,5.966521963143478],[116.05502128601074,5.965753671065542],[116.05347633361816,5.965326841668144],[116.05287551879883,5.964473181876613],[116.05287551879883,5.964046351482523],[116.0526180267334,5.964046351482523],[116.05227470397949,5.96344878837273],[116.0540771484375,5.961997560967291],[116.05493545532227,5.961741461614906],[116.05648040771484,5.960375596383244],[116.05622291564941,5.960290229693385],[116.05596542358398,5.960631696373142],[116.05510711669922,5.960717063009895],[116.05424880981445,5.959863396044895],[116.05356216430664,5.959607295696472],[116.05236053466797,5.959607295696472],[116.05098724365234,5.958241425153432],[116.04875564575195,5.956960918432955],[116.04772567749023,5.956619449469812],[116.04480743408203,5.956107245626967],[116.04403495788574,5.95679018397793],[116.04188919067383,5.95679018397793],[116.04103088378906,5.957814589911777],[116.04068756103516,5.957558488607489],[116.04103088378906,5.957131652834903],[116.04085922241211,5.956704816730522],[116.04060173034668,5.956534082195859],[116.04025840759277,5.956875551212093],[116.04000091552734,5.956704816730522],[116.04043006896973,5.956363347608104],[116.04025840759277,5.955509673873195],[116.0405158996582,5.95482673392992],[116.04120254516602,5.954229160783029],[116.04171752929688,5.953119380357137],[116.04394912719727,5.950387603606174],[116.04557991027832,5.947058232336673],[116.04626655578613,5.9424483003872695],[116.04652404785156,5.934252770501757],[116.04583740234375,5.933825916646924],[116.04609489440918,5.933399062461547],[116.04592323303223,5.931008672916434],[116.04334831237793,5.924861909379786],[116.04257583618164,5.922300737704148],[116.04000091552734,5.915983130137704],[116.04000091552734,5.91547088852171],[116.04043006896973,5.914873272703346],[116.04214668273926,5.914104908559395],[116.04146003723145,5.910177697378927],[116.04008674621582,5.909323952129981],[116.04000091552734,5.9086409549828005],[116.03828430175781,5.904542954408257],[116.0364818572998,5.901810937183356],[116.03536605834961,5.900530299473203],[116.03442192077637,5.900786427251916],[116.03399276733398,5.900615675412581],[116.03296279907227,5.898566649238873],[116.03287696838379,5.897712886098603],[116.03304862976074,5.8973713804745245],[116.03425025939941,5.897115251118478],[116.03433609008789,5.8973713804745245],[116.03493690490723,5.897627509712308],[116.0350227355957,5.897115251118478],[116.03519439697266,5.8974567569002545],[116.03596687316895,5.897029874640182],[116.03596687316895,5.896602992051612],[116.03691101074219,5.896261485744233],[116.03656768798828,5.896090732511709],[116.03442192077637,5.896773745126453],[116.03313446044922,5.896944498148741],[116.03279113769531,5.896090732511709],[116.03236198425293,5.896005355875744],[116.03270530700684,5.895663849200503],[116.03270530700684,5.895066212013063],[116.0379409790039,5.893444050688473],[116.03845596313477,5.893358673645309],[116.03922843933105,5.893700181739135],[116.03982925415039,5.893358673645309],[116.04008674621582,5.892675656827336],[116.03974342346191,5.892163393662358],[116.03974342346191,5.891821884623113],[116.04206085205078,5.8866992238339435],[116.04223251342773,5.885247794689846],[116.04283332824707,5.884820903043789],[116.04291915893555,5.883796361755714],[116.04266166687012,5.883625604690806],[116.04291915893555,5.881064242424841],[116.0456657409668,5.881405758075218],[116.04626655578613,5.881064242424841],[116.04703903198242,5.881149621357096],[116.04729652404785,5.880893484521025],[116.04678153991699,5.880295831444883],[116.04703903198242,5.879868935997379],[116.04738235473633,5.879698177726667],[116.04763984680176,5.879954315113068],[116.04763984680176,5.880637347567017],[116.04815483093262,5.881320379182284],[116.04875564575195,5.881661894675389],[116.04927062988281,5.881661894675389],[116.04901313781738,5.881064242424841],[116.04806900024414,5.880295831444883],[116.04789733886719,5.87978355686856],[116.04832649230957,5.87952741940353],[116.0489273071289,5.87952741940353],[116.04944229125977,5.879954315113068],[116.0496997833252,5.87978355686856],[116.05098724365234,5.876026862232365],[116.05107307434082,5.875002304749501],[116.05055809020996,5.8734654649905025],[116.05021476745605,5.871245577852321],[116.04978561401367,5.870306392169638],[116.04935646057129,5.8697941084028145],[116.04866981506348,5.869964869710742],[116.04841232299805,5.8697941084028145],[116.048583984375,5.8691964434130455],[116.04935646057129,5.868940301078368],[116.04935646057129,5.868769539456537],[116.04841232299805,5.869025681869658],[116.04815483093262,5.8696233470425625],[116.04781150817871,5.86936720490408],[116.04755401611328,5.868684158625996],[116.04815483093262,5.868257254277154],[116.04806900024414,5.867830349601377],[116.0474681854248,5.8674034445987076],[116.04635238647461,5.86552505870398],[116.04618072509766,5.864842007719076],[116.0460090637207,5.864927389137932],[116.04583740234375,5.8647566262871464],[116.04618072509766,5.8643297189314865],[116.04609489440918,5.864158955897736],[116.04429244995117,5.862707468000565],[116.04360580444336,5.860572920116553],[116.04240417480469,5.8608290662936895],[116.04206085205078,5.862451322685573],[116.04369163513184,5.8650981519364365],[116.04369163513184,5.865781202607636],[116.04334831237793,5.867232682506113],[116.04369163513184,5.867318063558955],[116.0442066192627,5.866805777045826],[116.04437828063965,5.866891158164023],[116.0434341430664,5.867659587639537],[116.0430908203125,5.867488825625401],[116.0427474975586,5.866720395914541],[116.04180335998535,5.8621951772529854],[116.0419750213623,5.859036040585636],[116.04180335998535,5.856645330684998],[116.04206085205078,5.855193823252861],[116.04188919067383,5.853998461359566],[116.04206085205078,5.853486162622545],[116.04249000549316,5.85015620938708],[116.04300498962402,5.848533917293295],[116.04300498962402,5.846655467938206],[116.04000091552734,5.846911620494382],[116.03193283081055,5.835726183034254],[116.0346794128418,5.8337623045576095],[116.04326248168945,5.84546008779229],[116.04351997375488,5.8453747033984484],[116.04360580444336,5.8449477812338415],[116.04283332824707,5.843325474038636],[116.04154586791992,5.841361622196928],[116.04077339172363,5.840849311888192],[116.03957176208496,5.838970836747265],[116.03854179382324,5.838116982328344],[116.03751182556152,5.836153112227564],[116.03751182556152,5.835640797156572],[116.03682518005371,5.8337623045576095],[116.03665351867676,5.83367691838086],[116.03622436523438,5.834189235246356],[116.03588104248047,5.834274621345102],[116.03588104248047,5.8326522832457925],[116.03510856628418,5.831542259737176],[116.03407859802246,5.8305176207028495],[116.03158950805664,5.829066045534574],[116.02601051330566,5.827870627871064],[116.02017402648926,5.825650559742485],[116.01511001586914,5.825479784907486],[116.01339340209961,5.823345095088669],[116.01227760314941,5.823515870572706],[116.0112476348877,5.824455134806939],[116.01081848144531,5.8243697472141776],[116.0101318359375,5.823345095088669],[116.0101318359375,5.971217057997222],[116.05690956115723,5.971217057997222]],[[116.03073120117188,5.8329938284988],[116.03030204772949,5.8337623045576095],[116.03021621704102,5.834616165610058],[116.02995872497559,5.834701551643775],[116.02609634399414,5.831627646238886],[116.0280704498291,5.829151432413127],[116.03219032287598,5.829834526973741],[116.03442192077637,5.831542259737176],[116.03433609008789,5.833591532191107],[116.0332202911377,5.834530779563323],[116.03270530700684,5.833506145988352],[116.03047370910645,5.831627646238886],[116.03030204772949,5.831798419203352],[116.03141784667969,5.832737669578535],[116.03073120117188,5.8329938284988]],[[116.01210594177246,5.839568534066274],[116.01133346557617,5.837775440196481],[116.01150512695312,5.837177740964805],[116.01287841796875,5.836323883813847],[116.01365089416504,5.836323883813847],[116.01365089416504,5.835811568898933],[116.01476669311523,5.837092355308243],[116.01459503173828,5.837519283460949],[116.01382255554199,5.838031596814901],[116.01330757141113,5.839568534066274],[116.01347923278809,5.83999546033229],[116.0130500793457,5.83999546033229],[116.01262092590332,5.839483148774036],[116.01210594177246,5.839568534066274]],[[116.048583984375,5.876026862232365],[116.0482406616211,5.876197621629544],[116.0482406616211,5.8767952791071565],[116.04841232299805,5.877051417829705],[116.04738235473633,5.877136797377688],[116.04703903198242,5.875599963510311],[116.0471248626709,5.8743192653802225],[116.04463577270508,5.868086492446068],[116.04446411132812,5.867232682506113],[116.04463577270508,5.86697653926916],[116.04489326477051,5.867488825625401],[116.04532241821289,5.867659587639537],[116.04540824890137,5.868086492446068],[116.04626655578613,5.868257254277154],[116.0460090637207,5.868598777782381],[116.04686737060547,5.868769539456537],[116.04660987854004,5.8691964434130455],[116.04635238647461,5.8691964434130455],[116.04643821716309,5.8696233470425625],[116.0460090637207,5.870050250345088],[116.04721069335938,5.871757860284731],[116.04729652404785,5.872867803938945],[116.0482406616211,5.8727824237363535],[116.04901313781738,5.8734654649905025],[116.0489273071289,5.873636225173158],[116.04832649230957,5.873636225173158],[116.04781150817871,5.874148505406993],[116.04763984680176,5.87517306446091],[116.0474681854248,5.875258444296975],[116.04763984680176,5.875685343280907],[116.04841232299805,5.8755145837265985],[116.048583984375,5.876026862232365]],[[116.01287841796875,5.964814645952686],[116.0130500793457,5.964729279953602],[116.01390838623047,5.965326841668144],[116.01476669311523,5.966351231663651],[116.01459503173828,5.967204888531086],[116.01365089416504,5.967717082013436],[116.01339340209961,5.968229275017151],[116.01296424865723,5.967717082013436],[116.01279258728027,5.967034157263939],[116.01287841796875,5.964814645952686]]]}}]}