{"type":"FeatureCollection","features":[{"type":"Feature","id":"pmtiles:12/3444/1984:water:360:0","properties":{"class":"ocean","water":"ocean","kind":"waterway","verification":"verified","source":"OpenMapTiles/OpenStreetMap national PMTiles","sourceId":"12/3444/1984:water:360:0","sourceLayer":"water","archive":"https://its.hanifahseptiani45.workers.dev/v1/map/archive/indonesia.pmtiles","updatedAt":"2026-07-26T10:40:17.238Z"},"geometry":{"type":"Polygon","coordinates":[[[122.69393920898438,5.617352516956672],[122.78457641601562,5.617352516956672],[122.78457641601562,5.527143621124267],[122.69393920898438,5.527143621124267],[122.69393920898438,5.617352516956672]]]}},{"type":"Feature","id":"pmtiles:12/3445/1984:water:360:0","properties":{"class":"ocean","water":"ocean","kind":"waterway","verification":"verified","source":"OpenMapTiles/OpenStreetMap national PMTiles","sourceId":"12/3445/1984:water:360:0","sourceLayer":"water","archive":"https://its.hanifahseptiani45.workers.dev/v1/map/archive/indonesia.pmtiles","updatedAt":"2026-07-26T10:40:17.320Z"},"geometry":{"type":"Polygon","coordinates":[[[122.78182983398438,5.617352516956672],[122.87246704101562,5.617352516956672],[122.87246704101562,5.527143621124267],[122.78182983398438,5.527143621124267],[122.78182983398438,5.617352516956672]]]}},{"type":"Feature","id":"pmtiles:12/3446/1984:water:360:0","properties":{"class":"ocean","water":"ocean","kind":"waterway","verification":"verified","source":"OpenMapTiles/OpenStreetMap national PMTiles","sourceId":"12/3446/1984:water:360:0","sourceLayer":"water","archive":"https://its.hanifahseptiani45.workers.dev/v1/map/archive/indonesia.pmtiles","updatedAt":"2026-07-26T10:40:17.397Z"},"geometry":{"type":"Polygon","coordinates":[[[122.86972045898438,5.617352516956672],[122.96035766601562,5.617352516956672],[122.96035766601562,5.527143621124267],[122.86972045898438,5.527143621124267],[122.86972045898438,5.617352516956672]]]}},{"type":"Feature","id":"pmtiles:12/3447/1984:water:360:0","properties":{"class":"ocean","water":"ocean","kind":"waterway","verification":"verified","source":"OpenMapTiles/OpenStreetMap national PMTiles","sourceId":"12/3447/1984:water:360:0","sourceLayer":"water","archive":"https://its.hanifahseptiani45.workers.dev/v1/map/archive/indonesia.pmtiles","updatedAt":"2026-07-26T10:40:17.475Z"},"geometry":{"type":"Polygon","coordinates":[[[122.95761108398438,5.617352516956672],[123.04824829101562,5.617352516956672],[123.04824829101562,5.527143621124267],[122.95761108398438,5.527143621124267],[122.95761108398438,5.617352516956672]]]}},{"type":"Feature","id":"pmtiles:12/3444/1985:water:1420:0","properties":{"class":"ocean","water":"ocean","kind":"waterway","verification":"verified","source":"OpenMapTiles/OpenStreetMap national PMTiles","sourceId":"12/3444/1985:water:1420:0","sourceLayer":"water","archive":"https://its.hanifahseptiani45.workers.dev/v1/map/archive/indonesia.pmtiles","updatedAt":"2026-07-26T10:40:57.460Z"},"geometry":{"type":"Polygon","coordinates":[[[122.69393920898438,5.52987742710495],[122.78457641601562,5.52987742710495],[122.78457641601562,5.439655198744674],[122.69393920898438,5.439655198744674],[122.69393920898438,5.52987742710495]]]}},{"type":"Feature","id":"pmtiles:12/3445/1985:water:1420:0","properties":{"class":"ocean","water":"ocean","kind":"waterway","verification":"verified","source":"OpenMapTiles/OpenStreetMap national PMTiles","sourceId":"12/3445/1985:water:1420:0","sourceLayer":"water","archive":"https://its.hanifahseptiani45.workers.dev/v1/map/archive/indonesia.pmtiles","updatedAt":"2026-07-26T10:40:57.540Z"},"geometry":{"type":"Polygon","coordinates":[[[122.78182983398438,5.52987742710495],[122.87246704101562,5.52987742710495],[122.87246704101562,5.439655198744674],[122.78182983398438,5.439655198744674],[122.78182983398438,5.52987742710495]]]}},{"type":"Feature","id":"pmtiles:12/3446/1985:water:1420:0","properties":{"class":"ocean","water":"ocean","kind":"waterway","verification":"verified","source":"OpenMapTiles/OpenStreetMap national PMTiles","sourceId":"12/3446/1985:water:1420:0","sourceLayer":"water","archive":"https://its.hanifahseptiani45.workers.dev/v1/map/archive/indonesia.pmtiles","updatedAt":"2026-07-26T10:40:57.615Z"},"geometry":{"type":"Polygon","coordinates":[[[122.86972045898438,5.52987742710495],[122.96035766601562,5.52987742710495],[122.96035766601562,5.439655198744674],[122.86972045898438,5.439655198744674],[122.86972045898438,5.52987742710495]]]}},{"type":"Feature","id":"pmtiles:12/3447/1985:water:1420:0","properties":{"class":"ocean","water":"ocean","kind":"waterway","verification":"verified","source":"OpenMapTiles/OpenStreetMap national PMTiles","sourceId":"12/3447/1985:water:1420:0","sourceLayer":"water","archive":"https://its.hanifahseptiani45.workers.dev/v1/map/archive/indonesia.pmtiles","updatedAt":"2026-07-26T10:40:57.697Z"},"geometry":{"type":"Polygon","coordinates":[[[122.95761108398438,5.52987742710495],[123.04824829101562,5.52987742710495],[123.04824829101562,5.439655198744674],[122.95761108398438,5.439655198744674],[122.95761108398438,5.52987742710495]]]}},{"type":"Feature","id":"pmtiles:12/3444/1986:water:1420:0","properties":{"class":"ocean","water":"ocean","kind":"waterway","verification":"verified","source":"OpenMapTiles/OpenStreetMap national PMTiles","sourceId":"12/3444/1986:water:1420:0","sourceLayer":"water","archive":"https://its.hanifahseptiani45.workers.dev/v1/map/archive/indonesia.pmtiles","updatedAt":"2026-07-26T10:41:33.762Z"},"geometry":{"type":"Polygon","coordinates":[[[122.69393920898438,5.442389405584223],[122.78457641601562,5.442389405584223],[122.78457641601562,5.352154053118355],[122.69393920898438,5.352154053118355],[122.69393920898438,5.442389405584223]]]}},{"type":"Feature","id":"pmtiles:12/3445/1986:water:1420:0","properties":{"class":"ocean","water":"ocean","kind":"waterway","verification":"verified","source":"OpenMapTiles/OpenStreetMap national PMTiles","sourceId":"12/3445/1986:water:1420:0","sourceLayer":"water","archive":"https://its.hanifahseptiani45.workers.dev/v1/map/archive/indonesia.pmtiles","updatedAt":"2026-07-26T10:41:33.827Z"},"geometry":{"type":"Polygon","coordinates":[[[122.78182983398438,5.442389405584223],[122.87246704101562,5.442389405584223],[122.87246704101562,5.352154053118355],[122.78182983398438,5.352154053118355],[122.78182983398438,5.442389405584223]]]}},{"type":"Feature","id":"pmtiles:12/3446/1986:water:1420:0","properties":{"class":"ocean","water":"ocean","kind":"waterway","verification":"verified","source":"OpenMapTiles/OpenStreetMap national PMTiles","sourceId":"12/3446/1986:water:1420:0","sourceLayer":"water","archive":"https://its.hanifahseptiani45.workers.dev/v1/map/archive/indonesia.pmtiles","updatedAt":"2026-07-26T10:41:33.887Z"},"geometry":{"type":"Polygon","coordinates":[[[122.86972045898438,5.442389405584223],[122.96035766601562,5.442389405584223],[122.96035766601562,5.352154053118355],[122.86972045898438,5.352154053118355],[122.86972045898438,5.442389405584223]]]}},{"type":"Feature","id":"pmtiles:12/3447/1986:water:1420:0","properties":{"class":"ocean","water":"ocean","kind":"waterway","verification":"verified","source":"OpenMapTiles/OpenStreetMap national PMTiles","sourceId":"12/3447/1986:water:1420:0","sourceLayer":"water","archive":"https://its.hanifahseptiani45.workers.dev/v1/map/archive/indonesia.pmtiles","updatedAt":"2026-07-26T10:41:33.967Z"},"geometry":{"type":"Polygon","coordinates":[[[122.95761108398438,5.442389405584223],[123.04824829101562,5.442389405584223],[123.04824829101562,5.352154053118355],[122.95761108398438,5.352154053118355],[122.95761108398438,5.442389405584223]]]}},{"type":"Feature","id":"pmtiles:12/3444/1987:water:1420:0","properties":{"class":"ocean","water":"ocean","kind":"waterway","verification":"verified","source":"OpenMapTiles/OpenStreetMap national PMTiles","sourceId":"12/3444/1987:water:1420:0","sourceLayer":"water","archive":"https://its.hanifahseptiani45.workers.dev/v1/map/archive/indonesia.pmtiles","updatedAt":"2026-07-26T10:42:08.889Z"},"geometry":{"type":"Polygon","coordinates":[[[122.69393920898438,5.354888654498652],[122.78457641601562,5.354888654498652],[122.78457641601562,5.264640386502251],[122.69393920898438,5.264640386502251],[122.69393920898438,5.354888654498652]]]}},{"type":"Feature","id":"pmtiles:12/3445/1987:water:1420:0","properties":{"class":"ocean","water":"ocean","kind":"waterway","verification":"verified","source":"OpenMapTiles/OpenStreetMap national PMTiles","sourceId":"12/3445/1987:water:1420:0","sourceLayer":"water","archive":"https://its.hanifahseptiani45.workers.dev/v1/map/archive/indonesia.pmtiles","updatedAt":"2026-07-26T10:42:08.970Z"},"geometry":{"type":"Polygon","coordinates":[[[122.78182983398438,5.354888654498652],[122.87246704101562,5.354888654498652],[122.87246704101562,5.264640386502251],[122.78182983398438,5.264640386502251],[122.78182983398438,5.354888654498652]]]}},{"type":"Feature","id":"pmtiles:12/3446/1987:water:1420:0","properties":{"class":"ocean","water":"ocean","kind":"waterway","verification":"verified","source":"OpenMapTiles/OpenStreetMap national PMTiles","sourceId":"12/3446/1987:water:1420:0","sourceLayer":"water","archive":"https://its.hanifahseptiani45.workers.dev/v1/map/archive/indonesia.pmtiles","updatedAt":"2026-07-26T10:42:09.042Z"},"geometry":{"type":"Polygon","coordinates":[[[122.86972045898438,5.354888654498652],[122.96035766601562,5.354888654498652],[122.96035766601562,5.264640386502251],[122.86972045898438,5.264640386502251],[122.86972045898438,5.354888654498652]]]}},{"type":"Feature","id":"pmtiles:12/3447/1987:water:1420:0","properties":{"class":"ocean","water":"ocean","kind":"waterway","verification":"verified","source":"OpenMapTiles/OpenStreetMap national PMTiles","sourceId":"12/3447/1987:water:1420:0","sourceLayer":"water","archive":"https://its.hanifahseptiani45.workers.dev/v1/map/archive/indonesia.pmtiles","updatedAt":"2026-07-26T10:42:09.124Z"},"geometry":{"type":"Polygon","coordinates":[[[122.95761108398438,5.354888654498652],[123.04824829101562,5.354888654498652],[123.04824829101562,5.264640386502251],[122.95761108398438,5.264640386502251],[122.95761108398438,5.354888654498652]]]}},{"type":"Feature","id":"pmtiles:10/861/496:water:360:0","properties":{"class":"ocean","water":"ocean","kind":"waterway","verification":"verified","source":"OpenMapTiles/OpenStreetMap national PMTiles","sourceId":"10/861/496:water:360:0","sourceLayer":"water","archive":"https://its.hanifahseptiani45.workers.dev/v1/map/archive/indonesia.pmtiles","updatedAt":"2026-07-26T09:38:24.151Z"},"geometry":{"type":"Polygon","coordinates":[[[122.6898193359375,5.621452591118839],[123.0523681640625,5.621452591118839],[123.0523681640625,5.260537879550753],[122.6898193359375,5.260537879550753],[122.6898193359375,5.621452591118839]]]}}]}