{"type":"FeatureCollection","features":[{"type":"Feature","id":"pmtiles:10/865/500:water:1960:0","properties":{"class":"ocean","water":"ocean","kind":"waterway","verification":"verified","source":"OpenMapTiles/OpenStreetMap national PMTiles","sourceId":"10/865/500:water:1960:0","sourceLayer":"water","archive":"https://its.hanifahseptiani45.workers.dev/v1/map/archive/indonesia.pmtiles","updatedAt":"2026-07-26T09:39:22.996Z"},"geometry":{"type":"Polygon","coordinates":[[[124.0960693359375,4.220421429014593],[124.4586181640625,4.220421429014593],[124.4586181640625,3.8587739225726665],[124.0960693359375,3.8587739225726665],[124.0960693359375,4.220421429014593]]]}}]}