{"type":"FeatureCollection","features":[{"type":"Feature","id":"pmtiles:10/816/523:transportation:4044148410:0","properties":{"class":"ferry","highway":"ferry","kind":"road","verification":"verified","source":"OpenMapTiles/OpenStreetMap national PMTiles","sourceId":"10/816/523:transportation:4044148410:0","sourceLayer":"transportation","archive":"https://its.hanifahseptiani45.workers.dev/v1/map/archive/indonesia.pmtiles","updatedAt":"2026-07-26T09:43:51.082Z"},"geometry":{"type":"LineString","coordinates":[[107.11455345153809,-3.8587739225726523],[107.08459854125977,-4.2204214290145785]]}},{"type":"Feature","id":"pmtiles:10/816/523:transportation:4044148410:1","properties":{"class":"ferry","highway":"ferry","kind":"road","verification":"verified","source":"OpenMapTiles/OpenStreetMap national PMTiles","sourceId":"10/816/523:transportation:4044148410:1","sourceLayer":"transportation","archive":"https://its.hanifahseptiani45.workers.dev/v1/map/archive/indonesia.pmtiles","updatedAt":"2026-07-26T09:43:51.082Z"},"geometry":{"type":"LineString","coordinates":[[107.11858749389648,-3.8587739225726523],[107.08880424499512,-4.2204214290145785]]}},{"type":"Feature","id":"pmtiles:10/816/523:transportation:4044148410:2","properties":{"class":"ferry","highway":"ferry","kind":"road","verification":"verified","source":"OpenMapTiles/OpenStreetMap national PMTiles","sourceId":"10/816/523:transportation:4044148410:2","sourceLayer":"transportation","archive":"https://its.hanifahseptiani45.workers.dev/v1/map/archive/indonesia.pmtiles","updatedAt":"2026-07-26T09:43:51.082Z"},"geometry":{"type":"LineString","coordinates":[[107.11678504943848,-3.8587739225726523],[107.08691596984863,-4.2204214290145785]]}},{"type":"Feature","id":"pmtiles:10/816/523:transportation:4044148410:3","properties":{"class":"ferry","highway":"ferry","kind":"road","verification":"verified","source":"OpenMapTiles/OpenStreetMap national PMTiles","sourceId":"10/816/523:transportation:4044148410:3","sourceLayer":"transportation","archive":"https://its.hanifahseptiani45.workers.dev/v1/map/archive/indonesia.pmtiles","updatedAt":"2026-07-26T09:43:51.082Z"},"geometry":{"type":"LineString","coordinates":[[107.1306037902832,-3.8587739225726523],[107.09944725036621,-4.2204214290145785]]}},{"type":"Feature","id":"pmtiles:10/816/523:transportation:4044148410:4","properties":{"class":"ferry","highway":"ferry","kind":"road","verification":"verified","source":"OpenMapTiles/OpenStreetMap national PMTiles","sourceId":"10/816/523:transportation:4044148410:4","sourceLayer":"transportation","archive":"https://its.hanifahseptiani45.workers.dev/v1/map/archive/indonesia.pmtiles","updatedAt":"2026-07-26T09:43:51.082Z"},"geometry":{"type":"LineString","coordinates":[[107.18321800231934,-4.2204214290145785],[107.2320556640625,-3.9452619543899488]]}},{"type":"Feature","id":"pmtiles:10/816/523:water:940:0","properties":{"class":"ocean","water":"ocean","kind":"waterway","verification":"verified","source":"OpenMapTiles/OpenStreetMap national PMTiles","sourceId":"10/816/523:water:940:0","sourceLayer":"water","archive":"https://its.hanifahseptiani45.workers.dev/v1/map/archive/indonesia.pmtiles","updatedAt":"2026-07-26T09:43:51.082Z"},"geometry":{"type":"Polygon","coordinates":[[[106.8695068359375,-3.8587739225726523],[107.2320556640625,-3.8587739225726523],[107.2320556640625,-4.2204214290145785],[106.8695068359375,-4.2204214290145785],[106.8695068359375,-3.8587739225726523]]]}}]}