{"type":"FeatureCollection","features":[{"type":"Feature","id":"pmtiles:10/808/512:mountain_peak:10701844081:0","properties":{"name_int":"Gunung Lanjut","name_de":"Gunung Lanjut","name":"Gunung Lanjut","rank":1,"class":"peak","name:latin":"Gunung Lanjut","name_en":"Gunung Lanjut","kind":"poi","verification":"verified","source":"OpenMapTiles/OpenStreetMap national PMTiles","sourceId":"10/808/512:mountain_peak:10701844081:0","sourceLayer":"mountain_peak","archive":"https://its.hanifahseptiani45.workers.dev/v1/map/archive/indonesia.pmtiles","updatedAt":"2026-07-26T09:41:21.976Z"},"geometry":{"type":"Point","coordinates":[104.49997901916504,-0.416704318942152]}},{"type":"Feature","id":"pmtiles:10/809/512:mountain_peak:10701844081:0","properties":{"name_int":"Gunung Lanjut","name_de":"Gunung Lanjut","name":"Gunung Lanjut","rank":1,"class":"peak","name:latin":"Gunung Lanjut","name_en":"Gunung Lanjut","kind":"poi","verification":"verified","source":"OpenMapTiles/OpenStreetMap national PMTiles","sourceId":"10/809/512:mountain_peak:10701844081:0","sourceLayer":"mountain_peak","archive":"https://its.hanifahseptiani45.workers.dev/v1/map/archive/indonesia.pmtiles","updatedAt":"2026-07-26T09:41:22.044Z"},"geometry":{"type":"Point","coordinates":[104.49997901916504,-0.416704318942152]}},{"type":"Feature","id":"pmtiles:10/809/512:transportation:3083649850:2","properties":{"class":"secondary","highway":"secondary","kind":"road","verification":"verified","source":"OpenMapTiles/OpenStreetMap national PMTiles","sourceId":"10/809/512:transportation:3083649850:2","sourceLayer":"transportation","archive":"https://its.hanifahseptiani45.workers.dev/v1/map/archive/indonesia.pmtiles","updatedAt":"2026-07-26T09:41:22.044Z"},"geometry":{"type":"LineString","coordinates":[[104.4638442993164,-0.3570533530246962],[104.46435928344727,-0.3561092337356513],[104.46513175964355,-0.35568008857229927],[104.46530342102051,-0.3537918496167691],[104.46650505065918,-0.3522469265490855],[104.46830749511719,-0.350530345062424],[104.46968078613281,-0.34992954146768795],[104.47036743164062,-0.3501870287272908],[104.47105407714844,-0.3496720542010081],[104.47139739990234,-0.3473546684837885],[104.4715690612793,-0.3473546684837885]]}},{"type":"Feature","id":"pmtiles:10/809/512:transportation:3083649850:3","properties":{"class":"secondary","highway":"secondary","kind":"road","verification":"verified","source":"OpenMapTiles/OpenStreetMap national PMTiles","sourceId":"10/809/512:transportation:3083649850:3","sourceLayer":"transportation","archive":"https://its.hanifahseptiani45.workers.dev/v1/map/archive/indonesia.pmtiles","updatedAt":"2026-07-26T09:41:22.044Z"},"geometry":{"type":"LineString","coordinates":[[104.43981170654297,-0.3570533530246962],[104.43972587585449,-0.3567100369307923],[104.43818092346191,-0.35559425953722723],[104.43758010864258,-0.3542209948677453],[104.43938255310059,-0.3536201915108137],[104.43989753723145,-0.35319104623205533],[104.4415283203125,-0.35319104623205533],[104.44255828857422,-0.3527619009334728],[104.44350242614746,-0.3527619009334728],[104.44375991821289,-0.3528477299947781],[104.44384574890137,-0.3536201915108137],[104.4444465637207,-0.35387767866855313],[104.44478988647461,-0.3543926529625736],[104.4459056854248,-0.35447848200880117],[104.44890975952148,-0.3539635077195413],[104.45148468017578,-0.3545643110542187],[104.45199966430664,-0.35344853340168925],[104.45388793945312,-0.35259024280850326],[104.45414543151855,-0.35387767866855313],[104.45457458496094,-0.3542209948677453],[104.45577621459961,-0.3540493367697479],[104.45697784423828,-0.35465014009885465],[104.45749282836914,-0.35447848200880117],[104.45843696594238,-0.3555084305013594],[104.46066856384277,-0.3560234047045867],[104.46075439453125,-0.3570533530246962]]}},{"type":"Feature","id":"pmtiles:10/809/512:transportation_name:3083649780:0","properties":{"ref_length":2,"ref":"53","class":"trunk","network":"road","highway":"trunk","kind":"road","verification":"verified","source":"OpenMapTiles/OpenStreetMap national PMTiles","sourceId":"10/809/512:transportation_name:3083649780:0","sourceLayer":"transportation_name","archive":"https://its.hanifahseptiani45.workers.dev/v1/map/archive/indonesia.pmtiles","updatedAt":"2026-07-26T09:41:22.044Z"},"geometry":{"type":"LineString","coordinates":[[104.46530342102051,-0.34203326209988916],[104.46676254272461,-0.3434065285477743],[104.46882247924805,-0.34314904110379985],[104.47053909301758,-0.34529476959133376],[104.4715690612793,-0.3473546684837885],[104.47234153747559,-0.3479554722429725],[104.47388648986816,-0.34821295955661924],[104.47405815124512,-0.34864210506376025],[104.47362899780273,-0.34958622511054216],[104.47388648986816,-0.34992954146768795],[104.47491645812988,-0.34992954146768795],[104.4756031036377,-0.35087366138498055],[104.47697639465332,-0.3510453195415266],[104.47783470153809,-0.3520752684146089],[104.48040962219238,-0.3531052171739333],[104.48332786560059,-0.3537060205641893],[104.48392868041992,-0.3537060205641893],[104.48521614074707,-0.3528477299947781],[104.48650360107422,-0.3533627043459546],[104.48736190795898,-0.3540493367697479],[104.49036598205566,-0.3551651143499299],[104.49311256408691,-0.35713918204616846],[104.49577331542969,-0.3573108400867113],[104.49723243713379,-0.3576541561581763],[104.49800491333008,-0.3583407882625522],[104.49997901916504,-0.3620314349394249],[104.5008373260498,-0.36280389568219107]]}},{"type":"Feature","id":"pmtiles:10/808/513:mountain_peak:10701844081:0","properties":{"name_int":"Gunung Lanjut","name_de":"Gunung Lanjut","name":"Gunung Lanjut","rank":1,"class":"peak","name:latin":"Gunung Lanjut","name_en":"Gunung Lanjut","kind":"poi","verification":"verified","source":"OpenMapTiles/OpenStreetMap national PMTiles","sourceId":"10/808/513:mountain_peak:10701844081:0","sourceLayer":"mountain_peak","archive":"https://its.hanifahseptiani45.workers.dev/v1/map/archive/indonesia.pmtiles","updatedAt":"2026-07-26T09:41:45.762Z"},"geometry":{"type":"Point","coordinates":[104.49997901916504,-0.416704318942152]}},{"type":"Feature","id":"pmtiles:10/809/513:landuse:5429106372:0","properties":{"class":"residential","kind":"green","verification":"verified","source":"OpenMapTiles/OpenStreetMap national PMTiles","sourceId":"10/809/513:landuse:5429106372:0","sourceLayer":"landuse","archive":"https://its.hanifahseptiani45.workers.dev/v1/map/archive/indonesia.pmtiles","updatedAt":"2026-07-26T09:41:45.823Z"},"geometry":{"type":"Polygon","coordinates":[[[104.56598281860352,-0.5008156898328195],[104.56375122070312,-0.5017597912707572],[104.56083297729492,-0.5044204400439014],[104.55920219421387,-0.5037338211095772],[104.55894470214844,-0.5050212315520213],[104.55963134765625,-0.5057078503504329],[104.55671310424805,-0.5084543248168387],[104.55645561218262,-0.5075960516712854],[104.55491065979004,-0.5073385697054107],[104.55405235290527,-0.5077677063095081],[104.55379486083984,-0.5085401521251072],[104.55559730529785,-0.509655907028872],[104.55061912536621,-0.5161787779692872],[104.54976081848145,-0.5166937411807595],[104.55190658569336,-0.5129173433300735],[104.55130577087402,-0.5115441071946805],[104.55259323120117,-0.5097417343211532],[104.5517349243164,-0.5093125978482789],[104.55053329467773,-0.5109433162930088],[104.54976081848145,-0.5099133889023051],[104.5488166809082,-0.5100850434788669],[104.5484733581543,-0.5089692886494106],[104.55130577087402,-0.5080251882583156],[104.55001831054688,-0.5075960516712854],[104.5502758026123,-0.5070810877292757],[104.55130577087402,-0.5069952604016237],[104.55207824707031,-0.5051070589057787],[104.55190658569336,-0.5040771305857987],[104.55267906188965,-0.5039054758499475],[104.55259323120117,-0.5048495768410817],[104.55405235290527,-0.5056220230045909],[104.55791473388672,-0.5031330294826972],[104.5583438873291,-0.502188928243001],[104.556884765625,-0.5011589994623762],[104.55748558044434,-0.5003865527706068],[104.55705642700195,-0.49884165911434764],[104.55611228942871,-0.4979833847040993],[104.55516815185547,-0.4989274865492206],[104.55456733703613,-0.49841252192321406],[104.55379486083984,-0.4966959728792375],[104.55508232116699,-0.496781800342049],[104.55456733703613,-0.4952369058412813],[104.55267906188965,-0.4932628734553788],[104.54958915710449,-0.4927479083887505],[104.54898834228516,-0.49206128823800555],[104.54933166503906,-0.49154632307855195],[104.55087661743164,-0.49240459832221006],[104.55319404602051,-0.49206128823800555],[104.55353736877441,-0.48965811715451935],[104.55422401428223,-0.4892289793702673],[104.55482482910156,-0.4894006344872679],[104.55636978149414,-0.4921471157607158],[104.55757141113281,-0.49197546071418685],[104.56066131591797,-0.4932628734553788],[104.56186294555664,-0.49300539092705264],[104.56194877624512,-0.4921471157607158],[104.56177711486816,-0.49094553034235844],[104.56100463867188,-0.49043056509692917],[104.55877304077148,-0.4911171854153622],[104.55774307250977,-0.4895722895998489],[104.55679893493652,-0.4894864620441126],[104.55602645874023,-0.48854235885839614],[104.55473899841309,-0.48862818642621164],[104.55336570739746,-0.486654152089244],[104.55233573913574,-0.486997462450276],[104.55242156982422,-0.488370703719454],[104.55053329467773,-0.4884565312894722],[104.55010414123535,-0.4877699106986739],[104.55130577087402,-0.48622501411338703],[104.55164909362793,-0.4844226343171698],[104.55096244812012,-0.48390766857296796],[104.55164909362793,-0.48253442639747846],[104.55070495605469,-0.48159032224097587],[104.55130577087402,-0.480646217953705],[104.55302238464355,-0.48244859875229906],[104.55370903015137,-0.4821052881607528],[104.55439567565918,-0.48279190932650806],[104.56254959106445,-0.48450846193739494],[104.5634937286377,-0.484079323825398],[104.56452369689941,-0.4826202540415778],[104.56460952758789,-0.48193363285848534],[104.5638370513916,-0.4812470116061718],[104.5638370513916,-0.4793588028062459],[104.56503868103027,-0.4791871474349563],[104.5667552947998,-0.4776422488999543],[104.56915855407715,-0.47875800898791],[104.57053184509277,-0.4785005259067816],[104.57130432128906,-0.4777280766054588],[104.57387924194336,-0.4780713874167759],[104.57379341125488,-0.48004542424838803],[104.57465171813965,-0.480646217953705],[104.57422256469727,-0.48133283926649995],[104.57121849060059,-0.4815044945838878],[104.57293510437012,-0.4833927027897005],[104.5722484588623,-0.4851950828600735],[104.57250595092773,-0.4857958761102452],[104.56975936889648,-0.48613918651493293],[104.56872940063477,-0.48528091047050737],[104.56812858581543,-0.4839934961997159],[104.5682144165039,-0.48098952861873556],[104.5664119720459,-0.4810753562823038],[104.56649780273438,-0.48253442639747846],[104.56478118896484,-0.48493760002222075],[104.56589698791504,-0.48571004850633415],[104.56701278686523,-0.48553839329527193],[104.56907272338867,-0.4864824969021697],[104.56950187683105,-0.4894864620441126],[104.56830024719238,-0.4898297722605207],[104.5682144165039,-0.49154632307855195],[104.57070350646973,-0.49043056509692917],[104.57130432128906,-0.48862818642621164],[104.57276344299316,-0.48794156585293535],[104.57499504089355,-0.48785573827633755],[104.57671165466309,-0.4905163926405862],[104.57619667053223,-0.4921471157607158],[104.57181930541992,-0.49154632307855195],[104.56778526306152,-0.49403532098060055],[104.5675277709961,-0.4955802157615068],[104.57216262817383,-0.4947219409276187],[104.57422256469727,-0.4934345284687396],[104.57465171813965,-0.4947219409276187],[104.56778526306152,-0.4990133139829851],[104.56598281860352,-0.5008156898328195]]]}},{"type":"Feature","id":"pmtiles:10/809/513:mountain_peak:10701844081:0","properties":{"name_int":"Gunung Lanjut","name_de":"Gunung Lanjut","name":"Gunung Lanjut","rank":1,"class":"peak","name:latin":"Gunung Lanjut","name_en":"Gunung Lanjut","kind":"poi","verification":"verified","source":"OpenMapTiles/OpenStreetMap national PMTiles","sourceId":"10/809/513:mountain_peak:10701844081:0","sourceLayer":"mountain_peak","archive":"https://its.hanifahseptiani45.workers.dev/v1/map/archive/indonesia.pmtiles","updatedAt":"2026-07-26T09:41:45.823Z"},"geometry":{"type":"Point","coordinates":[104.49997901916504,-0.416704318942152]}},{"type":"Feature","id":"pmtiles:10/809/513:transportation:10326636602:0","properties":{"class":"ferry","highway":"ferry","kind":"road","verification":"verified","source":"OpenMapTiles/OpenStreetMap national PMTiles","sourceId":"10/809/513:transportation:10326636602:0","sourceLayer":"transportation","archive":"https://its.hanifahseptiani45.workers.dev/v1/map/archive/indonesia.pmtiles","updatedAt":"2026-07-26T09:41:45.823Z"},"geometry":{"type":"LineString","coordinates":[[104.56812858581543,-0.5024464104128015],[104.56907272338867,-0.5017597912707572],[104.58598136901855,-0.5027038925724838],[104.60143089294434,-0.49875583167836623],[104.61456298828125,-0.48133283926649995],[104.62417602539062,-0.4543829018423651],[104.62142944335938,-0.4257162976927873],[104.55791473388672,-0.34606723172845477]]}},{"type":"Feature","id":"pmtiles:10/809/513:transportation:3083649790:0","properties":{"class":"secondary","highway":"secondary","kind":"road","verification":"verified","source":"OpenMapTiles/OpenStreetMap national PMTiles","sourceId":"10/809/513:transportation:3083649790:0","sourceLayer":"transportation","archive":"https://its.hanifahseptiani45.workers.dev/v1/map/archive/indonesia.pmtiles","updatedAt":"2026-07-26T09:41:45.823Z"},"geometry":{"type":"LineString","coordinates":[[104.56212043762207,-0.4948935959032781],[104.56151962280273,-0.4952369058412813],[104.56418037414551,-0.499871588258884],[104.56512451171875,-0.5001290705197903],[104.56572532653809,-0.5011589994623762]]}},{"type":"Feature","id":"pmtiles:10/809/513:transportation:3083649790:1","properties":{"class":"secondary","highway":"secondary","kind":"road","verification":"verified","source":"OpenMapTiles/OpenStreetMap national PMTiles","sourceId":"10/809/513:transportation:3083649790:1","sourceLayer":"transportation","archive":"https://its.hanifahseptiani45.workers.dev/v1/map/archive/indonesia.pmtiles","updatedAt":"2026-07-26T09:41:45.823Z"},"geometry":{"type":"LineString","coordinates":[[104.56289291381836,-0.49429280346906523],[104.56280708312988,-0.49206128823800555],[104.56229209899902,-0.49094553034235844],[104.56323623657227,-0.4880273934284389],[104.56280708312988,-0.4863108417107469],[104.5620346069336,-0.48588170371304784],[104.56134796142578,-0.48596753131477044],[104.55885887145996,-0.4854525656881066],[104.55765724182129,-0.48373601331623206],[104.55619812011719,-0.48330687515534976],[104.55422401428223,-0.4832210475199332],[104.55267906188965,-0.4826202540415778],[104.55096244812012,-0.4807320456215791],[104.54778671264648,-0.47875800898791],[104.54710006713867,-0.4788438366794736],[104.54504013061523,-0.4798737688943078],[104.54366683959961,-0.48013125192382233],[104.54066276550293,-0.4799595965719021],[104.53980445861816,-0.4807320456215791],[104.53911781311035,-0.4808178732883732],[104.53722953796387,-0.4809037009540873],[104.53508377075195,-0.4799595965719021],[104.53207969665527,-0.4799595965719021],[104.5294189453125,-0.4807320456215791],[104.52667236328125,-0.4807320456215791],[104.52495574951172,-0.4811611839447778],[104.52263832092285,-0.4821911158102523],[104.52152252197266,-0.48304939224581744],[104.52092170715332,-0.48433680669585044],[104.52006340026855,-0.4839934961997159],[104.51972007751465,-0.48304939224581744],[104.51929092407227,-0.48270608168459717],[104.51705932617188,-0.48304939224581744],[104.51491355895996,-0.48244859875229906],[104.5132827758789,-0.48270608168459717],[104.51225280761719,-0.4833927027897005],[104.50907707214355,-0.48450846193739494],[104.50427055358887,-0.48588170371304784],[104.50255393981934,-0.48588170371304784],[104.50118064880371,-0.486997462450276],[104.49714660644531,-0.48811322100283405],[104.49465751647949,-0.488370703719454],[104.48624610900879,-0.4869116348616558],[104.48418617248535,-0.48682580727195557],[104.48358535766602,-0.4865683244962611],[104.48195457458496,-0.48485177240742416],[104.47628974914551,-0.47678397178592036],[104.47457313537598,-0.4757540391078976],[104.47036743164062,-0.4760115222918273],[104.46830749511719,-0.4751532449746776],[104.4646167755127,-0.47549655591436135],[104.4620418548584,-0.47523907271120436],[104.46066856384277,-0.4753249004466511],[104.45895195007324,-0.4745524507892469],[104.45792198181152,-0.4736083455352684],[104.45809364318848,-0.47180596242084505],[104.45869445800781,-0.47034689003376684],[104.46066856384277,-0.46820119479305333],[104.46084022521973,-0.4673429165127345],[104.46049690246582,-0.4659696710461674],[104.46023941040039,-0.46562635963768173],[104.45757865905762,-0.4646822531781538],[104.4568920135498,-0.4641672859652175],[104.45500373840332,-0.46107748190161146],[104.45405960083008,-0.46150662143527654],[104.45260047912598,-0.46133496562489995],[104.44925308227539,-0.46373814659246193],[104.4473648071289,-0.46365231871477874],[104.44642066955566,-0.46305152354193524],[104.44650650024414,-0.46150662143527654],[104.44745063781738,-0.4606483423420684],[104.44805145263672,-0.4560994614269447],[104.44676399230957,-0.4556703215691158],[104.44573402404785,-0.4526663418499197],[104.4459056854248,-0.45137892158885506],[104.44624900817871,-0.4507781253890073],[104.44727897644043,-0.45009150109991936],[104.44933891296387,-0.4496623608863928],[104.45054054260254,-0.4488899084385025],[104.44779396057129,-0.4403070980040269],[104.44753646850586,-0.4370456274378114],[104.44822311401367,-0.43524323520088615],[104.44839477539062,-0.4308659951215219],[104.44573402404785,-0.4284628034187392],[104.44496154785156,-0.4249438427808343],[104.44024085998535,-0.4214248805399734],[104.43903923034668,-0.42090991032227976],[104.43594932556152,-0.4201374549320036],[104.43380355834961,-0.4172192894363178],[104.4316577911377,-0.4133570099114223],[104.43097114562988,-0.41258455378049064],[104.42976951599121,-0.41206958298485574],[104.42831039428711,-0.4127562107049556],[104.42702293395996,-0.41189792604558306],[104.42685127258301,-0.4110396412937831],[104.42745208740234,-0.4059757593870046],[104.42719459533691,-0.4051174740026653],[104.42479133605957,-0.40288593157843877],[104.42564964294434,-0.39842284489986923],[104.4253921508789,-0.3976503873439441],[104.42719459533691,-0.39730707285143296],[104.42745208740234,-0.39696375834465414],[104.42753791809082,-0.3961054720153925],[104.42710876464844,-0.39310146916423605],[104.4265079498291,-0.3922431824364878],[104.42659378051758,-0.39095575217989165],[104.42779541015625,-0.38949666431716423],[104.42882537841797,-0.38881003464724984],[104.42934036254883,-0.3880375762018389],[104.4294261932373,-0.38537688546200854],[104.43191528320312,-0.3822012212334869],[104.43337440490723,-0.3795405286781772],[104.43629264831543,-0.3778239524013145],[104.43775177001953,-0.3779956100442945],[104.43843841552734,-0.37756646593049936],[104.43869590759277,-0.3752490873506247],[104.43921089172363,-0.3738758256800452],[104.43929672241211,-0.3725883926687885],[104.43800926208496,-0.3713867883552098],[104.43672180175781,-0.3711293016953192],[104.43689346313477,-0.3699276971834706],[104.43646430969238,-0.3669236851931572],[104.43706512451172,-0.3646063038252976],[104.43843841552734,-0.3624605798046474],[104.44032669067383,-0.3619456059639248],[104.4411849975586,-0.36134480311281436],[104.44135665893555,-0.3610014871800473],[104.44109916687012,-0.3599715393040128],[104.44127082824707,-0.3585124462806135],[104.44024085998535,-0.3581691302412935],[104.43972587585449,-0.3567100369307923],[104.43818092346191,-0.35559425953722723],[104.43758010864258,-0.3542209948677453],[104.43938255310059,-0.3536201915108137],[104.43989753723145,-0.35319104623205533],[104.4415283203125,-0.35319104623205533],[104.44255828857422,-0.3527619009334728],[104.44350242614746,-0.3527619009334728],[104.44375991821289,-0.3528477299947781],[104.44384574890137,-0.3536201915108137],[104.4444465637207,-0.35387767866855313],[104.44478988647461,-0.3543926529625736],[104.4459056854248,-0.35447848200880117],[104.44890975952148,-0.3539635077195413],[104.45148468017578,-0.3545643110542187],[104.45199966430664,-0.35344853340168925],[104.45388793945312,-0.35259024280850326],[104.45414543151855,-0.35387767866855313],[104.45457458496094,-0.3542209948677453],[104.45577621459961,-0.3540493367697479],[104.45697784423828,-0.35465014009885465],[104.45749282836914,-0.35447848200880117],[104.45843696594238,-0.3555084305013594],[104.46066856384277,-0.3560234047045867],[104.46075439453125,-0.3572250110668449],[104.46169853210449,-0.358083301229442],[104.46367263793945,-0.35748249812404254],[104.46435928344727,-0.3561092337356513],[104.46513175964355,-0.35568008857229927],[104.46530342102051,-0.3537918496167691],[104.46650505065918,-0.3522469265490855],[104.46830749511719,-0.350530345062424],[104.46968078613281,-0.34992954146768795],[104.47036743164062,-0.3501870287272908],[104.47105407714844,-0.3496720542010081],[104.47139739990234,-0.3473546684837885],[104.4715690612793,-0.3473546684837885]]}},{"type":"Feature","id":"pmtiles:10/809/513:transportation:3083649870:0","properties":{"class":"trunk","highway":"trunk","kind":"road","verification":"verified","source":"OpenMapTiles/OpenStreetMap national PMTiles","sourceId":"10/809/513:transportation:3083649870:0","sourceLayer":"transportation","archive":"https://its.hanifahseptiani45.workers.dev/v1/map/archive/indonesia.pmtiles","updatedAt":"2026-07-26T09:41:45.823Z"},"geometry":{"type":"LineString","coordinates":[[104.47088241577148,-0.34606723172845477],[104.4715690612793,-0.3473546684837885],[104.47234153747559,-0.3479554722429725],[104.47388648986816,-0.34821295955661924],[104.47405815124512,-0.34864210506376025],[104.47362899780273,-0.34958622511054216],[104.47388648986816,-0.34992954146768795],[104.47491645812988,-0.34992954146768795],[104.4756031036377,-0.35087366138498055],[104.47697639465332,-0.3510453195415266],[104.47783470153809,-0.3520752684146089],[104.48040962219238,-0.3531052171739333],[104.48332786560059,-0.3537060205641893],[104.48392868041992,-0.3537060205641893],[104.48521614074707,-0.3528477299947781],[104.48650360107422,-0.3533627043459546],[104.48736190795898,-0.3540493367697479],[104.49036598205566,-0.3551651143499299],[104.49311256408691,-0.35713918204616846],[104.49577331542969,-0.3573108400867113],[104.49723243713379,-0.3576541561581763],[104.49800491333008,-0.3583407882625522],[104.49997901916504,-0.3620314349394249],[104.5008373260498,-0.36280389568219107],[104.50238227844238,-0.36271806671402373],[104.50298309326172,-0.3634905273981843],[104.50358390808105,-0.36374801427824366],[104.50478553771973,-0.36391967219418575],[104.50590133666992,-0.36374801427824366],[104.51139450073242,-0.36486379067346775],[104.51414108276367,-0.3643488169697662],[104.51620101928711,-0.36520710645957877],[104.51757431030273,-0.3649496196212283],[104.5210075378418,-0.36555042223257317],[104.52152252197266,-0.3657220801141392],[104.52229499816895,-0.3675244876721706],[104.52220916748047,-0.36855443468500937],[104.52323913574219,-0.36906940814677114],[104.52495574951172,-0.3713867883552098],[104.52564239501953,-0.3719017616524951],[104.52658653259277,-0.37198759053245567],[104.52710151672363,-0.3718159327716961],[104.52770233154297,-0.3709576439178903],[104.52959060668945,-0.3706143283530565],[104.53036308288574,-0.37130095946940855],[104.53173637390137,-0.3715584461243111],[104.5323371887207,-0.3723309060439419],[104.53319549560547,-0.3727600504144988],[104.53474044799805,-0.37284587928610335],[104.534912109375,-0.37378999681847347],[104.53516960144043,-0.37404748340063065],[104.53654289245605,-0.37396165454075003],[104.53765869140625,-0.3744766276874003],[104.5378303527832,-0.37533491619788606],[104.53757286071777,-0.3791972134500128],[104.53843116760254,-0.38280202266436447],[104.53843116760254,-0.38503357046718634],[104.53886032104492,-0.3880375762018389],[104.53868865966797,-0.39061243741143414],[104.5389461517334,-0.39138489562073175],[104.54031944274902,-0.3937022698211763],[104.54092025756836,-0.39516135695053833],[104.54237937927246,-0.3971354155998341],[104.54409599304199,-0.3986803307357718],[104.54787254333496,-0.40485998836962267],[104.54924583435059,-0.4062332449845485],[104.55053329467773,-0.4087222720037005],[104.55147743225098,-0.40975221399317263],[104.55259323120117,-0.4103530134259046],[104.55448150634766,-0.41069632736720507],[104.5554256439209,-0.411554612155939],[104.55636978149414,-0.41292786762573996],[104.5572280883789,-0.4160176915642353],[104.55851554870605,-0.41876420071639586],[104.55988883972168,-0.42039494007059375],[104.56246376037598,-0.42133905217272627],[104.56306457519531,-0.42211150744392967],[104.56400871276855,-0.4241713877916453],[104.56589698791504,-0.4264887525273622],[104.56718444824219,-0.4340416401368543],[104.56993103027344,-0.44065041061237764],[104.57259178161621,-0.444770160675219],[104.57267761230469,-0.44571426974151507],[104.57327842712402,-0.4469158629235608],[104.57585334777832,-0.45000567305922345],[104.5773983001709,-0.45137892158885506],[104.57696914672852,-0.45275216985920963],[104.57662582397461,-0.4556703215691158],[104.5773983001709,-0.45833098827462493],[104.57894325256348,-0.4605625144270533],[104.57902908325195,-0.46193576094304944],[104.58040237426758,-0.4645964253119246],[104.5803165435791,-0.46536887607034316],[104.57902908325195,-0.4673429165127345],[104.57817077636719,-0.4676862278374614],[104.57731246948242,-0.4691453007800419],[104.57611083984375,-0.4697460954327255],[104.57499504089355,-0.471634306861759],[104.57405090332031,-0.4725784123842942],[104.57387924194336,-0.4731792067409515],[104.57396507263184,-0.47523907271120436],[104.57422256469727,-0.476612316350284],[104.5748233795166,-0.4774705934857195],[104.57430839538574,-0.4784146982109263],[104.57345008850098,-0.4790154920593608],[104.57319259643555,-0.4802170795981482],[104.57233428955078,-0.480646217953705],[104.57104682922363,-0.480646217953705],[104.56950187683105,-0.48236277110602543],[104.5675277709961,-0.48562422090134305],[104.56606864929199,-0.4891431518101115],[104.56289291381836,-0.49429280346906523],[104.56212043762207,-0.4948935959032781]]}},{"type":"Feature","id":"pmtiles:10/809/513:transportation_name:3083649780:0","properties":{"ref_length":2,"ref":"53","class":"trunk","network":"road","highway":"trunk","kind":"road","verification":"verified","source":"OpenMapTiles/OpenStreetMap national PMTiles","sourceId":"10/809/513:transportation_name:3083649780:0","sourceLayer":"transportation_name","archive":"https://its.hanifahseptiani45.workers.dev/v1/map/archive/indonesia.pmtiles","updatedAt":"2026-07-26T09:41:45.823Z"},"geometry":{"type":"LineString","coordinates":[[104.46530342102051,-0.34203326209988916],[104.46676254272461,-0.3434065285477743],[104.46882247924805,-0.34314904110379985],[104.47053909301758,-0.34529476959133376],[104.4715690612793,-0.3473546684837885],[104.47234153747559,-0.3479554722429725],[104.47388648986816,-0.34821295955661924],[104.47405815124512,-0.34864210506376025],[104.47362899780273,-0.34958622511054216],[104.47388648986816,-0.34992954146768795],[104.47491645812988,-0.34992954146768795],[104.4756031036377,-0.35087366138498055],[104.47697639465332,-0.3510453195415266],[104.47783470153809,-0.3520752684146089],[104.48040962219238,-0.3531052171739333],[104.48332786560059,-0.3537060205641893],[104.48392868041992,-0.3537060205641893],[104.48521614074707,-0.3528477299947781],[104.48650360107422,-0.3533627043459546],[104.48736190795898,-0.3540493367697479],[104.49036598205566,-0.3551651143499299],[104.49311256408691,-0.35713918204616846],[104.49577331542969,-0.3573108400867113],[104.49723243713379,-0.3576541561581763],[104.49800491333008,-0.3583407882625522],[104.49997901916504,-0.3620314349394249],[104.5008373260498,-0.36280389568219107],[104.50238227844238,-0.36271806671402373],[104.50298309326172,-0.3634905273981843],[104.50358390808105,-0.36374801427824366],[104.50478553771973,-0.36391967219418575],[104.50590133666992,-0.36374801427824366],[104.51139450073242,-0.36486379067346775],[104.51414108276367,-0.3643488169697662],[104.51620101928711,-0.36520710645957877],[104.51757431030273,-0.3649496196212283],[104.5210075378418,-0.36555042223257317],[104.52152252197266,-0.3657220801141392],[104.52229499816895,-0.3675244876721706],[104.52220916748047,-0.36855443468500937],[104.52323913574219,-0.36906940814677114],[104.52495574951172,-0.3713867883552098],[104.52564239501953,-0.3719017616524951],[104.52658653259277,-0.37198759053245567],[104.52710151672363,-0.3718159327716961],[104.52770233154297,-0.3709576439178903],[104.52959060668945,-0.3706143283530565],[104.53036308288574,-0.37130095946940855],[104.53173637390137,-0.3715584461243111],[104.5323371887207,-0.3723309060439419],[104.53319549560547,-0.3727600504144988],[104.53474044799805,-0.37284587928610335],[104.534912109375,-0.37378999681847347],[104.53516960144043,-0.37404748340063065],[104.53654289245605,-0.37396165454075003],[104.53765869140625,-0.3744766276874003],[104.5378303527832,-0.37533491619788606],[104.53757286071777,-0.3791972134500128],[104.53843116760254,-0.38280202266436447],[104.53843116760254,-0.38503357046718634],[104.53886032104492,-0.3880375762018389],[104.53868865966797,-0.39061243741143414],[104.5389461517334,-0.39138489562073175],[104.54031944274902,-0.3937022698211763],[104.54092025756836,-0.39516135695053833],[104.54237937927246,-0.3971354155998341],[104.54409599304199,-0.3986803307357718],[104.54787254333496,-0.40485998836962267],[104.54924583435059,-0.4062332449845485],[104.55053329467773,-0.4087222720037005],[104.55147743225098,-0.40975221399317263],[104.55259323120117,-0.4103530134259046],[104.55448150634766,-0.41069632736720507],[104.5554256439209,-0.411554612155939],[104.55636978149414,-0.41292786762573996],[104.5572280883789,-0.4160176915642353],[104.55851554870605,-0.41876420071639586],[104.55988883972168,-0.42039494007059375],[104.56246376037598,-0.42133905217272627],[104.56306457519531,-0.42211150744392967],[104.56400871276855,-0.4241713877916453],[104.56589698791504,-0.4264887525273622],[104.56718444824219,-0.4340416401368543],[104.56993103027344,-0.44065041061237764],[104.57259178161621,-0.444770160675219],[104.57267761230469,-0.44571426974151507],[104.57327842712402,-0.4469158629235608],[104.57585334777832,-0.45000567305922345],[104.5773983001709,-0.45137892158885506],[104.57696914672852,-0.45275216985920963],[104.57662582397461,-0.4556703215691158],[104.5773983001709,-0.45833098827462493],[104.57894325256348,-0.4605625144270533],[104.57902908325195,-0.46193576094304944],[104.58040237426758,-0.4645964253119246],[104.5803165435791,-0.46536887607034316],[104.57902908325195,-0.4673429165127345],[104.57817077636719,-0.4676862278374614],[104.57731246948242,-0.4691453007800419],[104.57611083984375,-0.4697460954327255],[104.57499504089355,-0.471634306861759],[104.57405090332031,-0.4725784123842942],[104.57387924194336,-0.4731792067409515],[104.57396507263184,-0.47523907271120436],[104.57422256469727,-0.476612316350284],[104.5748233795166,-0.4774705934857195],[104.57430839538574,-0.4784146982109263],[104.57345008850098,-0.4790154920593608],[104.57319259643555,-0.4802170795981482],[104.57233428955078,-0.480646217953705],[104.57104682922363,-0.480646217953705],[104.56950187683105,-0.48236277110602543],[104.5675277709961,-0.48562422090134305],[104.56606864929199,-0.4891431518101115],[104.56289291381836,-0.49429280346906523],[104.56212043762207,-0.4948935959032781]]}},{"type":"Feature","id":"pmtiles:10/809/513:water:1310:0","properties":{"class":"ocean","water":"ocean","kind":"waterway","verification":"verified","source":"OpenMapTiles/OpenStreetMap national PMTiles","sourceId":"10/809/513:water:1310:0","sourceLayer":"water","archive":"https://its.hanifahseptiani45.workers.dev/v1/map/archive/indonesia.pmtiles","updatedAt":"2026-07-26T09:41:45.823Z"},"geometry":{"type":"Polygon","coordinates":[[[104.4085693359375,-0.4030575887097285],[104.4085693359375,-0.34606723172845477],[104.43663597106934,-0.34606723172845477],[104.43663597106934,-0.34615306085090936],[104.4363784790039,-0.3472688393722194],[104.43672180175781,-0.3476979849222914],[104.43646430969238,-0.3489854214553816],[104.43663597106934,-0.34932873783445473],[104.43740844726562,-0.3496720542010081],[104.4371509552002,-0.3501870287272908],[104.4363784790039,-0.3506161741442355],[104.43655014038086,-0.35138863584518276],[104.43552017211914,-0.3527619009334728],[104.43397521972656,-0.3533627043459546],[104.43406105041504,-0.3539635077195413],[104.43474769592285,-0.3555084305013594],[104.43380355834961,-0.35756832714152154],[104.43234443664551,-0.35868410429544895],[104.43243026733398,-0.3591990783206569],[104.43303108215332,-0.35971405231681786],[104.43303108215332,-0.3599715393040128],[104.43174362182617,-0.35911324931845456],[104.42899703979492,-0.3593707363226031],[104.42676544189453,-0.36031485527563234],[104.42685127258301,-0.3607440002219704],[104.42547798156738,-0.3628897246495342],[104.42556381225586,-0.36366218531902916],[104.42496299743652,-0.36400550115092756],[104.4261646270752,-0.3657220801141392],[104.42676544189453,-0.3658079090537001],[104.42659378051758,-0.3661512248037013],[104.42770957946777,-0.36640871160757627],[104.42891120910645,-0.36623705373915527],[104.42934036254883,-0.36675202733458434],[104.43122863769531,-0.36812529011078254],[104.43131446838379,-0.36846860577182383],[104.43097114562988,-0.36915523705417286],[104.4320011138916,-0.37018518387829147],[104.43157196044922,-0.3705284994597662],[104.43191528320312,-0.3710434728070311],[104.4320011138916,-0.3717301038900729],[104.43174362182617,-0.3720734194115778],[104.43234443664551,-0.3729317081568695],[104.43191528320312,-0.3734466813639017],[104.43182945251465,-0.3738758256800452],[104.43208694458008,-0.37722315062421785],[104.43131446838379,-0.3784247541368728],[104.43114280700684,-0.37945469987241154],[104.43114280700684,-0.3799696726942159],[104.43208694458008,-0.3809137894544392],[104.4320011138916,-0.38142876218917365],[104.43122863769531,-0.38142876218917365],[104.43114280700684,-0.3820295636740809],[104.43037033081055,-0.38314533774882875],[104.42753791809082,-0.3857202004429894],[104.42728042602539,-0.3861493441497572],[104.42693710327148,-0.3862351728885187],[104.4261646270752,-0.3857202004429894],[104.4261646270752,-0.38649265909957364],[104.42564964294434,-0.3870076314982782],[104.42316055297852,-0.38735094641337753],[104.42298889160156,-0.3876942613145644],[104.42333221435547,-0.3882092336402536],[104.42316055297852,-0.389582493021976],[104.42255973815918,-0.3898399791311675],[104.42221641540527,-0.39078409479742504],[104.42230224609375,-0.39095575217989165],[104.42401885986328,-0.3919856964009938],[104.42410469055176,-0.39301564049542037],[104.42513465881348,-0.39404558446285876],[104.42599296569824,-0.39473221370376166],[104.42676544189453,-0.39473221370376166],[104.42710876464844,-0.3956763288174159],[104.42719459533691,-0.39687792971574254],[104.42685127258301,-0.39696375834465414],[104.4261646270752,-0.3965346151911575],[104.42607879638672,-0.39584798609926963],[104.42564964294434,-0.39516135695053833],[104.42384719848633,-0.39335895516536823],[104.42238807678223,-0.39267232581137534],[104.42195892333984,-0.39181403903958767],[104.42230224609375,-0.39138489562073175],[104.42135810852051,-0.3921573537588614],[104.42049980163574,-0.39267232581137534],[104.42041397094727,-0.39318729783215645],[104.4195556640625,-0.3946463850517432],[104.41775321960449,-0.39687792971574254],[104.41629409790039,-0.3983370162861206],[104.41277503967285,-0.4010835314817598],[104.40977096557617,-0.402027645867733],[104.4085693359375,-0.4030575887097285]],[[104.42891120910645,-0.3507878323055138],[104.42848205566406,-0.35087366138498055],[104.42736625671387,-0.3501870287272908],[104.42702293395996,-0.3510453195415266],[104.42659378051758,-0.3512169776949321],[104.42667961120605,-0.3523327556151088],[104.42607879638672,-0.35344853340168925],[104.42582130432129,-0.3543926529625736],[104.42659378051758,-0.35559425953722723],[104.42667961120605,-0.35619506276593427],[104.42547798156738,-0.3576541561581763],[104.4253921508789,-0.35825495925232076],[104.42564964294434,-0.3588557623070727],[104.42633628845215,-0.3591990783206569],[104.42805290222168,-0.35876993330167295],[104.42848205566406,-0.35825495925232076],[104.42916870117188,-0.35859827528844335],[104.43028450012207,-0.3584266172719879],[104.43062782287598,-0.3578258141890842],[104.4301986694336,-0.35748249812404254],[104.4305419921875,-0.3573108400867113],[104.42994117736816,-0.35696752400242815],[104.43028450012207,-0.3568816949793501],[104.43079948425293,-0.35713918204616846],[104.43114280700684,-0.35748249812404254],[104.43097114562988,-0.3579974722167947],[104.43140029907227,-0.3579974722167947],[104.43268775939941,-0.3573108400867113],[104.43337440490723,-0.3563667208240986],[104.43294525146484,-0.355250943388981],[104.4331169128418,-0.35430682391556445],[104.43294525146484,-0.35344853340168925],[104.4320011138916,-0.3528477299947781],[104.43079948425293,-0.3514744649191073],[104.43002700805664,-0.3515602939922644],[104.42891120910645,-0.3507878323055138]],[[104.42324638366699,-0.35739666910578194],[104.42255973815918,-0.35748249812404254],[104.42195892333984,-0.3572250110668449],[104.42152976989746,-0.35791164320333735],[104.42204475402832,-0.35825495925232076],[104.42264556884766,-0.35825495925232076],[104.42401885986328,-0.35876993330167295],[104.42410469055176,-0.3585124462806135],[104.42376136779785,-0.3583407882625522],[104.4239330291748,-0.358083301229442],[104.4239330291748,-0.35756832714152154],[104.42350387573242,-0.35696752400242815],[104.42316055297852,-0.3568816949793501],[104.42324638366699,-0.35739666910578194]]]}},{"type":"Feature","id":"pmtiles:10/809/513:water:1310:2","properties":{"class":"ocean","water":"ocean","kind":"waterway","verification":"verified","source":"OpenMapTiles/OpenStreetMap national PMTiles","sourceId":"10/809/513:water:1310:2","sourceLayer":"water","archive":"https://its.hanifahseptiani45.workers.dev/v1/map/archive/indonesia.pmtiles","updatedAt":"2026-07-26T09:41:45.823Z"},"geometry":{"type":"Polygon","coordinates":[[[104.48324203491211,-0.3464105482136546],[104.48298454284668,-0.34606723172845477],[104.7711181640625,-0.34606723172845477],[104.7711181640625,-0.7086000996551007],[104.48315620422363,-0.7086000996551007],[104.48315620422363,-0.7083426272743196],[104.48178291320801,-0.7062828477135383],[104.48161125183105,-0.7043947156475099],[104.48195457458496,-0.7025065828164827],[104.4814395904541,-0.7013908676030525],[104.48152542114258,-0.7006184492225174],[104.48238372802734,-0.6990736120796015],[104.48221206665039,-0.6982153690027388],[104.47955131530762,-0.6963272336824247],[104.47903633117676,-0.6961555849794365],[104.47800636291504,-0.6964130580315953],[104.47766304016113,-0.6974429500995996],[104.47783470153809,-0.6977862474055456],[104.47826385498047,-0.6977862474055456],[104.47809219360352,-0.6991594363786504],[104.47783470153809,-0.6993310849720729],[104.4774055480957,-0.7011333948236995],[104.47620391845703,-0.7037081219791759],[104.47646141052246,-0.7057679026806056],[104.47749137878418,-0.7079135066078948],[104.4774055480957,-0.7086000996551007],[104.4085693359375,-0.7086000996551007],[104.4085693359375,-0.5944526832367103],[104.4100284576416,-0.5935944224806065],[104.41123008728027,-0.5934227703134098],[104.41474914550781,-0.5917062483485864],[104.41646575927734,-0.5911054655353638],[104.42298889160156,-0.5893889428539438],[104.42427635192871,-0.5893031167059632],[104.42436218261719,-0.5900755519900827],[104.42487716674805,-0.5905905087865762],[104.42522048950195,-0.5905046826571265],[104.42513465881348,-0.5893031167059632],[104.42693710327148,-0.5881015504956224],[104.42848205566406,-0.5873291149380577],[104.42839622497559,-0.5858700697048533],[104.42753791809082,-0.5837244142602316],[104.42753791809082,-0.5808063215423402],[104.42839622497559,-0.576257526950755],[104.42899703979492,-0.5753134370511219],[104.42985534667969,-0.5758283951975756],[104.42976951599121,-0.5771157903601392],[104.43122863769531,-0.5832094568315824],[104.4316577911377,-0.5842393716417149],[104.4320011138916,-0.5844968503147641],[104.43251609802246,-0.584325197867372],[104.43371772766113,-0.5826086731052982],[104.43414688110352,-0.582351194345847],[104.43449020385742,-0.582351194345847],[104.43612098693848,-0.5833811093130379],[104.4363784790039,-0.5846685027568981],[104.43818092346191,-0.5855267648888542],[104.43998336791992,-0.5868999840266156],[104.44333076477051,-0.5915345961228837],[104.4444465637207,-0.5941952050238797],[104.44564819335938,-0.59591172621586],[104.44779396057129,-0.6003746788079525],[104.44822311401367,-0.6022628499633953],[104.44839477539062,-0.6057817126425107],[104.44933891296387,-0.6087856180002262],[104.45002555847168,-0.6101588313211721],[104.4528579711914,-0.6142784691778616],[104.45294380187988,-0.6162524611933833],[104.45388793945312,-0.6186555809203753],[104.45611953735352,-0.6213161764912627],[104.45792198181152,-0.6219169559510789],[104.46453094482422,-0.6233759914972552],[104.46839332580566,-0.6250066778057288],[104.47234153747559,-0.6286971765270408],[104.47199821472168,-0.6293837806529723],[104.47242736816406,-0.6305853376558161],[104.4719123840332,-0.6309286396057132],[104.47182655334473,-0.631271941532944],[104.47208404541016,-0.6316152434375226],[104.47311401367188,-0.6310144650896348],[104.47457313537598,-0.633503403507035],[104.47465896606445,-0.6338467052639913],[104.47422981262207,-0.6344474832838927],[104.4744873046875,-0.6353915628885147],[104.4741439819336,-0.636078166128982],[104.4741439819336,-0.6365931184993912],[104.47620391845703,-0.6377088484588],[104.47731971740723,-0.6387387528221069],[104.47817802429199,-0.6390820542306983],[104.47826385498047,-0.6393395302720677],[104.48092460632324,-0.6391678795792473],[104.4851303100586,-0.6401977836500521],[104.48607444763184,-0.6408843862490272],[104.48727607727051,-0.6425150670525284],[104.48942184448242,-0.6427725429213069],[104.49019432067871,-0.643373319898032],[104.4920825958252,-0.6437166209958178],[104.4938850402832,-0.6445748736391579],[104.4953441619873,-0.6443173978613288],[104.49783325195312,-0.644489048381331],[104.49860572814941,-0.6448323494039698],[104.49946403503418,-0.6457764270967914],[104.50444221496582,-0.6436307957235243],[104.50530052185059,-0.6368505946653187],[104.50538635253906,-0.6337608798268803],[104.5059871673584,-0.6314435924880684],[104.50701713562012,-0.6234618171050386],[104.50770378112793,-0.6149650751791285],[104.50761795043945,-0.6129910826877989],[104.50675964355469,-0.6107596120389189],[104.50650215148926,-0.6092147472006246],[104.5063304901123,-0.6049234536626784],[104.50684547424316,-0.6015762423460842],[104.5085620880127,-0.5945385093049964],[104.51165199279785,-0.5868141578403794],[104.51414108276367,-0.5793472746179447],[104.5173168182373,-0.5720520343793254],[104.51869010925293,-0.5694772414864815],[104.52255249023438,-0.5639843461444798],[104.5235824584961,-0.5626111214970564],[104.5265007019043,-0.5602938041720762],[104.52787399291992,-0.5582339657803033],[104.52916145324707,-0.5528268865758861],[104.53001976013184,-0.5501662584902647],[104.53225135803223,-0.5445875183367548],[104.53499794006348,-0.5387512923433064],[104.53611373901367,-0.5380646771518656],[104.53731536865234,-0.53548986949653],[104.54177856445312,-0.5284520564028128],[104.54718589782715,-0.5205559639334041],[104.54976081848145,-0.5178094946623446],[104.55199241638184,-0.5146338880848731],[104.55791473388672,-0.5077677063095081],[104.55808639526367,-0.5072527423811692],[104.55963134765625,-0.5059653323811091],[104.55988883972168,-0.5053645409602865],[104.56057548522949,-0.5053645409602865],[104.56066131591797,-0.5048495768410817],[104.5623779296875,-0.5029613747219912],[104.5652961730957,-0.5011589994623762],[104.56581115722656,-0.5011589994623762],[104.56787109375,-0.49909914141561273],[104.56855773925781,-0.49884165911434764],[104.56915855407715,-0.4980692121501562],[104.57216262817383,-0.4961810080790485],[104.57465171813965,-0.4948077684160097],[104.57825660705566,-0.4935203559737573],[104.57971572875977,-0.4936061834776666],[104.58186149597168,-0.4955802157615068],[104.58254814147949,-0.496009353136742],[104.58314895629883,-0.496009353136742],[104.58349227905273,-0.4965243179503034],[104.58460807800293,-0.4960951806084637],[104.58503723144531,-0.4950652508745037],[104.58589553833008,-0.49429280346906523],[104.58821296691895,-0.4933487009626134],[104.58924293518066,-0.4932628734553788],[104.59010124206543,-0.4948935959032781],[104.59061622619629,-0.4946361134381334],[104.59147453308105,-0.4933487009626134],[104.59198951721191,-0.4898297722605207],[104.59190368652344,-0.4891431518101115],[104.59216117858887,-0.48811322100283405],[104.59207534790039,-0.48425097907345105],[104.59233283996582,-0.4835643580551334],[104.59293365478516,-0.48279190932650806],[104.59319114685059,-0.48184780520571735],[104.5949935913086,-0.4798737688943078],[104.5956802368164,-0.4789296643699572],[104.59619522094727,-0.4789296643699572],[104.59653854370117,-0.4785863536015853],[104.5967960357666,-0.4788438366794736],[104.59739685058594,-0.4785863536015853],[104.59739685058594,-0.4776422488999543],[104.59688186645508,-0.4765264886308387],[104.59628105163574,-0.4765264886308387],[104.59713935852051,-0.47326503450193513],[104.59945678710938,-0.46863033389382736],[104.59988594055176,-0.4685445060757729],[104.60031509399414,-0.468716161710816],[104.60057258605957,-0.4681153669697409],[104.60125923156738,-0.46794371131997536],[104.60100173950195,-0.4668279494941885],[104.59997177124023,-0.4659696710461674],[104.59868431091309,-0.46631298243794106],[104.59842681884766,-0.4659696710461674],[104.5982551574707,-0.4639098023446877],[104.59774017333984,-0.46365231871477874],[104.59782600402832,-0.46339483507551904],[104.5982551574707,-0.4633090071936863],[104.59842681884766,-0.4628798677689048],[104.59816932678223,-0.46210741673891675],[104.59782600402832,-0.4621932446352872],[104.59739685058594,-0.4617641051430468],[104.59705352783203,-0.45979006314549054],[104.59748268127441,-0.4592750955780218],[104.59713935852051,-0.45893178384574185],[104.59662437438965,-0.4591034397139424],[104.59593772888184,-0.45755853675201763],[104.5949935913086,-0.4573010528926602],[104.5942211151123,-0.456442773294782],[104.5927619934082,-0.45704356902406573],[104.58881378173828,-0.4530096538809687],[104.58658218383789,-0.45163640565932894],[104.58254814147949,-0.4502631571782558],[104.58194732666016,-0.449404876746172],[104.58126068115234,-0.44957653284066623],[104.58065986633301,-0.44906156454509016],[104.58065986633301,-0.4499198450175328],[104.58014488220215,-0.4506064693228069],[104.578857421875,-0.4503489852158964],[104.57722663879395,-0.44931904869740436],[104.57456588745117,-0.4469158629235608],[104.57327842712402,-0.44545678546269585],[104.57130432128906,-0.44271028592990547],[104.56907272338867,-0.4379897374846706],[104.56847190856934,-0.4359298608658264],[104.56778526306152,-0.434470781253097],[104.56735610961914,-0.4330117013585948],[104.56744194030762,-0.4325825601596591],[104.56709861755371,-0.43206759068893064],[104.56692695617676,-0.43043685380149554],[104.56649780273438,-0.42932108625649334],[104.56598281860352,-0.4263170959041531],[104.56512451171875,-0.4252871560845932],[104.56478118896484,-0.424428872796625],[104.56400871276855,-0.4237422460976603],[104.5634937286377,-0.4222831641604472],[104.56366539001465,-0.42185402236204084],[104.56297874450684,-0.4209957386942591],[104.56280708312988,-0.42022328331248104],[104.5623779296875,-0.419965798168235],[104.56151962280273,-0.4201374549320036],[104.56117630004883,-0.4196224846293859],[104.56006050109863,-0.42005162655060246],[104.55877304077148,-0.41876420071639586],[104.55791473388672,-0.41747677467074595],[104.5565414428711,-0.4123270683868441],[104.55456733703613,-0.4088081005078692],[104.55302238464355,-0.40906558601487575],[104.5517349243164,-0.4095805570041051],[104.5513916015625,-0.4094947285082071],[104.55070495605469,-0.40863644349860806],[104.5488166809082,-0.4052033025451891],[104.54761505126953,-0.4038300457557682],[104.54521179199219,-0.3999677597943361],[104.54272270202637,-0.3965346151911575],[104.54066276550293,-0.39267232581137534],[104.54066276550293,-0.39232901111323315],[104.53989028930664,-0.3899258078324692],[104.53911781311035,-0.3825445363419959],[104.53860282897949,-0.38074213186936845],[104.53851699829102,-0.37516325850252485],[104.53886032104492,-0.37370416795609174],[104.53808784484863,-0.3711293016953192],[104.53654289245605,-0.37009935498083735],[104.53534126281738,-0.36829694794295165],[104.53439712524414,-0.36829694794295165],[104.53319549560547,-0.3676103165944511],[104.53259468078613,-0.3675244876721706],[104.53079223632812,-0.3654645932905538],[104.53010559082031,-0.36486379067346775],[104.52933311462402,-0.3646063038252976],[104.52761650085449,-0.3631472115467176],[104.52701568603516,-0.3634905273981843],[104.52632904052734,-0.3634046984365398],[104.52607154846191,-0.36391967219418575],[104.52564239501953,-0.36400550115092756],[104.52486991882324,-0.36357635635901886],[104.52409744262695,-0.36366218531902916],[104.52306747436523,-0.3626322377450606],[104.52289581298828,-0.36151646107433066],[104.52229499816895,-0.3616881190326069],[104.5213508605957,-0.36271806671402373],[104.52083587646484,-0.3625464087752448],[104.51980590820312,-0.3625464087752448],[104.51937675476074,-0.3628897246495342],[104.51894760131836,-0.3623747508332258],[104.51869010925293,-0.3623747508332258],[104.51860427856445,-0.36306138258180454],[104.51800346374512,-0.36366218531902916],[104.51766014099121,-0.3632330405108064],[104.51705932617188,-0.3633188694740852],[104.51680183410645,-0.36357635635901886],[104.51680183410645,-0.36400550115092756],[104.51594352722168,-0.36443464592242947],[104.51414108276367,-0.36391967219418575],[104.50942039489746,-0.36409133010685935],[104.50718879699707,-0.3638338432366197],[104.50478553771973,-0.3632330405108064],[104.50298309326172,-0.36228892186099415],[104.50186729431152,-0.3621172639141008],[104.50178146362305,-0.3617739480105371],[104.4993782043457,-0.36031485527563234],[104.49860572814941,-0.35945656532236114],[104.49826240539551,-0.3583407882625522],[104.49748992919922,-0.35773998517403527],[104.49740409851074,-0.35739666910578194],[104.4968032836914,-0.35748249812404254],[104.49654579162598,-0.35713918204616846],[104.49508666992188,-0.35696752400242815],[104.49482917785645,-0.35713918204616846],[104.49345588684082,-0.3567958659554762],[104.49216842651367,-0.35533677242723627],[104.49165344238281,-0.3543926529625736],[104.49156761169434,-0.3536201915108137],[104.49122428894043,-0.35344853340168925],[104.49079513549805,-0.3541351658191445],[104.49019432067871,-0.3539635077195413],[104.48993682861328,-0.35344853340168925],[104.49036598205566,-0.3531052171739333],[104.49045181274414,-0.35259024280850326],[104.49002265930176,-0.3522469265490855],[104.48779106140137,-0.3536201915108137],[104.48555946350098,-0.35173195213620545],[104.48461532592773,-0.35027285781224293],[104.48392868041992,-0.34666803556939385],[104.48324203491211,-0.3464105482136546]],[[104.49019432067871,-0.35173195213620545],[104.49002265930176,-0.3522469265490855],[104.49028015136719,-0.3519036102769917],[104.49019432067871,-0.35173195213620545]],[[104.5195484161377,-0.3519894393461982],[104.51834678649902,-0.3509594904636373],[104.5180892944336,-0.3507878323055138],[104.51783180236816,-0.35138863584518276],[104.5180892944336,-0.3519036102769917],[104.51869010925293,-0.3523327556151088],[104.51860427856445,-0.3536201915108137],[104.51894760131836,-0.35387767866855313],[104.51963424682617,-0.3537918496167691],[104.51980590820312,-0.3542209948677453],[104.52023506164551,-0.3542209948677453],[104.52023506164551,-0.35387767866855313],[104.5198917388916,-0.3536201915108137],[104.52023506164551,-0.35319104623205533],[104.51997756958008,-0.35267607187138594],[104.5195484161377,-0.3519894393461982]],[[104.5045280456543,-0.7035364735462935],[104.50375556945801,-0.7036222977635305],[104.50238227844238,-0.7037939461932439],[104.50126647949219,-0.7034506493274932],[104.50040817260742,-0.7035364735462935],[104.49989318847656,-0.7031931766615998],[104.49929237365723,-0.7038797704057345],[104.49946403503418,-0.7042230672399086],[104.50100898742676,-0.705252957590659],[104.50100898742676,-0.7057679026806056],[104.50169563293457,-0.7060253752041916],[104.50186729431152,-0.7063686718801421],[104.5030689239502,-0.7064544960451684],[104.5030689239502,-0.7063686718801421],[104.50384140014648,-0.7062828477135383],[104.50435638427734,-0.7060253752041916],[104.50435638427734,-0.7058537268567306],[104.50409889221191,-0.7058537268567306],[104.50409889221191,-0.7055962543236092],[104.50435638427734,-0.7055104301427519],[104.50444221496582,-0.7051671334034637],[104.50504302978516,-0.7049954850243267],[104.50495719909668,-0.7046521882470671],[104.50521469116211,-0.7044805398489302],[104.50504302978516,-0.7043088914444979],[104.50538635253906,-0.7041372430337276],[104.50538635253906,-0.7039655946166476],[104.5045280456543,-0.7035364735462935]],[[104.47285652160645,-0.6943532732208553],[104.47208404541016,-0.6954689901048994],[104.47131156921387,-0.6960697606255621],[104.47105407714844,-0.6965847067252326],[104.47122573852539,-0.6972713014372403],[104.4715690612793,-0.6975287744284486],[104.4719123840332,-0.6974429500995996],[104.47259902954102,-0.6964988823792027],[104.47697639465332,-0.6949540438834845],[104.4774055480957,-0.6939241512722276],[104.47663307189941,-0.693237556073484],[104.47508811950684,-0.6933233804787733],[104.47328567504883,-0.6916927165124491],[104.47294235229492,-0.6916927165124491],[104.47242736816406,-0.6925509607751792],[104.47277069091797,-0.693237556073484],[104.47259902954102,-0.6934092048824994],[104.47285652160645,-0.6943532732208553]],[[104.46968078613281,-0.6886888603719257],[104.4686508178711,-0.6879164399151989],[104.46719169616699,-0.686114125030187],[104.46710586547852,-0.6853417041572385],[104.46727752685547,-0.684311809466223],[104.46702003479004,-0.6836252128826885],[104.4660758972168,-0.6831102653806056],[104.46538925170898,-0.6818228963840625],[104.46513175964355,-0.6816512471585128],[104.46444511413574,-0.6819087209945565],[104.46427345275879,-0.6823378440240191],[104.46435928344727,-0.6831960899681064],[104.46393013000488,-0.6830244407915558],[104.46272850036621,-0.6830244407915558],[104.46178436279297,-0.6834535637214572],[104.46178436279297,-0.6840543357589013],[104.4620418548584,-0.684311809466223],[104.46247100830078,-0.684311809466223],[104.46281433105469,-0.6840543357589013],[104.46290016174316,-0.6850842305052254],[104.4620418548584,-0.6860283004948968],[104.46152687072754,-0.6859424759580719],[104.46075439453125,-0.6870581948166432],[104.4620418548584,-0.687315668362416],[104.4631576538086,-0.6869723702983066],[104.46427345275879,-0.6877447909078285],[104.46538925170898,-0.6894612807034832],[104.46547508239746,-0.6906628231923264],[104.4649600982666,-0.6914352432033581],[104.46504592895508,-0.6923793119350705],[104.46478843688965,-0.6930659072582444],[104.46470260620117,-0.6952973413706758],[104.46487426757812,-0.6958981119131948],[104.46581840515137,-0.6968421797539577],[104.46624755859375,-0.6963272336824247],[104.4664192199707,-0.6953831657385763],[104.46762084960938,-0.6938383268778381],[104.46882247924805,-0.6930659072582444],[104.4701099395752,-0.6929800828482797],[104.47122573852539,-0.691349418763906],[104.47079658508301,-0.6908344720945223],[104.47062492370605,-0.6902337009097295],[104.47148323059082,-0.6899762275215835],[104.47131156921387,-0.688860509345318],[104.47062492370605,-0.6886030358829203],[104.46968078613281,-0.6886888603719257]]]}},{"type":"Feature","id":"pmtiles:10/809/513:water:129067633:0","properties":{"intermittent":0,"class":"river","id":12906763,"water":"river","kind":"waterway","verification":"verified","source":"OpenMapTiles/OpenStreetMap national PMTiles","sourceId":"10/809/513:water:129067633:0","sourceLayer":"water","archive":"https://its.hanifahseptiani45.workers.dev/v1/map/archive/indonesia.pmtiles","updatedAt":"2026-07-26T09:41:45.823Z"},"geometry":{"type":"Polygon","coordinates":[[[104.42135810852051,-0.5587489254459967],[104.42110061645508,-0.5574615261972298],[104.42144393920898,-0.5584056190072175],[104.42152976989746,-0.5590922318647102],[104.42084312438965,-0.5603796307560316],[104.42049980163574,-0.5622678152846703],[104.42041397094727,-0.5652717439572115],[104.42075729370117,-0.5663016620019476],[104.42333221435547,-0.5676748857768814],[104.42667961120605,-0.5677607122520101],[104.42994117736816,-0.5692197621338551],[104.43079948425293,-0.5711079437858189],[104.4308853149414,-0.572137860789212],[104.43028450012207,-0.574970131594327],[104.42985534667969,-0.5758283951975756],[104.42899703979492,-0.5753134370511219],[104.42934036254883,-0.5750559579604584],[104.43002700805664,-0.5738543887172227],[104.43045616149902,-0.5714512494741371],[104.43011283874512,-0.5704213323476779],[104.42934036254883,-0.5693914150368897],[104.42676544189453,-0.5680181916696938],[104.42427635192871,-0.5681898446084546],[104.42307472229004,-0.5678465387258314],[104.42032814025879,-0.5663016620019476],[104.42007064819336,-0.5652717439572115],[104.42058563232422,-0.5608945902333744],[104.42135810852051,-0.5587489254459967]]]}},{"type":"Feature","id":"pmtiles:10/809/513:water:7836438912:0","properties":{"intermittent":0,"class":"lake","id":783643891,"water":"lake","kind":"waterway","verification":"verified","source":"OpenMapTiles/OpenStreetMap national PMTiles","sourceId":"10/809/513:water:7836438912:0","sourceLayer":"water","archive":"https://its.hanifahseptiani45.workers.dev/v1/map/archive/indonesia.pmtiles","updatedAt":"2026-07-26T09:41:45.823Z"},"geometry":{"type":"Polygon","coordinates":[[[104.47989463806152,-0.4678578834935223],[104.47955131530762,-0.4688019895267672],[104.47980880737305,-0.4700035788394956],[104.48083877563477,-0.4709476845830807],[104.48204040527344,-0.4714626512984239],[104.48204040527344,-0.471634306861759],[104.48118209838867,-0.47189179019879646],[104.4810962677002,-0.4724925846148267],[104.47920799255371,-0.47103351237161917],[104.47792053222656,-0.47069020121114136],[104.47697639465332,-0.4709476845830807],[104.47611808776855,-0.4708618567935048],[104.47500228881836,-0.4712909957308824],[104.47474479675293,-0.4714626512984239],[104.47474479675293,-0.4722351013000292],[104.47397232055664,-0.47180596242084505],[104.47311401367188,-0.47197761797569626],[104.47362899780273,-0.4712051679455129],[104.47371482849121,-0.470432717829695],[104.47989463806152,-0.4678578834935223]]]}},{"type":"Feature","id":"pmtiles:8/202/128:landuse:74105450:0","properties":{"class":"residential","kind":"green","verification":"verified","source":"OpenMapTiles/OpenStreetMap national PMTiles","sourceId":"8/202/128:landuse:74105450:0","sourceLayer":"landuse","archive":"https://its.hanifahseptiani45.workers.dev/v1/map/archive/indonesia.pmtiles","updatedAt":"2026-07-26T09:35:31.927Z"},"geometry":{"type":"Polygon","coordinates":[[[104.56615447998047,-0.5009015172418856],[104.55928802490234,-0.503647993737701],[104.5565414428711,-0.5084543248168387],[104.55413818359375,-0.5077677063095081],[104.55551147460938,-0.5094842524408563],[104.54967498779297,-0.5166937411807595],[104.55276489257812,-0.5098275616123118],[104.55070495605469,-0.5108574890167432],[104.54830169677734,-0.5087976340431197],[104.5513916015625,-0.5081110155722968],[104.55207824707031,-0.5039913032184415],[104.55413818359375,-0.5057078503504329],[104.55825805664062,-0.5022747556340619],[104.556884765625,-0.49884165911434764],[104.55448150634766,-0.4984983493636719],[104.55448150634766,-0.49540856080361095],[104.54898834228516,-0.49197546071418685],[104.55310821533203,-0.49197546071418685],[104.55413818359375,-0.4892289793702673],[104.55619812011719,-0.49197546071418685],[104.5620346069336,-0.49231877080282516],[104.55345153808594,-0.48682580727195557],[104.55070495605469,-0.48854235885839614],[104.5513916015625,-0.480646217953705],[104.5627212524414,-0.4844226343171698],[104.56443786621094,-0.48270608168459717],[104.56375122070312,-0.4792729751211482],[104.57405090332031,-0.47824304281600405],[104.57439422607422,-0.48133283926649995],[104.57130432128906,-0.4816761498969697],[104.57267761230469,-0.4857958761102452],[104.56890106201172,-0.4854525656881066],[104.5682144165039,-0.48098952861873556],[104.56478118896484,-0.48476594479154755],[104.56924438476562,-0.4864824969021697],[104.5682144165039,-0.49163215060788445],[104.57508087158203,-0.48785573827633755],[104.57611083984375,-0.49231877080282516],[104.57164764404297,-0.49163215060788445],[104.56787109375,-0.49403532098060055],[104.5675277709961,-0.49540856080361095],[104.57473754882812,-0.4947219409276187],[104.56615447998047,-0.5009015172418856]]]}},{"type":"Feature","id":"pmtiles:8/202/128:mountain_peak:10701844081:0","properties":{"name_int":"Gunung Lanjut","name_de":"Gunung Lanjut","name":"Gunung Lanjut","rank":1,"class":"peak","name:latin":"Gunung Lanjut","name_en":"Gunung Lanjut","kind":"poi","verification":"verified","source":"OpenMapTiles/OpenStreetMap national PMTiles","sourceId":"8/202/128:mountain_peak:10701844081:0","sourceLayer":"mountain_peak","archive":"https://its.hanifahseptiani45.workers.dev/v1/map/archive/indonesia.pmtiles","updatedAt":"2026-07-26T09:35:31.927Z"},"geometry":{"type":"Point","coordinates":[104.49989318847656,-0.4167901473601745]}},{"type":"Feature","id":"pmtiles:8/202/128:transportation:2430264380:2","properties":{"class":"trunk","highway":"trunk","kind":"road","verification":"verified","source":"OpenMapTiles/OpenStreetMap national PMTiles","sourceId":"8/202/128:transportation:2430264380:2","sourceLayer":"transportation","archive":"https://its.hanifahseptiani45.workers.dev/v1/map/archive/indonesia.pmtiles","updatedAt":"2026-07-26T09:35:31.928Z"},"geometry":{"type":"LineString","coordinates":[[104.46521759033203,-0.34194743294037266],[104.46693420410156,-0.3433206994005502],[104.468994140625,-0.3433206994005502],[104.47139739990234,-0.34744049759457596],[104.47380065917969,-0.34812713045285193],[104.47380065917969,-0.349843712379581],[104.47792053222656,-0.3522469265490855],[104.48341369628906,-0.3536201915108137],[104.48650360107422,-0.3532768752893958],[104.49302673339844,-0.3570533530246962],[104.49714660644531,-0.35773998517403527],[104.49989318847656,-0.36185977698764304],[104.50366973876953,-0.36391967219418575],[104.52117919921875,-0.3656362511737541],[104.52220916748047,-0.36838277685778564],[104.52564239501953,-0.3718159327716961],[104.5294189453125,-0.3707859861371361],[104.53765869140625,-0.37456245654222187],[104.53903198242188,-0.39138489562073175],[104.55070495605469,-0.4088939290111284],[104.55551147460938,-0.41164044062972494],[104.55860137939453,-0.4188500291119226],[104.56306457519531,-0.4222831641604472],[104.56581115722656,-0.4264029242162337],[104.56718444824219,-0.43395581191069255],[104.56993103027344,-0.4404787543101776],[104.5733642578125,-0.44700169100048015],[104.57748413085938,-0.4514647496133648],[104.57679748535156,-0.45558449359448616],[104.58023071289062,-0.46519722035354505],[104.57405090332031,-0.47275006792007446],[104.57473754882812,-0.47755642119336983],[104.5733642578125,-0.48030290727142244],[104.57096099853516,-0.480646217953705],[104.56958770751953,-0.48236277110602543],[104.5620346069336,-0.4950652508745037]]}},{"type":"Feature","id":"pmtiles:8/202/128:transportation_name:3083649780:0","properties":{"ref_length":2,"ref":"53","class":"trunk","network":"road","highway":"trunk","kind":"road","verification":"verified","source":"OpenMapTiles/OpenStreetMap national PMTiles","sourceId":"8/202/128:transportation_name:3083649780:0","sourceLayer":"transportation_name","archive":"https://its.hanifahseptiani45.workers.dev/v1/map/archive/indonesia.pmtiles","updatedAt":"2026-07-26T09:35:31.928Z"},"geometry":{"type":"LineString","coordinates":[[104.46521759033203,-0.34194743294037266],[104.46693420410156,-0.3433206994005502],[104.468994140625,-0.3433206994005502],[104.47139739990234,-0.34744049759457596],[104.47380065917969,-0.34812713045285193],[104.47380065917969,-0.349843712379581],[104.47792053222656,-0.3522469265490855],[104.48341369628906,-0.3536201915108137],[104.48650360107422,-0.3532768752893958],[104.49302673339844,-0.3570533530246962],[104.49714660644531,-0.35773998517403527],[104.49989318847656,-0.36185977698764304],[104.50366973876953,-0.36391967219418575],[104.52117919921875,-0.3656362511737541],[104.52220916748047,-0.36838277685778564],[104.52564239501953,-0.3718159327716961],[104.5294189453125,-0.3707859861371361],[104.53765869140625,-0.37456245654222187],[104.53903198242188,-0.39138489562073175],[104.55070495605469,-0.4088939290111284],[104.55551147460938,-0.41164044062972494],[104.55860137939453,-0.4188500291119226],[104.56306457519531,-0.4222831641604472],[104.56581115722656,-0.4264029242162337],[104.56718444824219,-0.43395581191069255],[104.56993103027344,-0.4404787543101776],[104.5733642578125,-0.44700169100048015],[104.57748413085938,-0.4514647496133648],[104.57679748535156,-0.45558449359448616],[104.58023071289062,-0.46519722035354505],[104.57405090332031,-0.47275006792007446],[104.57473754882812,-0.47755642119336983],[104.5733642578125,-0.48030290727142244],[104.57096099853516,-0.480646217953705],[104.56958770751953,-0.48236277110602543],[104.5620346069336,-0.4950652508745037]]}}]}