{"type":"FeatureCollection","features":[{"type":"Feature","id":"pmtiles:10/850/544:water:1800:0","properties":{"class":"ocean","water":"ocean","kind":"waterway","verification":"verified","source":"OpenMapTiles/OpenStreetMap national PMTiles","sourceId":"10/850/544:water:1800:0","sourceLayer":"water","archive":"https://its.hanifahseptiani45.workers.dev/v1/map/archive/indonesia.pmtiles","updatedAt":"2026-07-26T09:47:40.025Z"},"geometry":{"type":"Polygon","coordinates":[[[118.8226318359375,-11.173012874215061],[119.1851806640625,-11.173012874215061],[119.1851806640625,-11.52846990075463],[118.8226318359375,-11.52846990075463],[118.8226318359375,-11.173012874215061]]]}}]}