{"type":"FeatureCollection","features":[{"type":"Feature","id":"pmtiles:10/895/521:transportation:4284838380:0","properties":{"class":"secondary","highway":"secondary","kind":"road","verification":"verified","source":"OpenMapTiles/OpenStreetMap national PMTiles","sourceId":"10/895/521:transportation:4284838380:0","sourceLayer":"transportation","archive":"https://its.hanifahseptiani45.workers.dev/v1/map/archive/indonesia.pmtiles","updatedAt":"2026-07-26T09:43:37.517Z"},"geometry":{"type":"LineString","coordinates":[[134.86842155456543,-3.508280869458275],[134.86988067626953,-3.508623548750407],[134.87709045410156,-3.5091375674529957],[134.8794937133789,-3.5089662279168863],[134.88266944885254,-3.5095659161557933],[134.88567352294922,-3.5096515858727884],[134.8872184753418,-3.5099942646621827],[134.88747596740723,-3.510765291478691],[134.8867893218994,-3.512992698705716],[134.88670349121094,-3.5155627773619216],[134.88593101501465,-3.5181328489356076],[134.88618850708008,-3.5189038690258485]]}},{"type":"Feature","id":"pmtiles:10/895/522:landuse:4284838180:0","properties":{"class":"residential","kind":"green","verification":"verified","source":"OpenMapTiles/OpenStreetMap national PMTiles","sourceId":"10/895/522:landuse:4284838180:0","sourceLayer":"landuse","archive":"https://its.hanifahseptiani45.workers.dev/v1/map/archive/indonesia.pmtiles","updatedAt":"2026-07-26T09:43:47.025Z"},"geometry":{"type":"Polygon","coordinates":[[[134.9106502532959,-3.6949364754113105],[134.91107940673828,-3.695964302100549],[134.90816116333008,-3.6973347358334223],[134.90936279296875,-3.6989621231400065],[134.90747451782227,-3.700246900481787],[134.90687370300293,-3.7000755969438472],[134.90678787231445,-3.6950221276809003],[134.9077320098877,-3.6948508231334642],[134.90816116333008,-3.695964302100549],[134.9106502532959,-3.6949364754113105]]]}},{"type":"Feature","id":"pmtiles:10/895/522:landuse:4284838180:2","properties":{"class":"residential","kind":"green","verification":"verified","source":"OpenMapTiles/OpenStreetMap national PMTiles","sourceId":"10/895/522:landuse:4284838180:2","sourceLayer":"landuse","archive":"https://its.hanifahseptiani45.workers.dev/v1/map/archive/indonesia.pmtiles","updatedAt":"2026-07-26T09:43:47.025Z"},"geometry":{"type":"Polygon","coordinates":[[[134.92833137512207,-3.556940065215656],[134.92798805236816,-3.5579680488103236],[134.92730140686035,-3.557796718290845],[134.92695808410645,-3.558824700929847],[134.9256706237793,-3.5577110530191476],[134.9260139465332,-3.5570257305589905],[134.92670059204102,-3.5574540571563205],[134.92704391479492,-3.5565974037626376],[134.92833137512207,-3.556940065215656]]]}},{"type":"Feature","id":"pmtiles:10/895/522:landuse:4284838180:3","properties":{"class":"residential","kind":"green","verification":"verified","source":"OpenMapTiles/OpenStreetMap national PMTiles","sourceId":"10/895/522:landuse:4284838180:3","sourceLayer":"landuse","archive":"https://its.hanifahseptiani45.workers.dev/v1/map/archive/indonesia.pmtiles","updatedAt":"2026-07-26T09:43:47.025Z"},"geometry":{"type":"Polygon","coordinates":[[[134.9502182006836,-3.597544542074516],[134.94901657104492,-3.5989151258774115],[134.94695663452148,-3.5980585112422006],[134.9472999572754,-3.5970305726169585],[134.94893074035645,-3.5976302036226],[134.94935989379883,-3.5970305726169585],[134.9502182006836,-3.597544542074516]]]}},{"type":"Feature","id":"pmtiles:10/895/522:transportation:4284838140:0","properties":{"class":"secondary","highway":"secondary","kind":"road","verification":"verified","source":"OpenMapTiles/OpenStreetMap national PMTiles","sourceId":"10/895/522:transportation:4284838140:0","sourceLayer":"transportation","archive":"https://its.hanifahseptiani45.workers.dev/v1/map/archive/indonesia.pmtiles","updatedAt":"2026-07-26T09:43:47.025Z"},"geometry":{"type":"LineString","coordinates":[[134.97570991516113,-3.658190891595183],[134.97759819030762,-3.6598183503835315],[134.97845649719238,-3.6602466285206674],[134.97888565063477,-3.6637585015183163],[134.97974395751953,-3.665128984803573],[134.9812889099121,-3.6658998807288157],[134.9820613861084,-3.6672703607327577],[134.9827480316162,-3.667356015663259],[134.98334884643555,-3.6664994659890198],[134.98377799987793,-3.666585120993375],[134.98506546020508,-3.6688121482257543],[134.98540878295898,-3.670696551548815],[134.9860954284668,-3.6711248244769195],[134.98712539672852,-3.671039169907729],[134.98875617980957,-3.671638751719499],[134.99030113220215,-3.67258095089592],[134.9919319152832,-3.6714674426714993],[134.99407768249512,-3.67258095089592],[134.99545097351074,-3.6729235685316866],[134.99871253967285,-3.6759214672333655],[135.0014591217041,-3.6775488937374945]]}},{"type":"Feature","id":"pmtiles:10/895/522:transportation:4284838140:1","properties":{"class":"secondary","highway":"secondary","kind":"road","verification":"verified","source":"OpenMapTiles/OpenStreetMap national PMTiles","sourceId":"10/895/522:transportation:4284838140:1","sourceLayer":"transportation","archive":"https://its.hanifahseptiani45.workers.dev/v1/map/archive/indonesia.pmtiles","updatedAt":"2026-07-26T09:43:47.025Z"},"geometry":{"type":"LineString","coordinates":[[134.86842155456543,-3.508280869458275],[134.86988067626953,-3.508623548750407],[134.87709045410156,-3.5091375674529957],[134.8794937133789,-3.5089662279168863],[134.88266944885254,-3.5095659161557933],[134.88567352294922,-3.5096515858727884],[134.8872184753418,-3.5099942646621827],[134.88747596740723,-3.510765291478691],[134.8867893218994,-3.512992698705716],[134.88670349121094,-3.5155627773619216],[134.88593101501465,-3.5181328489356076],[134.88636016845703,-3.5195892196815777],[134.88859176635742,-3.520274569833063],[134.8893642425537,-3.5213025941146867],[134.8894500732422,-3.5223306172612467],[134.88987922668457,-3.5231873023494416],[134.89022254943848,-3.524986338467386],[134.89142417907715,-3.526271362135617],[134.89314079284668,-3.527642052090812],[134.89434242248535,-3.529869418956295],[134.89605903625488,-3.5310687681332382],[134.89665985107422,-3.5358661493439882],[134.8970890045166,-3.5364658202508252],[134.8978614807129,-3.5367228219493256],[134.89880561828613,-3.5374938266172506],[134.89940643310547,-3.5390358340288373],[134.89923477172852,-3.5401495044521596],[134.8982048034668,-3.5421198411509778],[134.89992141723633,-3.544946838653132],[134.90198135375977,-3.5461461683165965],[134.90421295166016,-3.5482878245600205],[134.90489959716797,-3.548630489098386],[134.90635871887207,-3.548544822975714],[134.91185188293457,-3.550258143919862],[134.91451263427734,-3.5499154799852874],[134.9169158935547,-3.5508578054994473],[134.92258071899414,-3.5514574666895555],[134.9237823486328,-3.5564260729883728],[134.92403984069824,-3.556683069137833],[134.92541313171387,-3.556940065215656],[134.9264430999756,-3.557796718290845],[134.92807388305664,-3.5584820401776227],[134.92987632751465,-3.5583107097537123],[134.93021965026855,-3.5585677053776266],[134.9297046661377,-3.5704750905916853],[134.93047714233398,-3.5706464187497318],[134.93236541748047,-3.5704750905916853],[134.93365287780762,-3.5721027068022693],[134.93502616882324,-3.5728736818946913],[134.93803024291992,-3.574072975195321],[134.9392318725586,-3.575272266927996],[134.93914604187012,-3.576214566474789],[134.93828773498535,-3.577413855406263],[134.93803024291992,-3.578527479437355],[134.93820190429688,-3.579469775637193],[134.93974685668945,-3.581354365128334],[134.93974685668945,-3.5820396694360284],[134.93948936462402,-3.582553647330073]]}},{"type":"Feature","id":"pmtiles:10/895/522:transportation:4284838140:2","properties":{"class":"secondary","highway":"secondary","kind":"road","verification":"verified","source":"OpenMapTiles/OpenStreetMap national PMTiles","sourceId":"10/895/522:transportation:4284838140:2","sourceLayer":"transportation","archive":"https://its.hanifahseptiani45.workers.dev/v1/map/archive/indonesia.pmtiles","updatedAt":"2026-07-26T09:43:47.025Z"},"geometry":{"type":"LineString","coordinates":[[134.93940353393555,-3.5826393102843497],[134.93871688842773,-3.5829819620212646],[134.93820190429688,-3.583924253636127],[134.9374294281006,-3.584695218780908],[134.93639945983887,-3.584695218780908],[134.935884475708,-3.585466183275784],[134.93459701538086,-3.5861514845033042],[134.93408203125,-3.5897493075175504],[134.93416786193848,-3.590263281077199],[134.9348545074463,-3.5906915921559346],[134.93657112121582,-3.590434605532792],[134.9377727508545,-3.591291227328611],[134.93897438049316,-3.5943750591366097],[134.9388885498047,-3.5960026328323806],[134.93906021118164,-3.596773587779495],[134.94009017944336,-3.5980585112422006],[134.9421501159668,-3.59865814157142],[134.94532585144043,-3.5974588805183885],[134.94738578796387,-3.597801526694596],[134.94893074035645,-3.598315495717344],[134.9497890472412,-3.599000787296646],[134.9497890472412,-3.600457030190796],[134.95073318481445,-3.6010566589409336],[134.95099067687988,-3.601827609610808],[134.9513339996338,-3.6019132707560573],[134.95184898376465,-3.6015706261267297],[134.95253562927246,-3.6015706261267297],[134.95296478271484,-3.6019132707560573],[134.95296478271484,-3.602598559627708],[134.9523639678955,-3.6039691358227657],[134.9531364440918,-3.6055966923722877],[134.9538230895996,-3.6060249962432636],[134.95502471923828,-3.606110656993252],[134.95742797851562,-3.6077382097092823],[134.95880126953125,-3.608166512571188],[134.96206283569336,-3.60979406160493],[134.9637794494629,-3.611935569047631],[134.96429443359375,-3.614248391410655],[134.96395111083984,-3.616047249171814],[134.9641227722168,-3.6171608259973738],[134.9644660949707,-3.61776044372138],[134.96798515319824,-3.6208441857478135],[134.96841430664062,-3.621872097423136],[134.96910095214844,-3.627525590763355],[134.97098922729492,-3.629752714796453],[134.97296333312988,-3.6299240318023465],[134.97407913208008,-3.6305236410670574],[134.9754524230957,-3.6316372000737402],[134.97605323791504,-3.6330933905482397],[134.9765682220459,-3.633607339566481],[134.9765682220459,-3.6342069463844098],[134.97596740722656,-3.6352348428592904],[134.976224899292,-3.6361770802654263],[134.97716903686523,-3.6369480010471165],[134.97665405273438,-3.639432074635778],[134.97682571411133,-3.6407169375974604],[134.9773406982422,-3.641145224843953],[134.97759819030762,-3.6420017987257864],[134.9769115447998,-3.6439719155603854],[134.9772548675537,-3.644828486751649],[134.97862815856934,-3.645599400126372],[134.97974395751953,-3.646969911160639],[134.97974395751953,-3.648940017111528],[134.97888565063477,-3.651252744671808],[134.97965812683105,-3.653222841228356]]}},{"type":"Feature","id":"pmtiles:10/895/522:transportation:4284758920:0","properties":{"class":"trunk","highway":"trunk","kind":"road","verification":"verified","source":"OpenMapTiles/OpenStreetMap national PMTiles","sourceId":"10/895/522:transportation:4284758920:0","sourceLayer":"transportation","archive":"https://its.hanifahseptiani45.workers.dev/v1/map/archive/indonesia.pmtiles","updatedAt":"2026-07-26T09:43:47.025Z"},"geometry":{"type":"LineString","coordinates":[[134.70053672790527,-3.507938190040491],[134.70070838928223,-3.5087948883493567],[134.70019340515137,-3.510850961085694],[134.70070838928223,-3.5125643515747953],[134.70474243164062,-3.515648446528502],[134.70620155334473,-3.517190490181264],[134.70688819885254,-3.5213882627535895],[134.7074031829834,-3.5221592801489976],[134.7088623046875,-3.5232729708148867],[134.71006393432617,-3.5249006701597096],[134.71384048461914,-3.5272993797915007],[134.71461296081543,-3.528584400262474],[134.71461296081543,-3.529869418956295],[134.71495628356934,-3.530726097097883],[134.71564292907715,-3.535951816640136],[134.71624374389648,-3.538007829372887],[134.71744537353516,-3.5395498359290656],[134.71976280212402,-3.5406635057343294],[134.72336769104004,-3.5440045071121915],[134.72448348999023,-3.5445185062535387],[134.72482681274414,-3.545289504429988],[134.72414016723633,-3.5469171651358806],[134.72448348999023,-3.548630489098386],[134.725341796875,-3.5500868119684696],[134.7274875640869,-3.5519714616853406],[134.7282600402832,-3.5536847762706145],[134.72963333129883,-3.554284435623842],[134.72997665405273,-3.555740749572891],[134.73100662231445,-3.5564260729883728],[134.73134994506836,-3.557625387739492],[134.73332405090332,-3.560880662766351],[134.73538398742676,-3.567562507015154],[134.73615646362305,-3.5685048144768814],[134.73675727844238,-3.5698754417867917],[134.7385597229004,-3.571246067051149],[134.73916053771973,-3.5723596985717023],[134.73933219909668,-3.574329966412904],[134.7389030456543,-3.574672621257676],[134.73761558532715,-3.5770712015859516],[134.73675727844238,-3.577242528512116],[134.73649978637695,-3.5774995188413072],[134.73649978637695,-3.5789557960119964],[134.73624229431152,-3.57938411238635],[134.7359848022461,-3.579469775637193],[134.73546981811523,-3.5790414593028856],[134.73461151123047,-3.57938411238635],[134.73461151123047,-3.5796411021148344],[134.7355556488037,-3.580754723438261],[134.73504066467285,-3.581782680380769],[134.73538398742676,-3.583667265110151],[134.73426818847656,-3.585294857888641],[134.73469734191895,-3.5860658218779378],[134.73589897155762,-3.586494134924436],[134.73607063293457,-3.5880360602298964],[134.7352123260498,-3.5894923206292333],[134.73512649536133,-3.590091956589447],[134.73615646362305,-3.5918908621074195],[134.73718643188477,-3.592490496492303],[134.73821640014648,-3.5927474825366517],[134.73821640014648,-3.5937754259902306],[134.7384738922119,-3.594546382820326],[134.74053382873535,-3.5964309412168234],[134.74139213562012,-3.598315495717344],[134.74079132080078,-3.60037136890854],[134.74225044250488,-3.6006283527311354],[134.74413871765137,-3.601827609610808],[134.74568367004395,-3.6017419484575015],[134.74688529968262,-3.6008853364811984],[134.7476577758789,-3.6008853364811984],[134.74937438964844,-3.6014849649492504],[134.7498893737793,-3.6022559152563645],[134.7505760192871,-3.6026842207003824],[134.75186347961426,-3.6026842207003824],[134.75323677062988,-3.603026864910433],[134.75400924682617,-3.6042261186294695],[134.75598335266113,-3.6049970666139473],[134.7589874267578,-3.6049114057590543],[134.76070404052734,-3.605768013944882],[134.76224899291992,-3.6055110315738688],[134.76362228393555,-3.604825744896104],[134.7644805908203,-3.6046544231459734],[134.7660255432129,-3.605339709952844],[134.76791381835938,-3.6067959427025755],[134.77100372314453,-3.6070529247103735],[134.7725486755371,-3.607652549112686],[134.77392196655273,-3.6073955672744233],[134.77572441101074,-3.6085948152311857],[134.77984428405762,-3.60979406160493],[134.78053092956543,-3.6105650048661744],[134.78216171264648,-3.61176424863811],[134.78628158569336,-3.6133061311595895],[134.7864532470703,-3.6135631113251065],[134.7875690460205,-3.613991411439244],[134.78928565979004,-3.6155332901756054],[134.79040145874023,-3.615875929538774],[134.79280471801758,-3.6171608259973738],[134.79555130004883,-3.6173321453875644],[134.7974395751953,-3.614933670978502],[134.79846954345703,-3.61476235113507],[134.80035781860352,-3.6150193308880745],[134.8037052154541,-3.6169895065747824],[134.8044776916504,-3.618702699343217],[134.80713844299316,-3.618702699343217],[134.80876922607422,-3.619130997029174],[134.80937004089355,-3.6197306134493346],[134.80962753295898,-3.6205872076466363],[134.81331825256348,-3.623156985375772],[134.81374740600586,-3.6238422582045047],[134.81512069702148,-3.6248701664743237],[134.81752395629883,-3.6256410969100443],[134.81924057006836,-3.6255554380051933],[134.8209571838379,-3.6268403207257904],[134.82147216796875,-3.626925979508897],[134.82250213623047,-3.6264120266884845],[134.82481956481934,-3.623756599129294],[134.82524871826172,-3.622900007931179],[134.82576370239258,-3.6205015482633485],[134.82816696166992,-3.6175034647453828],[134.82885360717773,-3.6162185687724673],[134.83125686645508,-3.61476235113507],[134.8318576812744,-3.6136487713641117],[134.8318576812744,-3.6129634908256634],[134.83220100402832,-3.6125351902263105],[134.8337459564209,-3.612192549601275],[134.83460426330566,-3.611592928196245],[134.83503341674805,-3.6106506651881176],[134.8359775543213,-3.6105650048661744],[134.83752250671387,-3.6121068894248225],[134.83829498291016,-3.613905751432597],[134.83838081359863,-3.615104990789561],[134.8392391204834,-3.615875929538774],[134.8413848876953,-3.6213581417313634],[134.84258651733398,-3.623670940045969],[134.8428440093994,-3.6252984612419823],[134.84353065490723,-3.6258980735758968],[134.84430313110352,-3.6278682255872923],[134.84619140625,-3.630780616344339],[134.84679222106934,-3.6312089083106116],[134.8473072052002,-3.6311232499336086],[134.8476505279541,-3.6318085167220886],[134.84816551208496,-3.631551541737352],[134.84850883483887,-3.632151149921242],[134.8495388031006,-3.6312089083106116],[134.84996795654297,-3.6311232499336086],[134.85039710998535,-3.631380225040246],[134.85065460205078,-3.632151149921242],[134.85151290893555,-3.632750757706802],[134.85185623168945,-3.6336929977077403],[134.8539161682129,-3.633607339566481],[134.85451698303223,-3.6333503650939605],[134.85614776611328,-3.631380225040246],[134.85589027404785,-3.6302666657166327],[134.8564052581787,-3.629153105019938],[134.8564052581787,-3.6271829558095163],[134.8586368560791,-3.626069391312555],[134.85906600952148,-3.625469779092242],[134.8582935333252,-3.6243562124854236],[134.8593235015869,-3.622386052823103],[134.8605251312256,-3.6207585263888404],[134.86078262329102,-3.6199875917935884],[134.8608684539795,-3.619216656542079],[134.86061096191406,-3.61776044372138],[134.86095428466797,-3.6146766912012254],[134.86146926879883,-3.6136487713641117],[134.86164093017578,-3.6124495300821735],[134.86292839050293,-3.6109076461055025],[134.8633575439453,-3.6097084012021696],[134.8630142211914,-3.6086804757389643],[134.8630142211914,-3.606881603379918],[134.86249923706055,-3.604311779548908],[134.86275672912598,-3.603283847983306],[134.8626708984375,-3.6019132707560573],[134.86215591430664,-3.601142320158729],[134.86112594604492,-3.6006283527311354],[134.86069679260254,-3.599943062376383],[134.8604393005371,-3.59865814157142],[134.85983848571777,-3.598144172741982],[134.8597526550293,-3.597801526694596],[134.86018180847168,-3.597116234213331],[134.8600959777832,-3.5948890300911955],[134.86078262329102,-3.593518440235414],[134.8608684539795,-3.5923191724225347],[134.86129760742188,-3.59163387582187],[134.86129760742188,-3.5906059299562543],[134.86181259155273,-3.5898349697975647],[134.8626708984375,-3.5870937728523273],[134.8634433746338,-3.5857231712962943],[134.8630142211914,-3.5830676249354383],[134.8648166656494,-3.5822109954327885],[134.86550331115723,-3.581525691253347],[134.8655891418457,-3.580583397168965],[134.86679077148438,-3.57938411238635],[134.86730575561523,-3.578527479437355],[134.86764907836914,-3.5767285476375577],[134.8674774169922,-3.5750152759744367],[134.86764907836914,-3.5739016476769336],[134.86713409423828,-3.5724453624788737],[134.8670482635498,-3.5714173950653247],[134.8681640625,-3.569704113484889],[134.86833572387695,-3.5688474714960847],[134.8688507080078,-3.568247821628617],[134.8689365386963,-3.5677338357164388],[134.86799240112305,-3.5657635537235706],[134.86618995666504,-3.564821243451746],[134.8660182952881,-3.564478584931692],[134.86627578735352,-3.561908641963157],[134.8667049407959,-3.5611376576731573],[134.8667049407959,-3.5596813522528095],[134.866361618042,-3.558824700929847],[134.86464500427246,-3.55822504452982],[134.86318588256836,-3.5583963749696466],[134.8605251312256,-3.5578823835545563],[134.86026763916016,-3.556940065215656],[134.8605251312256,-3.555997745913402],[134.86129760742188,-3.555569418639422],[134.86138343811035,-3.5552267566770013],[134.86104011535645,-3.554455766796025],[134.86146926879883,-3.551029137307779],[134.86129760742188,-3.5498298139817734],[134.8615550994873,-3.548373490706524],[134.86138343811035,-3.547174163932752],[134.86172676086426,-3.54640316732781],[134.86164093017578,-3.5445185062535387],[134.86207008361816,-3.543661840859315],[134.86172676086426,-3.5404921720053153],[134.8618984222412,-3.5386931659369196],[134.8648166656494,-3.534581138952035],[134.86507415771484,-3.5336387968665264],[134.86584663391113,-3.532782121412822],[134.86610412597656,-3.5315827744491486],[134.8659324645996,-3.5304690937383896],[134.86679077148438,-3.528584400262474],[134.86988067626953,-3.5282417283106184],[134.87056732177734,-3.5272993797915007],[134.8703956604004,-3.5263570303170155],[134.8689365386963,-3.5241296550355656],[134.86919403076172,-3.522930296905784],[134.86790657043457,-3.5220736115810354],[134.8678207397461,-3.52164526862299],[134.86902236938477,-3.5200175635853412],[134.8689365386963,-3.519332213244766],[134.86807823181152,-3.5181328489356076],[134.86824989318848,-3.5171048211563516],[134.86876487731934,-3.5165051377615555],[134.8689365386963,-3.5157341156872377],[134.8688507080078,-3.515134431410914],[134.86799240112305,-3.514020731017766],[134.86859321594238,-3.5115363176586385],[134.86867904663086,-3.5096515858727884],[134.86824989318848,-3.507938190040491]]}},{"type":"Feature","id":"pmtiles:10/895/522:transportation_name:4284758920:0","properties":{"name_int":"Jalan Trans Papua Muri - Kwatisore","ref":"B07","name_de":"Jalan Trans Papua Muri - Kwatisore","name":"Jalan Trans Papua Muri - Kwatisore","ref_length":3,"class":"trunk","name:latin":"Jalan Trans Papua Muri - Kwatisore","name_en":"Jalan Trans Papua Muri - Kwatisore","network":"road","highway":"trunk","kind":"road","verification":"verified","source":"OpenMapTiles/OpenStreetMap national PMTiles","sourceId":"10/895/522:transportation_name:4284758920:0","sourceLayer":"transportation_name","archive":"https://its.hanifahseptiani45.workers.dev/v1/map/archive/indonesia.pmtiles","updatedAt":"2026-07-26T09:43:47.025Z"},"geometry":{"type":"LineString","coordinates":[[134.69684600830078,-3.4995425050879874],[134.69890594482422,-3.5033120056084073],[134.7004508972168,-3.5074241706782487],[134.70070838928223,-3.5087948883493567],[134.70019340515137,-3.510850961085694],[134.70070838928223,-3.5125643515747953],[134.70474243164062,-3.515648446528502],[134.70620155334473,-3.517190490181264],[134.70688819885254,-3.5213882627535895],[134.7074031829834,-3.5221592801489976],[134.7088623046875,-3.5232729708148867],[134.71006393432617,-3.5249006701597096],[134.71384048461914,-3.5272993797915007],[134.71461296081543,-3.528584400262474],[134.71461296081543,-3.529869418956295],[134.71495628356934,-3.530726097097883],[134.71564292907715,-3.535951816640136],[134.71624374389648,-3.538007829372887],[134.71744537353516,-3.5395498359290656],[134.71976280212402,-3.5406635057343294],[134.72336769104004,-3.5440045071121915],[134.72448348999023,-3.5445185062535387],[134.72482681274414,-3.545289504429988],[134.72414016723633,-3.5469171651358806],[134.72448348999023,-3.548630489098386],[134.725341796875,-3.5500868119684696],[134.7274875640869,-3.5519714616853406],[134.7282600402832,-3.5536847762706145],[134.72963333129883,-3.554284435623842],[134.72997665405273,-3.555740749572891],[134.73100662231445,-3.5564260729883728],[134.73134994506836,-3.557625387739492],[134.73332405090332,-3.560880662766351],[134.73538398742676,-3.567562507015154],[134.73615646362305,-3.5685048144768814],[134.73675727844238,-3.5698754417867917],[134.7385597229004,-3.571246067051149],[134.73916053771973,-3.5723596985717023],[134.73933219909668,-3.574329966412904],[134.7389030456543,-3.574672621257676],[134.73761558532715,-3.5770712015859516],[134.73675727844238,-3.577242528512116],[134.73649978637695,-3.5774995188413072],[134.73649978637695,-3.5789557960119964],[134.73624229431152,-3.57938411238635],[134.7359848022461,-3.579469775637193],[134.73546981811523,-3.5790414593028856],[134.73461151123047,-3.57938411238635],[134.73461151123047,-3.5796411021148344],[134.7355556488037,-3.580754723438261],[134.73504066467285,-3.581782680380769],[134.73538398742676,-3.583667265110151],[134.73426818847656,-3.585294857888641],[134.73469734191895,-3.5860658218779378],[134.73589897155762,-3.586494134924436],[134.73607063293457,-3.5880360602298964],[134.7352123260498,-3.5894923206292333],[134.73512649536133,-3.590091956589447],[134.73615646362305,-3.5918908621074195],[134.73718643188477,-3.592490496492303],[134.73821640014648,-3.5927474825366517],[134.73821640014648,-3.5937754259902306],[134.7384738922119,-3.594546382820326],[134.74053382873535,-3.5964309412168234],[134.74139213562012,-3.598315495717344],[134.74079132080078,-3.60037136890854],[134.74225044250488,-3.6006283527311354],[134.74413871765137,-3.601827609610808],[134.74568367004395,-3.6017419484575015],[134.74688529968262,-3.6008853364811984],[134.7476577758789,-3.6008853364811984],[134.74937438964844,-3.6014849649492504],[134.7498893737793,-3.6022559152563645],[134.7505760192871,-3.6026842207003824],[134.75186347961426,-3.6026842207003824],[134.75323677062988,-3.603026864910433],[134.75400924682617,-3.6042261186294695],[134.75598335266113,-3.6049970666139473],[134.7589874267578,-3.6049114057590543],[134.76070404052734,-3.605768013944882],[134.76224899291992,-3.6055110315738688],[134.76362228393555,-3.604825744896104],[134.7644805908203,-3.6046544231459734],[134.7660255432129,-3.605339709952844],[134.76791381835938,-3.6067959427025755],[134.77100372314453,-3.6070529247103735],[134.7725486755371,-3.607652549112686],[134.77392196655273,-3.6073955672744233],[134.77572441101074,-3.6085948152311857],[134.77984428405762,-3.60979406160493],[134.78053092956543,-3.6105650048661744],[134.78216171264648,-3.61176424863811],[134.78628158569336,-3.6133061311595895],[134.7864532470703,-3.6135631113251065],[134.7875690460205,-3.613991411439244],[134.78928565979004,-3.6155332901756054],[134.79040145874023,-3.615875929538774],[134.79280471801758,-3.6171608259973738],[134.79555130004883,-3.6173321453875644],[134.7974395751953,-3.614933670978502],[134.79846954345703,-3.61476235113507],[134.80035781860352,-3.6150193308880745],[134.8037052154541,-3.6169895065747824],[134.8044776916504,-3.618702699343217],[134.80713844299316,-3.618702699343217],[134.80876922607422,-3.619130997029174],[134.80937004089355,-3.6197306134493346],[134.80962753295898,-3.6205872076466363],[134.81331825256348,-3.623156985375772],[134.81374740600586,-3.6238422582045047],[134.81512069702148,-3.6248701664743237],[134.81752395629883,-3.6256410969100443],[134.81924057006836,-3.6255554380051933],[134.8209571838379,-3.6268403207257904],[134.82147216796875,-3.626925979508897],[134.82250213623047,-3.6264120266884845],[134.82481956481934,-3.623756599129294],[134.82524871826172,-3.622900007931179],[134.82576370239258,-3.6205015482633485],[134.82816696166992,-3.6175034647453828],[134.82885360717773,-3.6162185687724673],[134.83125686645508,-3.61476235113507],[134.8318576812744,-3.6136487713641117],[134.8318576812744,-3.6129634908256634],[134.83220100402832,-3.6125351902263105],[134.8337459564209,-3.612192549601275],[134.83460426330566,-3.611592928196245],[134.83503341674805,-3.6106506651881176],[134.8359775543213,-3.6105650048661744],[134.83752250671387,-3.6121068894248225],[134.83829498291016,-3.613905751432597],[134.83838081359863,-3.615104990789561],[134.8392391204834,-3.615875929538774],[134.8413848876953,-3.6213581417313634],[134.84258651733398,-3.623670940045969],[134.8428440093994,-3.6252984612419823],[134.84353065490723,-3.6258980735758968],[134.84430313110352,-3.6278682255872923],[134.84619140625,-3.630780616344339],[134.84679222106934,-3.6312089083106116],[134.8473072052002,-3.6311232499336086],[134.8476505279541,-3.6318085167220886],[134.84816551208496,-3.631551541737352],[134.84850883483887,-3.632151149921242],[134.8495388031006,-3.6312089083106116],[134.84996795654297,-3.6311232499336086],[134.85039710998535,-3.631380225040246],[134.85065460205078,-3.632151149921242],[134.85151290893555,-3.632750757706802],[134.85185623168945,-3.6336929977077403],[134.8539161682129,-3.633607339566481],[134.85451698303223,-3.6333503650939605],[134.85614776611328,-3.631380225040246],[134.85589027404785,-3.6302666657166327],[134.8564052581787,-3.629153105019938],[134.8564052581787,-3.6271829558095163],[134.8586368560791,-3.626069391312555],[134.85906600952148,-3.625469779092242],[134.8582935333252,-3.6243562124854236],[134.8593235015869,-3.622386052823103],[134.8605251312256,-3.6207585263888404],[134.8608684539795,-3.619216656542079],[134.86061096191406,-3.61776044372138],[134.86095428466797,-3.6146766912012254],[134.86146926879883,-3.6136487713641117],[134.86164093017578,-3.6124495300821735],[134.86292839050293,-3.6109076461055025],[134.8633575439453,-3.6097084012021696],[134.8630142211914,-3.6086804757389643],[134.8630142211914,-3.606881603379918],[134.86249923706055,-3.604311779548908],[134.86275672912598,-3.603283847983306],[134.8626708984375,-3.6019132707560573],[134.86215591430664,-3.601142320158729],[134.86112594604492,-3.6006283527311354],[134.86069679260254,-3.599943062376383],[134.8604393005371,-3.59865814157142],[134.85983848571777,-3.598144172741982],[134.8597526550293,-3.597801526694596],[134.86018180847168,-3.597116234213331],[134.8600959777832,-3.5948890300911955],[134.86078262329102,-3.593518440235414],[134.8608684539795,-3.5923191724225347],[134.86129760742188,-3.59163387582187],[134.86129760742188,-3.5906059299562543],[134.86181259155273,-3.5898349697975647],[134.8626708984375,-3.5870937728523273],[134.8634433746338,-3.5857231712962943],[134.8630142211914,-3.5830676249354383],[134.8648166656494,-3.5822109954327885],[134.86550331115723,-3.581525691253347],[134.8655891418457,-3.580583397168965],[134.86679077148438,-3.57938411238635],[134.86730575561523,-3.578527479437355],[134.86764907836914,-3.5767285476375577],[134.8674774169922,-3.5750152759744367],[134.86764907836914,-3.5739016476769336],[134.86713409423828,-3.5724453624788737],[134.8670482635498,-3.5714173950653247],[134.8681640625,-3.569704113484889],[134.86833572387695,-3.5688474714960847],[134.8688507080078,-3.568247821628617],[134.8689365386963,-3.5677338357164388],[134.86799240112305,-3.5657635537235706],[134.86618995666504,-3.564821243451746],[134.8660182952881,-3.564478584931692],[134.86627578735352,-3.561908641963157],[134.8667049407959,-3.5611376576731573],[134.8667049407959,-3.5596813522528095],[134.866361618042,-3.558824700929847],[134.86464500427246,-3.55822504452982],[134.86318588256836,-3.5583963749696466],[134.8605251312256,-3.5578823835545563],[134.86026763916016,-3.556940065215656],[134.8605251312256,-3.555997745913402],[134.86129760742188,-3.555569418639422],[134.86138343811035,-3.5552267566770013],[134.86104011535645,-3.554455766796025],[134.86146926879883,-3.551029137307779],[134.86129760742188,-3.5498298139817734],[134.8615550994873,-3.548373490706524],[134.86138343811035,-3.547174163932752],[134.86172676086426,-3.54640316732781],[134.86164093017578,-3.5445185062535387],[134.86207008361816,-3.543661840859315],[134.86172676086426,-3.5404921720053153],[134.8618984222412,-3.5386931659369196],[134.8648166656494,-3.534581138952035],[134.86507415771484,-3.5336387968665264],[134.86584663391113,-3.532782121412822],[134.86610412597656,-3.5315827744491486],[134.8659324645996,-3.5304690937383896],[134.86679077148438,-3.528584400262474],[134.86988067626953,-3.5282417283106184],[134.87056732177734,-3.5272993797915007],[134.8703956604004,-3.5263570303170155],[134.8689365386963,-3.5241296550355656],[134.86919403076172,-3.522930296905784],[134.86790657043457,-3.5220736115810354],[134.8678207397461,-3.52164526862299],[134.86902236938477,-3.5200175635853412],[134.8689365386963,-3.519332213244766],[134.86807823181152,-3.5181328489356076],[134.86824989318848,-3.5171048211563516],[134.86876487731934,-3.5165051377615555],[134.8688507080078,-3.515134431410914],[134.86799240112305,-3.514020731017766],[134.86859321594238,-3.5115363176586385],[134.86867904663086,-3.5096515858727884],[134.8681640625,-3.507595510497069],[134.8689365386963,-3.5048540696281094],[134.86910820007324,-3.4988571397271215]]}},{"type":"Feature","id":"pmtiles:10/895/522:water:155255973:0","properties":{"intermittent":0,"class":"lake","id":15525597,"water":"lake","kind":"waterway","verification":"verified","source":"OpenMapTiles/OpenStreetMap national PMTiles","sourceId":"10/895/522:water:155255973:0","sourceLayer":"water","archive":"https://its.hanifahseptiani45.workers.dev/v1/map/archive/indonesia.pmtiles","updatedAt":"2026-07-26T09:43:47.025Z"},"geometry":{"type":"Polygon","coordinates":[[[134.92764472961426,-3.645856371104415],[134.92867469787598,-3.646284655904637],[134.9297046661377,-3.646284655904637],[134.93124961853027,-3.645085457949989],[134.93288040161133,-3.644400201257966],[134.93433952331543,-3.6444858583730166],[134.93468284606934,-3.6436292868555142],[134.9355411529541,-3.643286658020159],[134.93708610534668,-3.642772714522522],[134.93897438049316,-3.6431153435535606],[134.9392318725586,-3.642772714522522],[134.94060516357422,-3.6425157426636474],[134.94086265563965,-3.6420017987257864],[134.94189262390137,-3.6420874560691487],[134.94309425354004,-3.6416591692708664],[134.9447250366211,-3.641744826646814],[134.94481086730957,-3.641402197094081],[134.94455337524414,-3.6412308822688146],[134.9454116821289,-3.6409739099698015],[134.94558334350586,-3.641145224843953],[134.9465274810791,-3.640374307653559],[134.94712829589844,-3.6405456226418096],[134.94738578796387,-3.6409739099698015],[134.9479866027832,-3.6413165396855334],[134.94953155517578,-3.6412308822688146],[134.95330810546875,-3.6426870572443875],[134.95476722717285,-3.6438006012242425],[134.95579719543457,-3.6441432298638716],[134.9593162536621,-3.646712940500848],[134.9600887298584,-3.647740822699248],[134.96163368225098,-3.648340420105427],[134.96171951293945,-3.648683047015041],[134.96206283569336,-3.648768703722041],[134.96171951293945,-3.6496252703427956],[134.96137619018555,-3.6498822401697595],[134.96146202087402,-3.6502248664913424],[134.96214866638184,-3.6498822401697595],[134.9636936187744,-3.650481836146753],[134.96472358703613,-3.6498822401697595],[134.96575355529785,-3.6498822401697595],[134.96618270874023,-3.6507388057286363],[134.96506690979004,-3.6524519343951027],[134.96541023254395,-3.6533941537680192],[134.96609687805176,-3.6533084975022803],[134.96678352355957,-3.6540794035996953],[134.96652603149414,-3.655278589545645],[134.96712684631348,-3.6557068698520823],[134.9677276611328,-3.6571630213638855],[134.96953010559082,-3.6592187606475477],[134.97090339660645,-3.6602466285206674],[134.97270584106445,-3.6610175286514277],[134.9743366241455,-3.6612744952141867],[134.97459411621094,-3.6615314617032197],[134.97442245483398,-3.6621310498908173],[134.97339248657227,-3.6631589144209187],[134.97382164001465,-3.6635015356686154],[134.97450828552246,-3.663672846243287],[134.97373580932617,-3.666413810976465],[134.97201919555664,-3.6677842901926],[134.9714183807373,-3.6692404220572854],[134.97047424316406,-3.670011314436721],[134.96935844421387,-3.672152678666265],[134.96789932250977,-3.6734374947387636],[134.96661186218262,-3.675578850748778],[134.96618270874023,-3.676606699807664],[134.9655818939209,-3.676606699807664],[134.96463775634766,-3.677206277878213],[134.9641227722168,-3.678062817279482],[134.9636936187744,-3.679775893612458],[134.96249198913574,-3.6810606987005627],[134.96171951293945,-3.6817459273230497],[134.9604320526123,-3.6823455019351456],[134.9600887298584,-3.6823455019351456],[134.95871543884277,-3.681488966651415],[134.95768547058105,-3.6820028879205466],[134.95596885681152,-3.683287689795449],[134.95450973510742,-3.6850007560768887],[134.95356559753418,-3.685514675318146],[134.9505615234375,-3.6856003284961645],[134.95013236999512,-3.685172062523634],[134.94970321655273,-3.685172062523634],[134.94867324829102,-3.687313390324036],[134.94953155517578,-3.6910821147246367],[134.94935989379883,-3.692366903479595],[134.94738578796387,-3.6968208234317785],[134.9461841583252,-3.6987908193536754],[134.94318008422852,-3.701788630832553],[134.9417209625244,-3.7023881919108135],[134.93803024291992,-3.7025594950014664],[134.93760108947754,-3.702131237212697],[134.9355411529541,-3.701531675960453],[134.93253707885742,-3.701617327592743],[134.92755889892578,-3.7059855498525565],[134.92618560791016,-3.7064138057761795],[134.92575645446777,-3.7062425034316107],[134.9252414703369,-3.7064994569360294],[134.92464065551758,-3.7063281546080447],[134.92249488830566,-3.7044438268109303],[134.91846084594727,-3.703416009957593],[134.91811752319336,-3.7029877525831125],[134.91442680358887,-3.701360372670962],[134.91331100463867,-3.6989621231400065],[134.9117660522461,-3.6980199519055788],[134.9114227294922,-3.6953647366765523],[134.91107940673828,-3.694765170847333],[134.90798950195312,-3.691767335625272],[134.90713119506836,-3.691424725241049],[134.90618705749512,-3.691767335625272],[134.90558624267578,-3.6916816830416224],[134.90489959716797,-3.6915103778494966],[134.9043846130371,-3.690910809416863],[134.90361213684082,-3.6877416552653273],[134.90352630615234,-3.683373343187853],[134.90232467651367,-3.681574620216864],[134.90266799926758,-3.6796902398740343],[134.90275382995605,-3.678062817279482],[134.90249633789062,-3.6771206238928187],[134.90198135375977,-3.676606699807664],[134.90069389343262,-3.6764353917134684],[134.89726066589355,-3.678148471174339],[134.8964023590088,-3.678234125060982],[134.8964023590088,-3.678062817279482],[134.89700317382812,-3.6774632397850127],[134.89760398864746,-3.6746366547375686],[134.89751815795898,-3.673780112045719],[134.89811897277832,-3.6722383331286323],[134.89829063415527,-3.671039169907729],[134.89863395690918,-3.670782206150875],[134.89871978759766,-3.67043958769338],[134.89914894104004,-3.6701826237640347],[134.90009307861328,-3.6702682784153637],[134.90060806274414,-3.6694973862576745],[134.90163803100586,-3.668897803008491],[134.90361213684082,-3.668555183828289],[134.90455627441406,-3.669326076798967],[134.90507125854492,-3.669154767307404],[134.90498542785645,-3.668555183828289],[134.90567207336426,-3.668041254811712],[134.9066162109375,-3.667955599946893],[134.9073028564453,-3.668126909668345],[134.9069595336914,-3.669326076798967],[134.9073886871338,-3.6696686956835407],[134.90833282470703,-3.6695830409747145],[134.90936279296875,-3.6700969691044776],[134.9095344543457,-3.6712104790378817],[134.91004943847656,-3.67129613359063],[134.91090774536133,-3.6723239875827716],[134.91090774536133,-3.6727522597302453],[134.91039276123047,-3.6729235685316866],[134.91039276123047,-3.673094877300258],[134.91082191467285,-3.6732661860359457],[134.9113368988037,-3.6730092229200864],[134.91185188293457,-3.672067024195684],[134.9117660522461,-3.670953515330311],[134.9114227294922,-3.670696551548815],[134.9117660522461,-3.670696551548815],[134.91193771362305,-3.67043958769338],[134.91168022155762,-3.6701826237640347],[134.91202354431152,-3.6695830409747145],[134.91271018981934,-3.669069112549309],[134.91271018981934,-3.6687264934348036],[134.91125106811523,-3.6676986353031538],[134.9095344543457,-3.6655572603996376],[134.90936279296875,-3.665043329659767],[134.91013526916504,-3.6610175286514277],[134.9114227294922,-3.6583622031857885],[134.91116523742676,-3.6571630213638855],[134.91150856018066,-3.6558781819173873],[134.91253852844238,-3.655449901692762],[134.91262435913086,-3.6546789967730575],[134.91296768188477,-3.65425071597582],[134.91416931152344,-3.6540794035996953],[134.92026329040527,-3.6515953704704742],[134.921293258667,-3.650824462239598],[134.92172241210938,-3.649368300442333],[134.923095703125,-3.648683047015041],[134.9237823486328,-3.6479977930651586],[134.92446899414062,-3.6479121362846882],[134.92541313171387,-3.648169106601628],[134.9271297454834,-3.647740822699248],[134.92738723754883,-3.6473981954303696],[134.92670059204102,-3.6465416266868544],[134.92738723754883,-3.645856371104415],[134.92764472961426,-3.645856371104415]]]}},{"type":"Feature","id":"pmtiles:10/895/522:water:4954528282:0","properties":{"intermittent":0,"class":"lake","id":495452828,"water":"lake","kind":"waterway","verification":"verified","source":"OpenMapTiles/OpenStreetMap national PMTiles","sourceId":"10/895/522:water:4954528282:0","sourceLayer":"water","archive":"https://its.hanifahseptiani45.workers.dev/v1/map/archive/indonesia.pmtiles","updatedAt":"2026-07-26T09:43:47.026Z"},"geometry":{"type":"Polygon","coordinates":[[[134.9252414703369,-3.788806359285914],[134.92584228515625,-3.7884637868314854],[134.9279022216797,-3.784952411355576],[134.92815971374512,-3.7850380548293003],[134.9285888671875,-3.784267263260901],[134.92901802062988,-3.784267263260901],[134.9307346343994,-3.7828969654458717],[134.93142127990723,-3.782725678066612],[134.93159294128418,-3.782982609122797],[134.93202209472656,-3.7826400343642916],[134.93468284606934,-3.7835821146242807],[134.9348545074463,-3.783239540102798],[134.93502616882324,-3.7835821146242807],[134.93545532226562,-3.7836677582335057],[134.93571281433105,-3.7834964710066146],[134.935884475708,-3.7837534018342467],[134.9362277984619,-3.7836677582335057],[134.93639945983887,-3.7834108273804787],[134.93708610534668,-3.7836677582335057],[134.93837356567383,-3.783068252791267],[134.9388885498047,-3.7825543906535017],[134.9388885498047,-3.7810128024122065],[134.93828773498535,-3.7790429912261203],[134.9388885498047,-3.7794712114297795],[134.9395751953125,-3.781355377813881],[134.9402618408203,-3.780498939055917],[134.9410343170166,-3.780927158540649],[134.94197845458984,-3.778443482585857],[134.94266510009766,-3.778272194326817],[134.94378089904785,-3.776816242759878],[134.94455337524414,-3.776730598473989],[134.94532585144043,-3.7773301082977326],[134.94481086730957,-3.7778439735313043],[134.94309425354004,-3.778272194326817],[134.94163513183594,-3.78075587077214],[134.9417209625244,-3.781355377813881],[134.94223594665527,-3.7816123092762837],[134.94275093078613,-3.780927158540649],[134.94300842285156,-3.7810128024122065],[134.9429225921631,-3.7814410216431327],[134.9439525604248,-3.7822118157257165],[134.94412422180176,-3.7826400343642916],[134.9443817138672,-3.7825543906535017],[134.94489669799805,-3.7834108273804787],[134.94481086730957,-3.7840959761525426],[134.9458408355713,-3.7850380548293003],[134.9443817138672,-3.787007852387063],[134.945068359375,-3.78735042541787],[134.94498252868652,-3.7876929983130765],[134.94558334350586,-3.7881212142414],[134.94566917419434,-3.788892002378347],[134.9461841583252,-3.789834075835387],[134.946870803833,-3.7900910047819565],[134.9472141265869,-3.790776148266346],[134.9487590789795,-3.790776148266346],[134.94901657104492,-3.791632576858433],[134.9513339996338,-3.791889505270632],[134.9513339996338,-3.7923177191212716],[134.95176315307617,-3.792574647329829],[134.9520206451416,-3.793174146186118],[134.95287895202637,-3.793088503517822],[134.9531364440918,-3.7927459327597717],[134.95450973510742,-3.7930028608410424],[134.9549388885498,-3.792574647329829],[134.95545387268066,-3.7930028608410424],[134.9560546875,-3.793174146186118],[134.9560546875,-3.7933454314972437],[134.95665550231934,-3.7938592872269084],[134.95725631713867,-3.793688002017632],[134.95871543884277,-3.7941162149771372],[134.95845794677734,-3.7953152101345893],[134.95871543884277,-3.7957434222874724],[134.95914459228516,-3.796171634228017],[134.95991706848145,-3.796000349477282],[134.96000289916992,-3.7963429189447737],[134.96103286743164,-3.796685488276381],[134.9608612060547,-3.7970280574720334],[134.96111869812012,-3.7978844798664824],[134.96163368225098,-3.798740901411122],[134.96240615844727,-3.7994260380348663],[134.96317863464355,-3.7989121856180645],[134.96326446533203,-3.7992547539299295],[134.96283531188965,-3.799768606142706],[134.96309280395508,-3.8000255321343275],[134.9637794494629,-3.8000255321343275],[134.96403694152832,-3.8007963096500106],[134.9637794494629,-3.801995295527391],[134.9633502960205,-3.802337862614692],[134.96352195739746,-3.8029373546899308],[134.96403694152832,-3.803194279737397],[134.96420860290527,-3.8042219791613405],[134.96463775634766,-3.8049071114297135],[134.96601104736328,-3.805249677359569],[134.96583938598633,-3.805420960273409],[134.96420860290527,-3.805249677359569],[134.9636936187744,-3.8056778845803336],[134.96420860290527,-3.8063630156907493],[134.96498107910156,-3.8061917329642228],[134.9655818939209,-3.807133787538419],[134.96661186218262,-3.807561993822347],[134.967041015625,-3.8069625049652274],[134.96875762939453,-3.8067055810415553],[134.96935844421387,-3.806876863665849],[134.96910095214844,-3.807476352582583],[134.96832847595215,-3.80764763505357],[134.96755599975586,-3.8085896880347008],[134.96661186218262,-3.8084184057511834],[134.9641227722168,-3.807219428812246],[134.96274948120117,-3.805934808810605],[134.95854377746582,-3.7995973221057966],[134.9571704864502,-3.798740901411122],[134.9527931213379,-3.8000255321343275],[134.95141983032227,-3.799768606142706],[134.95038986206055,-3.800625025817169],[134.94996070861816,-3.8004537419502924],[134.94996070861816,-3.8001111741145337],[134.94961738586426,-3.799939890145623],[134.94824409484863,-3.800368100004121],[134.94609832763672,-3.7995116800745734],[134.9461841583252,-3.798740901411122],[134.94661331176758,-3.7981414064191057],[134.94626998901367,-3.797370626531773],[134.94532585144043,-3.797370626531773],[134.94481086730957,-3.797627553237362],[134.94455337524414,-3.797370626531773],[134.94463920593262,-3.796771130588027],[134.94515419006348,-3.7959147070891532],[134.9457550048828,-3.7960859918568843],[134.94626998901367,-3.7958290646925548],[134.94644165039062,-3.794715712763889],[134.9457550048828,-3.794287500101518],[134.9454116821289,-3.793773644626512],[134.9454116821289,-3.7933454314972437],[134.9442958831787,-3.7923177191212716],[134.94421005249023,-3.791889505270632],[134.94189262390137,-3.789405860754812],[134.94060516357422,-3.789405860754812],[134.93966102600098,-3.790433576592008],[134.93828773498535,-3.790176647747188],[134.93760108947754,-3.790433576592008],[134.93682861328125,-3.7912900055233933],[134.93468284606934,-3.7911187198049845],[134.93279457092285,-3.7922320763681086],[134.93047714233398,-3.792574647329829],[134.93021965026855,-3.7930028608410424],[134.92841720581055,-3.7930028608410424],[134.9271297454834,-3.792574647329829],[134.9263572692871,-3.792917218155779],[134.92670059204102,-3.7922320763681086],[134.92609977722168,-3.7912043626684238],[134.92592811584473,-3.790433576592008],[134.92549896240234,-3.79026229070395],[134.92498397827148,-3.7895771468124764],[134.9252414703369,-3.788806359285914]]]}},{"type":"Feature","id":"pmtiles:10/895/522:water:4954528302:0","properties":{"intermittent":0,"class":"lake","id":495452830,"water":"lake","kind":"waterway","verification":"verified","source":"OpenMapTiles/OpenStreetMap national PMTiles","sourceId":"10/895/522:water:4954528302:0","sourceLayer":"water","archive":"https://its.hanifahseptiani45.workers.dev/v1/map/archive/indonesia.pmtiles","updatedAt":"2026-07-26T09:43:47.026Z"},"geometry":{"type":"Polygon","coordinates":[[[134.9974250793457,-3.8697352734583603],[134.99716758728027,-3.8683651123467087],[134.99656677246094,-3.8678513013585842],[134.9933910369873,-3.8673374900589437],[134.9927043914795,-3.867508760526775],[134.990816116333,-3.8674231252971936],[134.99064445495605,-3.86708058429231],[134.9897003173828,-3.86708058429231],[134.98909950256348,-3.8668236784478296],[134.9867820739746,-3.8666524078415847],[134.9864387512207,-3.8663098665252704],[134.98626708984375,-3.8655391480575503],[134.98626708984375,-3.8637408022422477],[134.98635292053223,-3.8630557171192947],[134.98669624328613,-3.8623706314431985],[134.98703956604004,-3.8610860943099823],[134.98669624328613,-3.8611717301793362],[134.98652458190918,-3.8615999093965314],[134.98635292053223,-3.8615142735703785],[134.98626708984375,-3.860572278912443],[134.98592376708984,-3.86005846320397],[134.98506546020508,-3.8607435507461787],[134.98480796813965,-3.860572278912443],[134.9842929840088,-3.8608291866500792],[134.9838638305664,-3.8602297351413313],[134.9838638305664,-3.859715919225593],[134.98360633850098,-3.8596302832093983],[134.98300552368164,-3.8595446471845776],[134.9809455871582,-3.8611717301793362],[134.97922897338867,-3.8615142735703785],[134.97819900512695,-3.8601440991769778],[134.9772548675537,-3.859801555233119],[134.97673988342285,-3.8601440991769778],[134.97596740722656,-3.8602297351413313],[134.97562408447266,-3.860914822545354],[134.97502326965332,-3.8613430018921377],[134.9747657775879,-3.8621993599377618],[134.9751091003418,-3.8622849956948073],[134.97528076171875,-3.8616855452140726],[134.97570991516113,-3.8615999093965314],[134.97553825378418,-3.8622849956948073],[134.97570991516113,-3.8627131743503753],[134.97665405273438,-3.863826437843713],[134.97648239135742,-3.864425886811958],[134.9765682220459,-3.864854064387046],[134.97708320617676,-3.864854064387046],[134.9776840209961,-3.865453512629003],[134.9776840209961,-3.8663955018673164],[134.97708320617676,-3.8673374900589437],[134.9754524230957,-3.8677656661636064],[134.9751091003418,-3.8681938420519657],[134.97459411621094,-3.8680225717225767],[134.97382164001465,-3.8681082068915913],[134.9725341796875,-3.8674231252971936],[134.97201919555664,-3.865881689685253],[134.9699592590332,-3.865025335356563],[134.9691867828369,-3.8649396998761176],[134.96789932250977,-3.863655166632128],[134.96498107910156,-3.8621993599377618],[134.96343612670898,-3.8608291866500792],[134.96274948120117,-3.859459011151131],[134.96240615844727,-3.8582601057761963],[134.9626636505127,-3.857917561072597],[134.96317863464355,-3.8577462886689915],[134.9644660949707,-3.8580031972614393],[134.96463775634766,-3.85620483548324],[134.96549606323242,-3.855348471394322],[134.96644020080566,-3.855348471394322],[134.96721267700195,-3.8563761081974803],[134.96789932250977,-3.8563761081974803],[134.96832847595215,-3.8558622899511903],[134.968843460083,-3.856461744541676],[134.9696159362793,-3.856804289832141],[134.9747657775879,-3.8569755624256032],[134.97776985168457,-3.854235196789247],[134.98163223266602,-3.853036284046297],[134.98506546020508,-3.855605380711566],[134.9860954284668,-3.8548346525269324],[134.98635292053223,-3.8548346525269324],[134.9868679046631,-3.8554341078420435],[134.987211227417,-3.855605380711566],[134.98806953430176,-3.8554341078420435],[134.98875617980957,-3.854663379502142],[134.98944282531738,-3.854663379502142],[134.98995780944824,-3.8549202890263956],[134.990816116333,-3.8541495602207902],[134.99098777770996,-3.854235196789247],[134.99098777770996,-3.855091561999444],[134.99176025390625,-3.8551771984730294],[134.99210357666016,-3.854577742976801],[134.99210357666016,-3.853550104000192],[134.99055862426758,-3.850809727327146],[134.99038696289062,-3.8496108097581185],[134.98918533325195,-3.8490113503405183],[134.99253273010254,-3.8486688019124244],[134.99313354492188,-3.846699145777663],[134.9945068359375,-3.8464422337722084],[134.99545097351074,-3.8476411558015826],[134.99570846557617,-3.848925713246416],[134.99648094177246,-3.849867720807893],[134.99751091003418,-3.8496108097581185],[134.99862670898438,-3.8486688019124244],[135.00163078308105,-3.84687042040494],[135.00205993652344,-3.8474698813292605],[135.00205993652344,-3.8485831647838893],[135.00060081481934,-3.850809727327146],[135.0011157989502,-3.852608100514331],[135.00205993652344,-3.8525224637820656],[135.00420570373535,-3.851323548625544],[135.00532150268555,-3.8511522748938773],[135.0054931640625,-3.851066638015112],[135.0054931640625,-3.8697352734583603],[134.9974250793457,-3.8697352734583603]]]}},{"type":"Feature","id":"pmtiles:10/896/522:transportation:5641747002:0","properties":{"class":"secondary","highway":"secondary","kind":"road","verification":"verified","source":"OpenMapTiles/OpenStreetMap national PMTiles","sourceId":"10/896/522:transportation:5641747002:0","sourceLayer":"transportation","archive":"https://its.hanifahseptiani45.workers.dev/v1/map/archive/indonesia.pmtiles","updatedAt":"2026-07-26T09:43:47.095Z"},"geometry":{"type":"LineString","coordinates":[[134.9945068359375,-3.6726666053171897],[134.99545097351074,-3.6729235685316866],[134.99871253967285,-3.6759214672333655],[135.0014591217041,-3.6775488937374945]]}},{"type":"Feature","id":"pmtiles:8/223/130:water:155255973:0","properties":{"intermittent":0,"class":"lake","id":15525597,"water":"lake","kind":"waterway","verification":"verified","source":"OpenMapTiles/OpenStreetMap national PMTiles","sourceId":"8/223/130:water:155255973:0","sourceLayer":"water","archive":"https://its.hanifahseptiani45.workers.dev/v1/map/archive/indonesia.pmtiles","updatedAt":"2026-07-26T09:35:38.988Z"},"geometry":{"type":"Polygon","coordinates":[[[134.92755889892578,-3.646027685048992],[134.92961883544922,-3.6463703128402045],[134.93545532226562,-3.643286658020159],[134.9447250366211,-3.6415735118867474],[134.94644165039062,-3.6405456226418096],[134.94953155517578,-3.6412308822688146],[134.9557113647461,-3.6439719155603854],[134.9615478515625,-3.6484260768450696],[134.9615478515625,-3.6501392099232106],[134.96566772460938,-3.6497965835689286],[134.96601104736328,-3.650824462239598],[134.96498107910156,-3.6525375907425968],[134.9666976928711,-3.653908091190843],[134.9666976928711,-3.655278589545645],[134.9677276611328,-3.6569917095440587],[134.97081756591797,-3.6604179397181866],[134.97459411621094,-3.6614458062150845],[134.9732208251953,-3.6631589144209187],[134.97459411621094,-3.6638441567851316],[134.97390747070312,-3.666585120993375],[134.9721908569336,-3.6676129804054796],[134.9663543701172,-3.6765210457646873],[134.96463775634766,-3.677206277878213],[134.96257781982422,-3.680975045085688],[134.96051788330078,-3.6823455019351456],[134.95880126953125,-3.681660273774085],[134.95777130126953,-3.6820028879205466],[134.95365142822266,-3.685429022131899],[134.94953155517578,-3.6850864093043896],[134.94884490966797,-3.6871420842897606],[134.94953155517578,-3.6922812509537692],[134.94609832763672,-3.6987908193536754],[134.94300842285156,-3.701874282440002],[134.93785858154297,-3.7025594950014664],[134.93236541748047,-3.701531675960453],[134.92755889892578,-3.7059855498525565],[134.92515563964844,-3.7063281546080447],[134.9224090576172,-3.7046151295037646],[134.91451263427734,-3.701189069348331],[134.91313934326172,-3.6987908193536754],[134.9117660522461,-3.698105603877366],[134.91107940673828,-3.6946795185529453],[134.90798950195312,-3.691938640767816],[134.90421295166016,-3.690910809416863],[134.90215301513672,-3.6765210457646873],[134.8963165283203,-3.678234125060982],[134.89837646484375,-3.671039169907729],[134.9018096923828,-3.668983457783],[134.90352630615234,-3.6686408386356533],[134.90455627441406,-3.669326076798967],[134.90558624267578,-3.667955599946893],[134.9073028564453,-3.6682982193569416],[134.9069595336914,-3.669326076798967],[134.90936279296875,-3.670011314436721],[134.91107940673828,-3.672409642028711],[134.91039276123047,-3.673094877300258],[134.9114227294922,-3.673094877300258],[134.9114227294922,-3.670696551548815],[134.9127960205078,-3.6686408386356533],[134.90936279296875,-3.664872019347513],[134.9114227294922,-3.6559638379377617],[134.9127960205078,-3.65425071597582],[134.92034912109375,-3.651509714033068],[134.9237823486328,-3.648083449837472],[134.92721557617188,-3.647740822699248],[134.92687225341797,-3.6463703128402045],[134.92755889892578,-3.646027685048992]]]}},{"type":"Feature","id":"pmtiles:8/223/130:water:4954528282:0","properties":{"intermittent":0,"class":"lake","id":495452828,"water":"lake","kind":"waterway","verification":"verified","source":"OpenMapTiles/OpenStreetMap national PMTiles","sourceId":"8/223/130:water:4954528282:0","sourceLayer":"water","archive":"https://its.hanifahseptiani45.workers.dev/v1/map/archive/indonesia.pmtiles","updatedAt":"2026-07-26T09:35:38.988Z"},"geometry":{"type":"Polygon","coordinates":[[[134.92515563964844,-3.788892002378347],[134.9279022216797,-3.785123698294541],[134.93064880371094,-3.782725678066612],[134.93579864501953,-3.7837534018342467],[134.93820190429688,-3.783068252791267],[134.93820190429688,-3.7789573471600164],[134.9395751953125,-3.781355377813881],[134.9402618408203,-3.7806702268751877],[134.94094848632812,-3.7810128024122065],[134.94197845458984,-3.7786147708110605],[134.9447250366211,-3.776559309876859],[134.9454116821289,-3.777244464062562],[134.94300842285156,-3.778272194326817],[134.94163513183594,-3.7806702268751877],[134.94232177734375,-3.7816979530801547],[134.94300842285156,-3.7810128024122065],[134.9457550048828,-3.785123698294541],[134.9443817138672,-3.787179138919413],[134.94609832763672,-3.789919718826056],[134.94712829589844,-3.79094743405264],[134.94884490966797,-3.790604862446145],[134.94918823242188,-3.791632576858433],[134.9512481689453,-3.7919751480577304],[134.95193481445312,-3.7930028608410424],[134.95502471923828,-3.7926602900490423],[134.95880126953125,-3.794030572402221],[134.95880126953125,-3.7957434222874724],[134.9608612060547,-3.796771130588027],[134.9622344970703,-3.7995116800745734],[134.96326446533203,-3.7988265435188424],[134.96292114257812,-3.7998542481484208],[134.96395111083984,-3.800881951553677],[134.96360778808594,-3.8029373546899308],[134.96463775634766,-3.8049927529249317],[134.96601104736328,-3.8053353188207524],[134.96360778808594,-3.8056778845803336],[134.9666976928711,-3.807390711334321],[134.96875762939453,-3.8067055810415553],[134.96910095214844,-3.807390711334321],[134.9673843383789,-3.8084184057511834],[134.96395111083984,-3.807390711334321],[134.95708465576172,-3.7988265435188424],[134.9502182006836,-3.800539383887994],[134.94609832763672,-3.7995116800745734],[134.94644165039062,-3.7974562687754627],[134.9447250366211,-3.7974562687754627],[134.94644165039062,-3.794715712763889],[134.94197845458984,-3.7895771468124764],[134.9282455444336,-3.7930028608410424],[134.92652893066406,-3.7930028608410424],[134.92515563964844,-3.788892002378347]]]}},{"type":"Feature","id":"pmtiles:8/223/130:water:4954528302:0","properties":{"intermittent":0,"class":"lake","id":495452830,"water":"lake","kind":"waterway","verification":"verified","source":"OpenMapTiles/OpenStreetMap national PMTiles","sourceId":"8/223/130:water:4954528302:0","sourceLayer":"water","archive":"https://its.hanifahseptiani45.workers.dev/v1/map/archive/indonesia.pmtiles","updatedAt":"2026-07-26T09:35:38.989Z"},"geometry":{"type":"Polygon","coordinates":[[[135.0168228149414,-3.8563761081974803],[135.01922607421875,-3.8615142735703785],[135.02197265625,-3.8628844457521296],[135.02197265625,-3.864254615721393],[135.0212860107422,-3.8659673250705424],[135.02197265625,-3.8666524078415847],[135.02197265625,-3.8721330500701896],[135.02059936523438,-3.876243508458302],[135.01956939697266,-3.8769285829143314],[135.01785278320312,-3.876586045755687],[135.0164794921875,-3.874188281760482],[135.01510620117188,-3.873845743492069],[135.01270294189453,-3.8697352734583603],[135.01270294189453,-3.8721330500701896],[135.0106430053711,-3.874530819890225],[135.0048065185547,-3.874530819890225],[135.00308990478516,-3.8759009710221335],[135.00137329101562,-3.875558433447239],[135.00137329101562,-3.874530819890225],[135,-3.8735032050849725],[135.0006866455078,-3.872818127854856],[134.9996566772461,-3.8714479717310866],[134.99794006347656,-3.8714479717310866],[134.99656677246094,-3.8680225717225767],[134.98661041259766,-3.8666524078415847],[134.98626708984375,-3.8639120734365378],[134.98695373535156,-3.8611717301793362],[134.98626708984375,-3.8615142735703785],[134.98592376708984,-3.8601440991769778],[134.9842071533203,-3.8608291866500792],[134.9835205078125,-3.859459011151131],[134.97940063476562,-3.8615142735703785],[134.97802734375,-3.8601440991769778],[134.97596740722656,-3.8601440991769778],[134.97493743896484,-3.8621993599377618],[134.97562408447266,-3.8615142735703785],[134.9776840209961,-3.8663098665252704],[134.97699737548828,-3.8673374900589437],[134.97390747070312,-3.8680225717225767],[134.9725341796875,-3.8673374900589437],[134.9721908569336,-3.8659673250705424],[134.96498107910156,-3.8621993599377618],[134.96257781982422,-3.8584313780762187],[134.96463775634766,-3.8580888334416557],[134.96532440185547,-3.855348471394322],[134.96978759765625,-3.8567186535224636],[134.97459411621094,-3.857061198709374],[134.9776840209961,-3.854320833349064],[134.98146057128906,-3.852950647357133],[134.98523712158203,-3.8556910171334096],[134.99073028564453,-3.854320833349064],[134.99176025390625,-3.8550059255172187],[134.99210357666016,-3.8536357406290023],[134.99038696289062,-3.8495251727242845],[134.9893569946289,-3.8491826245028875],[134.99244689941406,-3.848497527646714],[134.99313354492188,-3.8467847830956003],[134.9945068359375,-3.8464422337722084],[134.99656677246094,-3.849867720807893],[135.00171661376953,-3.8467847830956003],[135.00205993652344,-3.848497527646714],[135.0006866455078,-3.8508953642317607],[135.00102996826172,-3.852608100514331],[135.00789642333984,-3.8495251727242845],[135.00995635986328,-3.849867720807893],[135.0102996826172,-3.8519230064149497],[135.0113296508789,-3.851580459158427],[135.0102996826172,-3.853293194062033],[135.01476287841797,-3.853293194062033],[135.0161361694336,-3.8519230064149497],[135.01544952392578,-3.854320833349064],[135.0164794921875,-3.8550059255172187],[135.0168228149414,-3.854320833349064],[135.0168228149414,-3.8563761081974803]]]}}]}