{"type":"FeatureCollection","features":[{"type":"Feature","id":"pmtiles:10/885/530:mountain_peak:10701623081:0","properties":{"name_int":"Melwuarniweyar","name_de":"Melwuarniweyar","name":"Melwuarniweyar","rank":1,"class":"peak","name:latin":"Melwuarniweyar","name_en":"Melwuarniweyar","kind":"poi","verification":"verified","source":"OpenMapTiles/OpenStreetMap national PMTiles","sourceId":"10/885/530:mountain_peak:10701623081:0","sourceLayer":"mountain_peak","archive":"https://its.hanifahseptiani45.workers.dev/v1/map/archive/indonesia.pmtiles","updatedAt":"2026-07-26T09:45:03.136Z"},"geometry":{"type":"Point","coordinates":[131.56668663024902,-6.68336235498812]}},{"type":"Feature","id":"pmtiles:10/886/530:mountain_peak:10701623081:0","properties":{"name_int":"Melwuarniweyar","name_de":"Melwuarniweyar","name":"Melwuarniweyar","rank":1,"class":"peak","name:latin":"Melwuarniweyar","name_en":"Melwuarniweyar","kind":"poi","verification":"verified","source":"OpenMapTiles/OpenStreetMap national PMTiles","sourceId":"10/886/530:mountain_peak:10701623081:0","sourceLayer":"mountain_peak","archive":"https://its.hanifahseptiani45.workers.dev/v1/map/archive/indonesia.pmtiles","updatedAt":"2026-07-26T09:45:03.201Z"},"geometry":{"type":"Point","coordinates":[131.56668663024902,-6.68336235498812]}},{"type":"Feature","id":"pmtiles:10/886/530:park:11250182442:0","properties":{"name":"Suaka Alam Tafermaar","name_int":"Tafermaar Protected Area","class":"protected_area","name:latin":"Suaka Alam Tafermaar","name_de":"Suaka Alam Tafermaar","name_en":"Tafermaar Protected Area","kind":"green","verification":"verified","source":"OpenMapTiles/OpenStreetMap national PMTiles","sourceId":"10/886/530:park:11250182442:0","sourceLayer":"park","archive":"https://its.hanifahseptiani45.workers.dev/v1/map/archive/indonesia.pmtiles","updatedAt":"2026-07-26T09:45:03.201Z"},"geometry":{"type":"Polygon","coordinates":[[[131.57904624938965,-6.668614328234312],[131.58136367797852,-6.669552077263319],[131.58187866210938,-6.669381577573347],[131.58299446105957,-6.669552077263319],[131.5835952758789,-6.670063575977267],[131.5748405456543,-6.670063575977267],[131.5748405456543,-6.669978326228687],[131.57544136047363,-6.6690405780154265],[131.5770721435547,-6.668443828218045],[131.57750129699707,-6.668614328234312],[131.57827377319336,-6.668358578187679],[131.57904624938965,-6.668614328234312]]]}},{"type":"Feature","id":"pmtiles:10/885/531:mountain_peak:10701623081:0","properties":{"name_int":"Melwuarniweyar","name_de":"Melwuarniweyar","name":"Melwuarniweyar","rank":1,"class":"peak","name:latin":"Melwuarniweyar","name_en":"Melwuarniweyar","kind":"poi","verification":"verified","source":"OpenMapTiles/OpenStreetMap national PMTiles","sourceId":"10/885/531:mountain_peak:10701623081:0","sourceLayer":"mountain_peak","archive":"https://its.hanifahseptiani45.workers.dev/v1/map/archive/indonesia.pmtiles","updatedAt":"2026-07-26T09:45:13.082Z"},"geometry":{"type":"Point","coordinates":[131.56668663024902,-6.68336235498812]}},{"type":"Feature","id":"pmtiles:10/885/531:mountain_peak:10701739271:0","properties":{"name_int":"Kelyobarwahan","name_de":"Kelyobarwahan","name":"Kelyobarwahan","rank":1,"class":"peak","name:latin":"Kelyobarwahan","name_en":"Kelyobarwahan","kind":"poi","verification":"verified","source":"OpenMapTiles/OpenStreetMap national PMTiles","sourceId":"10/885/531:mountain_peak:10701739271:0","sourceLayer":"mountain_peak","archive":"https://its.hanifahseptiani45.workers.dev/v1/map/archive/indonesia.pmtiles","updatedAt":"2026-07-26T09:45:13.082Z"},"geometry":{"type":"Point","coordinates":[131.56668663024902,-6.766641966900423]}},{"type":"Feature","id":"pmtiles:10/886/531:mountain_peak:10701623081:0","properties":{"name_int":"Melwuarniweyar","name_de":"Melwuarniweyar","name":"Melwuarniweyar","rank":1,"class":"peak","name:latin":"Melwuarniweyar","name_en":"Melwuarniweyar","kind":"poi","verification":"verified","source":"OpenMapTiles/OpenStreetMap national PMTiles","sourceId":"10/886/531:mountain_peak:10701623081:0","sourceLayer":"mountain_peak","archive":"https://its.hanifahseptiani45.workers.dev/v1/map/archive/indonesia.pmtiles","updatedAt":"2026-07-26T09:45:13.139Z"},"geometry":{"type":"Point","coordinates":[131.56668663024902,-6.68336235498812]}},{"type":"Feature","id":"pmtiles:10/886/531:mountain_peak:10701739271:0","properties":{"name_int":"Kelyobarwahan","name_de":"Kelyobarwahan","name":"Kelyobarwahan","rank":1,"class":"peak","name:latin":"Kelyobarwahan","name_en":"Kelyobarwahan","kind":"poi","verification":"verified","source":"OpenMapTiles/OpenStreetMap national PMTiles","sourceId":"10/886/531:mountain_peak:10701739271:0","sourceLayer":"mountain_peak","archive":"https://its.hanifahseptiani45.workers.dev/v1/map/archive/indonesia.pmtiles","updatedAt":"2026-07-26T09:45:13.139Z"},"geometry":{"type":"Point","coordinates":[131.56668663024902,-6.766641966900423]}},{"type":"Feature","id":"pmtiles:10/886/531:park:11250182442:0","properties":{"name":"Suaka Alam Tafermaar","name_int":"Tafermaar Protected Area","class":"protected_area","name:latin":"Suaka Alam Tafermaar","name_de":"Suaka Alam Tafermaar","name_en":"Tafermaar Protected Area","kind":"green","verification":"verified","source":"OpenMapTiles/OpenStreetMap national PMTiles","sourceId":"10/886/531:park:11250182442:0","sourceLayer":"park","archive":"https://its.hanifahseptiani45.workers.dev/v1/map/archive/indonesia.pmtiles","updatedAt":"2026-07-26T09:45:13.139Z"},"geometry":{"type":"Polygon","coordinates":[[[131.57904624938965,-6.668614328234312],[131.58136367797852,-6.669552077263319],[131.58187866210938,-6.669381577573347],[131.58299446105957,-6.669552077263319],[131.58376693725586,-6.670234075429903],[131.58514022827148,-6.6704045748232375],[131.585054397583,-6.670660323801954],[131.58608436584473,-6.67117182135884],[131.58634185791016,-6.672024316100121],[131.58737182617188,-6.672791560098645],[131.58977508544922,-6.67313255704552],[131.59552574157715,-6.674667040367936],[131.59818649291992,-6.674837538218014],[131.60093307495117,-6.675690026577797],[131.60496711730957,-6.676457264832294],[131.60676956176758,-6.6772245018841545],[131.6085720062256,-6.677480247300849],[131.6107177734375,-6.677565495743366],[131.61088943481445,-6.677394998843468],[131.61080360412598,-6.6771392533822365],[131.61131858825684,-6.676798259226047],[131.61243438720703,-6.676713010649877],[131.6132926940918,-6.676883507787366],[131.61389350891113,-6.677480247300849],[131.61389350891113,-6.677991737733265],[131.61449432373047,-6.678076986086694],[131.6168975830078,-6.677480247300849],[131.61741256713867,-6.676883507787366],[131.61792755126953,-6.676798259226047],[131.61861419677734,-6.6771392533822365],[131.61792755126953,-6.677309750371251],[131.6205883026123,-6.677565495743366],[131.62307739257812,-6.678929468804142],[131.62359237670898,-6.67952620582264],[131.6238498687744,-6.6826803751134065],[131.62419319152832,-6.683959086598236],[131.62470817565918,-6.684385323016684],[131.62299156188965,-6.686260758842778],[131.62213325500488,-6.688136187472438],[131.62410736083984,-6.692057514980135],[131.62410736083984,-6.692398498492921],[131.6238498687744,-6.692483744333927],[131.62376403808594,-6.691887023134456],[131.62359237670898,-6.692654235971261],[131.62402153015137,-6.693932921353664],[131.62436485290527,-6.6965755271966],[131.62376403808594,-6.697086997642501],[131.62342071533203,-6.6965755271966],[131.62333488464355,-6.697683712485073],[131.62290573120117,-6.698536160994237],[131.62256240844727,-6.698450916210348],[131.62264823913574,-6.6987918952565195],[131.62230491638184,-6.698621405763234],[131.6223907470703,-6.699303363378917],[131.62187576293945,-6.699303363378917],[131.62161827087402,-6.699559097239003],[131.62187576293945,-6.701604963292368],[131.62178993225098,-6.702031184306492],[131.62153244018555,-6.702031184306492],[131.6213607788086,-6.702627893100342],[131.6209316253662,-6.702627893100342],[131.62118911743164,-6.703224601163868],[131.6210174560547,-6.703991796172318],[131.62075996398926,-6.703736064636999],[131.6202449798584,-6.703991796172318],[131.6195583343506,-6.705696669645533],[131.6176700592041,-6.706975320836349],[131.6173267364502,-6.707572023577072],[131.61569595336914,-6.707145807408281],[131.61423683166504,-6.707316293920542],[131.6132926940918,-6.70816872558693],[131.6128635406494,-6.708253968671542],[131.61174774169922,-6.7089359128113415],[131.61080360412598,-6.707742509940189],[131.61011695861816,-6.707316293920542],[131.60951614379883,-6.708594940860792],[131.60917282104492,-6.7080834824874245],[131.60943031311035,-6.707657266766091],[131.6085720062256,-6.707401537154297],[131.60822868347168,-6.7079129962436355],[131.60934448242188,-6.709447370289638],[131.60908699035645,-6.709617855996385],[131.60917282104492,-6.7107260116354865],[131.6081428527832,-6.711066982094039],[131.60719871520996,-6.712004649623864],[131.60436630249023,-6.716863443348416],[131.60367965698242,-6.717289651009764],[131.603422164917,-6.717119167990035],[131.60325050354004,-6.717289651009764],[131.60282135009766,-6.718142065212163],[131.60213470458984,-6.718909236717124],[131.6018772125244,-6.718909236717124],[131.60179138183594,-6.719335442585887],[131.60101890563965,-6.719164960283194],[131.60067558288574,-6.719505924828795],[131.59981727600098,-6.720699298855692],[131.5997314453125,-6.721210743970616],[131.59921646118164,-6.721636947822077],[131.59852981567383,-6.721636947822077],[131.59852981567383,-6.722063151299864],[131.59698486328125,-6.7235122403292],[131.5971565246582,-6.723938442162677],[131.59621238708496,-6.724449883869454],[131.59707069396973,-6.7245351241015925],[131.59664154052734,-6.725728485781389],[131.59732818603516,-6.725217045420365],[131.59801483154297,-6.723853201825875],[131.59852981567383,-6.723938442162677],[131.59870147705078,-6.724620364318767],[131.59964561462402,-6.726154685670991],[131.60058975219727,-6.726239925604034],[131.60101890563965,-6.727603762498745],[131.60016059875488,-6.728200439936018],[131.60016059875488,-6.72888235610958],[131.59955978393555,-6.729393792611376],[131.59870147705078,-6.729223313837281],[131.59870147705078,-6.728711877155959],[131.59810066223145,-6.728626637656703],[131.5974998474121,-6.728200439936018],[131.59561157226562,-6.729819989284707],[131.59552574157715,-6.730075707109151],[131.59440994262695,-6.730160946354033],[131.59380912780762,-6.729905228574495],[131.59363746643066,-6.7297347499799685],[131.59406661987305,-6.72888235610958],[131.59380912780762,-6.728711877155959],[131.59380912780762,-6.728200439936018],[131.59423828125,-6.727348043372658],[131.59380912780762,-6.726666125044957],[131.59260749816895,-6.72598420576],[131.59106254577637,-6.724279403360342],[131.59037590026855,-6.7245351241015925],[131.59011840820312,-6.724364643622366],[131.59029006958008,-6.723171278593313],[131.58977508544922,-6.723341759491163],[131.5887451171875,-6.722659835541023],[131.58754348754883,-6.722574594979989],[131.58608436584473,-6.722148391950583],[131.5865993499756,-6.720955021480407],[131.58634185791016,-6.719335442585887],[131.5865993499756,-6.718653513016591],[131.5865135192871,-6.717545375427335],[131.58574104309082,-6.71720440950736],[131.58488273620605,-6.716437235313705],[131.58342361450195,-6.715925785179195],[131.58350944519043,-6.714988125203021],[131.58299446105957,-6.714732399441402],[131.5825653076172,-6.7149028832974125],[131.58187866210938,-6.714391431550197],[131.58076286315918,-6.7133685264434035],[131.5799903869629,-6.7129423153477745],[131.57973289489746,-6.712345619186962],[131.57947540283203,-6.712686588511275],[131.57861709594727,-6.712516103878983],[131.57835960388184,-6.712089892037028],[131.57767295837402,-6.712089892037028],[131.57647132873535,-6.711237467233772],[131.57655715942383,-6.711066982094039],[131.5748405456543,-6.711493194831448],[131.57235145568848,-6.71311279983081],[131.5667724609375,-6.7108112542725],[131.56428337097168,-6.70902115576169],[131.5646266937256,-6.7080834824874245],[131.5645408630371,-6.706037643624498],[131.56368255615234,-6.705526182566601],[131.56479835510254,-6.703139357199504],[131.56479835510254,-6.701604963292368],[131.56522750854492,-6.70007056455691],[131.56514167785645,-6.6987918952565195],[131.5645408630371,-6.697854202306061],[131.56402587890625,-6.697427977641908],[131.56333923339844,-6.697001752605402],[131.56316757202148,-6.69725748767199],[131.56265258789062,-6.697086997642501],[131.56282424926758,-6.696746017404806],[131.56265258789062,-6.6959788109988665],[131.56230926513672,-6.695808320522659],[131.56248092651367,-6.695382094071533],[131.56230926513672,-6.694359149070237],[131.56136512756348,-6.694018166926753],[131.5598201751709,-6.693250956233129],[131.5601634979248,-6.692995219067342],[131.56024932861328,-6.692654235971261],[131.56024932861328,-6.691460793259822],[131.5605926513672,-6.69103456301319],[131.5605068206787,-6.690267347631888],[131.56042098999023,-6.69001160890366],[131.55973434448242,-6.690096855161272],[131.55956268310547,-6.689244391915608],[131.55887603759766,-6.688391927182423],[131.55939102172852,-6.687198474057297],[131.56024932861328,-6.686772240091926],[131.5598201751709,-6.686431252651985],[131.5601634979248,-6.685493535965449],[131.56188011169434,-6.6841295812102],[131.56282424926758,-6.682509879996118],[131.56394004821777,-6.681316412510768],[131.56848907470703,-6.67875897237947],[131.56960487365723,-6.677821240981871],[131.57020568847656,-6.676457264832294],[131.57089233398438,-6.676116270200978],[131.57140731811523,-6.674411293481469],[131.5733814239502,-6.672535812232695],[131.5744972229004,-6.672024316100121],[131.5748405456543,-6.669978326228687],[131.57544136047363,-6.6690405780154265],[131.5770721435547,-6.668443828218045],[131.57750129699707,-6.668614328234312],[131.57827377319336,-6.668358578187679],[131.57904624938965,-6.668614328234312]]]}},{"type":"Feature","id":"pmtiles:10/886/531:transportation:13612285662:0","properties":{"class":"ferry","highway":"ferry","kind":"road","verification":"verified","source":"OpenMapTiles/OpenStreetMap national PMTiles","sourceId":"10/886/531:transportation:13612285662:0","sourceLayer":"transportation","archive":"https://its.hanifahseptiani45.workers.dev/v1/map/archive/indonesia.pmtiles","updatedAt":"2026-07-26T09:45:13.140Z"},"geometry":{"type":"LineString","coordinates":[[131.77242279052734,-7.019119954643813],[131.8414306640625,-6.89404811060416]]}},{"type":"Feature","id":"pmtiles:10/886/531:water:2340:0","properties":{"class":"ocean","water":"ocean","kind":"waterway","verification":"verified","source":"OpenMapTiles/OpenStreetMap national PMTiles","sourceId":"10/886/531:water:2340:0","sourceLayer":"water","archive":"https://its.hanifahseptiani45.workers.dev/v1/map/archive/indonesia.pmtiles","updatedAt":"2026-07-26T09:45:13.140Z"},"geometry":{"type":"Polygon","coordinates":[[[131.4788818359375,-6.873682455499107],[131.4788818359375,-6.659151487659315],[131.58968925476074,-6.659151487659315],[131.5898609161377,-6.659236739290222],[131.59217834472656,-6.660259757705759],[131.59380912780762,-6.660004003301822],[131.59509658813477,-6.659151487659315],[131.8414306640625,-6.659151487659315],[131.8414306640625,-7.019119954643813],[131.4788818359375,-7.019119954643813],[131.4788818359375,-6.923785506950637],[131.47974014282227,-6.924381939880817],[131.48162841796875,-6.9231038683929285],[131.4818000793457,-6.9223370238385655],[131.48540496826172,-6.921740588323658],[131.4876365661621,-6.920377304316517],[131.49012565612793,-6.916202222556308],[131.49158477783203,-6.91475371617895],[131.4927864074707,-6.912879171921773],[131.493558883667,-6.912197517620982],[131.49338722229004,-6.910152548820079],[131.4942455291748,-6.909470890587301],[131.4957046508789,-6.9089596462677605],[131.4961338043213,-6.908192778752053],[131.49561882019043,-6.907937155970444],[131.4957046508789,-6.907681533050692],[131.4964771270752,-6.9070850790339335],[131.49579048156738,-6.906999871255849],[131.4968204498291,-6.905806960751022],[131.49621963500977,-6.905721752742721],[131.49673461914062,-6.90521050437053],[131.4975070953369,-6.90521050437053],[131.49853706359863,-6.902995088374226],[131.5005111694336,-6.9005240352205846],[131.50068283081055,-6.899160690028353],[131.50274276733398,-6.898479015960191],[131.504545211792,-6.898479015960191],[131.50548934936523,-6.897967759765152],[131.5055751800537,-6.895411470512272],[131.50875091552734,-6.8897875856135755],[131.50900840759277,-6.889020687049083],[131.50875091552734,-6.888253787244395],[131.5100383758545,-6.887742520019017],[131.5100383758545,-6.887231252242543],[131.51046752929688,-6.886038291954492],[131.51132583618164,-6.885186175626458],[131.5121841430664,-6.8852713873281175],[131.51175498962402,-6.88501575217721],[131.51269912719727,-6.883907998265229],[131.51226997375488,-6.883652362379863],[131.51235580444336,-6.882715029622176],[131.51269912719727,-6.881862907327161],[131.51381492614746,-6.880755146057012],[131.51347160339355,-6.880243870752906],[131.51432991027832,-6.879476956764549],[131.51467323303223,-6.879050892902541],[131.51432991027832,-6.878369189928264],[131.51390075683594,-6.878113551060665],[131.51372909545898,-6.877687485975585],[131.51415824890137,-6.8773466336323565],[131.51304244995117,-6.876750141443225],[131.51226997375488,-6.876068435167184],[131.5121841430664,-6.875471941373277],[131.51244163513184,-6.874619806083103],[131.51347160339355,-6.874534592470042],[131.51278495788574,-6.8732563864407155],[131.51098251342773,-6.871978176974139],[131.51021003723145,-6.871722534668422],[131.50883674621582,-6.870614749755234],[131.50883674621582,-6.870018249117621],[131.50797843933105,-6.869506962261283],[131.50497436523438,-6.868654816279275],[131.5048885345459,-6.8689956748552845],[131.50403022766113,-6.8692513186269935],[131.50222778320312,-6.8691661040517005],[131.5015411376953,-6.8689956748552845],[131.50102615356445,-6.868399172186955],[131.50042533874512,-6.86831395745898],[131.50025367736816,-6.868825245597819],[131.49742126464844,-6.867973098394444],[131.49596214294434,-6.868740030946171],[131.49252891540527,-6.868484386899652],[131.4906406402588,-6.867717453935768],[131.48858070373535,-6.867717453935768],[131.48497581481934,-6.868228742715743],[131.4840316772461,-6.8692513186269935],[131.48265838623047,-6.871126035420488],[131.4806842803955,-6.87291553091903],[131.4792251586914,-6.87376766926495],[131.4788818359375,-6.873682455499107]],[[131.54866218566895,-6.791699763705864],[131.5491771697998,-6.791614535313798],[131.55132293701172,-6.792040677123211],[131.55200958251953,-6.791784992082853],[131.5528678894043,-6.790932707633587],[131.55312538146973,-6.789739506868358],[131.55372619628906,-6.788546303144585],[131.55475616455078,-6.78786447111716],[131.55595779418945,-6.7862451161815045],[131.55638694763184,-6.786159886823484],[131.55681610107422,-6.786415574852285],[131.55741691589355,-6.784966674227192],[131.55844688415527,-6.7847962150434995],[131.55853271484375,-6.784455296495125],[131.5579319000244,-6.784199607425492],[131.5575885772705,-6.783858688454785],[131.55784606933594,-6.783432539402099],[131.5583610534668,-6.783517769242778],[131.55921936035156,-6.784455296495125],[131.559476852417,-6.784284837130443],[131.559476852417,-6.783517769242778],[131.56007766723633,-6.783262079675453],[131.56136512756348,-6.783517769242778],[131.56145095825195,-6.783858688454785],[131.56170845031738,-6.784029147970301],[131.5623950958252,-6.783688228878944],[131.5627384185791,-6.783858688454785],[131.56282424926758,-6.784455296495125],[131.56230926513672,-6.7852223628895985],[131.5609359741211,-6.784966674227192],[131.5605926513672,-6.7853075924135595],[131.56145095825195,-6.786074657450385],[131.56179428100586,-6.786671262745287],[131.5616226196289,-6.787694012959392],[131.56188011169434,-6.788631532080103],[131.56179428100586,-6.790677022004417],[131.56265258789062,-6.791103164644227],[131.56471252441406,-6.789483820605156],[131.56557083129883,-6.788034929214561],[131.56814575195312,-6.787779242045815],[131.5696907043457,-6.786926950502519],[131.56994819641113,-6.786415574852285],[131.5719223022461,-6.785051903796415],[131.57269477844238,-6.785137133350531],[131.57398223876953,-6.784114377705436],[131.57458305358887,-6.784029147970301],[131.57492637634277,-6.783602999068407],[131.57544136047363,-6.783347309546315],[131.5756130218506,-6.782750700133576],[131.57638549804688,-6.781898399690817],[131.57750129699707,-6.781557479091532],[131.57767295837402,-6.7812165582510175],[131.58170700073242,-6.778233490608542],[131.58385276794434,-6.776102716704244],[131.585054397583,-6.774398090801498],[131.58531188964844,-6.773971933384445],[131.58496856689453,-6.773886701855858],[131.585054397583,-6.773204849084976],[131.5854835510254,-6.772693458874343],[131.58591270446777,-6.772778690613762],[131.5861701965332,-6.771670676826943],[131.58591270446777,-6.771244517000667],[131.58642768859863,-6.770392196219078],[131.58642768859863,-6.7686875501403705],[131.58745765686035,-6.767068130790079],[131.58754348754883,-6.764937307580908],[131.58831596374512,-6.76289170845628],[131.58857345581055,-6.761357503429096],[131.59037590026855,-6.759738059505338],[131.59071922302246,-6.759652825464315],[131.5908908843994,-6.758885718418796],[131.59192085266113,-6.757181031737744],[131.59226417541504,-6.757181031737744],[131.592435836792,-6.7569253282172355],[131.5916633605957,-6.756669624561525],[131.59123420715332,-6.756072982172427],[131.59046173095703,-6.756328686143604],[131.59011840820312,-6.756158216844511],[131.58823013305664,-6.75428305058918],[131.58677101135254,-6.75377164034893],[131.5853977203369,-6.75377164034893],[131.58308029174805,-6.75300452397498],[131.58222198486328,-6.753345464735773],[131.5824794769287,-6.753601170148727],[131.58222198486328,-6.7540273455366275],[131.5799903869629,-6.755220634625502],[131.57870292663574,-6.756328686143604],[131.57750129699707,-6.756499155382613],[131.57621383666992,-6.757777672759758],[131.57320976257324,-6.758970952595064],[131.57209396362305,-6.758459547312],[131.57140731811523,-6.757777672759758],[131.5696907043457,-6.757777672759758],[131.56917572021484,-6.757351500676293],[131.5689182281494,-6.756584389979579],[131.5682315826416,-6.756669624561525],[131.56702995300293,-6.757521969554745],[131.56668663024902,-6.758033375829541],[131.56780242919922,-6.759823293531326],[131.56763076782227,-6.760931334501564],[131.56522750854492,-6.76280647497147],[131.56445503234863,-6.76297694192607],[131.5641975402832,-6.76280647497147],[131.5645408630371,-6.761783671980794],[131.56514167785645,-6.760760866825322],[131.56539916992188,-6.759311889149927],[131.56488418579102,-6.759056186756325],[131.56411170959473,-6.759652825464315],[131.5638542175293,-6.759567591408256],[131.5634250640869,-6.758630015799795],[131.56394004821777,-6.756499155382613],[131.56376838684082,-6.755817278066061],[131.56325340270996,-6.755561573824522],[131.56102180480957,-6.755646808586718],[131.56085014343262,-6.755476339047291],[131.56248092651367,-6.752748818246744],[131.5623950958252,-6.752578347686168],[131.56179428100586,-6.752663582973952],[131.56188011169434,-6.751981700251264],[131.5601634979248,-6.753515935026087],[131.559476852417,-6.752748818246744],[131.55879020690918,-6.753345464735773],[131.5580177307129,-6.753089759187702],[131.55810356140137,-6.752663582973952],[131.56076431274414,-6.7496803389694975],[131.5605068206787,-6.749595103156338],[131.55861854553223,-6.751129345496821],[131.55784606933594,-6.751044109938803],[131.55784606933594,-6.750617931923642],[131.55896186828613,-6.748657508221257],[131.55896186828613,-6.746952785506139],[131.5583610534668,-6.7455890030136345],[131.55638694763184,-6.744480926911251],[131.55630111694336,-6.744054743120131],[131.55715942382812,-6.74294666350886],[131.55741691589355,-6.742179529986018],[131.55707359313965,-6.74149763250189],[131.5572452545166,-6.740730496685572],[131.55673027038574,-6.740304309596382],[131.55818939208984,-6.7401338346557935],[131.55939102172852,-6.7384290819532],[131.55999183654785,-6.73817336853088],[131.56085014343262,-6.736639085165493],[131.56119346618652,-6.73357050387655],[131.5609359741211,-6.73092809888459],[131.56110763549805,-6.7306723815090805],[131.5616226196289,-6.730842859774384],[131.56222343444824,-6.730075707109151],[131.56282424926758,-6.730075707109151],[131.56230926513672,-6.72888235610958],[131.56291007995605,-6.726495645313463],[131.56282424926758,-6.724449883869454],[131.56325340270996,-6.723767961474138],[131.56514167785645,-6.721977910634209],[131.5659999847412,-6.720358335146855],[131.56763076782227,-6.718227306550261],[131.57175064086914,-6.713965221350307],[131.57363891601562,-6.71243086154044],[131.5751838684082,-6.711493194831448],[131.57647132873535,-6.711237467233772],[131.57715797424316,-6.711322709781257],[131.57930374145508,-6.712516103878983],[131.58093452453613,-6.71302755759676],[131.58411026000977,-6.715584818124185],[131.58668518066406,-6.717289651009764],[131.58711433410645,-6.718227306550261],[131.58702850341797,-6.722063151299864],[131.5902042388916,-6.723171278593313],[131.59080505371094,-6.723682721107437],[131.59080505371094,-6.724449883869454],[131.59183502197266,-6.724364643622366],[131.59295082092285,-6.725643245758604],[131.59432411193848,-6.726580885186692],[131.59466743469238,-6.727433283096303],[131.59423828125,-6.729819989284707],[131.596040725708,-6.730075707109151],[131.59612655639648,-6.72947903197597],[131.59810066223145,-6.728200439936018],[131.59930229187012,-6.728626637656703],[131.59930229187012,-6.729138074427809],[131.6000747680664,-6.729308553231817],[131.6005039215088,-6.729052835003358],[131.60058975219727,-6.728370919069178],[131.6015338897705,-6.727603762498745],[131.60110473632812,-6.726325165522127],[131.59990310668945,-6.725898965782079],[131.59921646118164,-6.7241941630833395],[131.59878730773926,-6.723938442162677],[131.59835815429688,-6.724023682484514],[131.59784317016602,-6.725217045420365],[131.5975856781006,-6.725387525600524],[131.5974998474121,-6.723767961474138],[131.59775733947754,-6.723341759491163],[131.603422164917,-6.718056823859158],[131.60393714904785,-6.717289651009764],[131.60479545593262,-6.717374892497219],[131.60496711730957,-6.716437235313705],[131.60797119140625,-6.711493194831448],[131.6092586517334,-6.7108112542725],[131.61088943481445,-6.709532613150472],[131.61500930786133,-6.707316293920542],[131.61612510681152,-6.707316293920542],[131.6173267364502,-6.70816872558693],[131.61852836608887,-6.707742509940189],[131.61904335021973,-6.706975320836349],[131.6194725036621,-6.70689007752803],[131.62007331848145,-6.705781913162639],[131.6205883026123,-6.704077039987624],[131.62118911743164,-6.703736064636999],[131.62161827087402,-6.703991796172318],[131.6217041015625,-6.702883625216998],[131.6223907470703,-6.701604963292368],[131.62230491638184,-6.699644341829227],[131.62290573120117,-6.6992181187290925],[131.62290573120117,-6.698877139980837],[131.6235065460205,-6.698450916210348],[131.6239356994629,-6.697086997642501],[131.62436485290527,-6.697001752605402],[131.62479400634766,-6.696490282070187],[131.6242790222168,-6.6929099733156505],[131.6246223449707,-6.691972269064735],[131.6228199005127,-6.688136187472438],[131.62342071533203,-6.686005018017497],[131.62513732910156,-6.684470570255783],[131.62436485290527,-6.682850870171251],[131.62436485290527,-6.682168889583195],[131.62479400634766,-6.681486908044121],[131.62445068359375,-6.68106066909931],[131.62445068359375,-6.68029343806262],[131.62419319152832,-6.679781950036315],[131.62453651428223,-6.678929468804142],[131.6239356994629,-6.678673724144858],[131.62359237670898,-6.678076986086694],[131.6224765777588,-6.678076986086694],[131.62110328674316,-6.677054004865468],[131.6202449798584,-6.676968756333849],[131.61921501159668,-6.6771392533822365],[131.6183567047119,-6.676798259226047],[131.61784172058105,-6.676968756333849],[131.6173267364502,-6.677650744171061],[131.61535263061523,-6.678076986086694],[131.6147518157959,-6.677991737733265],[131.61423683166504,-6.6771392533822365],[131.61320686340332,-6.676713010649877],[131.6118335723877,-6.676798259226047],[131.6110610961914,-6.677480247300849],[131.61054611206055,-6.677650744171061],[131.60676956176758,-6.6772245018841545],[131.59870147705078,-6.675093284881811],[131.59629821777344,-6.674752289300386],[131.59063339233398,-6.673388304599854],[131.58900260925293,-6.672450562914349],[131.58900260925293,-6.671598068914932],[131.5872859954834,-6.671598068914932],[131.585054397583,-6.670063575977267],[131.58265113830566,-6.669466827425751],[131.58205032348633,-6.669552077263319],[131.5810203552246,-6.669381577573347],[131.57930374145508,-6.66852907823359],[131.57638549804688,-6.668443828218045],[131.5748405456543,-6.669211077824045],[131.57415390014648,-6.670234075429903],[131.57398223876953,-6.671683318381653],[131.5726089477539,-6.673303055429912],[131.57123565673828,-6.674411293481469],[131.57054901123047,-6.675519529024598],[131.56986236572266,-6.675690026577797],[131.56840324401855,-6.6771392533822365],[131.5646266937256,-6.678417979351892],[131.56282424926758,-6.6808049255541135],[131.56110763549805,-6.684726311883878],[131.5598201751709,-6.6855787830112945],[131.55956268310547,-6.686175511915877],[131.55990600585938,-6.686857486914732],[131.55887603759766,-6.687709954324987],[131.55879020690918,-6.688221434057297],[131.55930519104004,-6.689073899087973],[131.55956268310547,-6.690096855161272],[131.56102180480957,-6.690096855161272],[131.56110763549805,-6.69094931691923],[131.56085014343262,-6.691546039264509],[131.56067848205566,-6.693250956233129],[131.5627384185791,-6.694273903556692],[131.56316757202148,-6.697086997642501],[131.56428337097168,-6.6973427326643815],[131.5645408630371,-6.697768957403014],[131.56471252441406,-6.6987918952565195],[131.56436920166016,-6.702031184306492],[131.56411170959473,-6.702883625216998],[131.5638542175293,-6.703224601163868],[131.56368255615234,-6.703139357199504],[131.5634250640869,-6.703650820762064],[131.56376838684082,-6.703821308497012],[131.5634250640869,-6.704758989973286],[131.5627384185791,-6.705867156664837],[131.56024932861328,-6.708509697835851],[131.5569019317627,-6.712771830805039],[131.55552864074707,-6.714050463420136],[131.55449867248535,-6.714561915525664],[131.5539836883545,-6.713709495051205],[131.5535545349121,-6.714391431550197],[131.55312538146973,-6.714476673545406],[131.55115127563477,-6.713198042049939],[131.5495204925537,-6.714988125203021],[131.54891967773438,-6.715158608969446],[131.54840469360352,-6.716948684910562],[131.5469455718994,-6.7174601339697375],[131.5466022491455,-6.717119167990035],[131.54711723327637,-6.716437235313705],[131.54677391052246,-6.716351993661959],[131.5459156036377,-6.717886341108297],[131.5459156036377,-6.718994477920759],[131.54522895812988,-6.719250201442009],[131.54488563537598,-6.718823995498553],[131.5429973602295,-6.720784539745537],[131.54162406921387,-6.722830316618243],[131.53733253479004,-6.726580885186692],[131.53656005859375,-6.728200439936018],[131.53647422790527,-6.729138074427809],[131.53587341308594,-6.7295642713256],[131.53621673583984,-6.730160946354033],[131.5363883972168,-6.7323771614679515],[131.5359592437744,-6.733826219725202],[131.5356159210205,-6.733826219725202],[131.53518676757812,-6.732632877945392],[131.53484344482422,-6.732462400308734],[131.53501510620117,-6.731354294211059],[131.5345859527588,-6.730842859774384],[131.53432846069336,-6.731183816125366],[131.53407096862793,-6.733059071775031],[131.53226852416992,-6.73604241810159],[131.52926445007324,-6.740986208759239],[131.52857780456543,-6.741923818541906],[131.52789115905762,-6.741923818541906],[131.52737617492676,-6.7432023744133005],[131.52634620666504,-6.744566163624498],[131.5257453918457,-6.7448218736742405],[131.5242862701416,-6.744736637005985],[131.52411460876465,-6.743713795817328],[131.5235137939453,-6.744480926911251],[131.52265548706055,-6.744054743120131],[131.5220546722412,-6.744225216681571],[131.52153968811035,-6.745418529932081],[131.52093887329102,-6.746185658326596],[131.52033805847168,-6.749509867328186],[131.51982307434082,-6.749936046318908],[131.51905059814453,-6.749509867328186],[131.51836395263672,-6.749936046318908],[131.51741981506348,-6.754197815586693],[131.5165615081787,-6.755902512783209],[131.51647567749023,-6.758203844467602],[131.51596069335938,-6.759141420902566],[131.51484489440918,-6.760334697371704],[131.51432991027832,-6.761357503429096],[131.51355743408203,-6.76417020892427],[131.51381492614746,-6.76502254068977],[131.51467323303223,-6.76630103551787],[131.51501655578613,-6.767323828943347],[131.51535987854004,-6.766812432501425],[131.51596069335938,-6.766727199708441],[131.51630401611328,-6.767409061631014],[131.5165615081787,-6.767238596240645],[131.51707649230957,-6.767323828943347],[131.51759147644043,-6.768005690023372],[131.51759147644043,-6.773119617420846],[131.51793479919434,-6.774398090801498],[131.51896476745605,-6.77644364116172],[131.51827812194824,-6.777977798237259],[131.519136428833,-6.780619946199721],[131.51939392089844,-6.780534715846372],[131.51999473571777,-6.7809608674623405],[131.52162551879883,-6.779852872476951],[131.52076721191406,-6.778318721368834],[131.52145385742188,-6.778318721368834],[131.52162551879883,-6.778830105614105],[131.5220546722412,-6.778915336268895],[131.5224838256836,-6.778489182844197],[131.52231216430664,-6.777722105730362],[131.52274131774902,-6.778233490608542],[131.52274131774902,-6.779085797533284],[131.5220546722412,-6.779426719881187],[131.5224838256836,-6.780023333409744],[131.52188301086426,-6.78181316956362],[131.52239799499512,-6.783006389972371],[131.52188301086426,-6.7856485103585555],[131.52239799499512,-6.786926950502519],[131.5221405029297,-6.788546303144585],[131.52291297912598,-6.788546303144585],[131.52325630187988,-6.788716761000515],[131.5235137939453,-6.791188393126902],[131.52274131774902,-6.792892959609574],[131.52222633361816,-6.7932338721812755],[131.5220546722412,-6.7937452405857925],[131.52145385742188,-6.79408615255339],[131.5213680267334,-6.794938431415105],[131.52179718017578,-6.795961164055171],[131.52162551879883,-6.796472529559381],[131.52128219604492,-6.796642984606578],[131.52093887329102,-6.796302074451745],[131.5205955505371,-6.79672821210751],[131.5206813812256,-6.796983894519656],[131.5213680267334,-6.797239576795818],[131.52128219604492,-6.798006622808273],[131.52196884155273,-6.798091850067422],[131.52231216430664,-6.798517986136517],[131.5235137939453,-6.798603213304986],[131.52480125427246,-6.80150092803926],[131.52557373046875,-6.802523646713851],[131.5272045135498,-6.802864552454807],[131.52746200561523,-6.8031202316017385],[131.52780532836914,-6.803972494441766],[131.52823448181152,-6.804142946828264],[131.52969360351562,-6.804057720642575],[131.53098106384277,-6.8043133991542675],[131.53355598449707,-6.803290684290744],[131.5345859527588,-6.802267967249335],[131.5345001220703,-6.800989567885452],[131.53501510620117,-6.799966845945008],[131.53484344482422,-6.799455484158472],[131.53501510620117,-6.798773667596606],[131.5359592437744,-6.797324804190978],[131.53904914855957,-6.795961164055171],[131.53990745544434,-6.796472529559381],[131.54025077819824,-6.797665713620503],[131.54136657714844,-6.797580486285796],[131.54273986816406,-6.797836168244615],[131.54316902160645,-6.798091850067422],[131.5440273284912,-6.797069121960149],[131.54419898986816,-6.7961316192836705],[131.5459156036377,-6.795023659218202],[131.5480613708496,-6.79221113374129],[131.54866218566895,-6.791699763705864]],[[131.60385131835938,-6.980358065335423],[131.60359382629395,-6.980102481764305],[131.60239219665527,-6.980102481764305],[131.60204887390137,-6.981039620842594],[131.60222053527832,-6.981635981097028],[131.603422164917,-6.982913893368249],[131.6045379638672,-6.983254669384337],[131.60573959350586,-6.982828699325438],[131.60642623901367,-6.981039620842594],[131.60385131835938,-6.980358065335423]],[[131.59629821777344,-6.972946085120057],[131.5963840484619,-6.97362765141709],[131.5968132019043,-6.974394412315846],[131.59672737121582,-6.975331562820756],[131.5975856781006,-6.974905585550999],[131.59784317016602,-6.975246367397801],[131.59870147705078,-6.975587148996624],[131.59870147705078,-6.974564803456218],[131.5989589691162,-6.974394412315846],[131.5982723236084,-6.972690497503024],[131.59767150878906,-6.972008929842559],[131.59818649291992,-6.970390202675475],[131.5979290008545,-6.9698790245136735],[131.59784317016602,-6.969197452763979],[131.59664154052734,-6.969197452763979],[131.5963840484619,-6.9687714699171295],[131.59629821777344,-6.969453042286261],[131.5956974029541,-6.969453042286261],[131.5945816040039,-6.969964220912686],[131.5950107574463,-6.970305006353897],[131.59561157226562,-6.9722645178314195],[131.59629821777344,-6.972946085120057]],[[131.59329414367676,-6.984106608338408],[131.5935516357422,-6.981124815211189],[131.59320831298828,-6.980102481764305],[131.592435836792,-6.979591314203347],[131.59071922302246,-6.9801876763035295],[131.58883094787598,-6.98197675804397],[131.58883094787598,-6.983084281407315],[131.5894317626953,-6.984106608338408],[131.59080505371094,-6.984788158384362],[131.59260749816895,-6.984532577233523],[131.59329414367676,-6.984106608338408]],[[131.5762996673584,-6.977461443356958],[131.57569885253906,-6.978143003082181],[131.57544136047363,-6.978824561815088],[131.57544136047363,-6.980017287209591],[131.5762996673584,-6.981295203901837],[131.57732963562012,-6.982147146424381],[131.57827377319336,-6.984788158384362],[131.57947540283203,-6.986662415888972],[131.58050537109375,-6.9859808685747],[131.5810203552246,-6.9859808685747],[131.58196449279785,-6.985043739395522],[131.5843677520752,-6.984021414512824],[131.58556938171387,-6.980784037643744],[131.58522605895996,-6.980528454305272],[131.58445358276367,-6.9809544264584815],[131.58265113830566,-6.980358065335423],[131.5806770324707,-6.979335730213506],[131.5799903869629,-6.978568977406539],[131.5792179107666,-6.978228197978069],[131.57827377319336,-6.977035468024809],[131.57715797424316,-6.976609492305087],[131.57647132873535,-6.976694687480034],[131.5762996673584,-6.977461443356958]],[[131.51561737060547,-6.831073662930635],[131.51741981506348,-6.831584990991587],[131.51836395263672,-6.8319258760618595],[131.52153968811035,-6.8322667608891265],[131.5235137939453,-6.8319258760618595],[131.52557373046875,-6.830988441534004],[131.52643203735352,-6.831073662930635],[131.52711868286133,-6.8314997696860615],[131.52780532836914,-6.8312441056783655],[131.5272045135498,-6.8306475557955935],[131.5275478363037,-6.8298805619959495],[131.52823448181152,-6.828943123459709],[131.53003692626953,-6.827664795222944],[131.53029441833496,-6.826642130174804],[131.53020858764648,-6.825789907632085],[131.53106689453125,-6.824511570973101],[131.53106689453125,-6.823744567339261],[131.53226852416992,-6.8220401104209],[131.53295516967773,-6.821784441359924],[131.53372764587402,-6.818119836490709],[131.5345001220703,-6.815818791202545],[131.53664588928223,-6.814029081675258],[131.5370750427246,-6.813262061261412],[131.53724670410156,-6.812324590200689],[131.5367317199707,-6.810364417516396],[131.53621673583984,-6.810193967339245],[131.53518676757812,-6.811131442564161],[131.53355598449707,-6.8114723421917205],[131.53295516967773,-6.812324590200689],[131.53098106384277,-6.812068915956999],[131.530122756958,-6.81164279191465],[131.52969360351562,-6.811728016753406],[131.52892112731934,-6.812495039620757],[131.52711868286133,-6.8121541407200255],[131.52677536010742,-6.812495039620757],[131.5268611907959,-6.813517734869009],[131.52565956115723,-6.814796100862168],[131.5254020690918,-6.814796100862168],[131.5250587463379,-6.814455203597248],[131.52377128601074,-6.814796100862168],[131.5228271484375,-6.814369979243153],[131.52188301086426,-6.814455203597248],[131.5187931060791,-6.815904015299097],[131.5169906616211,-6.816500583550706],[131.51561737060547,-6.818119836490709],[131.5144157409668,-6.819227743244554],[131.51304244995117,-6.821443549066316],[131.5125274658203,-6.822892339638429],[131.5110683441162,-6.824596793523213],[131.50995254516602,-6.827920461143506],[131.5092658996582,-6.828431792574818],[131.50840759277344,-6.828431792574818],[131.50840759277344,-6.8290283452207206],[131.50754928588867,-6.829454453798093],[131.5118408203125,-6.8298805619959495],[131.5121841430664,-6.830051005168812],[131.5125274658203,-6.830817998695153],[131.5129566192627,-6.831073662930635],[131.51493072509766,-6.830732777252962],[131.51561737060547,-6.831073662930635]]]}},{"type":"Feature","id":"pmtiles:8/221/132:mountain_peak:10701623081:0","properties":{"name_int":"Melwuarniweyar","name_de":"Melwuarniweyar","name":"Melwuarniweyar","rank":1,"class":"peak","name:latin":"Melwuarniweyar","name_en":"Melwuarniweyar","kind":"poi","verification":"verified","source":"OpenMapTiles/OpenStreetMap national PMTiles","sourceId":"8/221/132:mountain_peak:10701623081:0","sourceLayer":"mountain_peak","archive":"https://its.hanifahseptiani45.workers.dev/v1/map/archive/indonesia.pmtiles","updatedAt":"2026-07-26T09:35:43.756Z"},"geometry":{"type":"Point","coordinates":[131.5667724609375,-6.68336235498812]}},{"type":"Feature","id":"pmtiles:8/221/132:mountain_peak:10701739271:0","properties":{"name_int":"Kelyobarwahan","name_de":"Kelyobarwahan","name":"Kelyobarwahan","rank":2,"class":"peak","name:latin":"Kelyobarwahan","name_en":"Kelyobarwahan","kind":"poi","verification":"verified","source":"OpenMapTiles/OpenStreetMap national PMTiles","sourceId":"8/221/132:mountain_peak:10701739271:0","sourceLayer":"mountain_peak","archive":"https://its.hanifahseptiani45.workers.dev/v1/map/archive/indonesia.pmtiles","updatedAt":"2026-07-26T09:35:43.756Z"},"geometry":{"type":"Point","coordinates":[131.5667724609375,-6.766556734077341]}},{"type":"Feature","id":"pmtiles:8/221/132:park:11250182442:0","properties":{"name":"Suaka Alam Tafermaar","name_int":"Tafermaar Protected Area","class":"protected_area","name:latin":"Suaka Alam Tafermaar","name_de":"Suaka Alam Tafermaar","name_en":"Tafermaar Protected Area","kind":"green","verification":"verified","source":"OpenMapTiles/OpenStreetMap national PMTiles","sourceId":"8/221/132:park:11250182442:0","sourceLayer":"park","archive":"https://its.hanifahseptiani45.workers.dev/v1/map/archive/indonesia.pmtiles","updatedAt":"2026-07-26T09:35:43.756Z"},"geometry":{"type":"Polygon","coordinates":[[[131.57913208007812,-6.668699578220185],[131.58496856689453,-6.6704045748232375],[131.58737182617188,-6.672791560098645],[131.60865783691406,-6.677565495743366],[131.61243438720703,-6.6765425134530005],[131.61449432373047,-6.677906489365],[131.61792755126953,-6.676883507787366],[131.62342071533203,-6.67961145390872],[131.62479400634766,-6.684385323016684],[131.6220474243164,-6.688136187472438],[131.62410736083984,-6.691887023134456],[131.62342071533203,-6.692568990160041],[131.62445068359375,-6.6966607723081495],[131.62342071533203,-6.6966607723081495],[131.62307739257812,-6.698706650517323],[131.6217041015625,-6.699729586404558],[131.6210174560547,-6.703821308497012],[131.62033081054688,-6.703821308497012],[131.61964416503906,-6.705867156664837],[131.61724090576172,-6.707572023577072],[131.61415100097656,-6.707231050671865],[131.61174774169922,-6.7089359128113415],[131.6100311279297,-6.707231050671865],[131.60934448242188,-6.708594940860792],[131.60865783691406,-6.707572023577072],[131.60934448242188,-6.710640768983552],[131.60728454589844,-6.712004649623864],[131.60419464111328,-6.716778201771348],[131.60076141357422,-6.719505924828795],[131.59629821777344,-6.724279403360342],[131.59698486328125,-6.724620364318767],[131.59664154052734,-6.725643245758604],[131.59870147705078,-6.723938442162677],[131.5997314453125,-6.726325165522127],[131.60076141357422,-6.726325165522127],[131.60110473632812,-6.727689002177527],[131.5997314453125,-6.729393792611376],[131.59767150878906,-6.728029960743029],[131.59561157226562,-6.730075707109151],[131.5938949584961,-6.730075707109151],[131.5938949584961,-6.726666125044957],[131.59114837646484,-6.724279403360342],[131.59011840820312,-6.724279403360342],[131.59011840820312,-6.723256519049713],[131.58599853515625,-6.7222336325863665],[131.58668518066406,-6.7174601339697375],[131.583251953125,-6.715755301681568],[131.5835952758789,-6.715073367093709],[131.57981872558594,-6.712345619186962],[131.5784454345703,-6.712686588511275],[131.57638549804688,-6.710981739501776],[131.572265625,-6.71302755759676],[131.56436920166016,-6.7089359128113415],[131.56436920166016,-6.705867156664837],[131.56368255615234,-6.705526182566601],[131.56471252441406,-6.703139357199504],[131.56505584716797,-6.698706650517323],[131.56265258789062,-6.697001752605402],[131.56230926513672,-6.694273903556692],[131.55990600585938,-6.693250956233129],[131.5605926513672,-6.6901821014040195],[131.55887603759766,-6.6884771737226885],[131.56024932861328,-6.686772240091926],[131.56024932861328,-6.685408288904739],[131.56402587890625,-6.681316412510768],[131.56951904296875,-6.677906489365],[131.57123565673828,-6.674496542458471],[131.57432556152344,-6.672109565492633],[131.57535552978516,-6.6690405780154265],[131.57913208007812,-6.668699578220185]]]}},{"type":"Feature","id":"pmtiles:8/221/133:mountain_peak:10701623081:0","properties":{"name_int":"Melwuarniweyar","name_de":"Melwuarniweyar","name":"Melwuarniweyar","rank":1,"class":"peak","name:latin":"Melwuarniweyar","name_en":"Melwuarniweyar","kind":"poi","verification":"verified","source":"OpenMapTiles/OpenStreetMap national PMTiles","sourceId":"8/221/133:mountain_peak:10701623081:0","sourceLayer":"mountain_peak","archive":"https://its.hanifahseptiani45.workers.dev/v1/map/archive/indonesia.pmtiles","updatedAt":"2026-07-26T09:35:46.586Z"},"geometry":{"type":"Point","coordinates":[131.5667724609375,-6.68336235498812]}},{"type":"Feature","id":"pmtiles:8/221/133:mountain_peak:10701739271:0","properties":{"name_int":"Kelyobarwahan","name_de":"Kelyobarwahan","name":"Kelyobarwahan","rank":2,"class":"peak","name:latin":"Kelyobarwahan","name_en":"Kelyobarwahan","kind":"poi","verification":"verified","source":"OpenMapTiles/OpenStreetMap national PMTiles","sourceId":"8/221/133:mountain_peak:10701739271:0","sourceLayer":"mountain_peak","archive":"https://its.hanifahseptiani45.workers.dev/v1/map/archive/indonesia.pmtiles","updatedAt":"2026-07-26T09:35:46.586Z"},"geometry":{"type":"Point","coordinates":[131.5667724609375,-6.766556734077341]}}]}