{"type":"FeatureCollection","features":[{"type":"Feature","id":"pmtiles:10/862/530:water:270:0","properties":{"class":"ocean","water":"ocean","kind":"waterway","verification":"verified","source":"OpenMapTiles/OpenStreetMap national PMTiles","sourceId":"10/862/530:water:270:0","sourceLayer":"water","archive":"https://its.hanifahseptiani45.workers.dev/v1/map/archive/indonesia.pmtiles","updatedAt":"2026-07-26T09:45:01.476Z"},"geometry":{"type":"Polygon","coordinates":[[[123.0413818359375,-6.309838680093364],[123.4039306640625,-6.309838680093364],[123.4039306640625,-6.670063575977267],[123.0413818359375,-6.670063575977267],[123.0413818359375,-6.309838680093364]]]}}]}