{"type":"FeatureCollection","features":[{"type":"Feature","id":"pmtiles:10/815/539:water:1350:0","properties":{"class":"ocean","water":"ocean","kind":"waterway","verification":"verified","source":"OpenMapTiles/OpenStreetMap national PMTiles","sourceId":"10/815/539:water:1350:0","sourceLayer":"water","archive":"https://its.hanifahseptiani45.workers.dev/v1/map/archive/indonesia.pmtiles","updatedAt":"2026-07-26T09:46:50.939Z"},"geometry":{"type":"Polygon","coordinates":[[[106.5179443359375,-9.443643151732559],[106.8804931640625,-9.443643151732559],[106.8804931640625,-9.801090616449585],[106.5179443359375,-9.801090616449585],[106.5179443359375,-9.443643151732559]]]}}]}