{"type":"FeatureCollection","features":[{"type":"Feature","id":"pmtiles:10/807/535:water:130:0","properties":{"class":"ocean","water":"ocean","kind":"waterway","verification":"verified","source":"OpenMapTiles/OpenStreetMap national PMTiles","sourceId":"10/807/535:water:130:0","sourceLayer":"water","archive":"https://its.hanifahseptiani45.workers.dev/v1/map/archive/indonesia.pmtiles","updatedAt":"2026-07-26T09:45:46.993Z"},"geometry":{"type":"Polygon","coordinates":[[[103.7054443359375,-8.053790678898523],[104.0679931640625,-8.053790678898523],[104.0679931640625,-8.412602260297831],[103.7054443359375,-8.412602260297831],[103.7054443359375,-8.053790678898523]]]}}]}