{"type":"FeatureCollection","features":[{"type":"Feature","id":"pmtiles:10/848/513:transportation:10327098850:0","properties":{"class":"ferry","highway":"ferry","kind":"road","verification":"verified","source":"OpenMapTiles/OpenStreetMap national PMTiles","sourceId":"10/848/513:transportation:10327098850:0","sourceLayer":"transportation","archive":"https://its.hanifahseptiani45.workers.dev/v1/map/archive/indonesia.pmtiles","updatedAt":"2026-07-26T09:41:48.364Z"},"geometry":{"type":"LineString","coordinates":[[118.2689380645752,-0.34606723172845477],[118.39948654174805,-0.6525566162693224],[118.40523719787598,-0.7086000996551007]]}},{"type":"Feature","id":"pmtiles:10/848/513:transportation:10327098850:1","properties":{"class":"ferry","highway":"ferry","kind":"road","verification":"verified","source":"OpenMapTiles/OpenStreetMap national PMTiles","sourceId":"10/848/513:transportation:10327098850:1","sourceLayer":"transportation","archive":"https://its.hanifahseptiani45.workers.dev/v1/map/archive/indonesia.pmtiles","updatedAt":"2026-07-26T09:41:48.364Z"},"geometry":{"type":"LineString","coordinates":[[118.39759826660156,-0.7086000996551007],[118.39193344116211,-0.654444768593379],[118.26516151428223,-0.34606723172845477]]}},{"type":"Feature","id":"pmtiles:10/848/513:water:1160:0","properties":{"class":"ocean","water":"ocean","kind":"waterway","verification":"verified","source":"OpenMapTiles/OpenStreetMap national PMTiles","sourceId":"10/848/513:water:1160:0","sourceLayer":"water","archive":"https://its.hanifahseptiani45.workers.dev/v1/map/archive/indonesia.pmtiles","updatedAt":"2026-07-26T09:41:48.364Z"},"geometry":{"type":"Polygon","coordinates":[[[118.1195068359375,-0.34606723172845477],[118.4820556640625,-0.34606723172845477],[118.4820556640625,-0.7086000996551007],[118.1195068359375,-0.7086000996551007],[118.1195068359375,-0.34606723172845477]]]}}]}