{"type":"FeatureCollection","features":[{"type":"Feature","id":"pmtiles:10/895/501:water:70:0","properties":{"class":"ocean","water":"ocean","kind":"waterway","verification":"verified","source":"OpenMapTiles/OpenStreetMap national PMTiles","sourceId":"10/895/501:water:70:0","sourceLayer":"water","archive":"https://its.hanifahseptiani45.workers.dev/v1/map/archive/indonesia.pmtiles","updatedAt":"2026-07-26T09:39:33.145Z"},"geometry":{"type":"Polygon","coordinates":[[[134.6429443359375,3.8697352734583603],[135.0054931640625,3.8697352734583603],[135.0054931640625,3.5079381900405053],[134.6429443359375,3.5079381900405053],[134.6429443359375,3.8697352734583603]]]}}]}