{"type":"FeatureCollection","features":[{"type":"Feature","id":"pmtiles:10/809/517:water:116505723:0","properties":{"intermittent":0,"class":"river","id":11650572,"water":"river","kind":"waterway","verification":"verified","source":"OpenMapTiles/OpenStreetMap national PMTiles","sourceId":"10/809/517:water:116505723:0","sourceLayer":"water","archive":"https://its.hanifahseptiani45.workers.dev/v1/map/archive/indonesia.pmtiles","updatedAt":"2026-07-26T09:42:24.251Z"},"geometry":{"type":"Polygon","coordinates":[[[104.64314460754395,-2.114388093041839],[104.6418571472168,-2.114388093041839],[104.64383125305176,-2.1105283369257393],[104.64494705200195,-2.109499067009068],[104.64674949645996,-2.1084697964113275],[104.64803695678711,-2.108212478655517],[104.65044021606445,-2.1084697964113275],[104.6543025970459,-2.1095848395281394],[104.65730667114258,-2.1101852470292073],[104.66314315795898,-2.1095848395281394],[104.66588973999023,-2.10838402383078],[104.66760635375977,-2.1073547524956098],[104.66855049133301,-2.1072689798536146],[104.67095375061035,-2.1073547524956098],[104.67404365539551,-2.109327521956729],[104.6762752532959,-2.110271019510435],[104.67747688293457,-2.111557606161014],[104.67953681945801,-2.114388093041839],[104.67876434326172,-2.114388093041839],[104.67653274536133,-2.111300288916084],[104.67352867126465,-2.1097563845520853],[104.67181205749512,-2.1085555689871427],[104.67035293579102,-2.108040933461325],[104.66872215270996,-2.108040933461325],[104.66743469238281,-2.10838402383078],[104.66520309448242,-2.1095848395281394],[104.66314315795898,-2.110442564458694],[104.65713500976562,-2.1111287440624835],[104.6506118774414,-2.109499067009068],[104.64855194091797,-2.109155976885475],[104.64700698852539,-2.109327521956729],[104.64554786682129,-2.110271019510435],[104.64503288269043,-2.110957199189926],[104.64314460754395,-2.114388093041839]]]}},{"type":"Feature","id":"pmtiles:10/809/517:waterway:8633728900:1","properties":{"name":"Sungai Sembilang","name_int":"Sungai Sembilang","class":"river","name:latin":"Sungai Sembilang","name_de":"Sungai Sembilang","name_en":"Sungai Sembilang","waterway":"river","kind":"waterway","verification":"verified","source":"OpenMapTiles/OpenStreetMap national PMTiles","sourceId":"10/809/517:waterway:8633728900:1","sourceLayer":"waterway","archive":"https://its.hanifahseptiani45.workers.dev/v1/map/archive/indonesia.pmtiles","updatedAt":"2026-07-26T09:42:24.253Z"},"geometry":{"type":"LineString","coordinates":[[104.58383560180664,-2.1151600431136615],[104.58555221557617,-2.114130776265881],[104.58975791931152,-2.1127584194071716],[104.59482192993164,-2.1101852470292073],[104.59662437438965,-2.1097563845520853],[104.59988594055176,-2.111643378566498],[104.60709571838379,-2.1179905234228755]]}},{"type":"Feature","id":"pmtiles:10/808/518:water:116505723:1","properties":{"intermittent":0,"class":"river","id":11650572,"water":"river","kind":"waterway","verification":"verified","source":"OpenMapTiles/OpenStreetMap national PMTiles","sourceId":"10/808/518:water:116505723:1","sourceLayer":"water","archive":"https://its.hanifahseptiani45.workers.dev/v1/map/archive/indonesia.pmtiles","updatedAt":"2026-07-26T09:42:45.212Z"},"geometry":{"type":"Polygon","coordinates":[[[104.41886901855469,-2.204789375519141],[104.4195556640625,-2.202902497059256],[104.4195556640625,-2.210278462883281],[104.41929817199707,-2.209592328071693],[104.41886901855469,-2.204789375519141]]]}},{"type":"Feature","id":"pmtiles:10/808/518:water:116505723:2","properties":{"intermittent":0,"class":"river","id":11650572,"water":"river","kind":"waterway","verification":"verified","source":"OpenMapTiles/OpenStreetMap national PMTiles","sourceId":"10/808/518:water:116505723:2","sourceLayer":"water","archive":"https://its.hanifahseptiani45.workers.dev/v1/map/archive/indonesia.pmtiles","updatedAt":"2026-07-26T09:42:45.212Z"},"geometry":{"type":"Polygon","coordinates":[[[104.41818237304688,-2.2262310076468452],[104.4195556640625,-2.223658028202152],[104.4195556640625,-2.2276890273386556],[104.4195556640625,-2.227774793157934],[104.41758155822754,-2.2330922641922513],[104.41715240478516,-2.235922523188819],[104.41740989685059,-2.2375520637717017],[104.41792488098145,-2.2384097159827974],[104.4195556640625,-2.239438897973713],[104.4195556640625,-2.2413257297458813],[104.41723823547363,-2.240039253801257],[104.41603660583496,-2.2385812463648165],[104.41560745239258,-2.2375520637717017],[104.41534996032715,-2.2352364002966993],[104.4155216217041,-2.2342072153572445],[104.4166374206543,-2.229918937016464],[104.41818237304688,-2.2262310076468452]]]}},{"type":"Feature","id":"pmtiles:10/808/518:waterway:586445310:1","properties":{"name":"Sungai Sembilang","name_int":"Sungai Sembilang","class":"river","name:latin":"Sungai Sembilang","name_de":"Sungai Sembilang","name_en":"Sungai Sembilang","waterway":"river","kind":"waterway","verification":"verified","source":"OpenMapTiles/OpenStreetMap national PMTiles","sourceId":"10/808/518:waterway:586445310:1","sourceLayer":"waterway","archive":"https://its.hanifahseptiani45.workers.dev/v1/map/archive/indonesia.pmtiles","updatedAt":"2026-07-26T09:42:45.212Z"},"geometry":{"type":"LineString","coordinates":[[104.42058563232422,-2.223829560304779],[104.41895484924316,-2.2266598371177366],[104.4169807434082,-2.231376953055772],[104.41629409790039,-2.234893338730373],[104.41646575927734,-2.2371232374780305],[104.41732406616211,-2.2388385419001793],[104.42032814025879,-2.2406396093827254]]}},{"type":"Feature","id":"pmtiles:10/809/518:landcover:194823463:0","properties":{"subclass":"wetland","class":"wetland","kind":"green","verification":"verified","source":"OpenMapTiles/OpenStreetMap national PMTiles","sourceId":"10/809/518:landcover:194823463:0","sourceLayer":"landcover","archive":"https://its.hanifahseptiani45.workers.dev/v1/map/archive/indonesia.pmtiles","updatedAt":"2026-07-26T09:42:45.278Z"},"geometry":{"type":"Polygon","coordinates":[[[104.59593772888184,-2.103409206077373],[104.59482192993164,-2.1082982512455146],[104.58915710449219,-2.111300288916084],[104.58392143249512,-2.11327305337133],[104.58057403564453,-2.1159319928013645],[104.58023071289062,-2.120649454760411],[104.58246231079102,-2.124766500717911],[104.5828914642334,-2.126053075329736],[104.58246231079102,-2.1277685064770537],[104.58108901977539,-2.1297412499373536],[104.57842826843262,-2.1319713047202953],[104.5704460144043,-2.137460656566688],[104.56769943237305,-2.141491886831261],[104.56521034240723,-2.142092281921151],[104.5594596862793,-2.139433387594508],[104.55448150634766,-2.1390045332390173],[104.55044746398926,-2.141148803817117],[104.54358100891113,-2.1460377295117326],[104.54109191894531,-2.1472385158889296],[104.53680038452148,-2.148010449490343],[104.53156471252441,-2.1480962198664173],[104.52632904052734,-2.151012409786361],[104.5228099822998,-2.1547862943473604],[104.52023506164551,-2.155901303905793],[104.50821876525879,-2.1571878523812273],[104.50753211975098,-2.1520416519568784],[104.5063304901123,-2.1504977884406458],[104.5030689239502,-2.148525071674584],[104.50178146362305,-2.1443223187657026],[104.50281143188477,-2.143378842035588],[104.50263977050781,-2.141148803817117],[104.50358390808105,-2.1389187623535264],[104.50255393981934,-2.1383183660208545],[104.5034122467041,-2.1350590675462087],[104.50272560119629,-2.1339440427964433],[104.50332641601562,-2.133429415716151],[104.5034122467041,-2.1318855334422153],[104.50461387634277,-2.1306847350473532],[104.50461387634277,-2.129912792727609],[104.50615882873535,-2.1275111919265584],[104.50701713562012,-2.1275969634481697],[104.5074462890625,-2.125109587385893],[104.50787544250488,-2.124938044061423],[104.50753211975098,-2.1244234139737017],[104.50899124145508,-2.123051066234922],[104.50899124145508,-2.121850260963882],[104.51027870178223,-2.12022059517615],[104.5118236541748,-2.12142140171251],[104.5085620880127,-2.125881532110114],[104.51079368591309,-2.1275969634481697],[104.51079368591309,-2.1284546784017664],[104.50667381286621,-2.1283689069278893],[104.50435638427734,-2.1339440427964433],[104.50624465942383,-2.1346302119689256],[104.50538635253906,-2.1348017542141946],[104.50521469116211,-2.1372891146183406],[104.5089054107666,-2.138404136939897],[104.50787544250488,-2.139519158451222],[104.50830459594727,-2.141063033051566],[104.50693130493164,-2.1413203453337815],[104.50564384460449,-2.1407199499414133],[104.50401306152344,-2.1442365481779007],[104.50461387634277,-2.1466381228182314],[104.50547218322754,-2.1466381228182314],[104.50615882873535,-2.145866188523698],[104.50787544250488,-2.145951959020124],[104.50907707214355,-2.1469812046018006],[104.50813293457031,-2.1484393013225684],[104.5085620880127,-2.1498116263763904],[104.50984954833984,-2.1506693289085064],[104.51319694519043,-2.1528135831288466],[104.51688766479492,-2.1499831669213876],[104.51663017272949,-2.1472385158889296],[104.51602935791016,-2.1464665818975845],[104.51620101928711,-2.1442365481779007],[104.51748847961426,-2.143464612671451],[104.51894760131836,-2.143636153928753],[104.52092170715332,-2.141577657572796],[104.52229499816895,-2.141577657572796],[104.52401161193848,-2.1403768667544654],[104.52461242675781,-2.137460656566688],[104.5253849029541,-2.137546427533664],[104.5253849029541,-2.136602946633303],[104.52641487121582,-2.136517175613619],[104.5268440246582,-2.1358310072836844],[104.52838897705078,-2.135230609743587],[104.53044891357422,-2.13634563355987],[104.53036308288574,-2.138061053234921],[104.52950477600098,-2.139347616732991],[104.53328132629395,-2.142092281921151],[104.53516960144043,-2.1419207404909173],[104.534912109375,-2.1407199499414133],[104.53688621520996,-2.138061053234921],[104.5114803314209,-2.120735226663001],[104.5022964477539,-2.1134445979881633],[104.50092315673828,-2.113187281055829],[104.49800491333008,-2.1105283369257393],[104.4968032836914,-2.1101852470292073],[104.49225425720215,-2.1059823896570435],[104.49285507202148,-2.1052104350291216],[104.49045181274414,-2.103409206077373],[104.59593772888184,-2.103409206077373]]]}},{"type":"Feature","id":"pmtiles:10/809/518:landcover:194823463:1","properties":{"subclass":"wetland","class":"wetland","kind":"green","verification":"verified","source":"OpenMapTiles/OpenStreetMap national PMTiles","sourceId":"10/809/518:landcover:194823463:1","sourceLayer":"landcover","archive":"https://its.hanifahseptiani45.workers.dev/v1/map/archive/indonesia.pmtiles","updatedAt":"2026-07-26T09:42:45.278Z"},"geometry":{"type":"Polygon","coordinates":[[[104.59671020507812,-2.108040933461325],[104.59765434265137,-2.103409206077373],[104.62469100952148,-2.103409206077373],[104.62486267089844,-2.1075262977653892],[104.6268367767334,-2.1155889040987006],[104.61396217346191,-2.1187624717009186],[104.61121559143066,-2.118505155650979],[104.60074424743652,-2.110271019510435],[104.59671020507812,-2.108040933461325]]]}},{"type":"Feature","id":"pmtiles:10/809/518:landcover:7222166322:0","properties":{"subclass":"forest","class":"wood","kind":"green","verification":"verified","source":"OpenMapTiles/OpenStreetMap national PMTiles","sourceId":"10/809/518:landcover:7222166322:0","sourceLayer":"landcover","archive":"https://its.hanifahseptiani45.workers.dev/v1/map/archive/indonesia.pmtiles","updatedAt":"2026-07-26T09:42:45.278Z"},"geometry":{"type":"Polygon","coordinates":[[[104.75360870361328,-2.3447546401844193],[104.75601196289062,-2.3426964268445687],[104.75850105285645,-2.3371220838671576],[104.76399421691895,-2.321685326420436],[104.76588249206543,-2.318426433809819],[104.76862907409668,-2.3171400267655287],[104.77051734924316,-2.3173115477722916],[104.7711181640625,-2.3181691524944767],[104.7711181640625,-2.324343891142462],[104.77034568786621,-2.3301755639545547],[104.76553916931152,-2.3456979869535672],[104.76227760314941,-2.351786846237019],[104.7597885131836,-2.3535877713582636],[104.75489616394043,-2.353330496483352],[104.75180625915527,-2.3541023209656515],[104.75017547607422,-2.3520441213967302],[104.75163459777832,-2.348099230403534],[104.75360870361328,-2.3447546401844193]]]}},{"type":"Feature","id":"pmtiles:10/809/518:park:77758523:0","properties":{"name":"Taman Nasional Sembilang","name_int":"Sembilang National Park","class":"national_park","name:latin":"Taman Nasional Sembilang","name_de":"Taman Nasional Sembilang","name_en":"Sembilang National Park","kind":"green","verification":"verified","source":"OpenMapTiles/OpenStreetMap national PMTiles","sourceId":"10/809/518:park:77758523:0","sourceLayer":"park","archive":"https://its.hanifahseptiani45.workers.dev/v1/map/archive/indonesia.pmtiles","updatedAt":"2026-07-26T09:42:45.278Z"},"geometry":{"type":"Polygon","coordinates":[[[104.7711181640625,-2.103409206077373],[104.7711181640625,-2.3455264694064937],[104.76794242858887,-2.3504147112508207],[104.76090431213379,-2.3571038565545734],[104.7542953491211,-2.3607914485595387],[104.74897384643555,-2.362849635192376],[104.74408149719238,-2.3631926660013107],[104.73936080932617,-2.3624208465620313],[104.73489761352539,-2.3600196277862437],[104.72743034362793,-2.354616870383083],[104.72030639648438,-2.3501574357907202],[104.71343994140625,-2.3474131612672977],[104.7052001953125,-2.346041021984618],[104.69730377197266,-2.345783745719217],[104.68975067138672,-2.3470701265728735],[104.68022346496582,-2.351186537346578],[104.67249870300293,-2.355560210488136],[104.66331481933594,-2.3619920577992843],[104.65850830078125,-2.3656796368306914],[104.65164184570312,-2.3693672060572766],[104.63996887207031,-2.374598392063433],[104.63850975036621,-2.374169607069817],[104.63155746459961,-2.3777713968788987],[104.62108612060547,-2.3871188551055837],[104.61181640625,-2.396552005379718],[104.60211753845215,-2.408557738961221],[104.59336280822754,-2.4179049868713207],[104.57714080810547,-2.432568888157391],[104.53645706176758,-2.379486531579616],[104.53645706176758,-2.3775141264898707],[104.53791618347168,-2.375627475505155],[104.54916000366211,-2.3723687086440464],[104.5470142364502,-2.367137514209304],[104.56031799316406,-2.3643075155449935],[104.55894470214844,-2.3601053856711047],[104.57602500915527,-2.3547883868133113],[104.5895004272461,-2.356246275617835],[104.60383415222168,-2.34441160483793],[104.60529327392578,-2.340981246750644],[104.62177276611328,-2.3370363245714145],[104.62520599365234,-2.3281173292462967],[104.62898254394531,-2.3270882107647424],[104.63387489318848,-2.3364360093545002],[104.65945243835449,-2.3475846785829333],[104.69704627990723,-2.3282888489201667],[104.70932006835938,-2.2954424523738908],[104.72391128540039,-2.28798115487902],[104.74579811096191,-2.282663884690308],[104.75129127502441,-2.2818062586229786],[104.75017547607422,-2.2809486320441295],[104.75240707397461,-2.2787188005465993],[104.75875854492188,-2.2673980643609752],[104.76133346557617,-2.2660258478872635],[104.76202011108398,-2.266969246852682],[104.76330757141113,-2.2662831385751616],[104.76408004760742,-2.2673123008694773],[104.77034568786621,-2.2634529384945523],[104.76734161376953,-2.259078982049161],[104.76511001586914,-2.2599366216068404],[104.76425170898438,-2.2578782858176254],[104.76468086242676,-2.256163003766062],[104.76648330688477,-2.2535043125884755],[104.77068901062012,-2.2499879716399676],[104.75944519042969,-2.2270886664638283],[104.76785659790039,-2.2228003673899934],[104.76502418518066,-2.2197985506244464],[104.75257873535156,-2.2015302203142113],[104.75111961364746,-2.1981852904563794],[104.72622871398926,-2.1523847325260164],[104.72142219543457,-2.1450084832949585],[104.6971321105957,-2.1341155851182805],[104.6751594543457,-2.143893465778646],[104.66734886169434,-2.1351448386472924],[104.6572208404541,-2.136688717648198],[104.65653419494629,-2.1382325950969943],[104.66116905212402,-2.1484393013225684],[104.6543025970459,-2.155043604317939],[104.60812568664551,-2.1532424336110125],[104.58847045898438,-2.1534997438423744],[104.57859992980957,-2.1640494258563336],[104.5785140991211,-2.164821350931007],[104.56958770751953,-2.1644782731685552],[104.56546783447266,-2.164735581497652],[104.57284927368164,-2.1504977884406458],[104.58520889282227,-2.146380811430035],[104.60203170776367,-2.1456088770055857],[104.59662437438965,-2.1068401165728403],[104.59748268127441,-2.103409206077373],[104.7711181640625,-2.103409206077373]]]}},{"type":"Feature","id":"pmtiles:10/809/518:water:115773533:0","properties":{"intermittent":0,"class":"river","id":11577353,"water":"river","kind":"waterway","verification":"verified","source":"OpenMapTiles/OpenStreetMap national PMTiles","sourceId":"10/809/518:water:115773533:0","sourceLayer":"water","archive":"https://its.hanifahseptiani45.workers.dev/v1/map/archive/indonesia.pmtiles","updatedAt":"2026-07-26T09:42:45.278Z"},"geometry":{"type":"Polygon","coordinates":[[[104.4085693359375,-2.299044444129251],[104.40951347351074,-2.2986156360634027],[104.41123008728027,-2.2981868278687188],[104.41303253173828,-2.298101066214315],[104.41637992858887,-2.2981868278687188],[104.41964149475098,-2.2999020598744266],[104.42221641540527,-2.3031609950025285],[104.42350387573242,-2.306162639182986],[104.4247055053711,-2.3124231909425106],[104.42444801330566,-2.325115731575764],[104.42496299743652,-2.3371220838671576],[104.42479133605957,-2.3455264694064937],[104.42513465881348,-2.348013471779936],[104.42590713500977,-2.3506719866634995],[104.42822456359863,-2.355131419610487],[104.43397521972656,-2.3599338698960963],[104.43689346313477,-2.360962964228733],[104.44161415100098,-2.3611344798767533],[104.45723533630371,-2.3607914485595387],[104.46444511413574,-2.360962964228733],[104.46959495544434,-2.359762354099928],[104.47285652160645,-2.3579614369629667],[104.47577476501465,-2.354616870383083],[104.47843551635742,-2.3494713676653447],[104.47989463806152,-2.348099230403534],[104.48195457458496,-2.3465555743734257],[104.48452949523926,-2.3458695044796087],[104.48676109313965,-2.3459552632347425],[104.48925018310547,-2.3473274026015787],[104.49148178100586,-2.3491283334762585],[104.4979190826416,-2.3571896146191875],[104.50066566467285,-2.3602769014249674],[104.5085620880127,-2.36730902909423],[104.5143985748291,-2.373140522542357],[104.51834678649902,-2.374855662995742],[104.5224666595459,-2.375370204716603],[104.52589988708496,-2.374169607069817],[104.53070640563965,-2.3707393223332787],[104.53328132629395,-2.3680808458136937],[104.53516960144043,-2.3640502426528514],[104.53722953796387,-2.350328952769388],[104.53843116760254,-2.3440685694073693],[104.54057693481445,-2.3370363245714145],[104.54083442687988,-2.3352353781508555],[104.54066276550293,-2.3338632269475568],[104.53688621520996,-2.324944211515941],[104.53645706176758,-2.323572050287112],[104.5363712310791,-2.31954131896903],[104.53722953796387,-2.3175688292434984],[104.53868865966797,-2.316196660856889],[104.54160690307617,-2.31516753369462],[104.54392433166504,-2.3149960124282387],[104.54538345336914,-2.31525329432003],[104.5473575592041,-2.3159393791363954],[104.55113410949707,-2.3185121942378686],[104.55473899841309,-2.3213422854467183],[104.55765724182129,-2.322285647924062],[104.56006050109863,-2.322028367310878],[104.5623779296875,-2.3207419635423747],[104.56503868103027,-2.3185121942378686],[104.56649780273438,-2.3167969846896312],[104.56761360168457,-2.3148244911410956],[104.57018852233887,-2.308992755038659],[104.57164764404297,-2.3043616534341282],[104.5722484588623,-2.3013600054578944],[104.5737075805664,-2.295957023180719],[104.57551002502441,-2.2938987388421026],[104.57808494567871,-2.2924407856433646],[104.58211898803711,-2.292526547637351],[104.58589553833008,-2.294156024546453],[104.58907127380371,-2.295957023180719],[104.59756851196289,-2.301531528369736],[104.60031509399414,-2.3043616534341282],[104.6019458770752,-2.3071060117607516],[104.60280418395996,-2.3096788428823487],[104.60314750671387,-2.312594712520095],[104.60263252258301,-2.3167112241576717],[104.6011734008789,-2.322885969172617],[104.59962844848633,-2.327431250342073],[104.59834098815918,-2.3298325250453757],[104.59722518920898,-2.3333486699009853],[104.59731101989746,-2.337207843157657],[104.59980010986328,-2.339437582871412],[104.60271835327148,-2.3403809332217946],[104.60572242736816,-2.3408954876908297],[104.60941314697266,-2.3408954876908297],[104.62666511535645,-2.3372936024429265],[104.63198661804199,-2.337550880267301],[104.63541984558105,-2.3385799910931695],[104.63859558105469,-2.3407239695554694],[104.6407413482666,-2.343982810536602],[104.64262962341309,-2.348785299202916],[104.64348793029785,-2.3532447381811608],[104.64357376098633,-2.3565035499543256],[104.64323043823242,-2.359762354099928],[104.6418571472168,-2.3643075155449935],[104.63859558105469,-2.3702247788891526],[104.63842391967773,-2.3707393223332787],[104.63868141174316,-2.3715111371407573],[104.63945388793945,-2.3715111371407573],[104.64134216308594,-2.370825079555374],[104.64520454406738,-2.368852662103194],[104.65258598327637,-2.36602266694004],[104.65567588806152,-2.364393273165092],[104.65885162353516,-2.3623350888200747],[104.67026710510254,-2.3541023209656515],[104.67550277709961,-2.3507577451238433],[104.68125343322754,-2.34767043723285],[104.68666076660156,-2.345183434249236],[104.68700408935547,-2.344840399007893],[104.69155311584473,-2.3435540161039086],[104.69738960266113,-2.3423533909937646],[104.7008228302002,-2.3422676320179505],[104.70803260803223,-2.34303946261133],[104.71155166625977,-2.3438112927792787],[104.71635818481445,-2.345269193046434],[104.72245216369629,-2.348184989021888],[104.73026275634766,-2.3532447381811608],[104.73094940185547,-2.353416254780271],[104.73094940185547,-2.3536735296393516],[104.73309516906738,-2.3550456614190978],[104.73352432250977,-2.355560210488136],[104.7367000579834,-2.357618404863018],[104.73970413208008,-2.359076290703655],[104.74124908447266,-2.3595908382825854],[104.74245071411133,-2.3595908382825854],[104.74365234375,-2.359162048646695],[104.73875999450684,-2.3693672060572766],[104.72906112670898,-2.3814589338478527],[104.7220230102539,-2.375884746245802],[104.71395492553711,-2.3702247788891526],[104.71043586730957,-2.36730902909423],[104.70837593078613,-2.36602266694004],[104.70571517944336,-2.365936909420654],[104.70442771911621,-2.3654223641929946],[104.70365524291992,-2.364736303592551],[104.70193862915039,-2.3625066042986873],[104.70150947570801,-2.3614775111092854],[104.70133781433105,-2.3601911435506793],[104.70099449157715,-2.3595908382825854],[104.70125198364258,-2.3584759849543104],[104.70219612121582,-2.3559032430952414],[104.70202445983887,-2.354531112160032],[104.70073699951172,-2.3525586715737745],[104.70022201538086,-2.3520441213967302],[104.69962120056152,-2.3518726046288663],[104.6971321105957,-2.3528159465911074],[104.6945571899414,-2.354445353931709],[104.69026565551758,-2.3575326468248363],[104.68133926391602,-2.364736303592551],[104.67524528503418,-2.369109934104145],[104.66726303100586,-2.3742553640791897],[104.66297149658203,-2.376485044454199],[104.6601390838623,-2.3776856400878756],[104.65601921081543,-2.3790577481043726],[104.6513843536377,-2.3799153149215044],[104.64726448059082,-2.380086828220911],[104.64529037475586,-2.380001071573858],[104.63996887207031,-2.3790577481043726],[104.63747978210449,-2.379229261510474],[104.63215827941895,-2.370567807873158],[104.63224411010742,-2.3692814487448857],[104.63301658630371,-2.3673947865287346],[104.6381664276123,-2.3605341750160562],[104.63919639587402,-2.3577899209235653],[104.6392822265625,-2.3553029359773916],[104.63842391967773,-2.349642884728297],[104.63679313659668,-2.3450976754467803],[104.63541984558105,-2.34303946261133],[104.63318824768066,-2.341753078052747],[104.62992668151855,-2.341324282937407],[104.61979866027832,-2.343982810536602],[104.61499214172363,-2.3447546401844193],[104.60812568664551,-2.3450976754467803],[104.60426330566406,-2.344840399007893],[104.60100173950195,-2.343982810536602],[104.5967960357666,-2.341753078052747],[104.5942211151123,-2.3378939172931155],[104.59353446960449,-2.334978099902287],[104.59362030029297,-2.332491074404956],[104.5953369140625,-2.3264878913035716],[104.5993709564209,-2.3159393791363954],[104.60005760192871,-2.311651343586817],[104.5997142791748,-2.3096788428823487],[104.59902763366699,-2.3081351447682295],[104.59748268127441,-2.3058195944541637],[104.59310531616211,-2.3025606654072135],[104.58383560180664,-2.296728879043542],[104.58057403564453,-2.2953566905547547],[104.57825660705566,-2.295270928730446],[104.57705497741699,-2.2957854995990346],[104.57602500915527,-2.2975864961797754],[104.5748233795166,-2.301874574131446],[104.57439422607422,-2.304961982270271],[104.57276344299316,-2.310021886679934],[104.5693302154541,-2.317740350198335],[104.56701278686523,-2.3204846826481855],[104.56375122070312,-2.3231432496296236],[104.56014633178711,-2.3246011713337964],[104.55757141113281,-2.3247726914352853],[104.55379486083984,-2.323572050287112],[104.54615592956543,-2.318426433809819],[104.54306602478027,-2.3173973082678856],[104.54195022583008,-2.3172257872714965],[104.5404052734375,-2.317740350198335],[104.5392894744873,-2.318597954660717],[104.53886032104492,-2.3194555586033516],[104.53843116760254,-2.320913484112495],[104.53851699829102,-2.3225429284904067],[104.5400619506836,-2.3263163714105985],[104.54246520996094,-2.3312904398321592],[104.5429801940918,-2.3333486699009853],[104.5429801940918,-2.3354068969570676],[104.5429801940918,-2.337550880267301],[104.54126358032227,-2.3429537036775088],[104.53946113586426,-2.3498144017701748],[104.53817367553711,-2.3598481120006483],[104.53654289245605,-2.3666229694271976],[104.53242301940918,-2.3717684086475685],[104.52598571777344,-2.3766565581800876],[104.52349662780762,-2.3774283696828746],[104.51886177062988,-2.3774283696828746],[104.51371192932129,-2.375541718580976],[104.50332641601562,-2.3656796368306914],[104.49723243713379,-2.359419322444097],[104.48856353759766,-2.3493856091259886],[104.48684692382812,-2.348184989021888],[104.4858169555664,-2.347841954516909],[104.48418617248535,-2.3477561958775084],[104.4814395904541,-2.349299850581332],[104.47937965393066,-2.3522156381435053],[104.47646141052246,-2.357018098484673],[104.47517395019531,-2.3583902269689645],[104.47234153747559,-2.3606199328691844],[104.46547508239746,-2.3626781197561257],[104.46066856384277,-2.3630211506074374],[104.44350242614746,-2.3631926660013107],[104.4389533996582,-2.362849635192376],[104.43517684936523,-2.362249331072803],[104.43234443664551,-2.3610487220553864],[104.4294261932373,-2.3587332588786154],[104.42685127258301,-2.3560747593670897],[104.42496299743652,-2.3531589798736974],[104.42376136779785,-2.3501574357907202],[104.42316055297852,-2.3455264694064937],[104.42316055297852,-2.3364360093545002],[104.4224739074707,-2.3238293306191053],[104.42290306091309,-2.3124231909425106],[104.42178726196289,-2.3071917728731535],[104.42084312438965,-2.304190130863006],[104.42007064819336,-2.302817949550459],[104.4184398651123,-2.3012742439942713],[104.41595077514648,-2.3002451060281572],[104.41483497619629,-2.300073582961616],[104.41303253173828,-2.2999878214206007],[104.41011428833008,-2.3004166290740784],[104.4085693359375,-2.301188482525447],[104.4085693359375,-2.299044444129251]],[[104.70734596252441,-2.364736303592551],[104.70846176147461,-2.3646505459936265],[104.70932006835938,-2.3640502426528514],[104.70949172973633,-2.3626781197561257],[104.70854759216309,-2.357618404863018],[104.70751762390137,-2.3559032430952414],[104.70657348632812,-2.3548741450205313],[104.70528602600098,-2.3537592879151674],[104.70339775085449,-2.3529017049196597],[104.70339775085449,-2.359676596193907],[104.7040843963623,-2.361820542257135],[104.70391273498535,-2.3631069083070315],[104.70451354980469,-2.3637929697130176],[104.70597267150879,-2.3644790307799184],[104.70734596252441,-2.364736303592551]]]}},{"type":"Feature","id":"pmtiles:10/809/518:water:116505723:0","properties":{"intermittent":0,"class":"river","id":11650572,"water":"river","kind":"waterway","verification":"verified","source":"OpenMapTiles/OpenStreetMap national PMTiles","sourceId":"10/809/518:water:116505723:0","sourceLayer":"water","archive":"https://its.hanifahseptiani45.workers.dev/v1/map/archive/indonesia.pmtiles","updatedAt":"2026-07-26T09:42:45.279Z"},"geometry":{"type":"Polygon","coordinates":[[[104.42994117736816,-2.1499831669213876],[104.42994117736816,-2.1506693289085064],[104.43028450012207,-2.150583558676999],[104.43011283874512,-2.1499831669213876],[104.4305419921875,-2.1496400858121234],[104.43028450012207,-2.1501547074470864],[104.43045616149902,-2.1506693289085064],[104.42985534667969,-2.1510981799937525],[104.42968368530273,-2.151784341479356],[104.42968368530273,-2.152127422106389],[104.43028450012207,-2.1531566635242285],[104.42951202392578,-2.154100134213266],[104.4301986694336,-2.154872064342385],[104.42968368530273,-2.1560728437653722],[104.42968368530273,-2.1566732331215945],[104.43037033081055,-2.1576167016312553],[104.4305419921875,-2.1585601695556136],[104.43037033081055,-2.159160557929866],[104.43071365356445,-2.160018255195908],[104.43045616149902,-2.160704412660067],[104.43037033081055,-2.161733648274975],[104.4308853149414,-2.162248265820736],[104.43122863769531,-2.163877886897481],[104.43105697631836,-2.164821350931007],[104.4316577911377,-2.1662794305548516],[104.43191528320312,-2.1679948165506033],[104.43328857421875,-2.1675659702338805],[104.43397521972656,-2.1668798158744096],[104.43586349487305,-2.1667940465576407],[104.43483352661133,-2.1673086623855227],[104.43414688110352,-2.1672228930930117],[104.43354606628418,-2.167823278038483],[104.43243026733398,-2.1679090472969733],[104.43157196044922,-2.168938278019624],[104.43071365356445,-2.1694528931183896],[104.42976951599121,-2.171254044584913],[104.43071365356445,-2.17099673736395],[104.43105697631836,-2.171511351762078],[104.4316577911377,-2.171425582707883],[104.43225860595703,-2.1722832730306436],[104.43303108215332,-2.172797886990537],[104.43285942077637,-2.172969424938202],[104.43217277526855,-2.1724548110367436],[104.43157196044922,-2.1715971208113842],[104.43114280700684,-2.1718544279301284],[104.43079948425293,-2.1716828898558447],[104.43071365356445,-2.171254044584913],[104.42959785461426,-2.171511351762078],[104.42891120910645,-2.1725405800325177],[104.42753791809082,-2.1733982697220995],[104.42719459533691,-2.1743417278178754],[104.42633628845215,-2.175542491813914],[104.4253921508789,-2.1785443976204704],[104.4247055053711,-2.1789732408189053],[104.42427635192871,-2.1790590094439466],[104.42341804504395,-2.1809459179583257],[104.4224739074707,-2.1815462974439868],[104.42161560058594,-2.1827470556962822],[104.42075729370117,-2.1832616660822595],[104.42075729370117,-2.183690507935964],[104.42118644714355,-2.1838620446431776],[104.42161560058594,-2.1845481912761926],[104.42144393920898,-2.185320105863653],[104.42058563232422,-2.186349324696266],[104.42049980163574,-2.1867781656682297],[104.42264556884766,-2.1884077602436918],[104.4239330291748,-2.190037353047998],[104.4247055053711,-2.191838479874775],[104.42479133605957,-2.1940684434196527],[104.42298889160156,-2.1993002679090665],[104.42092895507812,-2.2039317037883706],[104.42058563232422,-2.205303978320387],[104.42058563232422,-2.207876989655901],[104.42144393920898,-2.2107072969794928],[104.42290306091309,-2.214652564848066],[104.42307472229004,-2.217054027103856],[104.42281723022461,-2.2198843169023945],[104.4221305847168,-2.2225430690491805],[104.4195556640625,-2.227774793157934],[104.41758155822754,-2.2330922641922513],[104.41715240478516,-2.235922523188819],[104.41740989685059,-2.2375520637717017],[104.41792488098145,-2.2384097159827974],[104.4198989868164,-2.2396104282352667],[104.42075729370117,-2.2399534886980916],[104.4253921508789,-2.239438897973713],[104.4374942779541,-2.240468079241694],[104.44084167480469,-2.240468079241694],[104.44393157958984,-2.2396104282352667],[104.45234298706055,-2.2345502770838834],[104.45646286010742,-2.232577671061506],[104.46109771728516,-2.2297474056227173],[104.46418762207031,-2.227002900604603],[104.46650505065918,-2.2244299225068858],[104.47148323059082,-2.2164536619050637],[104.47474479675293,-2.212251098699781],[104.47817802429199,-2.209506561197955],[104.48427200317383,-2.2074481547425364],[104.48813438415527,-2.204017470983686],[104.4898509979248,-2.2011013835722366],[104.49088096618652,-2.1980137553897237],[104.49182510375977,-2.1962126360001406],[104.49628829956055,-2.1904661929651184],[104.49843406677246,-2.187292774672784],[104.4990348815918,-2.185663178886273],[104.50015068054199,-2.1812889919794713],[104.50023651123047,-2.180174001124726],[104.49989318847656,-2.1778582482490236],[104.49946403503418,-2.1766574860971133],[104.49748992919922,-2.174513265590093],[104.49637413024902,-2.172797886990537],[104.49594497680664,-2.171425582707883],[104.49379920959473,-2.170739430099175],[104.49225425720215,-2.1682521242823043],[104.49165344238281,-2.1681663550432546],[104.49122428894043,-2.168595201189845],[104.49070930480957,-2.168680970404594],[104.48796272277832,-2.1683378935164797],[104.48538780212402,-2.1673086623855227],[104.48341369628906,-2.1659363531225324],[104.48238372802734,-2.1658505837523165],[104.48135375976562,-2.165250198024836],[104.48135375976562,-2.164821350931007],[104.48015213012695,-2.1626771136422462],[104.47843551635742,-2.1607901823212927],[104.47800636291504,-2.159503636894385],[104.47731971740723,-2.1589890184185663],[104.47697639465332,-2.1577882412974105],[104.47551727294922,-2.1568447728941607],[104.47525978088379,-2.156330153518468],[104.47534561157227,-2.154100134213266],[104.47586059570312,-2.1524705026562287],[104.47551727294922,-2.152127422106389],[104.47500228881836,-2.152127422106389],[104.47440147399902,-2.151698571310547],[104.47422981262207,-2.1493827749295775],[104.47388648986816,-2.1487823827016683],[104.47440147399902,-2.1488681530343996],[104.47474479675293,-2.151527030958434],[104.47568893432617,-2.151784341479356],[104.47611808776855,-2.152298962390958],[104.47568893432617,-2.154271674275776],[104.4756031036377,-2.1562443836056104],[104.47731971740723,-2.15753093179093],[104.47766304016113,-2.1588174788878973],[104.47834968566895,-2.159246327678261],[104.47937965393066,-2.161390569814202],[104.48040962219238,-2.1625055745281827],[104.48204040527344,-2.165164428615782],[104.48358535766602,-2.1655075062228804],[104.48555946350098,-2.166965585186361],[104.48856353759766,-2.1679948165506033],[104.49045181274414,-2.1681663550432546],[104.49182510375977,-2.167651739506937],[104.4924259185791,-2.167737508775147],[104.49414253234863,-2.1702248154382175],[104.49603080749512,-2.170653661001168],[104.49843406677246,-2.1662794305548516],[104.50186729431152,-2.1613048001868975],[104.5030689239502,-2.1602755642812923],[104.50770378112793,-2.157445161945759],[104.50727462768555,-2.156158613687907],[104.50727462768555,-2.153070893432627],[104.50701713562012,-2.1524705026562287],[104.5059871673584,-2.151012409786361],[104.5048713684082,-2.1502404777027095],[104.50349807739258,-2.149897396651312],[104.50281143188477,-2.1492112343171357],[104.50203895568848,-2.147581597537709],[104.501953125,-2.1460377295117326],[104.50118064880371,-2.144408089348687],[104.50135231018066,-2.143893465778646],[104.5022964477539,-2.1430357594441034],[104.50221061706543,-2.141063033051566],[104.50281143188477,-2.139690700150254],[104.50281143188477,-2.1392618458666988],[104.5022964477539,-2.1389187623535264],[104.50203895568848,-2.1382325950969943],[104.50246810913086,-2.1362598625258045],[104.50289726257324,-2.135402151921852],[104.50238227844238,-2.1344586697045145],[104.50246810913086,-2.1338582716283554],[104.50315475463867,-2.133257873317774],[104.50332641601562,-2.1317139908717166],[104.50366973876953,-2.1315424482821044],[104.50384140014648,-2.13094204906794],[104.50435638427734,-2.1305131923430594],[104.50435638427734,-2.129998564115567],[104.50504302978516,-2.1288835356996287],[104.50512886047363,-2.1283689069278893],[104.5059871673584,-2.127253877333146],[104.50693130493164,-2.1273396488690537],[104.50684547424316,-2.1268250195820713],[104.50727462768555,-2.1263103901234217],[104.5071029663086,-2.125881532110114],[104.50727462768555,-2.125109587385893],[104.50770378112793,-2.1248522723920615],[104.5074462890625,-2.1244234139737017],[104.50787544250488,-2.124166098865544],[104.50813293457031,-2.123479925034232],[104.50847625732422,-2.123308381528787],[104.50847625732422,-2.1229652944607977],[104.5089054107666,-2.1228795226818846],[104.50881958007812,-2.12193603279988],[104.50976371765137,-2.1211640861045993],[104.50976371765137,-2.120649454760411],[104.51027870178223,-2.12022059517615],[104.50993537902832,-2.120735226663001],[104.50984954833984,-2.1213356298479766],[104.50899124145508,-2.121850260963882],[104.50899124145508,-2.123051066234922],[104.5085620880127,-2.123051066234922],[104.50864791870117,-2.123308381528787],[104.50804710388184,-2.124166098865544],[104.50753211975098,-2.1244234139737017],[104.50787544250488,-2.124938044061423],[104.5074462890625,-2.125109587385893],[104.5074462890625,-2.1264819332953806],[104.5071029663086,-2.1268250195820713],[104.50701713562012,-2.1275969634481697],[104.50615882873535,-2.1275111919265584],[104.50581550598145,-2.1281115924775804],[104.50530052185059,-2.128540449870883],[104.50521469116211,-2.1291408500210736],[104.50461387634277,-2.129912792727609],[104.50461387634277,-2.1306847350473532],[104.50409889221191,-2.13094204906794],[104.50384140014648,-2.1317997621593747],[104.5034122467041,-2.1318855334422153],[104.50332641601562,-2.133429415716151],[104.50272560119629,-2.1339440427964433],[104.5034122467041,-2.1350590675462087],[104.50281143188477,-2.136602946633303],[104.50255393981934,-2.1383183660208545],[104.50298309326172,-2.1388329914632322],[104.50358390808105,-2.1389187623535264],[104.50324058532715,-2.139090304119705],[104.50332641601562,-2.1396049293031325],[104.50263977050781,-2.141148803817117],[104.50281143188477,-2.143378842035588],[104.50178146362305,-2.1443223187657026],[104.50246810913086,-2.1456088770055857],[104.50263977050781,-2.1477531383332007],[104.5030689239502,-2.148525071674584],[104.50366973876953,-2.1491254640036743],[104.5063304901123,-2.1504977884406458],[104.50693130493164,-2.1510981799937525],[104.50753211975098,-2.1520416519568784],[104.5077896118164,-2.152899353234929],[104.5077896118164,-2.155901303905793],[104.50821876525879,-2.1571878523812273],[104.50881958007812,-2.1571878523812273],[104.5187759399414,-2.1562443836056104],[104.52023506164551,-2.155901303905793],[104.5228099822998,-2.1547862943473604],[104.52349662780762,-2.154185904246944],[104.5253849029541,-2.151870111643362],[104.52632904052734,-2.151012409786361],[104.53156471252441,-2.1480962198664173],[104.53680038452148,-2.148010449490343],[104.54109191894531,-2.1472385158889296],[104.54358100891113,-2.1460377295117326],[104.5462417602539,-2.144408089348687],[104.55044746398926,-2.141148803817117],[104.55370903015137,-2.1392618458666988],[104.55448150634766,-2.1390045332390173],[104.55645561218262,-2.1389187623535264],[104.5594596862793,-2.139433387594508],[104.56366539001465,-2.1416634283095135],[104.56521034240723,-2.142092281921151],[104.56658363342285,-2.1419207404909173],[104.56769943237305,-2.141491886831261],[104.5704460144043,-2.137460656566688],[104.57362174987793,-2.1348017542141946],[104.57842826843262,-2.1319713047202953],[104.58108901977539,-2.1297412499373536],[104.58246231079102,-2.1277685064770537],[104.5828914642334,-2.126053075329736],[104.58246231079102,-2.124766500717911],[104.58023071289062,-2.120649454760411],[104.58023071289062,-2.116618169978949],[104.58057403564453,-2.1159319928013645],[104.58254814147949,-2.114130776265881],[104.58392143249512,-2.11327305337133],[104.58572387695312,-2.112415330002989],[104.58915710449219,-2.111300288916084],[104.59482192993164,-2.1082982512455146],[104.59610939025879,-2.103409206077373],[104.59765434265137,-2.103409206077373],[104.59756851196289,-2.104266934409125],[104.59653854370117,-2.1072689798536146],[104.59671020507812,-2.108040933461325],[104.59859848022461,-2.1088128866862235],[104.60074424743652,-2.110271019510435],[104.60434913635254,-2.1134445979881633],[104.60949897766113,-2.1173901189406905],[104.61121559143066,-2.118505155650979],[104.61396217346191,-2.1187624717009186],[104.622802734375,-2.1164466257130243],[104.62494850158691,-2.116189309278539],[104.6268367767334,-2.1155889040987006],[104.62700843811035,-2.114902726465729],[104.62580680847168,-2.1114718337507696],[104.62486267089844,-2.1075262977653892],[104.62469100952148,-2.103409206077373],[104.63001251220703,-2.103409206077373],[104.6297550201416,-2.1057250714902267],[104.63001251220703,-2.1071832072069014],[104.63172912597656,-2.111814923363312],[104.63172912597656,-2.1151600431136615],[104.63129997253418,-2.1184193836248397],[104.63198661804199,-2.1191055597009836],[104.63602066040039,-2.12022059517615],[104.63799476623535,-2.12056368285306],[104.63911056518555,-2.120306367102515],[104.64065551757812,-2.1167039421047917],[104.64383125305176,-2.1105283369257393],[104.64494705200195,-2.109499067009068],[104.64674949645996,-2.1084697964113275],[104.64803695678711,-2.108212478655517],[104.65044021606445,-2.1084697964113275],[104.6543025970459,-2.1095848395281394],[104.65730667114258,-2.1101852470292073],[104.66314315795898,-2.1095848395281394],[104.66588973999023,-2.10838402383078],[104.66760635375977,-2.1073547524956098],[104.66855049133301,-2.1072689798536146],[104.67095375061035,-2.1073547524956098],[104.67404365539551,-2.109327521956729],[104.6762752532959,-2.110271019510435],[104.67747688293457,-2.111557606161014],[104.68005180358887,-2.1151600431136615],[104.68073844909668,-2.1170470305607125],[104.68116760253906,-2.118505155650979],[104.68099594116211,-2.120735226663001],[104.68005180358887,-2.1252811306912918],[104.68005180358887,-2.1275111919265584],[104.67945098876953,-2.1288835356996287],[104.67782020568848,-2.1308562777325193],[104.6762752532959,-2.1336867292778265],[104.67636108398438,-2.1348875253296598],[104.67610359191895,-2.1344586697045145],[104.6762752532959,-2.1330863309002694],[104.67764854431152,-2.1305989636975937],[104.67945098876953,-2.128197363965782],[104.67970848083496,-2.127253877333146],[104.67979431152344,-2.1251953590409727],[104.68073844909668,-2.1186766996890185],[104.67988014221191,-2.1160177649651644],[104.67653274536133,-2.111300288916084],[104.67352867126465,-2.1097563845520853],[104.67181205749512,-2.1085555689871427],[104.67035293579102,-2.108040933461325],[104.66872215270996,-2.108040933461325],[104.66743469238281,-2.10838402383078],[104.66520309448242,-2.1095848395281394],[104.66314315795898,-2.110442564458694],[104.65713500976562,-2.1111287440624835],[104.6506118774414,-2.109499067009068],[104.64855194091797,-2.109155976885475],[104.64700698852539,-2.109327521956729],[104.64554786682129,-2.110271019510435],[104.64503288269043,-2.110957199189926],[104.64151382446289,-2.117304346852819],[104.64056968688965,-2.1200490513091808],[104.6396255493164,-2.1215071735722972],[104.63825225830078,-2.121764489123109],[104.6363639831543,-2.1216787172776037],[104.63018417358398,-2.119963279368548],[104.62898254394531,-2.1208209985608164],[104.62743759155273,-2.1212498579786683],[104.62563514709473,-2.12142140171251],[104.622802734375,-2.1208209985608164],[104.62100028991699,-2.1208209985608164],[104.61645126342773,-2.122622207316624],[104.61190223693848,-2.122622207316624],[104.60967063903809,-2.1221075764576227],[104.60692405700684,-2.120392139024119],[104.59954261779785,-2.114130776265881],[104.59842681884766,-2.112844191746376],[104.59696769714355,-2.1119006957546276],[104.5956802368164,-2.111814923363312],[104.59465026855469,-2.1121580129001103],[104.58855628967285,-2.115331587521908],[104.58520889282227,-2.1164466257130243],[104.58452224731445,-2.116875486342252],[104.58409309387207,-2.117561663102194],[104.5840072631836,-2.118590927672372],[104.58409309387207,-2.1195344195941743],[104.58598136901855,-2.123308381528787],[104.58632469177246,-2.1245949573553418],[104.58641052246094,-2.1256242172449333],[104.58572387695312,-2.1284546784017664],[104.58443641662598,-2.1306847350473532],[104.58040237426758,-2.1345444408391216],[104.57877159118652,-2.135316380835107],[104.57413673400879,-2.1387472205681632],[104.56907272338867,-2.145094253839474],[104.57121849060059,-2.1494685452285864],[104.57276344299316,-2.1499831669213876],[104.57413673400879,-2.1502404777027095],[104.57473754882812,-2.1507550991351962],[104.57533836364746,-2.151698571310547],[104.57525253295898,-2.153757054030308],[104.5759391784668,-2.1546147543428162],[104.5773983001709,-2.155472454172269],[104.57825660705566,-2.1571020825167153],[104.57834243774414,-2.1579597809442106],[104.5792007446289,-2.158474399768494],[104.57902908325195,-2.1594178671605135],[104.57962989807129,-2.1597609460669247],[104.57971572875977,-2.1604471036473427],[104.58057403564453,-2.1601897945910054],[104.58091735839844,-2.1606186429940095],[104.57945823669434,-2.160532873323092],[104.57945823669434,-2.159846715781441],[104.578857421875,-2.15933209742181],[104.57894325256348,-2.158474399768494],[104.57808494567871,-2.1579597809442106],[104.57808494567871,-2.1571020825167153],[104.57722663879395,-2.155729764026873],[104.57533836364746,-2.1544432143189596],[104.57508087158203,-2.1546147543428162],[104.57525253295898,-2.154872064342385],[104.5748233795166,-2.155043604317939],[104.57508087158203,-2.154100134213266],[104.57490921020508,-2.1520416519568784],[104.57439422607422,-2.1509266395741236],[104.57113265991211,-2.1499831669213876],[104.57087516784668,-2.1504977884406458],[104.57104682922363,-2.151441260775144],[104.56958770751953,-2.1527278130179326],[104.56847190856934,-2.1531566635242285],[104.5707893371582,-2.1513554905870507],[104.57061767578125,-2.1503262479535152],[104.57087516784668,-2.1498116263763904],[104.56838607788086,-2.1452657949140814],[104.56546783447266,-2.145437335969447],[104.56340789794922,-2.1452657949140814],[104.56177711486816,-2.144579630500232],[104.55894470214844,-2.1427784474500413],[104.5572280883789,-2.142006511208436],[104.55645561218262,-2.142006511208436],[104.55473899841309,-2.1422638233322004],[104.55276489257812,-2.14294998878421],[104.55113410949707,-2.143807695166828],[104.5488166809082,-2.145694647516436],[104.54435348510742,-2.1484393013225684],[104.5407485961914,-2.1498116263763904],[104.53808784484863,-2.1503262479535152],[104.53268051147461,-2.1504120181995034],[104.53044891357422,-2.1510981799937525],[104.52864646911621,-2.1525562727816236],[104.52701568603516,-2.1546147543428162],[104.52409744262695,-2.1570163126473574],[104.52040672302246,-2.1583886299765425],[104.51465606689453,-2.159246327678261],[104.5100212097168,-2.159160557929866],[104.50761795043945,-2.160018255195908],[104.50435638427734,-2.1619909570696763],[104.5022964477539,-2.164220964795774],[104.5008373260498,-2.167137123795655],[104.4993782043457,-2.1691955855908986],[104.49860572814941,-2.170653661001168],[104.49851989746094,-2.1711682755161235],[104.49877738952637,-2.1717686588954166],[104.50126647949219,-2.1751994164839914],[104.50203895568848,-2.1767432548539745],[104.5022964477539,-2.178372860306922],[104.50221061706543,-2.1814605289606988],[104.5016098022461,-2.1854916423847612],[104.49997901916504,-2.1888366006271127],[104.49294090270996,-2.198614128036766],[104.49234008789062,-2.2000721748882057],[104.49199676513672,-2.201959056932793],[104.490966796875,-2.2038459365881238],[104.48822021484375,-2.206933552683182],[104.48573112487793,-2.208991959851474],[104.48332786560059,-2.210278462883281],[104.47877883911133,-2.211564964800189],[104.47620391845703,-2.213451832260219],[104.47345733642578,-2.2172255599730732],[104.47079658508301,-2.2216854075892343],[104.46822166442871,-2.22563064617799],[104.46521759033203,-2.2286324510760807],[104.45989608764648,-2.232920733168683],[104.45963859558105,-2.233435326179304],[104.45955276489258,-2.234292980796411],[104.46032524108887,-2.234893338730373],[104.46066856384277,-2.236865941641639],[104.46178436279297,-2.2383239507842774],[104.46247100830078,-2.2407253744457023],[104.4638442993164,-2.2414114947686556],[104.46478843688965,-2.24235490968762],[104.46581840515137,-2.2420976147700316],[104.46710586547852,-2.242869499387055],[104.4678783416748,-2.2442417377005057],[104.46770668029785,-2.245356680381846],[104.46813583374023,-2.246042798532187],[104.46805000305176,-2.24630009275549],[104.4675350189209,-2.245356680381846],[104.46770668029785,-2.244413267399139],[104.46676254272461,-2.242869499387055],[104.46590423583984,-2.2424406746500978],[104.4646167755127,-2.2426122045599612],[104.46393013000488,-2.241754554809546],[104.46221351623535,-2.2407253744457023],[104.46152687072754,-2.238495481176315],[104.46049690246582,-2.237037472204264],[104.46015357971191,-2.2351506349126424],[104.45938110351562,-2.234636042503027],[104.4591236114502,-2.2342072153572445],[104.45920944213867,-2.233435326179304],[104.44272994995117,-2.2420118497874455],[104.43758010864258,-2.2424406746500978],[104.42453384399414,-2.2414972597864278],[104.42127227783203,-2.241754554809546],[104.42007064819336,-2.241583024799155],[104.41723823547363,-2.240039253801257],[104.41603660583496,-2.2385812463648165],[104.41560745239258,-2.2375520637717017],[104.41534996032715,-2.2352364002966993],[104.4155216217041,-2.2342072153572445],[104.4166374206543,-2.229918937016464],[104.41818237304688,-2.2262310076468452],[104.4206714630127,-2.2215996414158496],[104.42127227783203,-2.219369719160099],[104.42135810852051,-2.2165394283769473],[104.42092895507812,-2.2143952650897205],[104.41929817199707,-2.209592328071693],[104.41886901855469,-2.204789375519141],[104.42007064819336,-2.201358685632229],[104.42187309265137,-2.1980137553897237],[104.42324638366699,-2.1941542111819103],[104.42333221435547,-2.1927819263954973],[104.4224739074707,-2.1904661929651184],[104.41723823547363,-2.185663178886273],[104.41629409790039,-2.184376654647309],[104.41543579101562,-2.1826612872814906],[104.41466331481934,-2.17811555429995],[104.4140625,-2.176057104662462],[104.4126033782959,-2.17348403866427],[104.41174507141113,-2.173140962866384],[104.40985679626465,-2.173741345461522],[104.4085693359375,-2.1739128833019947],[104.4085693359375,-2.1733125007750687],[104.40985679626465,-2.173140962866384],[104.41131591796875,-2.1723690420361237],[104.41062927246094,-2.17194019695998],[104.4085693359375,-2.17099673736395],[104.4085693359375,-2.1702248154382175],[104.40951347351074,-2.170482122790588],[104.41165924072266,-2.171511351762078],[104.4129467010498,-2.1723690420361237],[104.4140625,-2.1733982697220995],[104.41474914550781,-2.174684803342828],[104.41577911376953,-2.177429404733175],[104.41689491271973,-2.1827470556962822],[104.41835403442383,-2.18497703276266],[104.41938400268555,-2.1857489471296674],[104.42058563232422,-2.185062801045248],[104.42075729370117,-2.1848054961827614],[104.41972732543945,-2.1835189712091676],[104.41981315612793,-2.1827470556962822],[104.42110061645508,-2.182232445134133],[104.4221305847168,-2.1809459179583257],[104.42290306091309,-2.1803455382330696],[104.42341804504395,-2.1788017035541856],[104.42376136779785,-2.178372860306922],[104.42479133605957,-2.17811555429995],[104.425048828125,-2.17768671085733],[104.42582130432129,-2.1751136476393214],[104.42659378051758,-2.17408442112297],[104.42685127258301,-2.1732267318231635],[104.4276237487793,-2.1723690420361237],[104.42891120910645,-2.1716828898558447],[104.4301986694336,-2.168938278019624],[104.43122863769531,-2.1682521242823043],[104.43105697631836,-2.166193661204062],[104.43037033081055,-2.164821350931007],[104.43071365356445,-2.164220964795774],[104.43037033081055,-2.1625055745281827],[104.42959785461426,-2.162162496241905],[104.42959785461426,-2.1610474912758946],[104.42934036254883,-2.1606186429940095],[104.42813873291016,-2.1602755642812923],[104.42779541015625,-2.159846715781441],[104.42959785461426,-2.160532873323092],[104.42985534667969,-2.16181941787805],[104.4301986694336,-2.1597609460669247],[104.42994117736816,-2.1594178671605135],[104.42994117736816,-2.1577024714667488],[104.42934036254883,-2.1568447728941607],[104.42934036254883,-2.155901303905793],[104.42976951599121,-2.154872064342385],[104.42916870117188,-2.1545289843332966],[104.4290828704834,-2.1543574442997766],[104.42916870117188,-2.153928594131443],[104.42968368530273,-2.15358551390986],[104.42994117736816,-2.153070893432627],[104.42916870117188,-2.1519558818025217],[104.42934036254883,-2.1510981799937525],[104.42976951599121,-2.1504120181995034],[104.42968368530273,-2.1501547074470864],[104.42916870117188,-2.1498116263763904],[104.42899703979492,-2.1490396936853955],[104.42934036254883,-2.148181990237674],[104.42916870117188,-2.147410056722947],[104.42856788635254,-2.146809663719651],[104.42753791809082,-2.1464665818975845],[104.42753791809082,-2.1460377295117326],[104.42805290222168,-2.145866188523698],[104.42805290222168,-2.145523106489918],[104.42719459533691,-2.145437335969447],[104.42702293395996,-2.1442365481779007],[104.42728042602539,-2.144579630500232],[104.42736625671387,-2.1451800243791865],[104.42788124084473,-2.145094253839474],[104.42831039428711,-2.145437335969447],[104.42831039428711,-2.145951959020124],[104.42779541015625,-2.146380811430035],[104.42882537841797,-2.1465523523603167],[104.42951202392578,-2.1472385158889296],[104.42959785461426,-2.148267760604128],[104.42925453186035,-2.1490396936853955],[104.4294261932373,-2.1495543155227637],[104.42994117736816,-2.1499831669213876]]]}},{"type":"Feature","id":"pmtiles:10/809/518:water:116511063:0","properties":{"intermittent":0,"class":"river","id":11651106,"water":"river","kind":"waterway","verification":"verified","source":"OpenMapTiles/OpenStreetMap national PMTiles","sourceId":"10/809/518:water:116511063:0","sourceLayer":"water","archive":"https://its.hanifahseptiani45.workers.dev/v1/map/archive/indonesia.pmtiles","updatedAt":"2026-07-26T09:42:45.279Z"},"geometry":{"type":"Polygon","coordinates":[[[104.75592613220215,-2.4656692707025485],[104.74588394165039,-2.4656692707025485],[104.74639892578125,-2.462153465852822],[104.74631309509277,-2.4540928051064554],[104.7355842590332,-2.4313683408148563],[104.73223686218262,-2.4217639236659636],[104.73034858703613,-2.408815003524694],[104.72923278808594,-2.4000679811398697],[104.72931861877441,-2.3957802046135015],[104.73060607910156,-2.3864328052843007],[104.73017692565918,-2.384374653766784],[104.72906112670898,-2.3814589338478527],[104.73875999450684,-2.3693672060572766],[104.74365234375,-2.359162048646695],[104.74502563476562,-2.356932340409486],[104.74777221679688,-2.3490425749158277],[104.75017547607422,-2.343897051660562],[104.75532531738281,-2.3340347459212154],[104.7586727142334,-2.326144851496764],[104.7630500793457,-2.3168827452163896],[104.76571083068848,-2.312165908537253],[104.7711181640625,-2.303418279037359],[104.7711181640625,-2.3181691524944767],[104.77051734924316,-2.3173115477722916],[104.76862907409668,-2.3171400267655287],[104.76588249206543,-2.318426433809819],[104.76399421691895,-2.321685326420436],[104.75850105285645,-2.3371220838671576],[104.75601196289062,-2.3426964268445687],[104.75360870361328,-2.3447546401844193],[104.75163459777832,-2.348099230403534],[104.75017547607422,-2.3520441213967302],[104.75180625915527,-2.3541023209656515],[104.75489616394043,-2.353330496483352],[104.7597885131836,-2.3535877713582636],[104.76227760314941,-2.351786846237019],[104.76553916931152,-2.3456979869535672],[104.76880073547363,-2.3359214532500374],[104.77034568786621,-2.3301755639545547],[104.7711181640625,-2.324343891142462],[104.7711181640625,-2.38729036750739],[104.7696590423584,-2.3875476360699963],[104.75729942321777,-2.3859182676936825],[104.754638671875,-2.392950264750297],[104.75292205810547,-2.3999822257410415],[104.75214958190918,-2.4045272544600635],[104.7520637512207,-2.4075286802215174],[104.75601196289062,-2.42690915562369],[104.75738525390625,-2.438743114741385],[104.75729942321777,-2.4428592500592856],[104.75592613220215,-2.4656692707025485]]]}},{"type":"Feature","id":"pmtiles:10/809/518:water:116511073:0","properties":{"intermittent":0,"class":"river","id":11651107,"water":"river","kind":"waterway","verification":"verified","source":"OpenMapTiles/OpenStreetMap national PMTiles","sourceId":"10/809/518:water:116511073:0","sourceLayer":"water","archive":"https://its.hanifahseptiani45.workers.dev/v1/map/archive/indonesia.pmtiles","updatedAt":"2026-07-26T09:42:45.279Z"},"geometry":{"type":"Polygon","coordinates":[[[104.4913101196289,-2.4656692707025485],[104.50349807739258,-2.4600096778542593],[104.52032089233398,-2.449633695292974],[104.52632904052734,-2.446803867901508],[104.53396797180176,-2.444145539760015],[104.53774452209473,-2.443373766087447],[104.54272270202637,-2.443373766087447],[104.54855918884277,-2.4440597871516445],[104.55242156982422,-2.4449173129888635],[104.55594062805176,-2.4445743027197153],[104.55842971801758,-2.4439740345377885],[104.56074714660645,-2.443030755423905],[104.56615447998047,-2.4396863968648574],[104.56881523132324,-2.437628325924564],[104.57825660705566,-2.428624228593236],[104.58675384521484,-2.4211636453305374],[104.59885597229004,-2.40907226803958],[104.60220336914062,-2.4055563154653186],[104.61173057556152,-2.3934647997055407],[104.61782455444336,-2.38729036750739],[104.63190078735352,-2.3742553640791897],[104.63301658630371,-2.373054765463806],[104.63310241699219,-2.3723687086440464],[104.63747978210449,-2.379229261510474],[104.63644981384277,-2.3795722882586574],[104.63559150695801,-2.38034409813001],[104.63361740112305,-2.382488012171322],[104.6294116973877,-2.3884051975973932],[104.62091445922852,-2.401268556158186],[104.61602210998535,-2.4073571703560077],[104.61241722106934,-2.4114734011675694],[104.60563659667969,-2.417561969735985],[104.59559440612793,-2.4257943570265894],[104.58083152770996,-2.4371995607491357],[104.57379341125488,-2.443030755423905],[104.56984519958496,-2.4456033332640743],[104.56297874450684,-2.449119181666319],[104.55482482910156,-2.4515202435659376],[104.53662872314453,-2.4533210371638603],[104.53190803527832,-2.452978029046392],[104.52856063842773,-2.4530637810839977],[104.52555656433105,-2.453749797186944],[104.5224666595459,-2.4549503245201123],[104.52023506164551,-2.456236602608854],[104.50615882873535,-2.4656692707025485],[104.4913101196289,-2.4656692707025485]]]}},{"type":"Feature","id":"pmtiles:10/809/518:waterway:440184182:0","properties":{"name_int":"Air Calik","name_de":"Air Calik","name":"Air Calik","name:id":"Air Calik","class":"river","name:latin":"Air Calik","name_en":"Air Calik","waterway":"river","kind":"waterway","verification":"verified","source":"OpenMapTiles/OpenStreetMap national PMTiles","sourceId":"10/809/518:waterway:440184182:0","sourceLayer":"waterway","archive":"https://its.hanifahseptiani45.workers.dev/v1/map/archive/indonesia.pmtiles","updatedAt":"2026-07-26T09:42:45.279Z"},"geometry":{"type":"LineString","coordinates":[[104.49319839477539,-2.468327556007594],[104.5184326171875,-2.4540070531348164],[104.52744483947754,-2.4501482087219415],[104.55757141113281,-2.4474041348171625],[104.56083297729492,-2.446289353188476],[104.5667552947998,-2.443373766087447],[104.56812858581543,-2.4424304865519133],[104.59473609924316,-2.419105546162072],[104.61112976074219,-2.4042699890874673],[104.61396217346191,-2.40101129017161],[104.6257209777832,-2.3860040239721485],[104.63052749633789,-2.380429854755704],[104.63241577148438,-2.378628964495846],[104.63464736938477,-2.377256856052881],[104.63919639587402,-2.375027176923993]]}},{"type":"Feature","id":"pmtiles:10/809/518:waterway:586445310:0","properties":{"name":"Sungai Sembilang","name_int":"Sungai Sembilang","class":"river","name:latin":"Sungai Sembilang","name_de":"Sungai Sembilang","name_en":"Sungai Sembilang","waterway":"river","kind":"waterway","verification":"verified","source":"OpenMapTiles/OpenStreetMap national PMTiles","sourceId":"10/809/518:waterway:586445310:0","sourceLayer":"waterway","archive":"https://its.hanifahseptiani45.workers.dev/v1/map/archive/indonesia.pmtiles","updatedAt":"2026-07-26T09:42:45.279Z"},"geometry":{"type":"LineString","coordinates":[[104.40668106079102,-2.1699675080420633],[104.41037178039551,-2.171339813648828],[104.41251754760742,-2.172626349023389],[104.41423416137695,-2.175027878789777],[104.4151782989502,-2.178287091642815],[104.41569328308105,-2.181031686470945],[104.4169807434082,-2.184376654647309],[104.4180965423584,-2.185663178886273],[104.42264556884766,-2.189351208925288],[104.4235897064209,-2.1911523365771473],[104.4239330291748,-2.1927819263954973],[104.4239330291748,-2.1941542111819103],[104.42298889160156,-2.1971560797608305],[104.4210147857666,-2.201272918283834],[104.4198989868164,-2.2051324440730724],[104.41981315612793,-2.2075339217351058],[104.42007064819336,-2.209249260546997],[104.4221305847168,-2.215252930777112],[104.42230224609375,-2.2172255599730732],[104.42204475402832,-2.219627018053643],[104.42058563232422,-2.223829560304779],[104.41895484924316,-2.2266598371177366],[104.4169807434082,-2.231376953055772],[104.41629409790039,-2.234893338730373],[104.41646575927734,-2.2371232374780305],[104.41732406616211,-2.2388385419001793],[104.42032814025879,-2.2406396093827254],[104.42513465881348,-2.240468079241694],[104.43972587585449,-2.2414114947686556],[104.44255828857422,-2.2408111395036627],[104.45981025695801,-2.2318057810275462],[104.46538925170898,-2.2271744323180656],[104.4675350189209,-2.2248587525016745],[104.46942329406738,-2.222285770663504],[104.47251319885254,-2.216968260661801],[104.4748306274414,-2.213623365546624],[104.4770622253418,-2.211479198040422],[104.47946548461914,-2.2100211623660897],[104.4828987121582,-2.209163493653435],[104.48607444763184,-2.2076196887227297],[104.48822021484375,-2.205303978320387],[104.48976516723633,-2.2032455660479826],[104.4924259185791,-2.1973276149260386],[104.49397087097168,-2.1949261208209236],[104.49800491333008,-2.1896942810259077],[104.50032234191895,-2.1855774106379613],[104.50118064880371,-2.1812032234815177],[104.50100898742676,-2.177944016937559],[104.49946403503418,-2.174513265590093],[104.49714660644531,-2.170739430099175],[104.49783325195312,-2.1691955855908986],[104.50152397155762,-2.1632775003886877],[104.50238227844238,-2.162248265820736],[104.50495719909668,-2.1601897945910054],[104.50693130493164,-2.158903248655662],[104.50839042663574,-2.158302860179745],[104.51311111450195,-2.1577882412974105],[104.51826095581055,-2.1576167016312553],[104.52255249023438,-2.1564159234265077],[104.52392578125,-2.15555822412864],[104.52838897705078,-2.1509266395741236],[104.52984809875488,-2.1500689371866457],[104.53250885009766,-2.1492970046257653],[104.5363712310791,-2.1492112343171357],[104.53963279724121,-2.1487823827016683],[104.54263687133789,-2.147924679109451],[104.54804420471191,-2.144579630500232],[104.55096244812012,-2.1422638233322004],[104.55439567565918,-2.1408057207261493],[104.55748558044434,-2.140634179151874],[104.55954551696777,-2.1413203453337815],[104.56212043762207,-2.14294998878421],[104.56400871276855,-2.143721924550192],[104.5664119720459,-2.143721924550192],[104.56812858581543,-2.143293071394922],[104.56984519958496,-2.141491886831261],[104.57181930541992,-2.1387472205681632],[104.57353591918945,-2.1371175726508227],[104.57662582397461,-2.1348017542141946],[104.57911491394043,-2.133343644519357],[104.58203315734863,-2.1307705063923237],[104.5832347869873,-2.1293123928781625],[104.58417892456055,-2.127682734964992],[104.58452224731445,-2.1257957604931477],[104.58426475524902,-2.1239945554362833],[104.58306312561035,-2.12193603279988],[104.58237648010254,-2.12022059517615],[104.58211898803711,-2.1184193836248397],[104.58254814147949,-2.116618169978949],[104.58383560180664,-2.1151600431136615],[104.58555221557617,-2.114130776265881],[104.58975791931152,-2.1127584194071716],[104.59482192993164,-2.1101852470292073],[104.59662437438965,-2.1097563845520853],[104.59988594055176,-2.111643378566498],[104.60709571838379,-2.1179905234228755],[104.61052894592285,-2.12022059517615],[104.61464881896973,-2.120477910940977],[104.62194442749023,-2.1196201915585533],[104.62623596191406,-2.1184193836248397],[104.6286392211914,-2.1169612584538413],[104.62906837463379,-2.115331587521908],[104.62915420532227,-2.1135303702894674],[104.62906837463379,-2.111814923363312],[104.6279525756836,-2.1087271141245907],[104.62760925292969,-2.1070116618993353],[104.62752342224121,-2.103409206077373],[104.62786674499512,-2.101350656157436]]}},{"type":"Feature","id":"pmtiles:10/809/518:waterway:5445209282:0","properties":{"name_int":"Lalan River","name_de":"Sungai Lalan","name":"Sungai Lalan","name:id":"Sungai Lalan","name:en":"Lalan River","class":"river","name:latin":"Sungai Lalan","name_en":"Lalan River","waterway":"river","kind":"waterway","verification":"verified","source":"OpenMapTiles/OpenStreetMap national PMTiles","sourceId":"10/809/518:waterway:5445209282:0","sourceLayer":"waterway","archive":"https://its.hanifahseptiani45.workers.dev/v1/map/archive/indonesia.pmtiles","updatedAt":"2026-07-26T09:42:45.279Z"},"geometry":{"type":"LineString","coordinates":[[104.40805435180664,-2.300159344497459],[104.41062927246094,-2.2992159673195403],[104.4151782989502,-2.299044444129251],[104.41792488098145,-2.2999020598744266],[104.41938400268555,-2.3008454365986353],[104.4206714630127,-2.3021318583985675],[104.42178726196289,-2.3036755630257204],[104.42290306091309,-2.307363295082453],[104.42384719848633,-2.311822865257696],[104.42384719848633,-2.3185121942378686],[104.42341804504395,-2.3265736512422563],[104.42419052124023,-2.3374651209977486],[104.42401885986328,-2.3458695044796087],[104.42436218261719,-2.3482707476349702],[104.42496299743652,-2.350500469726967],[104.42693710327148,-2.354616870383083],[104.43028450012207,-2.3582187109824275],[104.43337440490723,-2.360448417157656],[104.43586349487305,-2.3614775111092854],[104.4386100769043,-2.3619920577992843],[104.44204330444336,-2.3621635733202737],[104.46453094482422,-2.361906300030867],[104.46719169616699,-2.3614775111092854],[104.4715690612793,-2.3598481120006483],[104.47345733642578,-2.3587332588786154],[104.47517395019531,-2.3571038565545734],[104.47697639465332,-2.3547026286008332],[104.47989463806152,-2.3492140920314313],[104.48101043701172,-2.3482707476349702],[104.48246955871582,-2.3474131612672977],[104.48427200317383,-2.346812850496832],[104.48598861694336,-2.3467270917942784],[104.48727607727051,-2.3469843678861224],[104.48864936828613,-2.347841954516909],[104.49028015136719,-2.349299850581332],[104.49740409851074,-2.3579614369629667],[104.50143814086914,-2.3623350888200747],[104.50821876525879,-2.3687669047589424]]}},{"type":"Feature","id":"pmtiles:10/809/518:waterway:8497560130:0","properties":{"name":"Sungai Lalan","name_int":"Sungai Lalan","class":"river","name:latin":"Sungai Lalan","name_de":"Sungai Lalan","name_en":"Sungai Lalan","waterway":"river","kind":"waterway","verification":"verified","source":"OpenMapTiles/OpenStreetMap national PMTiles","sourceId":"10/809/518:waterway:8497560130:0","sourceLayer":"waterway","archive":"https://its.hanifahseptiani45.workers.dev/v1/map/archive/indonesia.pmtiles","updatedAt":"2026-07-26T09:42:45.279Z"},"geometry":{"type":"LineString","coordinates":[[104.50821876525879,-2.3687669047589424],[104.51276779174805,-2.3733120366834584],[104.51414108276367,-2.3743411210832335],[104.5173168182373,-2.375884746245802],[104.52057838439941,-2.376485044454199],[104.5235824584961,-2.3763992875832685],[104.52555656433105,-2.375627475505155],[104.53001976013184,-2.3726259799913407],[104.53225135803223,-2.370653565105883],[104.53353881835938,-2.3692814487448857],[104.53482627868652,-2.3673947865287346],[104.53619956970215,-2.363964485011536],[104.53705787658691,-2.3598481120006483],[104.53877449035645,-2.347241643930616],[104.53971862792969,-2.3435540161039086],[104.54126358032227,-2.339437582871412],[104.5418643951416,-2.3366932873360327],[104.5418643951416,-2.33420626487397],[104.54143524169922,-2.33206227646086],[104.53791618347168,-2.324515411275229],[104.53757286071777,-2.3233147699082224],[104.53731536865234,-2.3205704429514498],[104.53800201416016,-2.318597954660717],[104.53886032104492,-2.3175688292434984],[104.54023361206055,-2.3166254636205252],[104.54117774963379,-2.3162824214199986],[104.54366683959961,-2.316196660856889],[104.54564094543457,-2.3167112241576717],[104.54744338989258,-2.3175688292434984],[104.55388069152832,-2.3221141275204786],[104.55594062805176,-2.3231432496296236],[104.55860137939453,-2.323572050287112],[104.56066131591797,-2.3229717293301633],[104.5623779296875,-2.322199887724878],[104.56606864929199,-2.3193697982324863],[104.56830024719238,-2.316453942530657],[104.5693302154541,-2.3144814485045657],[104.57216262817383,-2.307277533980397],[104.5744800567627,-2.2976722578650737],[104.57533836364746,-2.2961285467418264],[104.57705497741699,-2.294413310204547],[104.57825660705566,-2.2939845007486923],[104.5799732208252,-2.2938129769303686],[104.58229064941406,-2.2943275483236505],[104.58529472351074,-2.2956139759967584],[104.59353446960449,-2.3007596751040325],[104.59842681884766,-2.3046189372520303],[104.60005760192871,-2.3067629672594165],[104.60074424743652,-2.308049383712728],[104.6011734008789,-2.3096788428823487],[104.60143089294434,-2.312766234076932],[104.60100173950195,-2.3160251397150944],[104.59997177124023,-2.3200558810538467],[104.5964527130127,-2.329489486052637],[104.59542274475098,-2.3333486699009853],[104.5953369140625,-2.3350638593237107],[104.59585189819336,-2.3372936024429265],[104.5967960357666,-2.3389230278673807],[104.5979118347168,-2.3401236559164573],[104.59997177124023,-2.341495800999283],[104.6022891998291,-2.3423533909937646],[104.60546493530273,-2.3429537036775088],[104.60906982421875,-2.3429537036775088],[104.61421966552734,-2.3423533909937646],[104.62743759155273,-2.339523342020385],[104.63095664978027,-2.339437582871412],[104.63301658630371,-2.339780619435885],[104.63481903076172,-2.340466692313086],[104.63653564453125,-2.3416673190401696],[104.63756561279297,-2.342867944738444],[104.63902473449707,-2.345269193046434],[104.64048385620117,-2.3492140920314313],[104.64125633239746,-2.353416254780271],[104.64134216308594,-2.3571038565545734],[104.64082717895508,-2.359762354099928],[104.6396255493164,-2.362763877476894],[104.63516235351562,-2.3702247788891526]]}},{"type":"Feature","id":"pmtiles:10/809/518:waterway:8497560130:1","properties":{"name":"Sungai Lalan","name_int":"Sungai Lalan","class":"river","name:latin":"Sungai Lalan","name_de":"Sungai Lalan","name_en":"Sungai Lalan","waterway":"river","kind":"waterway","verification":"verified","source":"OpenMapTiles/OpenStreetMap national PMTiles","sourceId":"10/809/518:waterway:8497560130:1","sourceLayer":"waterway","archive":"https://its.hanifahseptiani45.workers.dev/v1/map/archive/indonesia.pmtiles","updatedAt":"2026-07-26T09:42:45.279Z"},"geometry":{"type":"LineString","coordinates":[[104.63533401489258,-2.3717684086475685],[104.63919639587402,-2.375027176923993],[104.64872360229492,-2.3733977937460367],[104.65713500976562,-2.3707393223332787],[104.66554641723633,-2.3657653943659795],[104.6748161315918,-2.358904774801701],[104.68511581420898,-2.3518726046288663],[104.69155311584473,-2.348442264845346],[104.69721794128418,-2.3469843678861224],[104.70211029052734,-2.346898609194099],[104.70803260803223,-2.348184989021888],[104.71429824829102,-2.3519583630154273],[104.72082138061523,-2.3574468887813396],[104.7297477722168,-2.364136000288852],[104.73884582519531,-2.3693672060572766],[104.74811553955078,-2.3725402228809003]]}},{"type":"Feature","id":"pmtiles:10/809/518:waterway:8594298480:0","properties":{"name":"Sungai Bungin","name_int":"Sungai Bungin","class":"river","name:latin":"Sungai Bungin","name_de":"Sungai Bungin","name_en":"Sungai Bungin","waterway":"river","kind":"waterway","verification":"verified","source":"OpenMapTiles/OpenStreetMap national PMTiles","sourceId":"10/809/518:waterway:8594298480:0","sourceLayer":"waterway","archive":"https://its.hanifahseptiani45.workers.dev/v1/map/archive/indonesia.pmtiles","updatedAt":"2026-07-26T09:42:45.279Z"},"geometry":{"type":"LineString","coordinates":[[104.72768783569336,-2.206847785655981],[104.7286319732666,-2.2055612796542476],[104.72906112670898,-2.205303978320387],[104.72940444946289,-2.2072766207425474],[104.72880363464355,-2.207876989655901],[104.72803115844727,-2.208134290544521],[104.72743034362793,-2.209077726754927],[104.72760200500488,-2.209420794319243],[104.72811698913574,-2.2096780949404717],[104.72871780395508,-2.209249260546997],[104.73283767700195,-2.2107072969794928],[104.7330093383789,-2.210106929210113],[104.73369598388672,-2.209849628663207],[104.73369598388672,-2.209506561197955],[104.73318099975586,-2.208991959851474],[104.73369598388672,-2.2085631252599],[104.73361015319824,-2.2075339217351058],[104.73438262939453,-2.2074481547425364],[104.73506927490234,-2.207876989655901],[104.73601341247559,-2.2077912226831273],[104.73652839660645,-2.208134290544521],[104.73712921142578,-2.2075339217351058],[104.73738670349121,-2.208048523586612],[104.73807334899902,-2.207876989655901],[104.73875999450684,-2.208477358326718],[104.73936080932617,-2.2086488921881084],[104.73978996276855,-2.208477358326718],[104.73970413208008,-2.2077054557054083],[104.7410774230957,-2.208134290544521],[104.74150657653809,-2.2086488921881084],[104.74184989929199,-2.2083915913886045],[104.74210739135742,-2.2077054557054083],[104.74296569824219,-2.208134290544521],[104.74365234375,-2.208134290544521],[104.74339485168457,-2.208991959851474],[104.74365234375,-2.209163493653435],[104.7439956665039,-2.209077726754927],[104.74442481994629,-2.2083058244455316],[104.7451114654541,-2.2087346591113857],[104.74588394165039,-2.2086488921881084],[104.7462272644043,-2.209077726754927],[104.74699974060059,-2.208048523586612],[104.74760055541992,-2.208477358326718],[104.74837303161621,-2.2086488921881084],[104.74845886230469,-2.2076196887227297],[104.74940299987793,-2.2083058244455316],[104.74940299987793,-2.208991959851474],[104.74983215332031,-2.208991959851474],[104.74983215332031,-2.2083058244455316],[104.75017547607422,-2.207962756623729],[104.75051879882812,-2.207962756623729],[104.75154876708984,-2.209420794319243],[104.75189208984375,-2.2093350274356],[104.75223541259766,-2.208820426029689],[104.75266456604004,-2.2087346591113857],[104.75343704223633,-2.2100211623660897],[104.75395202636719,-2.2101926960491767],[104.754638671875,-2.209420794319243],[104.75489616394043,-2.210106929210113],[104.75566864013672,-2.210535763355878],[104.7560977935791,-2.2110503641672636],[104.7560977935791,-2.211479198040422],[104.75566864013672,-2.2119937985246168],[104.75592613220215,-2.212336865414912],[104.7572135925293,-2.2120795652546263],[104.75790023803711,-2.2128514656015454],[104.75807189941406,-2.213451832260219],[104.75918769836426,-2.2132802989539755],[104.7597885131836,-2.213709132182359],[104.76056098937988,-2.213709132182359],[104.7612476348877,-2.2145667982669153],[104.76202011108398,-2.214052198675745],[104.76244926452637,-2.214052198675745],[104.76347923278809,-2.214995631123017],[104.76579666137695,-2.214052198675745],[104.76794242858887,-2.2158532964627824],[104.76922988891602,-2.217311326400221],[104.77060317993164,-2.2172255599730732],[104.77197647094727,-2.217740158461396]]}},{"type":"Feature","id":"pmtiles:10/809/518:waterway:14201293980:0","properties":{"name":"Air Banyu Asin","name_int":"Air Banyu Asin","class":"river","name:latin":"Air Banyu Asin","name_de":"Air Banyu Asin","name_en":"Air Banyu Asin","waterway":"river","kind":"waterway","verification":"verified","source":"OpenMapTiles/OpenStreetMap national PMTiles","sourceId":"10/809/518:waterway:14201293980:0","sourceLayer":"waterway","archive":"https://its.hanifahseptiani45.workers.dev/v1/map/archive/indonesia.pmtiles","updatedAt":"2026-07-26T09:42:45.279Z"},"geometry":{"type":"LineString","coordinates":[[104.7491455078125,-2.4749303706852857],[104.75069046020508,-2.462067714399069],[104.75086212158203,-2.45520758023693],[104.7502613067627,-2.4486904201598207],[104.74923133850098,-2.442173228381776],[104.74682807922363,-2.4330834081199413],[104.74322319030762,-2.4233932492355024],[104.7410774230957,-2.416189900327737],[104.73970413208008,-2.4067568856567476],[104.73978996276855,-2.3960374715839095],[104.74202156066895,-2.3854894862210756],[104.74536895751953,-2.3769138287289593],[104.74811553955078,-2.3725402228809003],[104.74940299987793,-2.3715968943150187],[104.75489616394043,-2.3690241767758096],[104.77901458740234,-2.359247806584449]]}},{"type":"Feature","id":"pmtiles:8/202/129:landcover:431139940:0","properties":{"subclass":"forest","class":"wood","kind":"green","verification":"verified","source":"OpenMapTiles/OpenStreetMap national PMTiles","sourceId":"8/202/129:landcover:431139940:0","sourceLayer":"landcover","archive":"https://its.hanifahseptiani45.workers.dev/v1/map/archive/indonesia.pmtiles","updatedAt":"2026-07-26T09:35:34.651Z"},"geometry":{"type":"Polygon","coordinates":[[[104.75360870361328,-2.3445831225216835],[104.7659683227539,-2.3185121942378686],[104.77043151855469,-2.3174830687582926],[104.77043151855469,-2.3301755639545547],[104.76219177246094,-2.351786846237019],[104.75189208984375,-2.354188079215092],[104.75017547607422,-2.352129879772747],[104.75360870361328,-2.3445831225216835]]]}},{"type":"Feature","id":"pmtiles:8/202/129:water:116505723:0","properties":{"intermittent":0,"class":"river","id":11650572,"water":"river","kind":"waterway","verification":"verified","source":"OpenMapTiles/OpenStreetMap national PMTiles","sourceId":"8/202/129:water:116505723:0","sourceLayer":"water","archive":"https://its.hanifahseptiani45.workers.dev/v1/map/archive/indonesia.pmtiles","updatedAt":"2026-07-26T09:35:34.657Z"},"geometry":{"type":"Polygon","coordinates":[[[104.39552307128906,-2.1771720985650944],[104.39620971679688,-2.1754567229887556],[104.39689636230469,-2.175799798260144],[104.39964294433594,-2.1747705722118837],[104.40101623535156,-2.175799798260144],[104.41131591796875,-2.1723690420361237],[104.40479278564453,-2.168938278019624],[104.403076171875,-2.1610474912758946],[104.40135955810547,-2.15933209742181],[104.40067291259766,-2.1569305427731678],[104.40376281738281,-2.1610474912758946],[104.40547943115234,-2.168595201189845],[104.4140625,-2.1733982697220995],[104.41680908203125,-2.1826612872814906],[104.4192123413086,-2.1857489471296674],[104.42058563232422,-2.1847197278854793],[104.4198989868164,-2.1826612872814906],[104.4247055053711,-2.1782013229738197],[104.42676544189453,-2.1730551939047302],[104.43122863769531,-2.1682521242823043],[104.4305419921875,-2.162419804963875],[104.42985534667969,-2.161733648274975],[104.42985534667969,-2.155901303905793],[104.43191528320312,-2.1679090472969733],[104.43260192871094,-2.1679090472969733],[104.4308853149414,-2.1692813547715843],[104.42985534667969,-2.171339813648828],[104.42951202392578,-2.171339813648828],[104.42745208740234,-2.1733982697220995],[104.4253921508789,-2.1785443976204704],[104.42092895507812,-2.183347434462789],[104.42161560058594,-2.184376654647309],[104.42058563232422,-2.1867781656682297],[104.42401885986328,-2.1898658170467655],[104.4247055053711,-2.193982675652464],[104.42058563232422,-2.205303978320387],[104.42058563232422,-2.2077054557054083],[104.42298889160156,-2.2145667982669153],[104.42264556884766,-2.2197127843415387],[104.41715240478516,-2.235836757844851],[104.41783905029297,-2.2382381855807125],[104.42092895507812,-2.2399534886980916],[104.4253921508789,-2.2392673676920936],[104.44084167480469,-2.240296549080597],[104.44393157958984,-2.2396104282352667],[104.45663452148438,-2.2324061399778827],[104.46418762207031,-2.2269171347403756],[104.4748306274414,-2.2121653319796764],[104.47826385498047,-2.209420794319243],[104.48410034179688,-2.2073623877450075],[104.48822021484375,-2.2039317037883706],[104.49165344238281,-2.196041100706907],[104.49920654296875,-2.1857489471296674],[104.50023651123047,-2.1812889919794713],[104.49989318847656,-2.1778582482490236],[104.49577331542969,-2.171339813648828],[104.49371337890625,-2.170653661001168],[104.49234008789062,-2.1682521242823043],[104.48787689208984,-2.1682521242823043],[104.48135375976562,-2.165164428615782],[104.47689056396484,-2.1576167016312553],[104.47517395019531,-2.1562443836056104],[104.47586059570312,-2.1524705026562287],[104.4744873046875,-2.151784341479356],[104.47380065917969,-2.1486966123641196],[104.4748306274414,-2.151441260775144],[104.47620391845703,-2.1524705026562287],[104.47551727294922,-2.1562443836056104],[104.47723388671875,-2.1576167016312553],[104.48204040527344,-2.165164428615782],[104.48856353759766,-2.1679090472969733],[104.49234008789062,-2.1679090472969733],[104.49405670166016,-2.1703105845605393],[104.4961166381836,-2.170653661001168],[104.501953125,-2.161390569814202],[104.5077896118164,-2.157273622240922],[104.5071029663086,-2.1524705026562287],[104.50298309326172,-2.1490396936853955],[104.50126647949219,-2.144579630500232],[104.5016098022461,-2.1442365481779007],[104.50298309326172,-2.1486966123641196],[104.5074462890625,-2.152127422106389],[104.5077896118164,-2.155901303905793],[104.50881958007812,-2.157273622240922],[104.52014923095703,-2.155901303905793],[104.53147888183594,-2.148010449490343],[104.54109191894531,-2.147324286308333],[104.55448150634766,-2.139090304119705],[104.55928802490234,-2.139433387594508],[104.56512451171875,-2.1421780526290775],[104.5675277709961,-2.141491886831261],[104.57027435302734,-2.137374885594909],[104.5785140991211,-2.1318855334422153],[104.58229064941406,-2.1277685064770537],[104.58263397216797,-2.1246807290389995],[104.58023071289062,-2.12056368285306],[104.58057403564453,-2.1157604484595254],[104.5840072631836,-2.113358825682127],[104.5949935913086,-2.108212478655517],[104.59636688232422,-2.102036839765745],[104.59430694580078,-2.102036839765745],[104.59156036376953,-2.103409206077373],[104.58984375,-2.1030661146126164],[104.58606719970703,-2.0989490111544455],[104.5843505859375,-2.094145710084149],[104.5792007446289,-2.0931164293665603],[104.57679748535156,-2.09174405402527],[104.57714080810547,-2.0889992997416442],[104.58023071289062,-2.085568350143248],[104.57542419433594,-2.082480489107482],[104.56958770751953,-2.080078815228987],[104.56855773925781,-2.0804219117213165],[104.56855773925781,-2.0831666809720417],[104.56649780273438,-2.084539063804243],[104.56375122070312,-2.083509776792212],[104.5565414428711,-2.0852252547717143],[104.55276489257812,-2.0821373930631495],[104.5510482788086,-2.0831666809720417],[104.54418182373047,-2.082823585077122],[104.54418182373047,-2.0807650081389966],[104.54315185546875,-2.0797357186620644],[104.54109191894531,-2.0797357186620644],[104.5407485961914,-2.0776771376940815],[104.53697204589844,-2.0797357186620644],[104.5352554321289,-2.0780202347084753],[104.53216552734375,-2.0797357186620644],[104.53113555908203,-2.079049525304356],[104.5352554321289,-2.0773340406051375],[104.53731536865234,-2.0793926220205066],[104.53834533691406,-2.0780202347084753],[104.54109191894531,-2.0773340406051375],[104.54143524169922,-2.0793926220205066],[104.54280853271484,-2.079049525304356],[104.54452514648438,-2.0807650081389966],[104.54452514648438,-2.082480489107482],[104.54761505126953,-2.081794296944139],[104.55070495605469,-2.082480489107482],[104.55276489257812,-2.081451200750408],[104.556884765625,-2.084539063804243],[104.56409454345703,-2.082480489107482],[104.56649780273438,-2.0838528725376477],[104.56787109375,-2.082480489107482],[104.56787109375,-2.080078815228987],[104.57027435302734,-2.0793926220205066],[104.58057403564453,-2.084539063804243],[104.58126068115234,-2.086254540661855],[104.57782745361328,-2.0896854887624414],[104.57817077636719,-2.09174405402527],[104.58503723144531,-2.0931164293665603],[104.58675384521484,-2.097233548178906],[104.59053039550781,-2.102036839765745],[104.5953369140625,-2.100321380179622],[104.59705352783203,-2.1010075642401915],[104.59774017333984,-2.1030661146126164],[104.59671020507812,-2.108212478655517],[104.600830078125,-2.110271019510435],[104.60941314697266,-2.1174758910238154],[104.61112976074219,-2.118505155650979],[104.61387634277344,-2.118848243708058],[104.62486267089844,-2.116103537124218],[104.62692260742188,-2.1150742709024257],[104.62486267089844,-2.1075262977653892],[104.62451934814453,-2.1027230230724143],[104.62760925292969,-2.0975766409245296],[104.63584899902344,-2.0934595230142037],[104.63516235351562,-2.090371677483361],[104.62589263916016,-2.075618554042876],[104.62348937988281,-2.078706428513641],[104.61936950683594,-2.0776771376940815],[104.6176528930664,-2.080078815228987],[104.61318969726562,-2.082480489107482],[104.6114730834961,-2.0852252547717143],[104.61112976074219,-2.085568350143248],[104.61009979248047,-2.0859114454399617],[104.60975646972656,-2.0852252547717143],[104.61318969726562,-2.081451200750408],[104.6173095703125,-2.0793926220205066],[104.61902618408203,-2.0769909434417],[104.6231460571289,-2.0780202347084753],[104.62486267089844,-2.0745892612118837],[104.62451934814453,-2.0718444770554925],[104.62348937988281,-2.071158280272897],[104.61902618408203,-2.0721875753353203],[104.61490631103516,-2.0742461634526848],[104.61250305175781,-2.0742461634526848],[104.60906982421875,-2.073559967711077],[104.60323333740234,-2.0745892612118837],[104.59911346435547,-2.0783633316483474],[104.60254669189453,-2.074932358896646],[104.60220336914062,-2.0718444770554925],[104.6004867553711,-2.071158280272897],[104.60254669189453,-2.071501378701342],[104.60289001464844,-2.073559967711077],[104.60391998291016,-2.0742461634526848],[104.60838317871094,-2.0728737716719223],[104.61524963378906,-2.0732168697286824],[104.61902618408203,-2.071501378701342],[104.622802734375,-2.0704720831930956],[104.62177276611328,-2.0687565891939528],[104.62039947509766,-2.069099688142259],[104.61627960205078,-2.0663548944784793],[104.6169662475586,-2.0656686953210084],[104.62039947509766,-2.0687565891939528],[104.62211608886719,-2.068070391074727],[104.6231460571289,-2.0701289845417676],[104.62486267089844,-2.0704720831930956],[104.62623596191406,-2.0725306735407827],[104.62726593017578,-2.0673841926587073],[104.63104248046875,-2.0615514941547843],[104.63653564453125,-2.0567480793355344],[104.6451187133789,-2.052973957544694],[104.64958190917969,-2.052973957544694],[104.6554183959961,-2.054346366500596],[104.666748046875,-2.05366016216999],[104.67155456542969,-2.0553756724437164],[104.677734375,-2.0612083935765924],[104.68116760253906,-2.0612083935765924],[104.6835708618164,-2.0584635862900313],[104.6832275390625,-2.0526308551215635],[104.68048095703125,-2.0430239574220224],[104.67601776123047,-2.0347894279342285],[104.6890640258789,-2.0292997182390025],[104.6890640258789,-2.04165153876788],[104.69009399414062,-2.0450825832042057],[104.69249725341797,-2.046798102671872],[104.70039367675781,-2.048170516924344],[104.70279693603516,-2.049542930001195],[104.70726013183594,-2.046798102671872],[104.70794677734375,-2.041994643541315],[104.7110366821289,-2.03993601380229],[104.71138000488281,-2.0378773814286717],[104.71378326416016,-2.0385635925124603],[104.71481323242188,-2.0361618524400598],[104.71481323242188,-2.0382204870071234],[104.71378326416016,-2.03924980330369],[104.71172332763672,-2.0385635925124603],[104.71138000488281,-2.0402791189418252],[104.70829010009766,-2.042680852868415],[104.70760345458984,-2.0474843099450197],[104.70314025878906,-2.0502291360985083],[104.70245361328125,-2.054346366500596],[104.69867706298828,-2.05914978855499],[104.69970703125,-2.0598359905244763],[104.70176696777344,-2.0588066874594517],[104.70417022705078,-2.0601790913983677],[104.7055435180664,-2.0629238957278915],[104.70382690429688,-2.0694427870163423],[104.70382690429688,-2.0728737716719223],[104.71172332763672,-2.0773340406051375],[104.7158432006836,-2.0773340406051375],[104.71858978271484,-2.0759616515043007],[104.71515655517578,-2.078706428513641],[104.7110366821289,-2.0783633316483474],[104.70588684082031,-2.0745892612118837],[104.70348358154297,-2.073903065619078],[104.70382690429688,-2.0780202347084753],[104.70314025878906,-2.0804219117213165],[104.69902038574219,-2.082823585077122],[104.69696044921875,-2.087626920800872],[104.69249725341797,-2.0910578659043466],[104.6938705444336,-2.0924302418460456],[104.70726013183594,-2.098605918709879],[104.71378326416016,-2.0989490111544455],[104.7158432006836,-2.1027230230724143],[104.7213363647461,-2.1027230230724143],[104.7268295288086,-2.105810844217217],[104.72030639648438,-2.1037522974666842],[104.71549987792969,-2.1040953887805074],[104.71309661865234,-2.0999782880363256],[104.70623016357422,-2.0999782880363256],[104.69249725341797,-2.094145710084149],[104.69249725341797,-2.0965473624619477],[104.69043731689453,-2.0982628261900373],[104.68975067138672,-2.0979197335949067],[104.69146728515625,-2.096890455358036],[104.69078063964844,-2.0889992997416442],[104.69524383544922,-2.086597635808914],[104.69696044921875,-2.081794296944139],[104.70142364501953,-2.0783633316483474],[104.70108032226562,-2.0677272919037932],[104.70245361328125,-2.0629238957278915],[104.69764709472656,-2.061894594659023],[104.69593048095703,-2.05914978855499],[104.69661712646484,-2.0567480793355344],[104.7000503540039,-2.0526308551215635],[104.7000503540039,-2.051258444692806],[104.69009399414062,-2.051258444692806],[104.69146728515625,-2.0598359905244763],[104.68803405761719,-2.0656686953210084],[104.67636108398438,-2.067041093339455],[104.67155456542969,-2.0646393960290226],[104.66777801513672,-2.0601790913983677],[104.66503143310547,-2.05914978855499],[104.65232849121094,-2.059492889576674],[104.6506118774414,-2.060522192198377],[104.65129852294922,-2.0684134901714373],[104.64889526367188,-2.071158280272897],[104.64683532714844,-2.071501378701342],[104.64134216308594,-2.0684134901714373],[104.6392822265625,-2.0687565891939528],[104.63859558105469,-2.0701289845417676],[104.6389389038086,-2.0742461634526848],[104.64168548583984,-2.0780202347084753],[104.64580535888672,-2.079049525304356],[104.65164184570312,-2.0776771376940815],[104.65438842773438,-2.0780202347084753],[104.65885162353516,-2.081108104482027],[104.66022491455078,-2.082823585077122],[104.6609115600586,-2.086254540661855],[104.66503143310547,-2.0883131104210975],[104.66743469238281,-2.0931164293665603],[104.6722412109375,-2.094145710084149],[104.67704772949219,-2.0989490111544455],[104.67842102050781,-2.0962042694906557],[104.677734375,-2.0999782880363256],[104.67430114746094,-2.0979197335949067],[104.6718978881836,-2.095174990125628],[104.66915130615234,-2.095174990125628],[104.666748046875,-2.094145710084149],[104.66468811035156,-2.0896854887624414],[104.66056823730469,-2.087626920800872],[104.65850830078125,-2.082823585077122],[104.65370178222656,-2.0797357186620644],[104.65129852294922,-2.079049525304356],[104.64408874511719,-2.0804219117213165],[104.64134216308594,-2.0797357186620644],[104.63859558105469,-2.0773340406051375],[104.63653564453125,-2.071501378701342],[104.63825225830078,-2.0677272919037932],[104.64134216308594,-2.066697993946036],[104.64752197265625,-2.069785885816188],[104.64958190917969,-2.0684134901714373],[104.64923858642578,-2.0598359905244763],[104.6451187133789,-2.05914978855499],[104.64340209960938,-2.0598359905244763],[104.63481903076172,-2.0660117949367987],[104.63241577148438,-2.0694427870163423],[104.63241577148438,-2.073903065619078],[104.63687896728516,-2.0838528725376477],[104.64065551757812,-2.0896854887624414],[104.64099884033203,-2.0931164293665603],[104.63859558105469,-2.0989490111544455],[104.63104248046875,-2.1016937479992777],[104.63001251220703,-2.1030661146126164],[104.62966918945312,-2.105810844217217],[104.63172912597656,-2.111643378566498],[104.63138580322266,-2.118505155650979],[104.63619232177734,-2.12022059517615],[104.6392822265625,-2.12022059517615],[104.64374542236328,-2.110614109388038],[104.64683532714844,-2.1085555689871427],[104.65713500976562,-2.110271019510435],[104.66297149658203,-2.1095848395281394],[104.66777801513672,-2.1075262977653892],[104.67086791992188,-2.1071832072069014],[104.67636108398438,-2.110271019510435],[104.67670440673828,-2.111300288916084],[104.67018127441406,-2.108212478655517],[104.66743469238281,-2.108212478655517],[104.66297149658203,-2.110271019510435],[104.65713500976562,-2.110957199189926],[104.64717864990234,-2.109241749423461],[104.6451187133789,-2.110957199189926],[104.6396255493164,-2.1215929454273237],[104.63825225830078,-2.1215929454273237],[104.63001251220703,-2.1198775074231975],[104.62554931640625,-2.1212498579786683],[104.62108612060547,-2.1209067704538995],[104.61662292480469,-2.122622207316624],[104.60975646972656,-2.122279120096323],[104.59705352783203,-2.1119864681411684],[104.59465026855469,-2.1119864681411684],[104.58538055419922,-2.1164466257130243],[104.5840072631836,-2.118505155650979],[104.58641052246094,-2.1246807290389995],[104.58572387695312,-2.1284546784017664],[104.58057403564453,-2.1346302119689256],[104.57405090332031,-2.1387472205681632],[104.56890106201172,-2.1452657949140814],[104.57130432128906,-2.1493827749295775],[104.57473754882812,-2.1507550991351962],[104.57508087158203,-2.1538428240832843],[104.57714080810547,-2.15555822412864],[104.57542419433594,-2.1545289843332966],[104.57473754882812,-2.154872064342385],[104.57439422607422,-2.1510981799937525],[104.57130432128906,-2.1500689371866457],[104.57096099853516,-2.151441260775144],[104.57096099853516,-2.14972585609668],[104.5682144165039,-2.1452657949140814],[104.56340789794922,-2.1452657949140814],[104.5565414428711,-2.1421780526290775],[104.55276489257812,-2.142864218119527],[104.54452514648438,-2.148353530965764],[104.5407485961914,-2.14972585609668],[104.53044891357422,-2.1510981799937525],[104.52392578125,-2.1569305427731678],[104.52049255371094,-2.158302860179745],[104.5074462890625,-2.160018255195908],[104.5022964477539,-2.164135195328484],[104.49851989746094,-2.171339813648828],[104.501953125,-2.1768290236059613],[104.5016098022461,-2.1854058741266584],[104.49302673339844,-2.198785663034414],[104.490966796875,-2.2039317037883706],[104.4858169555664,-2.209077726754927],[104.47895050048828,-2.211479198040422],[104.47620391845703,-2.2135375989059014],[104.46830749511719,-2.2255448802339117],[104.45972442626953,-2.233435326179304],[104.46247100830078,-2.2406396093827254],[104.46693420410156,-2.242697969507361],[104.46693420410156,-2.2430410292466405],[104.46453094482422,-2.242697969507361],[104.46212768554688,-2.2406396093827254],[104.45938110351562,-2.233435326179304],[104.44290161132812,-2.2420118497874455],[104.42127227783203,-2.2416687898068517],[104.41715240478516,-2.2399534886980916],[104.41577911376953,-2.2375520637717017],[104.41543579101562,-2.2341214499130615],[104.42127227783203,-2.219369719160099],[104.42127227783203,-2.216625194843843],[104.4192123413086,-2.209420794319243],[104.41886901855469,-2.2049609098059904],[104.42333221435547,-2.193982675652464],[104.42230224609375,-2.190551960933803],[104.41646575927734,-2.184376654647309],[104.4140625,-2.176142873453472],[104.41165924072266,-2.1730551939047302],[104.40101623535156,-2.1764859485687538],[104.39964294433594,-2.175799798260144],[104.39689636230469,-2.1768290236059613],[104.39586639404297,-2.1775151734461247],[104.39655303955078,-2.176142873453472],[104.39552307128906,-2.1771720985650944]]]}}]}