{"type":"FeatureCollection","features":[{"type":"Feature","id":"pmtiles:10/858/498:water:1420:0","properties":{"class":"ocean","water":"ocean","kind":"waterway","verification":"verified","source":"OpenMapTiles/OpenStreetMap national PMTiles","sourceId":"10/858/498:water:1420:0","sourceLayer":"water","archive":"https://its.hanifahseptiani45.workers.dev/v1/map/archive/indonesia.pmtiles","updatedAt":"2026-07-26T09:39:05.497Z"},"geometry":{"type":"Polygon","coordinates":[[[121.6351318359375,4.921305737130211],[121.9976806640625,4.921305737130211],[121.9976806640625,4.559997795432594],[121.6351318359375,4.559997795432594],[121.6351318359375,4.921305737130211]]]}},{"type":"Feature","id":"pmtiles:8/214/124:water:360:0","properties":{"class":"ocean","water":"ocean","kind":"waterway","verification":"verified","source":"OpenMapTiles/OpenStreetMap national PMTiles","sourceId":"8/214/124:water:360:0","sourceLayer":"water","archive":"https://its.hanifahseptiani45.workers.dev/v1/map/archive/indonesia.pmtiles","updatedAt":"2026-07-26T09:35:19.067Z"},"geometry":{"type":"Polygon","coordinates":[[[120.91552734375,5.616327493906226],[120.91552734375,5.637852598770863],[120.9371566772461,5.637852598770863],[120.9378433227539,5.637852598770863],[122.36572265625,5.637852598770863],[122.36572265625,5.616327493906226],[122.36572265625,5.615644144204097],[122.36572265625,4.193029605360763],[120.9378433227539,4.193029605360763],[120.9371566772461,4.193029605360763],[120.91552734375,4.193029605360763],[120.91552734375,5.488185517352505],[120.92376708984375,5.485793269960368],[120.9261703491211,5.485793269960368],[120.9320068359375,5.487502019076686],[120.9371566772461,5.487843768312501],[120.9481430053711,5.488527266196627],[120.95603942871094,5.491261249897562],[120.96187591552734,5.497070923612711],[120.9653091430664,5.504247501101972],[120.9646224975586,5.506297935908165],[120.96256256103516,5.5069814126051],[120.9649658203125,5.504589240727455],[120.96359252929688,5.500830094046108],[120.96187591552734,5.501855318224557],[120.96187591552734,5.5011718356352475],[120.96290588378906,5.499804868101009],[120.96221923828125,5.498437897426555],[120.95844268798828,5.4943369665698185],[120.9543228149414,5.491261249897562],[120.94539642333984,5.488869014844909],[120.9378433227539,5.488869014844909],[120.92479705810547,5.486476770194287],[120.91552734375,5.488527266196627],[120.91552734375,5.552430844017408],[120.91621398925781,5.552430844017408],[120.91964721679688,5.5514057073990415],[120.92170715332031,5.549355428814479],[120.92720031738281,5.551063994796749],[120.92926025390625,5.548672001035428],[120.92994689941406,5.546621712947044],[120.92994689941406,5.549013715023946],[120.92720031738281,5.551747419803249],[120.9210205078125,5.552430844017408],[120.91552734375,5.554822822525608],[120.91552734375,5.615644144204097],[120.91552734375,5.616327493906226]],[[120.92994689941406,5.546621712947044],[120.92857360839844,5.545938282000833],[120.92582702636719,5.546963428123277],[120.92582702636719,5.545938282000833],[120.92342376708984,5.546279997572896],[120.92891693115234,5.5449131340973565],[120.93029022216797,5.545938282000833],[120.92994689941406,5.546621712947044]],[[120.95123291015625,5.5083483636406925],[120.95226287841797,5.509715311531281],[120.95123291015625,5.511082256276083],[120.95260620117188,5.511423991970659],[120.95191955566406,5.514157870446127],[120.94505310058594,5.514841338097568],[120.94642639160156,5.510740520384843],[120.94779968261719,5.508690100908211],[120.95123291015625,5.5083483636406925]]]}}]}