{"type":"FeatureCollection","features":[{"type":"Feature","id":"pmtiles:10/893/518:mountain_peak:10701694521:0","properties":{"name_int":"Gunung Wiwi","name_de":"Gunung Wiwi","name":"Gunung Wiwi","rank":1,"class":"peak","name:latin":"Gunung Wiwi","name_en":"Gunung Wiwi","kind":"poi","verification":"verified","source":"OpenMapTiles/OpenStreetMap national PMTiles","sourceId":"10/893/518:mountain_peak:10701694521:0","sourceLayer":"mountain_peak","archive":"https://its.hanifahseptiani45.workers.dev/v1/map/archive/indonesia.pmtiles","updatedAt":"2026-07-26T09:42:50.495Z"},"geometry":{"type":"Point","coordinates":[134.0833282470703,-2.533325251053654]}},{"type":"Feature","id":"pmtiles:10/893/518:transportation_name:5318588020:0","properties":{"name_int":"Jalan Trans Papua Windesi - Ambuni","ref":"B05","name_de":"Jalan Trans Papua Windesi - Ambuni","name":"Jalan Trans Papua Windesi - Ambuni","ref_length":3,"class":"trunk","name:latin":"Jalan Trans Papua Windesi - Ambuni","name_en":"Jalan Trans Papua Windesi - Ambuni","network":"road","highway":"trunk","kind":"road","verification":"verified","source":"OpenMapTiles/OpenStreetMap national PMTiles","sourceId":"10/893/518:transportation_name:5318588020:0","sourceLayer":"transportation_name","archive":"https://its.hanifahseptiani45.workers.dev/v1/map/archive/indonesia.pmtiles","updatedAt":"2026-07-26T09:42:50.496Z"},"geometry":{"type":"LineString","coordinates":[[134.1543960571289,-2.4581231415648546],[134.15654182434082,-2.4639542451062937],[134.15688514709473,-2.4693565682470506],[134.15903091430664,-2.473301107778923]]}},{"type":"Feature","id":"pmtiles:10/892/519:park:77715133:1","properties":{"name":"Cagar Alam Teluk Bintuni","name_int":"Bintuni Bay Nature Reserve","class":"protected_area","name:latin":"Cagar Alam Teluk Bintuni","name_de":"Cagar Alam Teluk Bintuni","name_en":"Bintuni Bay Nature Reserve","kind":"green","verification":"verified","source":"OpenMapTiles/OpenStreetMap national PMTiles","sourceId":"10/892/519:park:77715133:1","sourceLayer":"park","archive":"https://its.hanifahseptiani45.workers.dev/v1/map/archive/indonesia.pmtiles","updatedAt":"2026-07-26T09:43:00.116Z"},"geometry":{"type":"Polygon","coordinates":[[[133.9504623413086,-2.4951673636680027],[133.9508056640625,-2.494738617037328],[133.9508056640625,-2.5003980612976733],[133.9501190185547,-2.497911338792619],[133.9504623413086,-2.4951673636680027]]]}},{"type":"Feature","id":"pmtiles:10/892/519:water:1540:3","properties":{"class":"ocean","water":"ocean","kind":"waterway","verification":"verified","source":"OpenMapTiles/OpenStreetMap national PMTiles","sourceId":"10/892/519:water:1540:3","sourceLayer":"water","archive":"https://its.hanifahseptiani45.workers.dev/v1/map/archive/indonesia.pmtiles","updatedAt":"2026-07-26T09:43:00.117Z"},"geometry":{"type":"Polygon","coordinates":[[[133.94891738891602,-2.4924233828168667],[133.9508056640625,-2.490536892663144],[133.9508056640625,-2.494738617037328],[133.9504623413086,-2.4951673636680027],[133.9501190185547,-2.497911338792619],[133.9508056640625,-2.5003980612976733],[133.9508056640625,-2.5042567593007306],[133.94874572753906,-2.502198788445696],[133.94737243652344,-2.4975683422154162],[133.94891738891602,-2.4924233828168667]]]}},{"type":"Feature","id":"pmtiles:10/892/519:water:77715153:1","properties":{"intermittent":0,"class":"river","id":7771515,"water":"river","kind":"waterway","verification":"verified","source":"OpenMapTiles/OpenStreetMap national PMTiles","sourceId":"10/892/519:water:77715153:1","sourceLayer":"water","archive":"https://its.hanifahseptiani45.workers.dev/v1/map/archive/indonesia.pmtiles","updatedAt":"2026-07-26T09:43:00.117Z"},"geometry":{"type":"Polygon","coordinates":[[[133.94891738891602,-2.4924233828168667],[133.9508056640625,-2.490536892663144],[133.9508056640625,-2.494738617037328],[133.9504623413086,-2.4951673636680027],[133.9501190185547,-2.497911338792619],[133.9508056640625,-2.5003980612976733],[133.9508056640625,-2.5042567593007306],[133.94874572753906,-2.502198788445696],[133.94737243652344,-2.4975683422154162],[133.94891738891602,-2.4924233828168667]]]}},{"type":"Feature","id":"pmtiles:10/893/519:mountain_peak:10701694521:0","properties":{"name_int":"Gunung Wiwi","name_de":"Gunung Wiwi","name":"Gunung Wiwi","rank":1,"class":"peak","name:latin":"Gunung Wiwi","name_en":"Gunung Wiwi","kind":"poi","verification":"verified","source":"OpenMapTiles/OpenStreetMap national PMTiles","sourceId":"10/893/519:mountain_peak:10701694521:0","sourceLayer":"mountain_peak","archive":"https://its.hanifahseptiani45.workers.dev/v1/map/archive/indonesia.pmtiles","updatedAt":"2026-07-26T09:43:00.181Z"},"geometry":{"type":"Point","coordinates":[134.0833282470703,-2.533325251053654]}},{"type":"Feature","id":"pmtiles:10/893/519:park:77715133:0","properties":{"name":"Cagar Alam Teluk Bintuni","name_int":"Bintuni Bay Nature Reserve","class":"protected_area","name:latin":"Cagar Alam Teluk Bintuni","name_de":"Cagar Alam Teluk Bintuni","name_en":"Bintuni Bay Nature Reserve","kind":"green","verification":"verified","source":"OpenMapTiles/OpenStreetMap national PMTiles","sourceId":"10/893/519:park:77715133:0","sourceLayer":"park","archive":"https://its.hanifahseptiani45.workers.dev/v1/map/archive/indonesia.pmtiles","updatedAt":"2026-07-26T09:43:00.181Z"},"geometry":{"type":"Polygon","coordinates":[[[134.02427673339844,-2.454693068753784],[134.0251350402832,-2.4607814419308767],[134.02599334716797,-2.4635254883620092],[134.02762413024902,-2.4738156120708794],[134.02899742126465,-2.478874893636899],[134.03122901916504,-2.482905154944959],[134.0335464477539,-2.4930236291170473],[134.03423309326172,-2.500826806080937],[134.033203125,-2.501512797442743],[134.033203125,-2.5026275326402896],[134.03148651123047,-2.504857000191251],[134.0280532836914,-2.506743469770356],[134.0251350402832,-2.5070864639471893],[134.01208877563477,-2.507172212477343],[134.00856971740723,-2.5068292183229772],[134.00307655334473,-2.5069149668699993],[134.0013599395752,-2.505971732543813],[133.99629592895508,-2.5057144867005405],[133.9903736114502,-2.505971732543813],[133.9808464050293,-2.508458439755387],[133.97260665893555,-2.5070864639471893],[133.96771430969238,-2.507000715411408],[133.95441055297852,-2.503742266889944],[133.95217895507812,-2.502198788445696],[133.9508056640625,-2.5004838102655214],[133.9501190185547,-2.497911338792619],[133.9504623413086,-2.4951673636680027],[133.95252227783203,-2.4920803848081334],[133.9556121826172,-2.4896793962455064],[133.95938873291016,-2.488821899269851],[133.96282196044922,-2.488993398709596],[133.9669418334961,-2.489507896895006],[133.9705467224121,-2.488993398709596],[133.97380828857422,-2.4876214025668446],[133.97518157958984,-2.485391905791019],[133.97638320922852,-2.4804183994188094],[133.97518157958984,-2.4773313860548996],[133.96883010864258,-2.4696138211824064],[133.96522521972656,-2.466698284999339],[133.96041870117188,-2.465497768242372],[133.95217895507812,-2.465840773140613],[133.94342422485352,-2.4665267826718207],[133.9398193359375,-2.4672127918492066],[133.9398193359375,-2.454693068753784],[134.02427673339844,-2.454693068753784]]]}},{"type":"Feature","id":"pmtiles:10/893/519:park:77319183:0","properties":{"name":"Taman Nasional Teluk Cenderawasih","name_int":"Teluk Cenderawasih National Park","class":"national_park","name:latin":"Taman Nasional Teluk Cenderawasih","name_de":"Nationalpark Cenderawasih-Bucht","name_en":"Teluk Cenderawasih National Park","kind":"green","verification":"verified","source":"OpenMapTiles/OpenStreetMap national PMTiles","sourceId":"10/893/519:park:77319183:0","sourceLayer":"park","archive":"https://its.hanifahseptiani45.workers.dev/v1/map/archive/indonesia.pmtiles","updatedAt":"2026-07-26T09:43:00.181Z"},"geometry":{"type":"Polygon","coordinates":[[[134.3023681640625,-2.454693068753784],[134.3023681640625,-2.504342508016208],[134.30193901062012,-2.504857000191251],[134.3015956878662,-2.504771251509453],[134.30142402648926,-2.5044282567260723],[134.30099487304688,-2.5044282567260723],[134.30047988891602,-2.504857000191251],[134.29970741271973,-2.503999513120604],[134.29927825927734,-2.5038280156391153],[134.29850578308105,-2.504342508016208],[134.29790496826172,-2.5039137643826592],[134.29738998413086,-2.5030562766946645],[134.2972183227539,-2.499797818365707],[134.29601669311523,-2.498511582587156],[134.29584503173828,-2.4977398405152087],[134.29704666137695,-2.496367853490028],[134.2972183227539,-2.495767608716065],[134.30005073547363,-2.493538125727895],[134.29919242858887,-2.493538125727895],[134.29824829101562,-2.4938811233566724],[134.2972183227539,-2.493623875143456],[134.29713249206543,-2.493280877447617],[134.29747581481934,-2.4926806312647614],[134.29661750793457,-2.491994635291988],[134.29567337036133,-2.4917373867100423],[134.29447174072266,-2.491908885770272],[134.29189682006836,-2.492937879662364],[134.2913818359375,-2.4938811233566724],[134.29121017456055,-2.493538125727895],[134.29078102111816,-2.4938811233566724],[134.2902660369873,-2.4937096245534605],[134.2899227142334,-2.4927663807361995],[134.29052352905273,-2.49225188382367],[134.29052352905273,-2.491480138077833],[134.28983688354492,-2.490794141479597],[134.2895793914795,-2.4900223948795173],[134.28966522216797,-2.488907648992509],[134.29000854492188,-2.488564650068369],[134.29009437561035,-2.4878786519523572],[134.29018020629883,-2.4872784033081103],[134.28975105285645,-2.4862494049967836],[134.29009437561035,-2.4847916560155596],[134.2895793914795,-2.4843629060088404],[134.2873477935791,-2.4848774060001944],[134.28683280944824,-2.484620156029578],[134.28563117980957,-2.4847916560155596],[134.28503036499023,-2.4847059060253542],[134.28683280944824,-2.483591155645996],[134.2865753173828,-2.48307665515361],[134.28571701049805,-2.482733654714039],[134.28460121154785,-2.482733654714039],[134.28391456604004,-2.482390654185437],[134.28348541259766,-2.482562154460865],[134.28279876708984,-2.482047653567818],[134.28159713745117,-2.482047653567818],[134.28099632263184,-2.4817046528611826],[134.2800521850586,-2.4822191538877547],[134.27979469299316,-2.482047653567818],[134.27850723266602,-2.4817904030461904],[134.2781639099121,-2.480847150705287],[134.27842140197754,-2.4801611485802226],[134.28030967712402,-2.47956089642895],[134.2815113067627,-2.4794751460993893],[134.2818546295166,-2.479217895077383],[134.2818546295166,-2.478789143262901],[134.28048133850098,-2.477245635580914],[134.2803955078125,-2.4766453821075913],[134.27936553955078,-2.4775886374435316],[134.27739143371582,-2.478446141711302],[134.27696228027344,-2.478017389646837],[134.27618980407715,-2.475101871927407],[134.27430152893066,-2.4746731187805437],[134.27404403686523,-2.4738156120708794],[134.27464485168457,-2.473301107778923],[134.27438735961914,-2.4713288394780477],[134.27550315856934,-2.4702140778378094],[134.27498817443848,-2.4690993152619],[134.27541732788086,-2.469013564255775],[134.2755889892578,-2.4686705601759513],[134.27533149719238,-2.468327556007594],[134.27584648132324,-2.4674700451994767],[134.27550315856934,-2.4665267826718207],[134.27618980407715,-2.466183777950434],[134.27653312683105,-2.4655835194752314],[134.27533149719238,-2.4648975094576997],[134.27438735961914,-2.4640399964385864],[134.27395820617676,-2.4626679744593645],[134.27138328552246,-2.4614674540683836],[134.2701816558838,-2.4614674540683836],[134.26949501037598,-2.461124448043762],[134.26880836486816,-2.4618962114750502],[134.26880836486816,-2.4628394772840494],[134.26820755004883,-2.463868493768487],[134.2672634124756,-2.4644687530171865],[134.26666259765625,-2.4644687530171865],[134.26640510559082,-2.4652405145106684],[134.26546096801758,-2.464983260729227],[134.26554679870605,-2.4642972504023106],[134.2661476135254,-2.4635254883620092],[134.26589012145996,-2.462067714399069],[134.26486015319824,-2.4623249687437436],[134.26434516906738,-2.4629252286881353],[134.26331520080566,-2.462153465852822],[134.26331520080566,-2.4616389570476116],[134.26477432250977,-2.460524187288314],[134.2646884918213,-2.4599239262626185],[134.26554679870605,-2.4595809198409313],[134.2660617828369,-2.458637651726491],[134.26692008972168,-2.457951638133551],[134.2682933807373,-2.4558935952396013],[134.26820755004883,-2.454693068753784],[134.3023681640625,-2.454693068753784]]]}},{"type":"Feature","id":"pmtiles:10/893/519:park:77319183:1","properties":{"name":"Taman Nasional Teluk Cenderawasih","name_int":"Teluk Cenderawasih National Park","class":"national_park","name:latin":"Taman Nasional Teluk Cenderawasih","name_de":"Nationalpark Cenderawasih-Bucht","name_en":"Teluk Cenderawasih National Park","kind":"green","verification":"verified","source":"OpenMapTiles/OpenStreetMap national PMTiles","sourceId":"10/893/519:park:77319183:1","sourceLayer":"park","archive":"https://its.hanifahseptiani45.workers.dev/v1/map/archive/indonesia.pmtiles","updatedAt":"2026-07-26T09:43:00.181Z"},"geometry":{"type":"Polygon","coordinates":[[[134.3009090423584,-2.5149753051763923],[134.3023681640625,-2.5145465650298604],[134.3023681640625,-2.5164330206204824],[134.30116653442383,-2.5167760122528335],[134.2979907989502,-2.5179764822552784],[134.29567337036133,-2.5175477430956335],[134.29447174072266,-2.516604516447927],[134.28966522216797,-2.51780498660834],[134.28889274597168,-2.518233725683345],[134.287691116333,-2.5183194734814123],[134.28743362426758,-2.5192626988876157],[134.28640365600586,-2.5192626988876157],[134.28648948669434,-2.5181479778796216],[134.28674697875977,-2.5176334909388487],[134.28777694702148,-2.516604516447927],[134.2902660369873,-2.515489793166253],[134.29121017456055,-2.514460816983643],[134.29181098937988,-2.514718061105384],[134.29266929626465,-2.514632313070436],[134.29387092590332,-2.514460816983643],[134.2947292327881,-2.513860580502339],[134.2972183227539,-2.515061053188802],[134.2997932434082,-2.515318297192181],[134.30039405822754,-2.5148895571583694],[134.3009090423584,-2.5149753051763923]]]}},{"type":"Feature","id":"pmtiles:10/893/519:transportation:14667110940:0","properties":{"class":"primary_construction","highway":"primary_construction","kind":"road","verification":"verified","source":"OpenMapTiles/OpenStreetMap national PMTiles","sourceId":"10/893/519:transportation:14667110940:0","sourceLayer":"transportation","archive":"https://its.hanifahseptiani45.workers.dev/v1/map/archive/indonesia.pmtiles","updatedAt":"2026-07-26T09:43:00.181Z"},"geometry":{"type":"LineString","coordinates":[[134.0156078338623,-2.816857733037736],[134.01612281799316,-2.812657103391544],[134.01535034179688,-2.811714102819167],[134.01509284973145,-2.810771101484548],[134.0152645111084,-2.8101710093293804],[134.0167236328125,-2.8093137342868744],[134.01826858520508,-2.809399461819453],[134.0189552307129,-2.8086279137996684],[134.0196418762207,-2.8082850034050324],[134.02067184448242,-2.808799368959228],[134.02101516723633,-2.8099995543712595],[134.02170181274414,-2.809742371886827],[134.02178764343262,-2.8089708240936204],[134.02127265930176,-2.808027820542989],[134.02135848999023,-2.8075134546490403],[134.020414352417,-2.8062275389235367],[134.02032852172852,-2.80468443818566],[134.0207576751709,-2.8040843429043463],[134.02170181274414,-2.8039128870531584],[134.02213096618652,-2.804427254531376],[134.02281761169434,-2.804512982422409],[134.0233325958252,-2.8041700708205184],[134.0243625640869,-2.801169590017423],[134.02504920959473,-2.8003123083754957],[134.02599334716797,-2.7998836673192358],[134.0270233154297,-2.79979793908916],[134.0283966064453,-2.8003980365679126],[134.02908325195312,-2.800998133739242],[134.0306282043457,-2.801426774387636],[134.0317440032959,-2.8021983271592745],[134.0325164794922,-2.801855414879114],[134.0338897705078,-2.8002265801767834],[134.03560638427734,-2.796883175535527],[134.03697967529297,-2.7961973477639788],[134.03783798217773,-2.7950828767801],[134.04024124145508,-2.7928539316376657],[134.04187202453613,-2.789853421882057],[134.04152870178223,-2.788310299597029],[134.04109954833984,-2.788138841440386],[134.04075622558594,-2.7872815502824295],[134.04041290283203,-2.787195821132272],[134.04032707214355,-2.7866814461002605],[134.04067039489746,-2.7853955075369043],[134.04135704040527,-2.7849668610370486],[134.0416145324707,-2.7835951911893346],[134.04152870178223,-2.781623412986221],[134.04101371765137,-2.779651631486175],[134.0427303314209,-2.7785371448329954],[134.0435028076172,-2.7766510881002375],[134.04461860656738,-2.7751936785624594],[134.044189453125,-2.7721931238567095],[134.0449619293213,-2.771250090805921],[134.04624938964844,-2.770735708825157],[134.045991897583,-2.7685067176598324],[134.04556274414062,-2.768163795569805],[134.0449619293213,-2.768163795569805],[134.04470443725586,-2.76747795109209],[134.04556274414062,-2.765849068867155],[134.04590606689453,-2.762248373906928],[134.04685020446777,-2.760105097912941],[134.04762268066406,-2.7590763240627325],[134.0471076965332,-2.757361699000967],[134.0464210510254,-2.7559899971721507],[134.0467643737793,-2.754789756775125],[134.0464210510254,-2.754189636122902],[134.0464210510254,-2.753075125538004],[134.04539108276367,-2.7518748822037935],[134.0449619293213,-2.749817319390914],[134.0449619293213,-2.7484456088771907],[134.04427528381348,-2.7473310929239148],[134.04376029968262,-2.745873647415337],[134.04376029968262,-2.745016325697293],[134.04427528381348,-2.7446733968378396],[134.0448760986328,-2.744759129061947],[134.0453052520752,-2.7452735222773015],[134.0456485748291,-2.7470738967869295],[134.045991897583,-2.7476740210203587],[134.04702186584473,-2.748016949018293],[134.0493392944336,-2.7466452364355547],[134.05011177062988,-2.7457879152712223],[134.05054092407227,-2.744759129061947],[134.05157089233398,-2.7445876646076215],[134.05251502990723,-2.7459593795533124],[134.05388832092285,-2.7464737722519175],[134.05526161193848,-2.7475025569844576],[134.05912399291992,-2.7469881647289753],[134.06169891357422,-2.7501602467729214],[134.0621280670166,-2.7516176870463482],[134.06298637390137,-2.752732198994437],[134.06375885009766,-2.752732198994437],[134.0647029876709,-2.7539324414650963],[134.06667709350586,-2.752303540676195],[134.06719207763672,-2.75110329656502],[134.06744956970215,-2.7494743919103115],[134.06787872314453,-2.7488742685821137],[134.0676212310791,-2.748016949018293],[134.06822204589844,-2.7476740210203587],[134.07079696655273,-2.7464737722519175],[134.0719985961914,-2.7476740210203587],[134.07217025756836,-2.748960000504624],[134.0727710723877,-2.7494743919103115],[134.07328605651855,-2.7494743919103115],[134.07362937927246,-2.7484456088771907],[134.07371520996094,-2.7445019323712216],[134.0750026702881,-2.7422728920672625],[134.07671928405762,-2.7420156948417684],[134.07766342163086,-2.7405582428529556],[134.078950881958,-2.740301045258917],[134.08015251159668,-2.7388435911823734],[134.0811824798584,-2.738757858534399],[134.08212661743164,-2.7390150564599196],[134.08384323120117,-2.7385006605536404],[134.08547401428223,-2.7377290662800533],[134.0859889984131,-2.7370432042863797],[134.08710479736328,-2.7366145403410087],[134.08796310424805,-2.7357572119904034],[134.08839225769043,-2.7356714791216348],[134.09088134765625,-2.7366145403410087],[134.0928554534912,-2.73601441055996],[134.0939712524414,-2.7341282864356344],[134.09671783447266,-2.732756557937236],[134.09912109375,-2.729155763172841],[134.10264015197754,-2.7294986964725325],[134.10375595092773,-2.729927362959515],[134.10409927368164,-2.731213361502853],[134.10470008850098,-2.7318992268296682],[134.10598754882812,-2.7321564262262257],[134.10667419433594,-2.7328422910143217],[134.1067600250244,-2.734728417160568],[134.1075325012207,-2.7354142804785226],[134.10813331604004,-2.7364430747199293],[134.10873413085938,-2.7365288075335457],[134.10950660705566,-2.736185876242345],[134.11113739013672,-2.7359286777095804],[134.111909866333,-2.735585746246713],[134.11216735839844,-2.7352428146858045],[134.111909866333,-2.734299752387656],[134.11130905151367,-2.7336138884324725],[134.10993576049805,-2.733099490208815],[134.10984992980957,-2.731984959967974],[134.10839080810547,-2.7296701630856717],[134.10881996154785,-2.7276125621136345],[134.1094207763672,-2.7272696282759625],[134.1104507446289,-2.7270981613204697],[134.11148071289062,-2.7263265597182595],[134.11182403564453,-2.7250405559483823],[134.1104507446289,-2.7210110685759474],[134.11036491394043,-2.7186962505889483],[134.1112232208252,-2.716724365097079],[134.1108798980713,-2.715952756853966],[134.110107421875,-2.715266882446258],[134.10959243774414,-2.7118375045688907],[134.10821914672852,-2.708922525728383],[134.10813331604004,-2.708065177674854],[134.10916328430176,-2.7054931298741423],[134.11019325256348,-2.7039498985744643],[134.1108798980713,-2.7031782821884036],[134.11208152770996,-2.7028353414148825],[134.11199569702148,-2.701892253788074],[134.1130256652832,-2.698720044577712],[134.1156005859375,-2.6962337126521874],[134.1144847869873,-2.6934901680792507],[134.1144847869873,-2.692890016879872],[134.11551475524902,-2.691003825471469],[134.1159439086914,-2.690832353380486],[134.11714553833008,-2.6912610335626823],[134.1178321838379,-2.691003825471469],[134.1178321838379,-2.6906608812654014],[134.11723136901855,-2.689889256449078],[134.11731719970703,-2.6890318949694603],[134.11697387695312,-2.688431741575201],[134.11766052246094,-2.687574379071336],[134.11731719970703,-2.6871456975935786],[134.1174030303955,-2.686374070554237],[134.11688804626465,-2.685602443027321],[134.11697387695312,-2.685259497303335],[134.11869049072266,-2.683630503799833],[134.11911964416504,-2.681915771450903],[134.12023544311523,-2.6815728246926227],[134.12100791931152,-2.681058404374909],[134.12109375,-2.6804582470642373],[134.12057876586914,-2.6787435102693564],[134.12100791931152,-2.677543193084233],[134.12066459655762,-2.67548550374552],[134.12083625793457,-2.6752282923353192],[134.12238121032715,-2.6750568180318766],[134.1225528717041,-2.674713869353056],[134.1217803955078,-2.6734278109535126],[134.12169456481934,-2.6718845390948616],[134.12092208862305,-2.6710271650017887],[134.1203212738037,-2.6698268402659693],[134.1199779510498,-2.6694838901260454],[134.1188621520996,-2.6691409398904113],[134.11834716796875,-2.667940613312169],[134.1177463531494,-2.667769137991044],[134.11602973937988,-2.6662258590250048],[134.11645889282227,-2.6651970053054868],[134.11688804626465,-2.665025529601948],[134.1189479827881,-2.665368480985137],[134.11946296691895,-2.664854053874521],[134.11903381347656,-2.6623676531433347],[134.1185188293457,-2.6616817486102065],[134.11869049072266,-2.6607386292538706],[134.11826133728027,-2.660138462015098],[134.1170597076416,-2.6594525562417033],[134.11714553833008,-2.6587666500869176],[134.11800384521484,-2.658423696866521],[134.1185188293457,-2.658509435180548],[134.12109375,-2.659281079738747],[134.12246704101562,-2.6600527238142746],[134.122896194458,-2.659881247394779],[134.12349700927734,-2.6591096032119736],[134.1254711151123,-2.6587666500869176],[134.12675857543945,-2.657309098242024],[134.1273593902588,-2.657309098242024],[134.12907600402832,-2.6581664818886708],[134.1295051574707,-2.6590238649396554],[134.13079261779785,-2.659195341478352],[134.1313934326172,-2.6606528910947844],[134.13379669189453,-2.6610815818305724],[134.13568496704102,-2.659966985607511],[134.13585662841797,-2.6591096032119736],[134.13516998291016,-2.658252220220575],[134.13396835327148,-2.6581664818886708],[134.13396835327148,-2.6576520517721463],[134.1354274749756,-2.6578235285014813],[134.13619995117188,-2.657394836633486],[134.1368865966797,-2.6557658061776124],[134.13765907287598,-2.655680067673032],[134.1382598876953,-2.654908420864146],[134.13946151733398,-2.6547369437300574],[134.14040565490723,-2.654051034955728],[134.14186477661133,-2.651221657239361],[134.14203643798828,-2.6501070521197647],[134.14315223693848,-2.6476206216985645],[134.1434097290039,-2.6471919262938997],[134.14469718933105,-2.64642027419184],[134.14495468139648,-2.645648621609425],[134.14572715759277,-2.645219925522781],[134.14607048034668,-2.6446197507525255],[134.1467571258545,-2.6447912292879465],[134.14752960205078,-2.645648621609425],[134.14847373962402,-2.6486494900645],[134.14984703063965,-2.6499355743199686],[134.15087699890137,-2.6496783575757377],[134.1514778137207,-2.6492496628832782],[134.1518211364746,-2.6493354018336532],[134.1529369354248,-2.6506214853766323],[134.15637016296387,-2.6517360900328413],[134.15868759155273,-2.6531936484525858],[134.16040420532227,-2.6545654665721514],[134.16152000427246,-2.6560230216556135],[134.16237831115723,-2.6560230216556135],[134.16263580322266,-2.6555943291625255],[134.16254997253418,-2.654393989390485],[134.16306495666504,-2.6524220000914056],[134.16272163391113,-2.6504500076480895],[134.16229248046875,-2.649592618649123],[134.16220664978027,-2.6483922730531333],[134.1628932952881,-2.6467632307409588],[134.1628932952881,-2.6424762670601325],[134.16229248046875,-2.641361654077272],[134.1624641418457,-2.6404185192335348],[134.16203498840332,-2.6390466854555257],[134.16014671325684,-2.6377605899136682],[134.15997505187988,-2.6354456145872263],[134.1602325439453,-2.6353598746776044],[134.1613483428955,-2.63724615132449],[134.16203498840332,-2.6373318911041395],[134.1628932952881,-2.6380178091284705],[134.16366577148438,-2.6376748501635774],[134.16409492492676,-2.637932069396115],[134.16400909423828,-2.639132425111015],[134.1643524169922,-2.6409329565098005],[134.16563987731934,-2.64359087904225],[134.16701316833496,-2.644019575691871],[134.16881561279297,-2.6436766183840206],[134.1698455810547,-2.644019575691871],[134.17139053344727,-2.643505139694554],[134.17173385620117,-2.642819224699693],[134.1734504699707,-2.64187609096291],[134.174222946167,-2.6426477458917645],[134.174222946167,-2.643762357719879],[134.17516708374023,-2.643762357719879],[134.17645454406738,-2.6441053150040403],[134.17739868164062,-2.644962707799664],[134.17774200439453,-2.644962707799664],[134.17799949645996,-2.6441053150040403],[134.1811752319336,-2.6411044355545386],[134.18289184570312,-2.6404185192335348],[134.1837501525879,-2.6395611232997283],[134.18460845947266,-2.639389644041998],[134.1855525970459,-2.6364744930418453],[134.18529510498047,-2.6356170943887207],[134.18538093566895,-2.6351026549133394],[134.18641090393066,-2.6346739551881484],[134.18718338012695,-2.633816555294942],[134.18838500976562,-2.6339880353208116],[134.18941497802734,-2.633559335211885],[134.1903591156006,-2.6339022953108184],[134.1907024383545,-2.633816555294942],[134.19121742248535,-2.6330448948864102],[134.1921615600586,-2.633130634955421],[134.19301986694336,-2.6326161944529503],[134.19370651245117,-2.6326161944529503],[134.19602394104004,-2.6349311750409896],[134.19808387756348,-2.6361315336514792],[134.19842720031738,-2.6369889319501283],[134.19988632202148,-2.6381035488549003],[134.2001438140869,-2.6397326025338117],[134.20040130615234,-2.639989821340592],[134.20083045959473,-2.639989821340592],[134.2013454437256,-2.639132425111015],[134.20177459716797,-2.6389609457941248],[134.2023754119873,-2.6392181647605923],[134.20374870300293,-2.6412759145756155],[134.20443534851074,-2.641190175068033],[134.20520782470703,-2.6405899983492844],[134.20546531677246,-2.6406757378982917],[134.20589447021484,-2.6416188725467293],[134.2064094543457,-2.6417046120247107],[134.20692443847656,-2.6423905276354276],[134.20761108398438,-2.642304788204825],[134.20846939086914,-2.642990703483946],[134.20838356018066,-2.6416188725467293],[134.2086410522461,-2.640761477441373],[134.20804023742676,-2.639475383673826],[134.20881271362305,-2.6387037267744375],[134.20958518981934,-2.638360767998762],[134.20992851257324,-2.637589110407589],[134.21052932739258,-2.637417630877863],[134.2126750946045,-2.6408472169785426],[134.21361923217773,-2.6404185192335348],[134.2141342163086,-2.6408472169785426],[134.21585083007812,-2.640761477441373],[134.2162799835205,-2.6409329565098005],[134.21696662902832,-2.6417046120247107],[134.21791076660156,-2.64187609096291],[134.21868324279785,-2.642819224699693],[134.21859741210938,-2.6434194003409175],[134.21945571899414,-2.6441053150040403],[134.22005653381348,-2.643848097049812],[134.219970703125,-2.642990703483946],[134.2203140258789,-2.642819224699693],[134.2210865020752,-2.644448272193401],[134.22314643859863,-2.6471061871951775],[134.22503471374512,-2.6478778388701585],[134.22529220581055,-2.6487352290564132],[134.22572135925293,-2.648906707022448],[134.22666549682617,-2.6490781849647362],[134.22683715820312,-2.648478012062853],[134.22743797302246,-2.648135055988334],[134.22735214233398,-2.6474491435545104],[134.22786712646484,-2.6458201000025667],[134.2288112640381,-2.644876968546768],[134.23044204711914,-2.6465917524782725],[134.2320728302002,-2.6470204480905295],[134.23293113708496,-2.6467632307409588],[134.2343044281006,-2.6477920998188864],[134.23550605773926,-2.647534882629486],[134.23593521118164,-2.6477063607616884],[134.23602104187012,-2.649421140778074],[134.23627853393555,-2.6496783575757377],[134.23739433288574,-2.649592618649123],[134.23988342285156,-2.6474491435545104],[134.24057006835938,-2.64727766538671],[134.24220085144043,-2.648992445996555],[134.24365997314453,-2.6500213132228367],[134.24494743347168,-2.649592618649123],[134.24554824829102,-2.648906707022448],[134.24606323242188,-2.6488209680424006],[134.24726486206055,-2.648992445996555],[134.24880981445312,-2.6498498354111746],[134.2492389678955,-2.649764096496426],[134.24949645996094,-2.6488209680424006],[134.24932479858398,-2.6474491435545104],[134.2495822906494,-2.6471061871951775],[134.2503547668457,-2.6465917524782725],[134.25155639648438,-2.646506013338012],[134.25344467163086,-2.64359087904225],[134.25430297851562,-2.6427334852986775],[134.25533294677734,-2.6426477458917645],[134.25567626953125,-2.642304788204825],[134.25601959228516,-2.6389609457941248],[134.2555046081543,-2.6373318911041395],[134.2558479309082,-2.6359600539208543],[134.25739288330078,-2.634502475256724],[134.2587661743164,-2.631587312810879],[134.2573070526123,-2.629358066340302],[134.25722122192383,-2.6257569674751835],[134.25747871398926,-2.6244708582214145],[134.25833702087402,-2.622670303043151],[134.25996780395508,-2.6220701174076595],[134.26031112670898,-2.621727154058121],[134.2602252960205,-2.6206982634454903],[134.2606544494629,-2.6203552997200035],[134.2609977722168,-2.6189834438786335],[134.26271438598633,-2.618468997550721],[134.26340103149414,-2.617868809901154]]}},{"type":"Feature","id":"pmtiles:10/893/519:transportation:5318588020:0","properties":{"class":"trunk","highway":"trunk","kind":"road","verification":"verified","source":"OpenMapTiles/OpenStreetMap national PMTiles","sourceId":"10/893/519:transportation:5318588020:0","sourceLayer":"transportation","archive":"https://its.hanifahseptiani45.workers.dev/v1/map/archive/indonesia.pmtiles","updatedAt":"2026-07-26T09:43:00.182Z"},"geometry":{"type":"LineString","coordinates":[[134.1525936126709,-2.454693068753784],[134.1548252105713,-2.458980658390715],[134.15654182434082,-2.4639542451062937],[134.15688514709473,-2.4693565682470506],[134.15903091430664,-2.473301107778923],[134.1616916656494,-2.481104401410448],[134.16203498840332,-2.4814474022728064],[134.16375160217285,-2.4816189026706326],[134.1643524169922,-2.4824764043259506],[134.16460990905762,-2.4837626557656023],[134.16512489318848,-2.484191405967195],[134.16624069213867,-2.484620156029578],[134.16769981384277,-2.484620156029578],[134.16924476623535,-2.4849631559792584],[134.17104721069336,-2.4869354039601745],[134.17190551757812,-2.4869354039601745],[134.1734504699707,-2.4873641531311534],[134.17542457580566,-2.487449902948626],[134.1767120361328,-2.4878786519523572],[134.17739868164062,-2.4875356527605277],[134.1781711578369,-2.486420904771066],[134.1800594329834,-2.486335154886717],[134.18169021606445,-2.485992155293559],[134.18306350708008,-2.486335154886717],[134.1836643218994,-2.4858206554635416],[134.18546676635742,-2.482905154944959],[134.18581008911133,-2.482905154944959],[134.18855667114258,-2.484277155990796],[134.18872833251953,-2.484620156029578],[134.18761253356934,-2.4877929021627665],[134.18761253356934,-2.4891648981270578],[134.18821334838867,-2.490794141479597],[134.1902732849121,-2.491222889395374],[134.19156074523926,-2.4906226422742037],[134.19276237487793,-2.490794141479597],[134.1947364807129,-2.4930236291170473],[134.1950798034668,-2.49396687274988],[134.19516563415527,-2.4951673636680027],[134.1958522796631,-2.495853357986263],[134.1976547241211,-2.4940526221375166],[134.197998046875,-2.49310937856616],[134.19851303100586,-2.492937879662364],[134.19954299926758,-2.493280877447617],[134.2001438140869,-2.494224120896021],[134.20108795166016,-2.4981685861667273],[134.2020320892334,-2.4990260770498054],[134.20228958129883,-2.4997120693530235],[134.20392036437988,-2.5001408143604493],[134.2046070098877,-2.500998303955029],[134.20434951782227,-2.5026275326402896],[134.20452117919922,-2.5039137643826592],[134.20580863952637,-2.5049427488674496],[134.20615196228027,-2.5056287380748756],[134.20795440673828,-2.5061432297445805],[134.20855522155762,-2.5069149668699993],[134.20846939086914,-2.5077724520311477],[134.20692443847656,-2.5086299366302285],[134.20649528503418,-2.5091444271198213],[134.20615196228027,-2.50974466576848],[134.20598030090332,-2.5108593939561246],[134.2067527770996,-2.5118026247567116],[134.20769691467285,-2.514460816983643],[134.20846939086914,-2.515575541144827],[134.20846939086914,-2.516690264353201],[134.208984375,-2.5175477430956335],[134.21018600463867,-2.518062230070271],[134.21095848083496,-2.51900545566275],[134.21061515808105,-2.5249220369689596],[134.20949935913086,-2.5266369830386566],[134.20907020568848,-2.5298096272951653],[134.21087265014648,-2.5334967446514867],[134.21241760253906,-2.535040186009894],[134.2144775390625,-2.5388130349120104],[134.2170524597168,-2.5415569181047175],[134.2170524597168,-2.54267161898602],[134.2162799835205,-2.5431003498378146],[134.21602249145508,-2.5439578111138985],[134.21653747558594,-2.544472287605899],[134.21688079833984,-2.5456727319554773],[134.2151641845703,-2.5463586996532115],[134.21344757080078,-2.547559142245362],[134.21284675598145,-2.548330854749409],[134.21241760253906,-2.5493598040351912],[134.21207427978516,-2.550903226421127],[134.21216011047363,-2.5515891913315016],[134.21250343322754,-2.5521036647741084],[134.2144775390625,-2.552360901418197],[134.21550750732422,-2.553732829317113],[134.2152500152588,-2.5557907184180806],[134.21653747558594,-2.5569911522035653],[134.21713829040527,-2.558105839712937],[134.21842575073242,-2.5587060556628813],[134.21859741210938,-2.5599064867197256],[134.21842575073242,-2.560849681761283],[134.2192840576172,-2.562050110809807],[134.21825408935547,-2.563422028344334],[134.21833992004395,-2.5639364970406575],[134.2177391052246,-2.5643652207962617],[134.2177391052246,-2.566680326593172],[134.21791076660156,-2.5669375603118283],[134.21894073486328,-2.5673662830611903],[134.2214298248291,-2.567023304873203],[134.2228889465332,-2.5689096837677425],[134.22520637512207,-2.5695098946499257],[134.22752380371094,-2.5710532927654555],[134.22898292541504,-2.5709675484746697],[134.23181533813477,-2.571653502639606],[134.232759475708,-2.5709675484746697],[134.23327445983887,-2.5709675484746697],[134.2353343963623,-2.572510944827087],[134.23593521118164,-2.574054339311573],[134.23636436462402,-2.5743973156099003],[134.2371368408203,-2.5745688037244463],[134.23773765563965,-2.57551198794188],[134.23782348632812,-2.577398354281314],[134.23730850219727,-2.5787702553177922],[134.23670768737793,-2.5817712836761046],[134.2372226715088,-2.5822000014346003],[134.2371368408203,-2.5826287190484294],[134.23816680908203,-2.585543994983965],[134.23919677734375,-2.5874303464322566],[134.23996925354004,-2.587944805431164],[134.2404842376709,-2.5890594658791315],[134.24185752868652,-2.5899168963257466],[134.24331665039062,-2.5913745267528157],[134.2434024810791,-2.593175126727857],[134.24468994140625,-2.5942897825710673],[134.24477577209473,-2.5959188931897756],[134.24511909484863,-2.596519091309432],[134.24614906311035,-2.5973765167000664],[134.24623489379883,-2.598062456593482],[134.2459774017334,-2.5993485928892],[134.2463207244873,-2.6005489855827193],[134.24614906311035,-2.6035499623179987],[134.24683570861816,-2.6052648029582315],[134.24700736999512,-2.6068081575377704],[134.2482089996338,-2.6068081575377704],[134.24872398376465,-2.607065383117032],[134.24915313720703,-2.607837059539335],[134.25155639648438,-2.6099806026726213],[134.25301551818848,-2.610495052480786],[134.2551612854004,-2.610838018902541],[134.25593376159668,-2.6124671081273334],[134.25739288330078,-2.6128958154668425],[134.25790786743164,-2.613496005496245],[134.25936698913574,-2.6136674883090762],[134.26091194152832,-2.6143534193260933],[134.2632293701172,-2.614096195238645],[134.263916015625,-2.6146106433608054],[134.2642593383789,-2.6150393499681712],[134.26434516906738,-2.615725280235182],[134.2631435394287,-2.618297515394474],[134.2631435394287,-2.6188977028386518],[134.26400184631348,-2.6201838178220243],[134.2642593383789,-2.621384190614563],[134.2653751373291,-2.6221558582303715],[134.26589012145996,-2.6229275253702014],[134.26674842834473,-2.623356229131062],[134.26777839660645,-2.6234419698656097],[134.27146911621094,-2.6259284486090024],[134.2726707458496,-2.625328264537657],[134.27335739135742,-2.6254997457303233],[134.2741298675537,-2.6252425239325134],[134.27473068237305,-2.625328264537657],[134.2755889892578,-2.624642339531718],[134.2771339416504,-2.625071042704562],[134.27790641784668,-2.626099929719288],[134.2785930633545,-2.6262714108060123],[134.27919387817383,-2.627900479955727],[134.2807388305664,-2.629786767894089],[134.28159713745117,-2.6295295469794837],[134.28228378295898,-2.6285864031722923],[134.28202629089355,-2.626871594424216],[134.2829704284668,-2.6266143729088753],[134.28357124328613,-2.6270430754050125],[134.2836570739746,-2.626528632391995],[134.28400039672852,-2.6263571513405566],[134.28503036499023,-2.627814739527153],[134.2866611480713,-2.6291008453373195],[134.28717613220215,-2.6301297290310544],[134.28760528564453,-2.630043988755645],[134.28837776184082,-2.629358066340302],[134.29000854492188,-2.629786767894089],[134.29086685180664,-2.630386949821869],[134.2913818359375,-2.630472690073688],[134.29129600524902,-2.6309871314608273],[134.29078102111816,-2.631587312810879],[134.29086685180664,-2.6319302734526104],[134.2917251586914,-2.631758793143547],[134.29258346557617,-2.631158611876046],[134.29327011108398,-2.631587312810879],[134.29404258728027,-2.6327876746440353],[134.29455757141113,-2.6327019345514344],[134.2954158782959,-2.631587312810879],[134.29807662963867,-2.6319302734526104],[134.2990207672119,-2.6322732339999533],[134.2990207672119,-2.634245255315335],[134.29996490478516,-2.6363030133584715],[134.30082321166992,-2.6376748501635774],[134.30116653442383,-2.637932069396115],[134.30185317993164,-2.6378463296578474],[134.3023681640625,-2.6385322473984303]]}},{"type":"Feature","id":"pmtiles:10/893/519:transportation_name:5260253340:0","properties":{"name_int":"Jalan Trans Papua Windesi - Ambuni","ref":"B05","name_de":"Jalan Trans Papua Windesi - Ambuni","name":"Jalan Trans Papua Windesi - Ambuni","ref_length":3,"class":"trunk","name:latin":"Jalan Trans Papua Windesi - Ambuni","name_en":"Jalan Trans Papua Windesi - Ambuni","network":"road","highway":"trunk","kind":"road","verification":"verified","source":"OpenMapTiles/OpenStreetMap national PMTiles","sourceId":"10/893/519:transportation_name:5260253340:0","sourceLayer":"transportation_name","archive":"https://its.hanifahseptiani45.workers.dev/v1/map/archive/indonesia.pmtiles","updatedAt":"2026-07-26T09:43:00.182Z"},"geometry":{"type":"LineString","coordinates":[[134.1543960571289,-2.4581231415648546],[134.15654182434082,-2.4639542451062937],[134.15688514709473,-2.4693565682470506],[134.15903091430664,-2.473301107778923],[134.1616916656494,-2.481104401410448],[134.16203498840332,-2.4814474022728064],[134.16375160217285,-2.4816189026706326],[134.1643524169922,-2.4824764043259506],[134.16460990905762,-2.4837626557656023],[134.16512489318848,-2.484191405967195],[134.16624069213867,-2.484620156029578],[134.16769981384277,-2.484620156029578],[134.16924476623535,-2.4849631559792584],[134.17104721069336,-2.4869354039601745],[134.17190551757812,-2.4869354039601745],[134.1734504699707,-2.4873641531311534],[134.17542457580566,-2.487449902948626],[134.1767120361328,-2.4878786519523572],[134.17739868164062,-2.4875356527605277],[134.1781711578369,-2.486420904771066],[134.1800594329834,-2.486335154886717],[134.18169021606445,-2.485992155293559],[134.18306350708008,-2.486335154886717],[134.1836643218994,-2.4858206554635416],[134.18546676635742,-2.482905154944959],[134.18581008911133,-2.482905154944959],[134.18855667114258,-2.484277155990796],[134.18872833251953,-2.484620156029578],[134.18761253356934,-2.4877929021627665],[134.18761253356934,-2.4891648981270578],[134.18821334838867,-2.490794141479597],[134.1902732849121,-2.491222889395374],[134.19156074523926,-2.4906226422742037],[134.19276237487793,-2.490794141479597],[134.1947364807129,-2.4930236291170473],[134.1950798034668,-2.49396687274988],[134.19516563415527,-2.4951673636680027],[134.1958522796631,-2.495853357986263],[134.1976547241211,-2.4940526221375166],[134.197998046875,-2.49310937856616],[134.19851303100586,-2.492937879662364],[134.19954299926758,-2.493280877447617],[134.2001438140869,-2.494224120896021],[134.20108795166016,-2.4981685861667273],[134.2020320892334,-2.4990260770498054],[134.20228958129883,-2.4997120693530235],[134.20392036437988,-2.5001408143604493],[134.2046070098877,-2.500998303955029],[134.20434951782227,-2.5026275326402896],[134.20452117919922,-2.5039137643826592],[134.20580863952637,-2.5049427488674496],[134.20615196228027,-2.5056287380748756],[134.20795440673828,-2.5061432297445805],[134.20855522155762,-2.5069149668699993],[134.20846939086914,-2.5077724520311477],[134.20692443847656,-2.5086299366302285],[134.20649528503418,-2.5091444271198213],[134.20615196228027,-2.50974466576848],[134.20598030090332,-2.5108593939561246],[134.2067527770996,-2.5118026247567116],[134.20769691467285,-2.514460816983643],[134.20846939086914,-2.515575541144827],[134.20846939086914,-2.516690264353201],[134.208984375,-2.5175477430956335],[134.21018600463867,-2.518062230070271],[134.21095848083496,-2.51900545566275],[134.21061515808105,-2.5249220369689596],[134.20949935913086,-2.5266369830386566],[134.20907020568848,-2.5298096272951653],[134.21087265014648,-2.5334967446514867],[134.21241760253906,-2.535040186009894],[134.2144775390625,-2.5388130349120104],[134.2170524597168,-2.5415569181047175],[134.2170524597168,-2.54267161898602],[134.2162799835205,-2.5431003498378146],[134.21602249145508,-2.5439578111138985],[134.21653747558594,-2.544472287605899],[134.21688079833984,-2.5456727319554773],[134.2151641845703,-2.5463586996532115],[134.21353340148926,-2.547473396383012]]}},{"type":"Feature","id":"pmtiles:10/893/519:transportation_name:5260253340:1","properties":{"name_int":"Jalan Trans Papua Windesi - Ambuni","ref":"B05","name_de":"Jalan Trans Papua Windesi - Ambuni","name":"Jalan Trans Papua Windesi - Ambuni","ref_length":3,"class":"trunk","name:latin":"Jalan Trans Papua Windesi - Ambuni","name_en":"Jalan Trans Papua Windesi - Ambuni","network":"road","highway":"trunk","kind":"road","verification":"verified","source":"OpenMapTiles/OpenStreetMap national PMTiles","sourceId":"10/893/519:transportation_name:5260253340:1","sourceLayer":"transportation_name","archive":"https://its.hanifahseptiani45.workers.dev/v1/map/archive/indonesia.pmtiles","updatedAt":"2026-07-26T09:43:00.182Z"},"geometry":{"type":"LineString","coordinates":[[134.30794715881348,-2.647363404473566],[134.30700302124023,-2.646848969863413],[134.30691719055176,-2.64642027419184],[134.30657386779785,-2.6461630567177252],[134.30683135986328,-2.645134186287663],[134.30597305297852,-2.6441053150040403],[134.30502891540527,-2.640761477441373],[134.30425643920898,-2.6401613005155014],[134.30391311645508,-2.639389644041998],[134.30408477783203,-2.6389609457941248],[134.30356979370117,-2.6385322473984303],[134.3034839630127,-2.6380178091284705],[134.3023681640625,-2.6385322473984303],[134.30185317993164,-2.6378463296578474],[134.30116653442383,-2.637932069396115],[134.30082321166992,-2.6376748501635774],[134.29996490478516,-2.6363030133584715],[134.2990207672119,-2.634245255315335],[134.2990207672119,-2.6322732339999533],[134.29807662963867,-2.6319302734526104],[134.2954158782959,-2.631587312810879],[134.29455757141113,-2.6327019345514344],[134.29404258728027,-2.6327876746440353],[134.29327011108398,-2.631587312810879],[134.29258346557617,-2.631158611876046],[134.2917251586914,-2.631758793143547],[134.29086685180664,-2.6319302734526104],[134.29078102111816,-2.631587312810879],[134.29129600524902,-2.6309871314608273],[134.2913818359375,-2.630472690073688],[134.29086685180664,-2.630386949821869],[134.29000854492188,-2.629786767894089],[134.28837776184082,-2.629358066340302],[134.28760528564453,-2.630043988755645],[134.28717613220215,-2.6301297290310544],[134.2866611480713,-2.6291008453373195],[134.28503036499023,-2.627814739527153],[134.28400039672852,-2.6263571513405566],[134.2836570739746,-2.626528632391995],[134.28357124328613,-2.6270430754050125],[134.2829704284668,-2.6266143729088753],[134.28202629089355,-2.626871594424216],[134.28228378295898,-2.6285864031722923],[134.28159713745117,-2.6295295469794837],[134.2807388305664,-2.629786767894089],[134.27919387817383,-2.627900479955727],[134.2785930633545,-2.6262714108060123],[134.27790641784668,-2.626099929719288],[134.2771339416504,-2.625071042704562],[134.2755889892578,-2.624642339531718],[134.27473068237305,-2.625328264537657],[134.2741298675537,-2.6252425239325134],[134.27335739135742,-2.6254997457303233],[134.2726707458496,-2.625328264537657],[134.27146911621094,-2.6259284486090024],[134.26777839660645,-2.6234419698656097],[134.26674842834473,-2.623356229131062],[134.26589012145996,-2.6229275253702014],[134.2653751373291,-2.6221558582303715],[134.2642593383789,-2.621384190614563],[134.26400184631348,-2.6201838178220243],[134.2631435394287,-2.6188977028386518],[134.2631435394287,-2.618297515394474],[134.26434516906738,-2.615725280235182],[134.2642593383789,-2.6150393499681712],[134.263916015625,-2.6146106433608054],[134.2632293701172,-2.614096195238645],[134.26091194152832,-2.6143534193260933],[134.25936698913574,-2.6136674883090762],[134.25790786743164,-2.613496005496245],[134.25739288330078,-2.6128958154668425],[134.25593376159668,-2.6124671081273334],[134.2551612854004,-2.610838018902541],[134.25301551818848,-2.610495052480786],[134.25155639648438,-2.6099806026726213],[134.24915313720703,-2.607837059539335],[134.24872398376465,-2.607065383117032],[134.2482089996338,-2.6068081575377704],[134.24700736999512,-2.6068081575377704],[134.24683570861816,-2.6052648029582315],[134.24614906311035,-2.6035499623179987],[134.2463207244873,-2.6005489855827193],[134.2459774017334,-2.5993485928892],[134.24623489379883,-2.598062456593482],[134.24614906311035,-2.5973765167000664],[134.24511909484863,-2.596519091309432],[134.24477577209473,-2.5959188931897756],[134.24468994140625,-2.5942897825710673],[134.2434024810791,-2.593175126727857],[134.24331665039062,-2.5913745267528157],[134.24185752868652,-2.5899168963257466],[134.2404842376709,-2.5890594658791315],[134.23996925354004,-2.587944805431164],[134.23919677734375,-2.5874303464322566],[134.23816680908203,-2.585543994983965],[134.2371368408203,-2.5826287190484294],[134.2372226715088,-2.5822000014346003],[134.23670768737793,-2.5817712836761046],[134.23730850219727,-2.5787702553177922],[134.23782348632812,-2.577398354281314],[134.23773765563965,-2.57551198794188],[134.2371368408203,-2.5745688037244463],[134.23636436462402,-2.5743973156099003],[134.23593521118164,-2.574054339311573],[134.2353343963623,-2.572510944827087],[134.23327445983887,-2.5709675484746697],[134.232759475708,-2.5709675484746697],[134.23181533813477,-2.571653502639606],[134.22898292541504,-2.5709675484746697],[134.22752380371094,-2.5710532927654555],[134.22520637512207,-2.5695098946499257],[134.2228889465332,-2.5689096837677425],[134.2214298248291,-2.567023304873203],[134.21894073486328,-2.5673662830611903],[134.21791076660156,-2.5669375603118283],[134.2177391052246,-2.566680326593172],[134.2177391052246,-2.5643652207962617],[134.21833992004395,-2.5639364970406575],[134.21825408935547,-2.563422028344334],[134.2192840576172,-2.562050110809807],[134.21842575073242,-2.560849681761283],[134.21859741210938,-2.5599064867197256],[134.21842575073242,-2.5587060556628813],[134.21713829040527,-2.558105839712937],[134.21653747558594,-2.5569911522035653],[134.2152500152588,-2.5557907184180806],[134.21550750732422,-2.553732829317113],[134.2144775390625,-2.552360901418197],[134.21250343322754,-2.5521036647741084],[134.21216011047363,-2.5515891913315016],[134.21207427978516,-2.550903226421127],[134.21241760253906,-2.5493598040351912],[134.21284675598145,-2.548330854749409],[134.21344757080078,-2.547559142245362]]}},{"type":"Feature","id":"pmtiles:10/893/519:water:1520:0","properties":{"class":"ocean","water":"ocean","kind":"waterway","verification":"verified","source":"OpenMapTiles/OpenStreetMap national PMTiles","sourceId":"10/893/519:water:1520:0","sourceLayer":"water","archive":"https://its.hanifahseptiani45.workers.dev/v1/map/archive/indonesia.pmtiles","updatedAt":"2026-07-26T09:43:00.182Z"},"geometry":{"type":"Polygon","coordinates":[[[133.9398193359375,-2.4709000851117935],[133.9398193359375,-2.4672127918492066],[133.94342422485352,-2.4665267826718207],[133.95217895507812,-2.465840773140613],[133.96041870117188,-2.465497768242372],[133.96522521972656,-2.466698284999339],[133.96883010864258,-2.4696138211824064],[133.97518157958984,-2.4773313860548996],[133.9756965637207,-2.4747588694210094],[133.97552490234375,-2.471157337748153],[133.97655487060547,-2.4694423192310353],[133.978271484375,-2.46807030282325],[133.978271484375,-2.4646402556099645],[133.9789581298828,-2.458980658390715],[133.98324966430664,-2.454693068753784],[133.98608207702637,-2.454693068753784],[133.9859962463379,-2.4548645726034977],[133.9837646484375,-2.4581231415648546],[133.98204803466797,-2.4593236649667745],[133.98136138916016,-2.4608671934673794],[133.9805030822754,-2.4702998287664286],[133.978271484375,-2.471671842871359],[133.9775848388672,-2.4747588694210094],[133.9775848388672,-2.477502886986187],[133.97638320922852,-2.4804183994188094],[133.97518157958984,-2.485391905791019],[133.97380828857422,-2.4876214025668446],[133.9705467224121,-2.488993398709596],[133.9669418334961,-2.489507896895006],[133.96282196044922,-2.488993398709596],[133.95938873291016,-2.488821899269851],[133.9556121826172,-2.4896793962455064],[133.95252227783203,-2.4920803848081334],[133.9504623413086,-2.4951673636680027],[133.9501190185547,-2.497911338792619],[133.9508056640625,-2.5004838102655214],[133.95217895507812,-2.502198788445696],[133.95441055297852,-2.503742266889944],[133.9617919921875,-2.5056287380748756],[133.96368026733398,-2.507172212477343],[133.9647102355957,-2.508715685059215],[133.9650535583496,-2.515575541144827],[133.96608352661133,-2.5193484466179257],[133.96780014038086,-2.5224353611477284],[133.96848678588867,-2.5287806624403544],[133.96917343139648,-2.5320390483460073],[133.97192001342773,-2.534096972065086],[133.97483825683594,-2.535640412707764],[133.97655487060547,-2.537183851509212],[133.97741317749023,-2.539413259858506],[133.97741317749023,-2.541128186740181],[133.97672653198242,-2.5442150493855564],[133.9760398864746,-2.5459299698849236],[133.9760398864746,-2.5471304128765837],[133.97724151611328,-2.5479878714713777],[133.98033142089844,-2.5476448881019707],[133.98273468017578,-2.5478163797980926],[133.9841079711914,-2.5488453294951228],[133.98565292358398,-2.5514177001382166],[133.98719787597656,-2.552789629043957],[133.99097442626953,-2.5521036647741084],[133.99303436279297,-2.552789629043957],[133.99423599243164,-2.555533482460831],[133.99784088134766,-2.561021171694236],[133.99921417236328,-2.5651369231942454],[134.00110244750977,-2.569252661449241],[134.00213241577148,-2.5709675484746697],[134.00213241577148,-2.5731968981619673],[134.0005874633789,-2.573539874691022],[134.0005874633789,-2.571653502639606],[133.99869918823242,-2.568052239160977],[133.9969825744629,-2.563765007498205],[133.9940643310547,-2.558277330013013],[133.9925193786621,-2.5560479543237733],[133.99234771728516,-2.554504538116433],[133.99097442626953,-2.5534755929476347],[133.9885711669922,-2.5546760288977737],[133.98479461669922,-2.5541615564850844],[133.98256301879883,-2.5515891913315016],[133.98221969604492,-2.5495312955028453],[133.97706985473633,-2.55021726114488],[133.9750099182129,-2.5486738379360645],[133.97432327270508,-2.5457584779376674],[133.97552490234375,-2.5416426643605377],[133.97552490234375,-2.539070274208953],[133.9731216430664,-2.5368408652680614],[133.96934509277344,-2.5347829459112887],[133.9669418334961,-2.5318675545551628],[133.96591186523438,-2.523464331029956],[133.96385192871094,-2.5172904995321375],[133.96316528320312,-2.511459631817118],[133.9617919921875,-2.5094016722887034],[133.95870208740234,-2.507515206541811],[133.95389556884766,-2.505971732543813],[133.9508056640625,-2.5042567593007306],[133.94874572753906,-2.502198788445696],[133.94737243652344,-2.4975683422154162],[133.94891738891602,-2.4924233828168667],[133.9514923095703,-2.4898508955736673],[133.95544052124023,-2.4867639042527685],[133.96024703979492,-2.4859064053813427],[133.96865844726562,-2.487106903645298],[133.97226333618164,-2.4859064053813427],[133.97380828857422,-2.4826479045902374],[133.97329330444336,-2.479217895077383],[133.97174835205078,-2.477159885101372],[133.96780014038086,-2.4728723540498407],[133.96574020385742,-2.470128326903634],[133.96299362182617,-2.468413307057986],[133.96041870117188,-2.4675557963051915],[133.9566421508789,-2.4675557963051915],[133.95183563232422,-2.468413307057986],[133.94411087036133,-2.4708143342219273],[133.9398193359375,-2.4709000851117935]]]}},{"type":"Feature","id":"pmtiles:10/893/519:water:1520:1","properties":{"class":"ocean","water":"ocean","kind":"waterway","verification":"verified","source":"OpenMapTiles/OpenStreetMap national PMTiles","sourceId":"10/893/519:water:1520:1","sourceLayer":"water","archive":"https://its.hanifahseptiani45.workers.dev/v1/map/archive/indonesia.pmtiles","updatedAt":"2026-07-26T09:43:00.182Z"},"geometry":{"type":"Polygon","coordinates":[[[134.3023681640625,-2.454693068753784],[134.3023681640625,-2.477245635580914],[134.30228233337402,-2.477245635580914],[134.3016815185547,-2.478017389646837],[134.30116653442383,-2.4799038976915995],[134.3012523651123,-2.4811901516343795],[134.30108070373535,-2.482304904039367],[134.30133819580078,-2.485734905540184],[134.30211067199707,-2.4865924045230514],[134.30211067199707,-2.4880501515148126],[134.3023681640625,-2.4895936465730273],[134.3023681640625,-2.4924233828168667],[134.30176734924316,-2.493280877447617],[134.3015956878662,-2.49396687274988],[134.3023681640625,-2.4950816143530545],[134.3023681640625,-2.504342508016208],[134.30193901062012,-2.504857000191251],[134.3015956878662,-2.504771251509453],[134.30142402648926,-2.5044282567260723],[134.30099487304688,-2.5044282567260723],[134.30047988891602,-2.504857000191251],[134.29970741271973,-2.503999513120604],[134.29927825927734,-2.5038280156391153],[134.29850578308105,-2.504342508016208],[134.29790496826172,-2.5039137643826592],[134.29738998413086,-2.5030562766946645],[134.2972183227539,-2.499797818365707],[134.29601669311523,-2.498511582587156],[134.29584503173828,-2.4977398405152087],[134.29704666137695,-2.496367853490028],[134.2972183227539,-2.495767608716065],[134.30005073547363,-2.493538125727895],[134.29773330688477,-2.493795373957852],[134.2972183227539,-2.493623875143456],[134.29713249206543,-2.493280877447617],[134.29747581481934,-2.4926806312647614],[134.29661750793457,-2.491994635291988],[134.29567337036133,-2.4917373867100423],[134.29447174072266,-2.491908885770272],[134.29189682006836,-2.492937879662364],[134.2913818359375,-2.4938811233566724],[134.29121017456055,-2.493538125727895],[134.29078102111816,-2.4938811233566724],[134.2902660369873,-2.4937096245534605],[134.2899227142334,-2.4927663807361995],[134.29052352905273,-2.49225188382367],[134.29052352905273,-2.491480138077833],[134.28983688354492,-2.490794141479597],[134.2895793914795,-2.4900223948795173],[134.28966522216797,-2.488907648992509],[134.29000854492188,-2.488564650068369],[134.29009437561035,-2.4878786519523572],[134.29018020629883,-2.4872784033081103],[134.28975105285645,-2.4862494049967836],[134.29009437561035,-2.4847916560155596],[134.2895793914795,-2.4843629060088404],[134.2873477935791,-2.4848774060001944],[134.28683280944824,-2.484620156029578],[134.28563117980957,-2.4847916560155596],[134.28503036499023,-2.4847059060253542],[134.28683280944824,-2.483591155645996],[134.2865753173828,-2.48307665515361],[134.28571701049805,-2.482733654714039],[134.28460121154785,-2.482733654714039],[134.28391456604004,-2.482390654185437],[134.28348541259766,-2.482562154460865],[134.28279876708984,-2.482047653567818],[134.28159713745117,-2.482047653567818],[134.28099632263184,-2.4817046528611826],[134.2800521850586,-2.4822191538877547],[134.27979469299316,-2.482047653567818],[134.27850723266602,-2.4817904030461904],[134.2781639099121,-2.480847150705287],[134.27842140197754,-2.4801611485802226],[134.28030967712402,-2.47956089642895],[134.2815113067627,-2.4794751460993893],[134.2818546295166,-2.479217895077383],[134.2818546295166,-2.478789143262901],[134.28048133850098,-2.477245635580914],[134.2803955078125,-2.4766453821075913],[134.27936553955078,-2.4775886374435316],[134.27739143371582,-2.478446141711302],[134.27696228027344,-2.478017389646837],[134.27618980407715,-2.475101871927407],[134.27430152893066,-2.4746731187805437],[134.27404403686523,-2.4738156120708794],[134.27464485168457,-2.473301107778923],[134.27438735961914,-2.4713288394780477],[134.27550315856934,-2.4702140778378094],[134.27498817443848,-2.4690993152619],[134.27541732788086,-2.469013564255775],[134.2755889892578,-2.4686705601759513],[134.27533149719238,-2.468327556007594],[134.27584648132324,-2.4674700451994767],[134.27550315856934,-2.4665267826718207],[134.27618980407715,-2.466183777950434],[134.27653312683105,-2.4655835194752314],[134.27533149719238,-2.4648975094576997],[134.27438735961914,-2.4640399964385864],[134.27395820617676,-2.4626679744593645],[134.27138328552246,-2.4614674540683836],[134.2701816558838,-2.4614674540683836],[134.26949501037598,-2.461124448043762],[134.26880836486816,-2.4618962114750502],[134.26880836486816,-2.4628394772840494],[134.26820755004883,-2.463868493768487],[134.2672634124756,-2.4644687530171865],[134.26666259765625,-2.4644687530171865],[134.26640510559082,-2.4652405145106684],[134.26546096801758,-2.464983260729227],[134.26554679870605,-2.4642972504023106],[134.2661476135254,-2.4635254883620092],[134.26589012145996,-2.462067714399069],[134.26486015319824,-2.4623249687437436],[134.26434516906738,-2.4629252286881353],[134.26331520080566,-2.462153465852822],[134.26331520080566,-2.4616389570476116],[134.26477432250977,-2.460524187288314],[134.2646884918213,-2.4599239262626185],[134.26554679870605,-2.4595809198409313],[134.2660617828369,-2.458637651726491],[134.26692008972168,-2.457951638133551],[134.2682933807373,-2.4558935952396013],[134.26820755004883,-2.454693068753784],[134.3023681640625,-2.454693068753784]],[[134.28786277770996,-2.475616375520559],[134.2862319946289,-2.475273373147317],[134.285888671875,-2.476045128362273],[134.28597450256348,-2.476559631589197],[134.2865753173828,-2.4774171365233286],[134.28683280944824,-2.4775886374435316],[134.287691116333,-2.4774171365233286],[134.2880344390869,-2.4775886374435316],[134.28837776184082,-2.477074134616288],[134.28820610046387,-2.476045128362273],[134.28786277770996,-2.475616375520559]],[[134.28065299987793,-2.4693565682470506],[134.28048133850098,-2.470128326903634],[134.2800521850586,-2.471157337748153],[134.28056716918945,-2.4725293509668234],[134.28091049194336,-2.47398711345717],[134.28133964538574,-2.474587368134536],[134.2818546295166,-2.4746731187805437],[134.28202629089355,-2.474330116163216],[134.28288459777832,-2.47398711345717],[134.28382873535156,-2.4728723540498407],[134.28400039672852,-2.4713288394780477],[134.2851161956787,-2.4706428324255825],[134.28545951843262,-2.4697853231116227],[134.2837429046631,-2.4686705601759513],[134.2825412750244,-2.4681560538902403],[134.28065299987793,-2.4693565682470506]]]}},{"type":"Feature","id":"pmtiles:10/893/519:water:1520:2","properties":{"class":"ocean","water":"ocean","kind":"waterway","verification":"verified","source":"OpenMapTiles/OpenStreetMap national PMTiles","sourceId":"10/893/519:water:1520:2","sourceLayer":"water","archive":"https://its.hanifahseptiani45.workers.dev/v1/map/archive/indonesia.pmtiles","updatedAt":"2026-07-26T09:43:00.182Z"},"geometry":{"type":"Polygon","coordinates":[[[134.3009090423584,-2.5149753051763923],[134.3023681640625,-2.5145465650298604],[134.3023681640625,-2.5164330206204824],[134.30116653442383,-2.5167760122528335],[134.2979907989502,-2.5179764822552784],[134.29567337036133,-2.5175477430956335],[134.29447174072266,-2.516604516447927],[134.28966522216797,-2.51780498660834],[134.28889274597168,-2.518233725683345],[134.287691116333,-2.5183194734814123],[134.28743362426758,-2.5192626988876157],[134.28640365600586,-2.5192626988876157],[134.28648948669434,-2.5181479778796216],[134.28674697875977,-2.5176334909388487],[134.28777694702148,-2.516604516447927],[134.2902660369873,-2.515489793166253],[134.29121017456055,-2.514460816983643],[134.29181098937988,-2.514718061105384],[134.29266929626465,-2.514632313070436],[134.29387092590332,-2.514460816983643],[134.2947292327881,-2.513860580502339],[134.2972183227539,-2.515061053188802],[134.2997932434082,-2.515318297192181],[134.30039405822754,-2.5148895571583694],[134.3009090423584,-2.5149753051763923]]]}},{"type":"Feature","id":"pmtiles:10/893/519:water:77715153:0","properties":{"intermittent":0,"class":"river","id":7771515,"water":"river","kind":"waterway","verification":"verified","source":"OpenMapTiles/OpenStreetMap national PMTiles","sourceId":"10/893/519:water:77715153:0","sourceLayer":"water","archive":"https://its.hanifahseptiani45.workers.dev/v1/map/archive/indonesia.pmtiles","updatedAt":"2026-07-26T09:43:00.183Z"},"geometry":{"type":"Polygon","coordinates":[[[133.9398193359375,-2.4672127918492066],[133.94342422485352,-2.4665267826718207],[133.95217895507812,-2.465840773140613],[133.96041870117188,-2.465497768242372],[133.96522521972656,-2.466698284999339],[133.96883010864258,-2.4696138211824064],[133.97518157958984,-2.4773313860548996],[133.97638320922852,-2.4804183994188094],[133.97518157958984,-2.485391905791019],[133.97380828857422,-2.4876214025668446],[133.9705467224121,-2.488993398709596],[133.9669418334961,-2.489507896895006],[133.96282196044922,-2.488993398709596],[133.95938873291016,-2.488821899269851],[133.9556121826172,-2.4896793962455064],[133.95252227783203,-2.4920803848081334],[133.9504623413086,-2.4951673636680027],[133.9501190185547,-2.497911338792619],[133.9508056640625,-2.5004838102655214],[133.95217895507812,-2.502198788445696],[133.95441055297852,-2.503742266889944],[133.9617919921875,-2.5056287380748756],[133.96368026733398,-2.507172212477343],[133.9647102355957,-2.508715685059215],[133.9650535583496,-2.515575541144827],[133.96608352661133,-2.5193484466179257],[133.96780014038086,-2.5224353611477284],[133.96848678588867,-2.5287806624403544],[133.96917343139648,-2.5320390483460073],[133.97192001342773,-2.534096972065086],[133.97483825683594,-2.535640412707764],[133.97655487060547,-2.537183851509212],[133.97741317749023,-2.539413259858506],[133.97741317749023,-2.541128186740181],[133.97672653198242,-2.5442150493855564],[133.9760398864746,-2.5459299698849236],[133.9760398864746,-2.5471304128765837],[133.97724151611328,-2.5479878714713777],[133.98033142089844,-2.5476448881019707],[133.98273468017578,-2.5478163797980926],[133.9841079711914,-2.5488453294951228],[133.98565292358398,-2.5514177001382166],[133.98719787597656,-2.552789629043957],[133.99097442626953,-2.5521036647741084],[133.99303436279297,-2.552789629043957],[133.99423599243164,-2.555533482460831],[133.99784088134766,-2.561021171694236],[133.99921417236328,-2.5651369231942454],[134.00110244750977,-2.569252661449241],[134.00213241577148,-2.5709675484746697],[134.00213241577148,-2.5731968981619673],[134.0005874633789,-2.573539874691022],[134.0005874633789,-2.571653502639606],[133.99869918823242,-2.568052239160977],[133.9969825744629,-2.563765007498205],[133.9940643310547,-2.558277330013013],[133.9925193786621,-2.5560479543237733],[133.99234771728516,-2.554504538116433],[133.99097442626953,-2.5534755929476347],[133.9885711669922,-2.5546760288977737],[133.98479461669922,-2.5541615564850844],[133.98256301879883,-2.5515891913315016],[133.98221969604492,-2.5495312955028453],[133.97706985473633,-2.55021726114488],[133.9750099182129,-2.5486738379360645],[133.97432327270508,-2.5457584779376674],[133.97552490234375,-2.5416426643605377],[133.97552490234375,-2.539070274208953],[133.9731216430664,-2.5368408652680614],[133.96934509277344,-2.5347829459112887],[133.9669418334961,-2.5318675545551628],[133.96591186523438,-2.523464331029956],[133.96385192871094,-2.5172904995321375],[133.96316528320312,-2.511459631817118],[133.9617919921875,-2.5094016722887034],[133.95870208740234,-2.507515206541811],[133.95389556884766,-2.505971732543813],[133.9508056640625,-2.5042567593007306],[133.94874572753906,-2.502198788445696],[133.94737243652344,-2.4975683422154162],[133.94891738891602,-2.4924233828168667],[133.9514923095703,-2.4898508955736673],[133.95544052124023,-2.4867639042527685],[133.96024703979492,-2.4859064053813427],[133.96865844726562,-2.487106903645298],[133.97226333618164,-2.4859064053813427],[133.97380828857422,-2.4826479045902374],[133.97329330444336,-2.479217895077383],[133.97174835205078,-2.477159885101372],[133.96780014038086,-2.4728723540498407],[133.96574020385742,-2.470128326903634],[133.96299362182617,-2.468413307057986],[133.96041870117188,-2.4675557963051915],[133.9566421508789,-2.4675557963051915],[133.95183563232422,-2.468413307057986],[133.94411087036133,-2.4708143342219273],[133.9398193359375,-2.4709000851117935],[133.9398193359375,-2.4672127918492066]]]}},{"type":"Feature","id":"pmtiles:10/893/519:water:104428123:0","properties":{"intermittent":0,"class":"river","id":10442812,"water":"river","kind":"waterway","verification":"verified","source":"OpenMapTiles/OpenStreetMap national PMTiles","sourceId":"10/893/519:water:104428123:0","sourceLayer":"water","archive":"https://its.hanifahseptiani45.workers.dev/v1/map/archive/indonesia.pmtiles","updatedAt":"2026-07-26T09:43:00.183Z"},"geometry":{"type":"Polygon","coordinates":[[[133.97518157958984,-2.4773313860548996],[133.9756965637207,-2.4747588694210094],[133.97552490234375,-2.471157337748153],[133.97655487060547,-2.4694423192310353],[133.978271484375,-2.46807030282325],[133.978271484375,-2.4646402556099645],[133.9789581298828,-2.458980658390715],[133.98324966430664,-2.454693068753784],[133.98608207702637,-2.454693068753784],[133.9859962463379,-2.4548645726034977],[133.9837646484375,-2.4581231415648546],[133.98204803466797,-2.4593236649667745],[133.98136138916016,-2.4608671934673794],[133.9805030822754,-2.4702998287664286],[133.978271484375,-2.471671842871359],[133.9775848388672,-2.4747588694210094],[133.9775848388672,-2.477502886986187],[133.97638320922852,-2.4804183994188094],[133.97518157958984,-2.4773313860548996]]]}},{"type":"Feature","id":"pmtiles:10/894/519:transportation:5260253340:0","properties":{"class":"trunk","highway":"trunk","kind":"road","verification":"verified","source":"OpenMapTiles/OpenStreetMap national PMTiles","sourceId":"10/894/519:transportation:5260253340:0","sourceLayer":"transportation","archive":"https://its.hanifahseptiani45.workers.dev/v1/map/archive/indonesia.pmtiles","updatedAt":"2026-07-26T09:43:00.244Z"},"geometry":{"type":"LineString","coordinates":[[134.2913818359375,-2.63055843031961],[134.2913818359375,-2.630472690073688]]}},{"type":"Feature","id":"pmtiles:8/223/129:mountain_peak:10701694521:0","properties":{"name_int":"Gunung Wiwi","name_de":"Gunung Wiwi","name":"Gunung Wiwi","rank":2,"class":"peak","name:latin":"Gunung Wiwi","name_en":"Gunung Wiwi","kind":"poi","verification":"verified","source":"OpenMapTiles/OpenStreetMap national PMTiles","sourceId":"8/223/129:mountain_peak:10701694521:0","sourceLayer":"mountain_peak","archive":"https://its.hanifahseptiani45.workers.dev/v1/map/archive/indonesia.pmtiles","updatedAt":"2026-07-26T09:35:36.558Z"},"geometry":{"type":"Point","coordinates":[134.0833282470703,-2.533239504246197]}},{"type":"Feature","id":"pmtiles:8/223/129:transportation:14667110940:0","properties":{"class":"primary_construction","highway":"primary_construction","kind":"road","verification":"verified","source":"OpenMapTiles/OpenStreetMap national PMTiles","sourceId":"8/223/129:transportation:14667110940:0","sourceLayer":"transportation","archive":"https://its.hanifahseptiani45.workers.dev/v1/map/archive/indonesia.pmtiles","updatedAt":"2026-07-26T09:35:36.560Z"},"geometry":{"type":"LineString","coordinates":[[134.0057373046875,-2.8333171968552904],[134.00985717773438,-2.8302310651734217],[134.0108871459961,-2.8285165440208573],[134.01500701904297,-2.8271449252736573],[134.0160369873047,-2.8250874941127364],[134.01809692382812,-2.824058777164936],[134.0170669555664,-2.823372965360221],[134.0163803100586,-2.8199439002659403],[134.01535034179688,-2.819600993200325],[134.0160369873047,-2.8134286487472338],[134.01500701904297,-2.81068537405271],[134.01981353759766,-2.8082850034050324],[134.0215301513672,-2.80965664437943],[134.02084350585938,-2.8041700708205184],[134.02324676513672,-2.8041700708205184],[134.02496337890625,-2.8003980365679126],[134.0270233154297,-2.799712210852803],[134.03182983398438,-2.802112599098649],[134.04041290283203,-2.7928539316376657],[134.04178619384766,-2.789767692919341],[134.04041290283203,-2.7866814461002605],[134.04144287109375,-2.7835951911893346],[134.04109954833984,-2.779823090877869],[134.0445327758789,-2.775365138601373],[134.044189453125,-2.772278854096797],[134.04624938964844,-2.7705642481152353],[134.04556274414062,-2.768163795569805],[134.0445327758789,-2.76747795109209],[134.04762268066406,-2.7589048616678156],[134.0438461303711,-2.745873647415337],[134.044189453125,-2.744844861279873],[134.04693603515625,-2.7479312170280394],[134.05139923095703,-2.7445019323712216],[134.05517578125,-2.7475882890054777],[134.05895233154297,-2.7469024326648395],[134.06204223632812,-2.751703418771669],[134.06478881835938,-2.7537609783290264],[134.0668487548828,-2.7523892723521897],[134.06822204589844,-2.7475882890054777],[134.07062530517578,-2.7465595043468056],[134.07337188720703,-2.7496458556629335],[134.07405853271484,-2.7441590033641887],[134.07508850097656,-2.7424443568535395],[134.0768051147461,-2.742101427256415],[134.08023834228516,-2.7390150564599196],[134.08367156982422,-2.738672125880285],[134.0884780883789,-2.735585746246713],[134.09225463867188,-2.736271609074336],[134.0939712524414,-2.7342140194147078],[134.09671783447266,-2.7328422910143217],[134.09912109375,-2.729070029832627],[134.10324096679688,-2.729755896383068],[134.1046142578125,-2.7318134936852374],[134.10667419433594,-2.7328422910143217],[134.10667419433594,-2.734899883026813],[134.10804748535156,-2.736271609074336],[134.11216735839844,-2.7352428146858045],[134.11148071289062,-2.733528155410511],[134.1097640991211,-2.7331852232614153],[134.10839080810547,-2.729755896383068],[134.10873413085938,-2.7276982955577864],[134.11148071289062,-2.7263265597182595],[134.11182403564453,-2.7249548223148707],[134.1104507446289,-2.721182536398217],[134.11113739013672,-2.716724365097079],[134.10804748535156,-2.708150912507506],[134.110107421875,-2.704035633698197],[134.11216735839844,-2.7026638709917847],[134.11319732666016,-2.698891515557577],[134.1156005859375,-2.6961479769778833],[134.11457061767578,-2.693404432211736],[134.1156005859375,-2.691003825471469],[134.11800384521484,-2.691003825471469],[134.11697387695312,-2.685173760857282],[134.11869049072266,-2.683801976902444],[134.11903381347656,-2.6820872447940047],[134.12109375,-2.681058404374909],[134.1207504272461,-2.675571240870255],[134.12246704101562,-2.67488534370446],[134.1204071044922,-2.6697411027399482],[134.1159439086914,-2.666311596796149],[134.11663055419922,-2.665282743148296],[134.11937713623047,-2.6649397917412188],[134.11869049072266,-2.660824367406974],[134.11731719970703,-2.6587666500869176],[134.11869049072266,-2.658423696866521],[134.12246704101562,-2.660138462015098],[134.1272735595703,-2.657394836633486],[134.13070678710938,-2.6591096032119736],[134.1313934326172,-2.660824367406974],[134.13482666015625,-2.660481414758735],[134.13585662841797,-2.6591096032119736],[134.13379669189453,-2.657737790139791],[134.13619995117188,-2.657394836633486],[134.1368865966797,-2.655680067673032],[134.14031982421875,-2.6539652963321885],[134.14306640625,-2.6474491435545104],[134.14615631103516,-2.644705490023199],[134.14993286132812,-2.6498498354111746],[134.15164947509766,-2.6491639239269773],[134.16229248046875,-2.6560230216556135],[134.16297912597656,-2.642304788204825],[134.16194915771484,-2.638875206126812],[134.1602325439453,-2.6378463296578474],[134.1598892211914,-2.6354456145872263],[134.16126251220703,-2.637160411538943],[134.16400909423828,-2.6378463296578474],[134.1657257080078,-2.6436766183840206],[134.1698455810547,-2.644019575691871],[134.17327880859375,-2.641961830423128],[134.17430877685547,-2.6436766183840206],[134.17774200439453,-2.6450484470466336],[134.1811752319336,-2.6412759145756155],[134.18460845947266,-2.6395611232997283],[134.18529510498047,-2.6351026549133394],[134.1873550415039,-2.633730815273168],[134.19044494628906,-2.634073775324879],[134.19353485107422,-2.6327019345514344],[134.20005798339844,-2.6381892885754326],[134.20040130615234,-2.639904081744234],[134.20177459716797,-2.638875206126812],[134.2038345336914,-2.6412759145756155],[134.20555114746094,-2.6405899983492844],[134.2082977294922,-2.642990703483946],[134.20795440673828,-2.6395611232997283],[134.21070098876953,-2.637503370645689],[134.21276092529297,-2.6409329565098005],[134.21619415283203,-2.6409329565098005],[134.2192840576172,-2.644019575691871],[134.2203140258789,-2.642990703483946],[134.22306060791016,-2.6471061871951775],[134.22683715820312,-2.6491639239269773],[134.22889709472656,-2.6450484470466336],[134.2302703857422,-2.6467632307409588],[134.2357635498047,-2.6477920998188864],[134.2361068725586,-2.6498498354111746],[134.24057006835938,-2.6474491435545104],[134.24365997314453,-2.6498498354111746],[134.24606323242188,-2.6488209680424006],[134.24915313720703,-2.6498498354111746],[134.24949645996094,-2.6471061871951775],[134.25155639648438,-2.64642027419184],[134.2532730102539,-2.6436766183840206],[134.25567626953125,-2.642304788204825],[134.25567626953125,-2.635788574166611],[134.2587661743164,-2.6316730529801617],[134.25739288330078,-2.629272326011872],[134.25739288330078,-2.6244708582214145],[134.26013946533203,-2.621727154058121],[134.26082611083984,-2.6189834438786335],[134.2632293701172,-2.6179545510115645]]}},{"type":"Feature","id":"pmtiles:8/223/129:transportation_name:5260253340:0","properties":{"name_int":"Jalan Trans Papua Windesi - Ambuni","ref":"B05","name_de":"Jalan Trans Papua Windesi - Ambuni","name":"Jalan Trans Papua Windesi - Ambuni","ref_length":3,"class":"trunk","name:latin":"Jalan Trans Papua Windesi - Ambuni","name_en":"Jalan Trans Papua Windesi - Ambuni","network":"road","highway":"trunk","kind":"road","verification":"verified","source":"OpenMapTiles/OpenStreetMap national PMTiles","sourceId":"8/223/129:transportation_name:5260253340:0","sourceLayer":"transportation_name","archive":"https://its.hanifahseptiani45.workers.dev/v1/map/archive/indonesia.pmtiles","updatedAt":"2026-07-26T09:35:36.562Z"},"geometry":{"type":"LineString","coordinates":[[134.1543960571289,-2.4581231415648546],[134.15645599365234,-2.4639542451062937],[134.15679931640625,-2.4694423192310353],[134.16160583496094,-2.481104401410448],[134.16366577148438,-2.4817904030461904],[134.1650390625,-2.484191405967195],[134.16915893554688,-2.4848774060001944],[134.1712188720703,-2.4869354039601745],[134.1767120361328,-2.4879644017363773],[134.17808532714844,-2.4865924045230514],[134.18323516845703,-2.4862494049967836],[134.18563842773438,-2.4828194048322842],[134.18872833251953,-2.4845344060282315],[134.1876983642578,-2.4879644017363773],[134.18838500976562,-2.490708391879707],[134.1928482055664,-2.490708391879707],[134.19593811035156,-2.495853357986263],[134.197998046875,-2.49310937856616],[134.19937133789062,-2.4934523763067062],[134.20108795166016,-2.4982543352802367],[134.20452117919922,-2.500998303955029],[134.20452117919922,-2.5040852618529215],[134.2086410522461,-2.5068292183229772],[134.20589447021484,-2.510945142238853],[134.208984375,-2.5174619952467765],[134.21104431152344,-2.5191769511516213],[134.21070098876953,-2.5250077843262204],[134.208984375,-2.5287806624403544],[134.21104431152344,-2.5335824914418907],[134.21722412109375,-2.5414711718431846],[134.21619415283203,-2.543186095991075],[134.21688079833984,-2.5455869859675886],[134.21344757080078,-2.5476448881019707],[134.21207427978516,-2.5517606825019215],[134.2144775390625,-2.5524466469547917],[134.21550750732422,-2.553818574762147],[134.2151641845703,-2.55587646372571],[134.21825408935547,-2.5586203105443843],[134.2192840576172,-2.562050110809807],[134.21756744384766,-2.564450965530142],[134.21791076660156,-2.566851815744684],[134.22134399414062,-2.5671947939787003],[134.22271728515625,-2.5689096837677425],[134.22752380371094,-2.5709675484746697],[134.23198699951172,-2.571653502639606],[134.23336029052734,-2.5709675484746697],[134.23782348632812,-2.5754262439509716],[134.2371368408203,-2.5822857449689565],[134.23919677734375,-2.5874303464322566],[134.24331665039062,-2.591546012575094],[134.24331665039062,-2.5932608695199093],[134.24468994140625,-2.5942897825710673],[134.24606323242188,-2.598062456593482],[134.2470932006836,-2.6066366737890405],[134.24880981445312,-2.6069796412631234],[134.25155639648438,-2.610066344321936],[134.25498962402344,-2.6107522773058776],[134.25601959228516,-2.6124671081273334],[134.263916015625,-2.6145249020217705],[134.2632293701172,-2.6189834438786335],[134.26597595214844,-2.6230990068921756],[134.27146911621094,-2.6258427080450417],[134.27696228027344,-2.6251567833214864],[134.2807388305664,-2.6299582484743524],[134.28211212158203,-2.6285864031722923],[134.28211212158203,-2.626871594424216],[134.28382873535156,-2.626528632391995],[134.28726196289062,-2.6299582484743524],[134.28829193115234,-2.629272326011872],[134.2913818359375,-2.6306441705596484],[134.2910385131836,-2.632016013598289],[134.29241180419922,-2.6309871314608273],[134.29412841796875,-2.6327019345514344],[134.29550170898438,-2.6316730529801617],[134.29893493652344,-2.632358974122056],[134.29893493652344,-2.634073775324879],[134.30099487304688,-2.637503370645689],[134.30408477783203,-2.638875206126812],[134.30683135986328,-2.6450484470466336],[134.30648803710938,-2.646077317547835],[134.30957794189453,-2.6491639239269773],[134.30923461914062,-2.6515646124587846],[134.31198120117188,-2.6546512051540816],[134.31610107421875,-2.654994159422259],[134.31713104248047,-2.6567089293350534],[134.32090759277344,-2.658423696866521],[134.32090759277344,-2.660138462015098],[134.3236541748047,-2.6615102724172743],[134.32537078857422,-2.6659686456757754],[134.3294906616211,-2.666311596796149],[134.3291473388672,-2.6645968402385876],[134.329833984375,-2.665282743148296],[134.33361053466797,-2.6649397917412188],[134.33704376220703,-2.6666545478209116],[134.33841705322266,-2.6649397917412188],[134.3404769897461,-2.666311596796149],[134.3401336669922,-2.6683693015103813],[134.3408203125,-2.6693981525761075],[134.33807373046875,-2.67488534370446],[134.3356704711914,-2.676257137652371],[134.33395385742188,-2.6759141893092817],[134.33326721191406,-2.677285982105829],[134.33429718017578,-2.6793436684207563],[134.33326721191406,-2.682773137925949],[134.33155059814453,-2.6841449230355323],[134.33258056640625,-2.6868884886346365],[134.33120727539062,-2.6903179369628845],[134.33223724365234,-2.6927185450542908],[134.33189392089844,-2.6940903189829157],[134.33086395263672,-2.694776205367731],[134.3305206298828,-2.697176804670576],[134.32846069335938,-2.7002632825255404],[134.32846069335938,-2.7019779890571556],[134.32605743408203,-2.701635047944521],[134.32537078857422,-2.702320930072915],[134.32537078857422,-2.7054073948534807],[134.32640075683594,-2.7067791544568394],[134.32537078857422,-2.7098656078861865],[134.32674407958984,-2.712609115439406],[134.32537078857422,-2.7153526167685413],[134.32708740234375,-2.716724365097079],[134.32743072509766,-2.71809611186724],[134.32640075683594,-2.719467857078243],[134.329833984375,-2.7239260182365115],[134.33120727539062,-2.730441762542057],[134.33395385742188,-2.7331852232614153],[134.3356704711914,-2.7324993586692443],[134.34219360351562,-2.7345569512697807],[134.3408203125,-2.743816074258774],[134.3415069580078,-2.744844861279873],[134.34391021728516,-2.745187790090128],[134.34425354003906,-2.748960000504624],[134.3459701538086,-2.7506746376610494],[134.34425354003906,-2.752046345611248],[134.33979034423828,-2.752732198994437],[134.33876037597656,-2.7544468307251577],[134.33979034423828,-2.756504385543252],[134.34288024902344,-2.757533161618369],[134.34528350830078,-2.7616482570183933],[134.34494018554688,-2.7678208733805576],[134.34837341308594,-2.771593012002242],[134.34906005859375,-2.775022218498677],[134.3514633178711,-2.775365138601373],[134.35352325439453,-2.777079737622145],[134.35523986816406,-2.781880601634512],[134.3576431274414,-2.7846239437248386],[134.3576431274414,-2.786338529287349],[134.36107635498047,-2.7890818609926242],[134.36553955078125,-2.7962830762573674],[134.3679428100586,-2.795254333923438],[134.3675994873047,-2.7962830762573674],[134.36931610107422,-2.797654731299133],[134.37583923339844,-2.7969689039787795],[134.37755584716797,-2.7979976448088735],[134.37755584716797,-2.799712210852803],[134.38064575195312,-2.8007409492748963],[134.38064575195312,-2.8017696867933637],[134.38373565673828,-2.803484247315211],[134.38682556152344,-2.8082850034050324],[134.38922882080078,-2.8089708240936204],[134.3899154663086,-2.8099995543712595],[134.3964385986328,-2.8093137342868744],[134.39987182617188,-2.806913360819891],[134.40227508544922,-2.8082850034050324],[134.40261840820312,-2.804855893923758],[134.40364837646484,-2.803484247315211],[134.40570831298828,-2.805198805324565],[134.4060516357422,-2.8065704499220203],[134.41017150878906,-2.8093137342868744],[134.417724609375,-2.8113711933311265],[134.42081451416016,-2.8103424642623622],[134.42768096923828,-2.8113711933311265],[134.43832397460938,-2.8165148250628818],[134.43317413330078,-2.8178864563563764],[134.43248748779297,-2.819600993200325],[134.42974090576172,-2.822001340536346],[134.42974090576172,-2.8244016829154646],[134.42768096923828,-2.824058777164936],[134.4287109375,-2.826116210149081],[134.42596435546875,-2.827487830112503],[134.42527770996094,-2.829545257016676],[134.4239044189453,-2.8302310651734217],[134.42493438720703,-2.8326313905255205],[134.43248748779297,-2.8357175158095345],[134.4338607788086,-2.837089124404457],[134.43729400634766,-2.837089124404457],[134.4390106201172,-2.8357175158095345],[134.4390106201172,-2.8381178297828598],[134.43660736083984,-2.8418897416673303],[134.43832397460938,-2.8425755425042922],[134.43660736083984,-2.8442900428132702],[134.43866729736328,-2.8480619345186113],[134.43626403808594,-2.851833813870755],[134.43763732910156,-2.8525196087881426],[134.43832397460938,-2.8542340942919395],[134.43729400634766,-2.8573201617520425]]}},{"type":"Feature","id":"pmtiles:8/223/130:mountain_peak:10701694521:0","properties":{"name_int":"Gunung Wiwi","name_de":"Gunung Wiwi","name":"Gunung Wiwi","rank":2,"class":"peak","name:latin":"Gunung Wiwi","name_en":"Gunung Wiwi","kind":"poi","verification":"verified","source":"OpenMapTiles/OpenStreetMap national PMTiles","sourceId":"8/223/130:mountain_peak:10701694521:0","sourceLayer":"mountain_peak","archive":"https://its.hanifahseptiani45.workers.dev/v1/map/archive/indonesia.pmtiles","updatedAt":"2026-07-26T09:35:38.978Z"},"geometry":{"type":"Point","coordinates":[134.0833282470703,-2.533239504246197]}}]}