{"type":"FeatureCollection","features":[{"type":"Feature","id":"pmtiles:12/3484/1984:water:10:0","properties":{"class":"ocean","water":"ocean","kind":"waterway","verification":"verified","source":"OpenMapTiles/OpenStreetMap national PMTiles","sourceId":"12/3484/1984:water:10:0","sourceLayer":"water","archive":"https://its.hanifahseptiani45.workers.dev/v1/map/archive/indonesia.pmtiles","updatedAt":"2026-07-26T10:40:20.409Z"},"geometry":{"type":"Polygon","coordinates":[[[126.20956420898438,5.617352516956672],[126.30020141601562,5.617352516956672],[126.30020141601562,5.527143621124267],[126.20956420898438,5.527143621124267],[126.20956420898438,5.617352516956672]]]}},{"type":"Feature","id":"pmtiles:12/3485/1984:water:10:0","properties":{"class":"ocean","water":"ocean","kind":"waterway","verification":"verified","source":"OpenMapTiles/OpenStreetMap national PMTiles","sourceId":"12/3485/1984:water:10:0","sourceLayer":"water","archive":"https://its.hanifahseptiani45.workers.dev/v1/map/archive/indonesia.pmtiles","updatedAt":"2026-07-26T10:40:20.482Z"},"geometry":{"type":"Polygon","coordinates":[[[126.29745483398438,5.617352516956672],[126.38809204101562,5.617352516956672],[126.38809204101562,5.527143621124267],[126.29745483398438,5.527143621124267],[126.29745483398438,5.617352516956672]]]}},{"type":"Feature","id":"pmtiles:12/3486/1984:water:10:0","properties":{"class":"ocean","water":"ocean","kind":"waterway","verification":"verified","source":"OpenMapTiles/OpenStreetMap national PMTiles","sourceId":"12/3486/1984:water:10:0","sourceLayer":"water","archive":"https://its.hanifahseptiani45.workers.dev/v1/map/archive/indonesia.pmtiles","updatedAt":"2026-07-26T10:40:20.562Z"},"geometry":{"type":"Polygon","coordinates":[[[126.38534545898438,5.617352516956672],[126.47598266601562,5.617352516956672],[126.47598266601562,5.527143621124267],[126.38534545898438,5.527143621124267],[126.38534545898438,5.617352516956672]]]}},{"type":"Feature","id":"pmtiles:12/3487/1984:water:10:0","properties":{"class":"ocean","water":"ocean","kind":"waterway","verification":"verified","source":"OpenMapTiles/OpenStreetMap national PMTiles","sourceId":"12/3487/1984:water:10:0","sourceLayer":"water","archive":"https://its.hanifahseptiani45.workers.dev/v1/map/archive/indonesia.pmtiles","updatedAt":"2026-07-26T10:40:20.695Z"},"geometry":{"type":"Polygon","coordinates":[[[126.47323608398438,5.617352516956672],[126.56387329101562,5.617352516956672],[126.56387329101562,5.527143621124267],[126.47323608398438,5.527143621124267],[126.47323608398438,5.617352516956672]]]}},{"type":"Feature","id":"pmtiles:12/3484/1985:water:1960:0","properties":{"class":"ocean","water":"ocean","kind":"waterway","verification":"verified","source":"OpenMapTiles/OpenStreetMap national PMTiles","sourceId":"12/3484/1985:water:1960:0","sourceLayer":"water","archive":"https://its.hanifahseptiani45.workers.dev/v1/map/archive/indonesia.pmtiles","updatedAt":"2026-07-26T10:41:00.529Z"},"geometry":{"type":"Polygon","coordinates":[[[126.20956420898438,5.52987742710495],[126.30020141601562,5.52987742710495],[126.30020141601562,5.439655198744674],[126.20956420898438,5.439655198744674],[126.20956420898438,5.52987742710495]]]}},{"type":"Feature","id":"pmtiles:12/3485/1985:water:1960:0","properties":{"class":"ocean","water":"ocean","kind":"waterway","verification":"verified","source":"OpenMapTiles/OpenStreetMap national PMTiles","sourceId":"12/3485/1985:water:1960:0","sourceLayer":"water","archive":"https://its.hanifahseptiani45.workers.dev/v1/map/archive/indonesia.pmtiles","updatedAt":"2026-07-26T10:41:00.612Z"},"geometry":{"type":"Polygon","coordinates":[[[126.29745483398438,5.52987742710495],[126.38809204101562,5.52987742710495],[126.38809204101562,5.439655198744674],[126.29745483398438,5.439655198744674],[126.29745483398438,5.52987742710495]]]}},{"type":"Feature","id":"pmtiles:12/3486/1985:water:1960:0","properties":{"class":"ocean","water":"ocean","kind":"waterway","verification":"verified","source":"OpenMapTiles/OpenStreetMap national PMTiles","sourceId":"12/3486/1985:water:1960:0","sourceLayer":"water","archive":"https://its.hanifahseptiani45.workers.dev/v1/map/archive/indonesia.pmtiles","updatedAt":"2026-07-26T10:41:00.694Z"},"geometry":{"type":"Polygon","coordinates":[[[126.38534545898438,5.52987742710495],[126.47598266601562,5.52987742710495],[126.47598266601562,5.439655198744674],[126.38534545898438,5.439655198744674],[126.38534545898438,5.52987742710495]]]}},{"type":"Feature","id":"pmtiles:12/3487/1985:water:720:0","properties":{"class":"ocean","water":"ocean","kind":"waterway","verification":"verified","source":"OpenMapTiles/OpenStreetMap national PMTiles","sourceId":"12/3487/1985:water:720:0","sourceLayer":"water","archive":"https://its.hanifahseptiani45.workers.dev/v1/map/archive/indonesia.pmtiles","updatedAt":"2026-07-26T10:41:00.791Z"},"geometry":{"type":"Polygon","coordinates":[[[126.47323608398438,5.52987742710495],[126.56387329101562,5.52987742710495],[126.56387329101562,5.439655198744674],[126.47323608398438,5.439655198744674],[126.47323608398438,5.52987742710495]]]}},{"type":"Feature","id":"pmtiles:12/3484/1986:water:1960:0","properties":{"class":"ocean","water":"ocean","kind":"waterway","verification":"verified","source":"OpenMapTiles/OpenStreetMap national PMTiles","sourceId":"12/3484/1986:water:1960:0","sourceLayer":"water","archive":"https://its.hanifahseptiani45.workers.dev/v1/map/archive/indonesia.pmtiles","updatedAt":"2026-07-26T10:41:36.525Z"},"geometry":{"type":"Polygon","coordinates":[[[126.20956420898438,5.442389405584223],[126.30020141601562,5.442389405584223],[126.30020141601562,5.352154053118355],[126.20956420898438,5.352154053118355],[126.20956420898438,5.442389405584223]]]}},{"type":"Feature","id":"pmtiles:12/3485/1986:water:1960:0","properties":{"class":"ocean","water":"ocean","kind":"waterway","verification":"verified","source":"OpenMapTiles/OpenStreetMap national PMTiles","sourceId":"12/3485/1986:water:1960:0","sourceLayer":"water","archive":"https://its.hanifahseptiani45.workers.dev/v1/map/archive/indonesia.pmtiles","updatedAt":"2026-07-26T10:41:36.591Z"},"geometry":{"type":"Polygon","coordinates":[[[126.29745483398438,5.442389405584223],[126.38809204101562,5.442389405584223],[126.38809204101562,5.352154053118355],[126.29745483398438,5.352154053118355],[126.29745483398438,5.442389405584223]]]}},{"type":"Feature","id":"pmtiles:12/3486/1986:water:1960:0","properties":{"class":"ocean","water":"ocean","kind":"waterway","verification":"verified","source":"OpenMapTiles/OpenStreetMap national PMTiles","sourceId":"12/3486/1986:water:1960:0","sourceLayer":"water","archive":"https://its.hanifahseptiani45.workers.dev/v1/map/archive/indonesia.pmtiles","updatedAt":"2026-07-26T10:41:36.666Z"},"geometry":{"type":"Polygon","coordinates":[[[126.38534545898438,5.442389405584223],[126.47598266601562,5.442389405584223],[126.47598266601562,5.352154053118355],[126.38534545898438,5.352154053118355],[126.38534545898438,5.442389405584223]]]}},{"type":"Feature","id":"pmtiles:12/3487/1986:water:720:0","properties":{"class":"ocean","water":"ocean","kind":"waterway","verification":"verified","source":"OpenMapTiles/OpenStreetMap national PMTiles","sourceId":"12/3487/1986:water:720:0","sourceLayer":"water","archive":"https://its.hanifahseptiani45.workers.dev/v1/map/archive/indonesia.pmtiles","updatedAt":"2026-07-26T10:41:36.729Z"},"geometry":{"type":"Polygon","coordinates":[[[126.47323608398438,5.442389405584223],[126.56387329101562,5.442389405584223],[126.56387329101562,5.352154053118355],[126.47323608398438,5.352154053118355],[126.47323608398438,5.442389405584223]]]}},{"type":"Feature","id":"pmtiles:12/3484/1987:water:1960:0","properties":{"class":"ocean","water":"ocean","kind":"waterway","verification":"verified","source":"OpenMapTiles/OpenStreetMap national PMTiles","sourceId":"12/3484/1987:water:1960:0","sourceLayer":"water","archive":"https://its.hanifahseptiani45.workers.dev/v1/map/archive/indonesia.pmtiles","updatedAt":"2026-07-26T10:42:12.923Z"},"geometry":{"type":"Polygon","coordinates":[[[126.20956420898438,5.354888654498652],[126.30020141601562,5.354888654498652],[126.30020141601562,5.264640386502251],[126.20956420898438,5.264640386502251],[126.20956420898438,5.354888654498652]]]}},{"type":"Feature","id":"pmtiles:12/3485/1987:water:1960:0","properties":{"class":"ocean","water":"ocean","kind":"waterway","verification":"verified","source":"OpenMapTiles/OpenStreetMap national PMTiles","sourceId":"12/3485/1987:water:1960:0","sourceLayer":"water","archive":"https://its.hanifahseptiani45.workers.dev/v1/map/archive/indonesia.pmtiles","updatedAt":"2026-07-26T10:42:13.011Z"},"geometry":{"type":"Polygon","coordinates":[[[126.29745483398438,5.354888654498652],[126.38809204101562,5.354888654498652],[126.38809204101562,5.264640386502251],[126.29745483398438,5.264640386502251],[126.29745483398438,5.354888654498652]]]}},{"type":"Feature","id":"pmtiles:12/3486/1987:water:1960:0","properties":{"class":"ocean","water":"ocean","kind":"waterway","verification":"verified","source":"OpenMapTiles/OpenStreetMap national PMTiles","sourceId":"12/3486/1987:water:1960:0","sourceLayer":"water","archive":"https://its.hanifahseptiani45.workers.dev/v1/map/archive/indonesia.pmtiles","updatedAt":"2026-07-26T10:42:13.095Z"},"geometry":{"type":"Polygon","coordinates":[[[126.38534545898438,5.354888654498652],[126.47598266601562,5.354888654498652],[126.47598266601562,5.264640386502251],[126.38534545898438,5.264640386502251],[126.38534545898438,5.354888654498652]]]}},{"type":"Feature","id":"pmtiles:12/3487/1987:water:720:0","properties":{"class":"ocean","water":"ocean","kind":"waterway","verification":"verified","source":"OpenMapTiles/OpenStreetMap national PMTiles","sourceId":"12/3487/1987:water:720:0","sourceLayer":"water","archive":"https://its.hanifahseptiani45.workers.dev/v1/map/archive/indonesia.pmtiles","updatedAt":"2026-07-26T10:42:13.182Z"},"geometry":{"type":"Polygon","coordinates":[[[126.47323608398438,5.354888654498652],[126.56387329101562,5.354888654498652],[126.56387329101562,5.264640386502251],[126.47323608398438,5.264640386502251],[126.47323608398438,5.354888654498652]]]}},{"type":"Feature","id":"pmtiles:10/871/496:water:10:0","properties":{"class":"ocean","water":"ocean","kind":"waterway","verification":"verified","source":"OpenMapTiles/OpenStreetMap national PMTiles","sourceId":"10/871/496:water:10:0","sourceLayer":"water","archive":"https://its.hanifahseptiani45.workers.dev/v1/map/archive/indonesia.pmtiles","updatedAt":"2026-07-26T09:38:24.795Z"},"geometry":{"type":"Polygon","coordinates":[[[126.2054443359375,5.621452591118839],[126.5679931640625,5.621452591118839],[126.5679931640625,5.260537879550753],[126.2054443359375,5.260537879550753],[126.2054443359375,5.621452591118839]]]}}]}