{"type":"FeatureCollection","features":[{"type":"Feature","id":"pmtiles:12/3216/1973:water:1590:0","properties":{"class":"ocean","water":"ocean","kind":"waterway","verification":"verified","source":"OpenMapTiles/OpenStreetMap national PMTiles","sourceId":"12/3216/1973:water:1590:0","sourceLayer":"water","archive":"https://its.hanifahseptiani45.workers.dev/v1/map/archive/indonesia.pmtiles","updatedAt":"2026-07-26T10:33:52.105Z"},"geometry":{"type":"Polygon","coordinates":[[[102.65487670898438,6.578667368565007],[102.74551391601562,6.578667368565007],[102.74551391601562,6.488618840362278],[102.65487670898438,6.488618840362278],[102.65487670898438,6.578667368565007]]]}},{"type":"Feature","id":"pmtiles:12/3217/1973:water:1590:0","properties":{"class":"ocean","water":"ocean","kind":"waterway","verification":"verified","source":"OpenMapTiles/OpenStreetMap national PMTiles","sourceId":"12/3217/1973:water:1590:0","sourceLayer":"water","archive":"https://its.hanifahseptiani45.workers.dev/v1/map/archive/indonesia.pmtiles","updatedAt":"2026-07-26T10:33:52.170Z"},"geometry":{"type":"Polygon","coordinates":[[[102.74276733398438,6.578667368565007],[102.83340454101562,6.578667368565007],[102.83340454101562,6.488618840362278],[102.74276733398438,6.488618840362278],[102.74276733398438,6.578667368565007]]]}},{"type":"Feature","id":"pmtiles:12/3218/1973:water:1590:0","properties":{"class":"ocean","water":"ocean","kind":"waterway","verification":"verified","source":"OpenMapTiles/OpenStreetMap national PMTiles","sourceId":"12/3218/1973:water:1590:0","sourceLayer":"water","archive":"https://its.hanifahseptiani45.workers.dev/v1/map/archive/indonesia.pmtiles","updatedAt":"2026-07-26T10:33:52.247Z"},"geometry":{"type":"Polygon","coordinates":[[[102.83065795898438,6.578667368565007],[102.92129516601562,6.578667368565007],[102.92129516601562,6.488618840362278],[102.83065795898438,6.488618840362278],[102.83065795898438,6.578667368565007]]]}},{"type":"Feature","id":"pmtiles:12/3219/1973:water:1590:0","properties":{"class":"ocean","water":"ocean","kind":"waterway","verification":"verified","source":"OpenMapTiles/OpenStreetMap national PMTiles","sourceId":"12/3219/1973:water:1590:0","sourceLayer":"water","archive":"https://its.hanifahseptiani45.workers.dev/v1/map/archive/indonesia.pmtiles","updatedAt":"2026-07-26T10:33:52.327Z"},"geometry":{"type":"Polygon","coordinates":[[[102.91854858398438,6.578667368565007],[103.00918579101562,6.578667368565007],[103.00918579101562,6.488618840362278],[102.91854858398438,6.488618840362278],[102.91854858398438,6.578667368565007]]]}},{"type":"Feature","id":"pmtiles:12/3216/1974:water:1590:0","properties":{"class":"ocean","water":"ocean","kind":"waterway","verification":"verified","source":"OpenMapTiles/OpenStreetMap national PMTiles","sourceId":"12/3216/1974:water:1590:0","sourceLayer":"water","archive":"https://its.hanifahseptiani45.workers.dev/v1/map/archive/indonesia.pmtiles","updatedAt":"2026-07-26T10:34:25.566Z"},"geometry":{"type":"Polygon","coordinates":[[[102.65487670898438,6.491347821282432],[102.74551391601562,6.491347821282432],[102.74551391601562,6.4012836786624945],[102.65487670898438,6.4012836786624945],[102.65487670898438,6.491347821282432]]]}},{"type":"Feature","id":"pmtiles:12/3217/1974:water:1590:0","properties":{"class":"ocean","water":"ocean","kind":"waterway","verification":"verified","source":"OpenMapTiles/OpenStreetMap national PMTiles","sourceId":"12/3217/1974:water:1590:0","sourceLayer":"water","archive":"https://its.hanifahseptiani45.workers.dev/v1/map/archive/indonesia.pmtiles","updatedAt":"2026-07-26T10:34:25.616Z"},"geometry":{"type":"Polygon","coordinates":[[[102.74276733398438,6.491347821282432],[102.83340454101562,6.491347821282432],[102.83340454101562,6.4012836786624945],[102.74276733398438,6.4012836786624945],[102.74276733398438,6.491347821282432]]]}},{"type":"Feature","id":"pmtiles:12/3218/1974:water:1590:0","properties":{"class":"ocean","water":"ocean","kind":"waterway","verification":"verified","source":"OpenMapTiles/OpenStreetMap national PMTiles","sourceId":"12/3218/1974:water:1590:0","sourceLayer":"water","archive":"https://its.hanifahseptiani45.workers.dev/v1/map/archive/indonesia.pmtiles","updatedAt":"2026-07-26T10:34:25.671Z"},"geometry":{"type":"Polygon","coordinates":[[[102.83065795898438,6.491347821282432],[102.92129516601562,6.491347821282432],[102.92129516601562,6.4012836786624945],[102.83065795898438,6.4012836786624945],[102.83065795898438,6.491347821282432]]]}},{"type":"Feature","id":"pmtiles:12/3219/1974:water:1590:0","properties":{"class":"ocean","water":"ocean","kind":"waterway","verification":"verified","source":"OpenMapTiles/OpenStreetMap national PMTiles","sourceId":"12/3219/1974:water:1590:0","sourceLayer":"water","archive":"https://its.hanifahseptiani45.workers.dev/v1/map/archive/indonesia.pmtiles","updatedAt":"2026-07-26T10:34:25.740Z"},"geometry":{"type":"Polygon","coordinates":[[[102.91854858398438,6.491347821282432],[103.00918579101562,6.491347821282432],[103.00918579101562,6.4012836786624945],[102.91854858398438,6.4012836786624945],[102.91854858398438,6.491347821282432]]]}},{"type":"Feature","id":"pmtiles:12/3216/1975:water:1590:0","properties":{"class":"ocean","water":"ocean","kind":"waterway","verification":"verified","source":"OpenMapTiles/OpenStreetMap national PMTiles","sourceId":"12/3216/1975:water:1590:0","sourceLayer":"water","archive":"https://its.hanifahseptiani45.workers.dev/v1/map/archive/indonesia.pmtiles","updatedAt":"2026-07-26T10:34:58.258Z"},"geometry":{"type":"Polygon","coordinates":[[[102.65487670898438,6.40401312961761],[102.74551391601562,6.40401312961761],[102.74551391601562,6.31393357916707],[102.65487670898438,6.31393357916707],[102.65487670898438,6.40401312961761]]]}},{"type":"Feature","id":"pmtiles:12/3217/1975:water:1590:0","properties":{"class":"ocean","water":"ocean","kind":"waterway","verification":"verified","source":"OpenMapTiles/OpenStreetMap national PMTiles","sourceId":"12/3217/1975:water:1590:0","sourceLayer":"water","archive":"https://its.hanifahseptiani45.workers.dev/v1/map/archive/indonesia.pmtiles","updatedAt":"2026-07-26T10:34:58.325Z"},"geometry":{"type":"Polygon","coordinates":[[[102.74276733398438,6.40401312961761],[102.83340454101562,6.40401312961761],[102.83340454101562,6.31393357916707],[102.74276733398438,6.31393357916707],[102.74276733398438,6.40401312961761]]]}},{"type":"Feature","id":"pmtiles:12/3218/1975:water:1590:0","properties":{"class":"ocean","water":"ocean","kind":"waterway","verification":"verified","source":"OpenMapTiles/OpenStreetMap national PMTiles","sourceId":"12/3218/1975:water:1590:0","sourceLayer":"water","archive":"https://its.hanifahseptiani45.workers.dev/v1/map/archive/indonesia.pmtiles","updatedAt":"2026-07-26T10:34:58.383Z"},"geometry":{"type":"Polygon","coordinates":[[[102.83065795898438,6.40401312961761],[102.92129516601562,6.40401312961761],[102.92129516601562,6.31393357916707],[102.83065795898438,6.31393357916707],[102.83065795898438,6.40401312961761]]]}},{"type":"Feature","id":"pmtiles:12/3219/1975:water:1590:0","properties":{"class":"ocean","water":"ocean","kind":"waterway","verification":"verified","source":"OpenMapTiles/OpenStreetMap national PMTiles","sourceId":"12/3219/1975:water:1590:0","sourceLayer":"water","archive":"https://its.hanifahseptiani45.workers.dev/v1/map/archive/indonesia.pmtiles","updatedAt":"2026-07-26T10:34:58.429Z"},"geometry":{"type":"Polygon","coordinates":[[[102.91854858398438,6.40401312961761],[103.00918579101562,6.40401312961761],[103.00918579101562,6.31393357916707],[102.91854858398438,6.31393357916707],[102.91854858398438,6.40401312961761]]]}},{"type":"Feature","id":"pmtiles:10/804/493:water:1590:0","properties":{"class":"ocean","water":"ocean","kind":"waterway","verification":"verified","source":"OpenMapTiles/OpenStreetMap national PMTiles","sourceId":"10/804/493:water:1590:0","sourceLayer":"water","archive":"https://its.hanifahseptiani45.workers.dev/v1/map/archive/indonesia.pmtiles","updatedAt":"2026-07-26T09:37:46.366Z"},"geometry":{"type":"Polygon","coordinates":[[[102.6507568359375,6.670063575977281],[103.0133056640625,6.670063575977281],[103.0133056640625,6.309838680093364],[102.6507568359375,6.309838680093364],[102.6507568359375,6.670063575977281]]]}}]}