{"type":"FeatureCollection","features":[{"type":"Feature","id":"pmtiles:10/818/515:water:310:0","properties":{"class":"ocean","water":"ocean","kind":"waterway","verification":"verified","source":"OpenMapTiles/OpenStreetMap national PMTiles","sourceId":"10/818/515:water:310:0","sourceLayer":"water","archive":"https://its.hanifahseptiani45.workers.dev/v1/map/archive/indonesia.pmtiles","updatedAt":"2026-07-26T09:42:05.912Z"},"geometry":{"type":"Polygon","coordinates":[[[107.5726318359375,-1.0491357039128246],[107.9351806640625,-1.0491357039128246],[107.9351806640625,-1.4116003389233214],[107.5726318359375,-1.4116003389233214],[107.5726318359375,-1.0491357039128246]]]}}]}