{"type":"FeatureCollection","features":[{"type":"Feature","id":"pmtiles:10/871/529:water:700:0","properties":{"class":"ocean","water":"ocean","kind":"waterway","verification":"verified","source":"OpenMapTiles/OpenStreetMap national PMTiles","sourceId":"10/871/529:water:700:0","sourceLayer":"water","archive":"https://its.hanifahseptiani45.workers.dev/v1/map/archive/indonesia.pmtiles","updatedAt":"2026-07-26T09:44:52.591Z"},"geometry":{"type":"Polygon","coordinates":[[[126.2054443359375,-5.960290229693385],[126.5679931640625,-5.960290229693385],[126.5679931640625,-6.320758338986849],[126.2054443359375,-6.320758338986849],[126.2054443359375,-5.960290229693385]]]}}]}