{"type":"FeatureCollection","features":[{"type":"Feature","id":"pmtiles:10/834/530:transportation:10296809940:0","properties":{"class":"ferry","highway":"ferry","kind":"road","verification":"verified","source":"OpenMapTiles/OpenStreetMap national PMTiles","sourceId":"10/834/530:transportation:10296809940:0","sourceLayer":"transportation","archive":"https://its.hanifahseptiani45.workers.dev/v1/map/archive/indonesia.pmtiles","updatedAt":"2026-07-26T09:44:59.497Z"},"geometry":{"type":"LineString","coordinates":[[113.25247764587402,-6.309838680093364],[113.1976318359375,-6.370491050979368]]}},{"type":"Feature","id":"pmtiles:10/834/530:transportation:10296809940:1","properties":{"class":"ferry","highway":"ferry","kind":"road","verification":"verified","source":"OpenMapTiles/OpenStreetMap national PMTiles","sourceId":"10/834/530:transportation:10296809940:1","sourceLayer":"transportation","archive":"https://its.hanifahseptiani45.workers.dev/v1/map/archive/indonesia.pmtiles","updatedAt":"2026-07-26T09:44:59.497Z"},"geometry":{"type":"LineString","coordinates":[[113.2693862915039,-6.309838680093364],[113.1976318359375,-6.386868523992547]]}},{"type":"Feature","id":"pmtiles:10/834/530:transportation:10296809940:2","properties":{"class":"ferry","highway":"ferry","kind":"road","verification":"verified","source":"OpenMapTiles/OpenStreetMap national PMTiles","sourceId":"10/834/530:transportation:10296809940:2","sourceLayer":"transportation","archive":"https://its.hanifahseptiani45.workers.dev/v1/map/archive/indonesia.pmtiles","updatedAt":"2026-07-26T09:44:59.497Z"},"geometry":{"type":"LineString","coordinates":[[113.1976318359375,-6.564427820220118],[113.38912010192871,-6.434803735782083],[113.5601806640625,-6.316066326277763]]}},{"type":"Feature","id":"pmtiles:10/834/530:transportation:10296809940:3","properties":{"class":"ferry","highway":"ferry","kind":"road","verification":"verified","source":"OpenMapTiles/OpenStreetMap national PMTiles","sourceId":"10/834/530:transportation:10296809940:3","sourceLayer":"transportation","archive":"https://its.hanifahseptiani45.workers.dev/v1/map/archive/indonesia.pmtiles","updatedAt":"2026-07-26T09:44:59.497Z"},"geometry":{"type":"LineString","coordinates":[[113.1976318359375,-6.571931345610693],[113.5601806640625,-6.31930808505615]]}},{"type":"Feature","id":"pmtiles:10/834/530:water:1210:0","properties":{"class":"ocean","water":"ocean","kind":"waterway","verification":"verified","source":"OpenMapTiles/OpenStreetMap national PMTiles","sourceId":"10/834/530:water:1210:0","sourceLayer":"water","archive":"https://its.hanifahseptiani45.workers.dev/v1/map/archive/indonesia.pmtiles","updatedAt":"2026-07-26T09:44:59.497Z"},"geometry":{"type":"Polygon","coordinates":[[[113.1976318359375,-6.309838680093364],[113.5601806640625,-6.309838680093364],[113.5601806640625,-6.670063575977267],[113.1976318359375,-6.670063575977267],[113.1976318359375,-6.309838680093364]]]}},{"type":"Feature","id":"pmtiles:8/208/132:transportation:4043847100:12","properties":{"class":"ferry","highway":"ferry","kind":"road","verification":"verified","source":"OpenMapTiles/OpenStreetMap national PMTiles","sourceId":"8/208/132:transportation:4043847100:12","sourceLayer":"transportation","archive":"https://its.hanifahseptiani45.workers.dev/v1/map/archive/indonesia.pmtiles","updatedAt":"2026-07-26T09:35:42.885Z"},"geometry":{"type":"LineString","coordinates":[[112.66960144042969,-7.035475652433021],[112.67200469970703,-7.008556594213815],[112.68505096435547,-6.952328236383664],[112.74616241455078,-6.871552106388236],[112.75131225585938,-6.866439229581715],[113.38920593261719,-6.434718445817623],[113.92822265625,-6.060330827711027]]}},{"type":"Feature","id":"pmtiles:8/208/132:transportation:4043847100:13","properties":{"class":"ferry","highway":"ferry","kind":"road","verification":"verified","source":"OpenMapTiles/OpenStreetMap national PMTiles","sourceId":"8/208/132:transportation:4043847100:13","sourceLayer":"transportation","archive":"https://its.hanifahseptiani45.workers.dev/v1/map/archive/indonesia.pmtiles","updatedAt":"2026-07-26T09:35:42.885Z"},"geometry":{"type":"LineString","coordinates":[[112.6699447631836,-7.035475652433021],[112.67269134521484,-7.008556594213815],[112.6864242553711,-6.952328236383664],[112.74650573730469,-6.8732563864407155],[112.75337219238281,-6.8671209496645815],[112.86941528320312,-6.800648660813863],[113.92822265625,-6.062720650549508]]}}]}