{"type":"FeatureCollection","features":[{"type":"Feature","id":"pmtiles:10/813/536:water:130:0","properties":{"class":"ocean","water":"ocean","kind":"waterway","verification":"verified","source":"OpenMapTiles/OpenStreetMap national PMTiles","sourceId":"10/813/536:water:130:0","sourceLayer":"water","archive":"https://its.hanifahseptiani45.workers.dev/v1/map/archive/indonesia.pmtiles","updatedAt":"2026-07-26T09:45:59.019Z"},"geometry":{"type":"Polygon","coordinates":[[[105.8148193359375,-8.401733990731856],[106.1773681640625,-8.401733990731856],[106.1773681640625,-8.760223824796952],[105.8148193359375,-8.760223824796952],[105.8148193359375,-8.401733990731856]]]}}]}