{"type":"FeatureCollection","features":[{"type":"Feature","id":"pmtiles:10/863/513:transportation:10403565142:0","properties":{"class":"ferry","highway":"ferry","kind":"road","verification":"verified","source":"OpenMapTiles/OpenStreetMap national PMTiles","sourceId":"10/863/513:transportation:10403565142:0","sourceLayer":"transportation","archive":"https://its.hanifahseptiani45.workers.dev/v1/map/archive/indonesia.pmtiles","updatedAt":"2026-07-26T09:41:49.773Z"},"geometry":{"type":"LineString","coordinates":[[123.6482048034668,-0.7086000996551007],[123.47225189208984,-0.34606723172845477]]}},{"type":"Feature","id":"pmtiles:10/863/513:transportation:3169959900:0","properties":{"class":"primary","highway":"primary","kind":"road","verification":"verified","source":"OpenMapTiles/OpenStreetMap national PMTiles","sourceId":"10/863/513:transportation:3169959900:0","sourceLayer":"transportation","archive":"https://its.hanifahseptiani45.workers.dev/v1/map/archive/indonesia.pmtiles","updatedAt":"2026-07-26T09:41:49.773Z"},"geometry":{"type":"LineString","coordinates":[[123.3929443359375,-0.6922076630887233],[123.39388847351074,-0.693237556073484],[123.39766502380371,-0.6960697606255621],[123.39912414550781,-0.6962414093317051],[123.40092658996582,-0.6960697606255621],[123.40118408203125,-0.6994169092664322],[123.40410232543945,-0.7017341646201487],[123.40435981750488,-0.7022491100985491],[123.40444564819336,-0.7042230672399086],[123.40410232543945,-0.706111199375556],[123.40435981750488,-0.7086000996551007]]}},{"type":"Feature","id":"pmtiles:10/863/513:water:30:0","properties":{"class":"ocean","water":"ocean","kind":"waterway","verification":"verified","source":"OpenMapTiles/OpenStreetMap national PMTiles","sourceId":"10/863/513:water:30:0","sourceLayer":"water","archive":"https://its.hanifahseptiani45.workers.dev/v1/map/archive/indonesia.pmtiles","updatedAt":"2026-07-26T09:41:49.773Z"},"geometry":{"type":"Polygon","coordinates":[[[123.74957084655762,-0.34606723172845477],[123.75042915344238,-0.34606723172845477],[123.7554931640625,-0.34606723172845477],[123.7554931640625,-0.7086000996551007],[123.75042915344238,-0.7086000996551007],[123.74957084655762,-0.7086000996551007],[123.44143867492676,-0.7086000996551007],[123.44143867492676,-0.7077418583302233],[123.44083786010742,-0.7082568031442094],[123.44040870666504,-0.7081709790125217],[123.44015121459961,-0.7086000996551007],[123.43671798706055,-0.7086000996551007],[123.43663215637207,-0.7076560341889859],[123.43611717224121,-0.7083426272743196],[123.43534469604492,-0.7078276824698548],[123.4354305267334,-0.7085142755297653],[123.43534469604492,-0.7086000996551007],[123.4160327911377,-0.7086000996551007],[123.41577529907227,-0.7084284514028241],[123.41431617736816,-0.7055104301427519],[123.41302871704102,-0.7042230672399086],[123.41139793395996,-0.7038797704057345],[123.40847969055176,-0.7019058131192395],[123.40573310852051,-0.7003609764007166],[123.40453147888184,-0.6994169092664322],[123.40272903442383,-0.6973571257692157],[123.40229988098145,-0.6962414093317051],[123.40195655822754,-0.6940958000563597],[123.40161323547363,-0.6937525024818854],[123.3998966217041,-0.6942674488342391],[123.39860916137695,-0.6941816244460739],[123.39680671691895,-0.6927226096090919],[123.39629173278809,-0.6916068920776439],[123.3955192565918,-0.6907486476441989],[123.39526176452637,-0.6901478764485631],[123.39517593383789,-0.6875731418942905],[123.3940601348877,-0.686114125030187],[123.39311599731445,-0.685513353250883],[123.3929443359375,-0.6852558796080928],[123.3929443359375,-0.6771883651509398],[123.39354515075684,-0.6769308910633356],[123.39303016662598,-0.6749569226046646],[123.39345932006836,-0.6731546028774034],[123.3929443359375,-0.6726396542614879],[123.3929443359375,-0.6605383462350574],[123.39345932006836,-0.6601092212927853],[123.39517593383789,-0.6596800963134655],[123.3958625793457,-0.6599375713054911],[123.39629173278809,-0.6597659213122853],[123.39715003967285,-0.6590793212802737],[123.39912414550781,-0.6583068961311227],[123.40006828308105,-0.6574486458250561],[123.40169906616211,-0.6571053456613214],[123.40290069580078,-0.6572769957461446],[123.40341567993164,-0.6576202958980701],[123.40384483337402,-0.6576202958980701],[123.40453147888184,-0.6572769957461446],[123.4053897857666,-0.6564187452630819],[123.40659141540527,-0.6559037949025281],[123.409423828125,-0.6560754450286055],[123.41028213500977,-0.6558179698372868],[123.41182708740234,-0.6558179698372868],[123.41122627258301,-0.6553030194149301],[123.41122627258301,-0.6551313692623779],[123.40985298156738,-0.6531573920857738],[123.40736389160156,-0.6506684632365847],[123.40547561645508,-0.6498960367921143],[123.40418815612793,-0.6497243864550768],[123.4035873413086,-0.6500676871233253],[123.40204238891602,-0.6498102116243416],[123.40006828308105,-0.6489519598662667],[123.39509010314941,-0.6424292417600412],[123.39388847351074,-0.641742639368303],[123.39320182800293,-0.6419142899748636],[123.3929443359375,-0.6421717658739396],[123.3929443359375,-0.34606723172845477],[123.74957084655762,-0.34606723172845477]]]}},{"type":"Feature","id":"pmtiles:10/862/514:transportation:3165720990:0","properties":{"class":"primary","highway":"primary","kind":"road","verification":"verified","source":"OpenMapTiles/OpenStreetMap national PMTiles","sourceId":"10/862/514:transportation:3165720990:0","sourceLayer":"transportation","archive":"https://its.hanifahseptiani45.workers.dev/v1/map/archive/indonesia.pmtiles","updatedAt":"2026-07-26T09:41:58.100Z"},"geometry":{"type":"LineString","coordinates":[[123.4010124206543,-0.6976145987557061],[123.40118408203125,-0.6994169092664322],[123.4039306640625,-0.7015625161147341]]}},{"type":"Feature","id":"pmtiles:10/862/514:water:30:2","properties":{"class":"ocean","water":"ocean","kind":"waterway","verification":"verified","source":"OpenMapTiles/OpenStreetMap national PMTiles","sourceId":"10/862/514:water:30:2","sourceLayer":"water","archive":"https://its.hanifahseptiani45.workers.dev/v1/map/archive/indonesia.pmtiles","updatedAt":"2026-07-26T09:41:58.101Z"},"geometry":{"type":"Polygon","coordinates":[[[123.4039306640625,-0.6976145987557061],[123.4039306640625,-0.6987303148676602],[123.40298652648926,-0.6976145987557061],[123.4039306640625,-0.6976145987557061]]]}}]}