{"type":"FeatureCollection","features":[{"type":"Feature","id":"pmtiles:12/3584/1980:water:140:0","properties":{"class":"ocean","water":"ocean","kind":"waterway","verification":"verified","source":"OpenMapTiles/OpenStreetMap national PMTiles","sourceId":"12/3584/1980:water:140:0","sourceLayer":"water","archive":"https://its.hanifahseptiani45.workers.dev/v1/map/archive/indonesia.pmtiles","updatedAt":"2026-07-26T10:38:03.989Z"},"geometry":{"type":"Polygon","coordinates":[[[134.99862670898438,5.967119522904156],[135.08926391601562,5.967119522904156],[135.08926391601562,5.87696603826862],[134.99862670898438,5.87696603826862],[134.99862670898438,5.967119522904156]]]}},{"type":"Feature","id":"pmtiles:12/3585/1980:water:140:0","properties":{"class":"ocean","water":"ocean","kind":"waterway","verification":"verified","source":"OpenMapTiles/OpenStreetMap national PMTiles","sourceId":"12/3585/1980:water:140:0","sourceLayer":"water","archive":"https://its.hanifahseptiani45.workers.dev/v1/map/archive/indonesia.pmtiles","updatedAt":"2026-07-26T10:38:04.060Z"},"geometry":{"type":"Polygon","coordinates":[[[135.08651733398438,5.967119522904156],[135.17715454101562,5.967119522904156],[135.17715454101562,5.87696603826862],[135.08651733398438,5.87696603826862],[135.08651733398438,5.967119522904156]]]}},{"type":"Feature","id":"pmtiles:12/3586/1980:water:140:0","properties":{"class":"ocean","water":"ocean","kind":"waterway","verification":"verified","source":"OpenMapTiles/OpenStreetMap national PMTiles","sourceId":"12/3586/1980:water:140:0","sourceLayer":"water","archive":"https://its.hanifahseptiani45.workers.dev/v1/map/archive/indonesia.pmtiles","updatedAt":"2026-07-26T10:38:04.119Z"},"geometry":{"type":"Polygon","coordinates":[[[135.17440795898438,5.967119522904156],[135.26504516601562,5.967119522904156],[135.26504516601562,5.87696603826862],[135.17440795898438,5.87696603826862],[135.17440795898438,5.967119522904156]]]}},{"type":"Feature","id":"pmtiles:12/3587/1980:water:140:0","properties":{"class":"ocean","water":"ocean","kind":"waterway","verification":"verified","source":"OpenMapTiles/OpenStreetMap national PMTiles","sourceId":"12/3587/1980:water:140:0","sourceLayer":"water","archive":"https://its.hanifahseptiani45.workers.dev/v1/map/archive/indonesia.pmtiles","updatedAt":"2026-07-26T10:38:04.183Z"},"geometry":{"type":"Polygon","coordinates":[[[135.26229858398438,5.967119522904156],[135.35293579101562,5.967119522904156],[135.35293579101562,5.87696603826862],[135.26229858398438,5.87696603826862],[135.26229858398438,5.967119522904156]]]}},{"type":"Feature","id":"pmtiles:12/3584/1981:water:140:0","properties":{"class":"ocean","water":"ocean","kind":"waterway","verification":"verified","source":"OpenMapTiles/OpenStreetMap national PMTiles","sourceId":"12/3584/1981:water:140:0","sourceLayer":"water","archive":"https://its.hanifahseptiani45.workers.dev/v1/map/archive/indonesia.pmtiles","updatedAt":"2026-07-26T10:38:38.255Z"},"geometry":{"type":"Polygon","coordinates":[[[134.99862670898438,5.879698177726667],[135.08926391601562,5.879698177726667],[135.08926391601562,5.789530528448793],[134.99862670898438,5.789530528448793],[134.99862670898438,5.879698177726667]]]}},{"type":"Feature","id":"pmtiles:12/3585/1981:water:140:0","properties":{"class":"ocean","water":"ocean","kind":"waterway","verification":"verified","source":"OpenMapTiles/OpenStreetMap national PMTiles","sourceId":"12/3585/1981:water:140:0","sourceLayer":"water","archive":"https://its.hanifahseptiani45.workers.dev/v1/map/archive/indonesia.pmtiles","updatedAt":"2026-07-26T10:38:38.317Z"},"geometry":{"type":"Polygon","coordinates":[[[135.08651733398438,5.879698177726667],[135.17715454101562,5.879698177726667],[135.17715454101562,5.789530528448793],[135.08651733398438,5.789530528448793],[135.08651733398438,5.879698177726667]]]}},{"type":"Feature","id":"pmtiles:12/3586/1981:water:140:0","properties":{"class":"ocean","water":"ocean","kind":"waterway","verification":"verified","source":"OpenMapTiles/OpenStreetMap national PMTiles","sourceId":"12/3586/1981:water:140:0","sourceLayer":"water","archive":"https://its.hanifahseptiani45.workers.dev/v1/map/archive/indonesia.pmtiles","updatedAt":"2026-07-26T10:38:38.436Z"},"geometry":{"type":"Polygon","coordinates":[[[135.17440795898438,5.879698177726667],[135.26504516601562,5.879698177726667],[135.26504516601562,5.789530528448793],[135.17440795898438,5.789530528448793],[135.17440795898438,5.879698177726667]]]}},{"type":"Feature","id":"pmtiles:12/3587/1981:water:140:0","properties":{"class":"ocean","water":"ocean","kind":"waterway","verification":"verified","source":"OpenMapTiles/OpenStreetMap national PMTiles","sourceId":"12/3587/1981:water:140:0","sourceLayer":"water","archive":"https://its.hanifahseptiani45.workers.dev/v1/map/archive/indonesia.pmtiles","updatedAt":"2026-07-26T10:38:38.490Z"},"geometry":{"type":"Polygon","coordinates":[[[135.26229858398438,5.879698177726667],[135.35293579101562,5.879698177726667],[135.35293579101562,5.789530528448793],[135.26229858398438,5.789530528448793],[135.26229858398438,5.879698177726667]]]}},{"type":"Feature","id":"pmtiles:12/3584/1982:water:140:0","properties":{"class":"ocean","water":"ocean","kind":"waterway","verification":"verified","source":"OpenMapTiles/OpenStreetMap national PMTiles","sourceId":"12/3584/1982:water:140:0","sourceLayer":"water","archive":"https://its.hanifahseptiani45.workers.dev/v1/map/archive/indonesia.pmtiles","updatedAt":"2026-07-26T10:39:11.021Z"},"geometry":{"type":"Polygon","coordinates":[[[134.99862670898438,5.792263093990954],[135.08926391601562,5.792263093990954],[135.08926391601562,5.702081487858422],[134.99862670898438,5.702081487858422],[134.99862670898438,5.792263093990954]]]}},{"type":"Feature","id":"pmtiles:12/3585/1982:water:140:0","properties":{"class":"ocean","water":"ocean","kind":"waterway","verification":"verified","source":"OpenMapTiles/OpenStreetMap national PMTiles","sourceId":"12/3585/1982:water:140:0","sourceLayer":"water","archive":"https://its.hanifahseptiani45.workers.dev/v1/map/archive/indonesia.pmtiles","updatedAt":"2026-07-26T10:39:11.093Z"},"geometry":{"type":"Polygon","coordinates":[[[135.08651733398438,5.792263093990954],[135.17715454101562,5.792263093990954],[135.17715454101562,5.702081487858422],[135.08651733398438,5.702081487858422],[135.08651733398438,5.792263093990954]]]}},{"type":"Feature","id":"pmtiles:12/3586/1982:water:140:0","properties":{"class":"ocean","water":"ocean","kind":"waterway","verification":"verified","source":"OpenMapTiles/OpenStreetMap national PMTiles","sourceId":"12/3586/1982:water:140:0","sourceLayer":"water","archive":"https://its.hanifahseptiani45.workers.dev/v1/map/archive/indonesia.pmtiles","updatedAt":"2026-07-26T10:39:11.146Z"},"geometry":{"type":"Polygon","coordinates":[[[135.17440795898438,5.792263093990954],[135.26504516601562,5.792263093990954],[135.26504516601562,5.702081487858422],[135.17440795898438,5.702081487858422],[135.17440795898438,5.792263093990954]]]}},{"type":"Feature","id":"pmtiles:12/3587/1982:water:140:0","properties":{"class":"ocean","water":"ocean","kind":"waterway","verification":"verified","source":"OpenMapTiles/OpenStreetMap national PMTiles","sourceId":"12/3587/1982:water:140:0","sourceLayer":"water","archive":"https://its.hanifahseptiani45.workers.dev/v1/map/archive/indonesia.pmtiles","updatedAt":"2026-07-26T10:39:11.209Z"},"geometry":{"type":"Polygon","coordinates":[[[135.26229858398438,5.792263093990954],[135.35293579101562,5.792263093990954],[135.35293579101562,5.702081487858422],[135.26229858398438,5.702081487858422],[135.26229858398438,5.792263093990954]]]}},{"type":"Feature","id":"pmtiles:12/3584/1983:water:70:0","properties":{"class":"ocean","water":"ocean","kind":"waterway","verification":"verified","source":"OpenMapTiles/OpenStreetMap national PMTiles","sourceId":"12/3584/1983:water:70:0","sourceLayer":"water","archive":"https://its.hanifahseptiani45.workers.dev/v1/map/archive/indonesia.pmtiles","updatedAt":"2026-07-26T10:39:48.180Z"},"geometry":{"type":"Polygon","coordinates":[[[134.99862670898438,5.70481447318565],[135.08926391601562,5.70481447318565],[135.08926391601562,5.61461911814834],[134.99862670898438,5.61461911814834],[134.99862670898438,5.70481447318565]]]}},{"type":"Feature","id":"pmtiles:12/3585/1983:water:140:0","properties":{"class":"ocean","water":"ocean","kind":"waterway","verification":"verified","source":"OpenMapTiles/OpenStreetMap national PMTiles","sourceId":"12/3585/1983:water:140:0","sourceLayer":"water","archive":"https://its.hanifahseptiani45.workers.dev/v1/map/archive/indonesia.pmtiles","updatedAt":"2026-07-26T10:39:48.251Z"},"geometry":{"type":"Polygon","coordinates":[[[135.08651733398438,5.70481447318565],[135.17715454101562,5.70481447318565],[135.17715454101562,5.61461911814834],[135.08651733398438,5.61461911814834],[135.08651733398438,5.70481447318565]]]}},{"type":"Feature","id":"pmtiles:12/3586/1983:water:140:0","properties":{"class":"ocean","water":"ocean","kind":"waterway","verification":"verified","source":"OpenMapTiles/OpenStreetMap national PMTiles","sourceId":"12/3586/1983:water:140:0","sourceLayer":"water","archive":"https://its.hanifahseptiani45.workers.dev/v1/map/archive/indonesia.pmtiles","updatedAt":"2026-07-26T10:39:48.327Z"},"geometry":{"type":"Polygon","coordinates":[[[135.17440795898438,5.70481447318565],[135.26504516601562,5.70481447318565],[135.26504516601562,5.61461911814834],[135.17440795898438,5.61461911814834],[135.17440795898438,5.70481447318565]]]}},{"type":"Feature","id":"pmtiles:12/3587/1983:water:140:0","properties":{"class":"ocean","water":"ocean","kind":"waterway","verification":"verified","source":"OpenMapTiles/OpenStreetMap national PMTiles","sourceId":"12/3587/1983:water:140:0","sourceLayer":"water","archive":"https://its.hanifahseptiani45.workers.dev/v1/map/archive/indonesia.pmtiles","updatedAt":"2026-07-26T10:39:48.412Z"},"geometry":{"type":"Polygon","coordinates":[[[135.26229858398438,5.70481447318565],[135.35293579101562,5.70481447318565],[135.35293579101562,5.61461911814834],[135.26229858398438,5.61461911814834],[135.26229858398438,5.70481447318565]]]}},{"type":"Feature","id":"pmtiles:10/896/495:water:70:0","properties":{"class":"ocean","water":"ocean","kind":"waterway","verification":"verified","source":"OpenMapTiles/OpenStreetMap national PMTiles","sourceId":"10/896/495:water:70:0","sourceLayer":"water","archive":"https://its.hanifahseptiani45.workers.dev/v1/map/archive/indonesia.pmtiles","updatedAt":"2026-07-26T09:38:17.962Z"},"geometry":{"type":"Polygon","coordinates":[[[134.9945068359375,5.971217057997222],[135.3570556640625,5.971217057997222],[135.3570556640625,5.61051899590089],[134.9945068359375,5.61051899590089],[134.9945068359375,5.971217057997222]]]}}]}