{"type":"FeatureCollection","features":[{"type":"Feature","id":"pmtiles:10/878/515:water:1690:0","properties":{"class":"ocean","water":"ocean","kind":"waterway","verification":"verified","source":"OpenMapTiles/OpenStreetMap national PMTiles","sourceId":"10/878/515:water:1690:0","sourceLayer":"water","archive":"https://its.hanifahseptiani45.workers.dev/v1/map/archive/indonesia.pmtiles","updatedAt":"2026-07-26T09:42:10.678Z"},"geometry":{"type":"Polygon","coordinates":[[[128.6663818359375,-1.0491357039128246],[129.0289306640625,-1.0491357039128246],[129.0289306640625,-1.4116003389233214],[128.6663818359375,-1.4116003389233214],[128.6663818359375,-1.0491357039128246]],[[128.92610549926758,-1.3928948523177667],[128.92739295959473,-1.3916077720684399],[128.9282512664795,-1.3912645505499626],[128.92919540405273,-1.3898916639768686],[128.9297103881836,-1.3882613601346918],[128.93022537231445,-1.3874891105538296],[128.9303970336914,-1.3856013882951146],[128.92962455749512,-1.3831130248377121],[128.92816543579102,-1.3808820760711882],[128.92756462097168,-1.3805388529981002],[128.92704963684082,-1.3798524067032503],[128.92662048339844,-1.3797666009024852],[128.92610549926758,-1.3790801543847948],[128.92413139343262,-1.3785653193665866],[128.92172813415527,-1.3789943485561622],[128.9205265045166,-1.3802814356607485],[128.91949653625488,-1.380624658771012],[128.91846656799316,-1.3805388529981002],[128.9176082611084,-1.3801956298754448],[128.9168357849121,-1.378822736889603],[128.91632080078125,-1.378822736889603],[128.91520500183105,-1.3791659602103152],[128.91357421875,-1.382683996391549],[128.9124584197998,-1.38388527584533],[128.91168594360352,-1.3843143040742518],[128.91168594360352,-1.3856871938849764],[128.9109992980957,-1.3867168607208669],[128.91082763671875,-1.3875749160752662],[128.91057014465332,-1.3895484422088344],[128.9106559753418,-1.3904064965353484],[128.91160011291504,-1.3931522682832878],[128.91254425048828,-1.3944393476889019],[128.9161491394043,-1.3983863868080846],[128.91666412353516,-1.398643802172458],[128.91803741455078,-1.3981289714154883],[128.91966819763184,-1.398472191932683],[128.92189979553223,-1.3971851147344836],[128.92250061035156,-1.3965844784672896],[128.92301559448242,-1.3957264263907234],[128.92447471618652,-1.394696763485598],[128.92516136169434,-1.3936671001299459],[128.92610549926758,-1.3928948523177667]]]}}]}