{"type":"FeatureCollection","features":[{"type":"Feature","id":"pmtiles:10/870/532:water:710:0","properties":{"class":"ocean","water":"ocean","kind":"waterway","verification":"verified","source":"OpenMapTiles/OpenStreetMap national PMTiles","sourceId":"10/870/532:water:710:0","sourceLayer":"water","archive":"https://its.hanifahseptiani45.workers.dev/v1/map/archive/indonesia.pmtiles","updatedAt":"2026-07-26T09:45:21.860Z"},"geometry":{"type":"Polygon","coordinates":[[[125.8538818359375,-7.008215836663396],[126.2164306640625,-7.008215836663396],[126.2164306640625,-7.367914706747754],[125.8538818359375,-7.367914706747754],[125.8538818359375,-7.008215836663396]]]}}]}