{"type":"FeatureCollection","features":[{"type":"Feature","id":"pmtiles:10/898/513:landcover:12086621412:0","properties":{"subclass":"wood","class":"wood","kind":"green","verification":"verified","source":"OpenMapTiles/OpenStreetMap national PMTiles","sourceId":"10/898/513:landcover:12086621412:0","sourceLayer":"landcover","archive":"https://its.hanifahseptiani45.workers.dev/v1/map/archive/indonesia.pmtiles","updatedAt":"2026-07-26T09:41:51.901Z"},"geometry":{"type":"Polygon","coordinates":[[[135.80552101135254,-0.7086000996551007],[135.80646514892578,-0.7058537268567306],[135.8067226409912,-0.7030215282097885],[135.80620765686035,-0.7004468006762181],[135.8086109161377,-0.6960697606255621],[135.81024169921875,-0.6952115170012121],[135.81170082092285,-0.6934950292846906],[135.81427574157715,-0.6935808536853045],[135.8162498474121,-0.6925509607751792],[135.82260131835938,-0.693237556073484],[135.82560539245605,-0.6966705310696995],[135.82818031311035,-0.6970138284319631],[135.8294677734375,-0.6983011933174765],[135.83547592163086,-0.7001893278449813],[135.83633422851562,-0.7010475705607604],[135.84002494812012,-0.7007900977625496],[135.84174156188965,-0.7000176792829507],[135.84611892700195,-0.6994169092664322],[135.85015296936035,-0.7000176792829507],[135.85650444030762,-0.7035364735462935],[135.86113929748535,-0.7050813092146768],[135.86414337158203,-0.707398561755781],[135.8646583557129,-0.7086000996551007],[135.80552101135254,-0.7086000996551007]]]}},{"type":"Feature","id":"pmtiles:10/898/513:transportation:2168885542:0","properties":{"class":"primary","highway":"primary","kind":"road","verification":"verified","source":"OpenMapTiles/OpenStreetMap national PMTiles","sourceId":"10/898/513:transportation:2168885542:0","sourceLayer":"transportation","archive":"https://its.hanifahseptiani45.workers.dev/v1/map/archive/indonesia.pmtiles","updatedAt":"2026-07-26T09:41:51.901Z"},"geometry":{"type":"LineString","coordinates":[[135.86474418640137,-0.7086000996551007],[135.86474418640137,-0.7075702100461712],[135.86414337158203,-0.7067119685307404],[135.86268424987793,-0.706197023545343],[135.86105346679688,-0.7049954850243267],[135.85693359375,-0.7032790008851464],[135.85564613342285,-0.7017341646201487],[135.85315704345703,-0.7013908676030525],[135.85229873657227,-0.7018199888704828],[135.85169792175293,-0.7017341646201487],[135.85058212280273,-0.701219219085047],[135.84980964660645,-0.7013050433448313],[135.8480930328369,-0.7001035035647476],[135.84732055664062,-0.6998460307146672],[135.84620475769043,-0.7000176792829507],[135.84534645080566,-0.701219219085047],[135.84423065185547,-0.701219219085047],[135.84217071533203,-0.7025924070526486],[135.84139823913574,-0.7025065828164827],[135.84105491638184,-0.7018199888704828],[135.83925247192383,-0.701219219085047],[135.83890914916992,-0.7001035035647476],[135.8378791809082,-0.6994169092664322],[135.83805084228516,-0.6984728419422623],[135.8378791809082,-0.6981295446864237],[135.8371925354004,-0.6974429500995996],[135.83590507507324,-0.6971854771037158],[135.8341884613037,-0.6946107463713247],[135.83247184753418,-0.6950398682576093],[135.83195686340332,-0.6940958000563597],[135.83066940307617,-0.6928942584367803],[135.8280086517334,-0.6914352432033581],[135.8254337310791,-0.6904911742839346],[135.82148551940918,-0.6903195253693468],[135.82019805908203,-0.6900620519858478],[135.81865310668945,-0.6901478764485631],[135.81642150878906,-0.6896329296490364],[135.81341743469238,-0.6904053498274294],[135.8118724822998,-0.6897187541194825],[135.81110000610352,-0.6898045785883937],[135.80938339233398,-0.6915210676412755],[135.80869674682617,-0.6928084340237035],[135.80740928649902,-0.6934092048824994],[135.8068084716797,-0.6942674488342391],[135.80517768859863,-0.6980437203685597],[135.8045768737793,-0.6987303148676602],[135.8045768737793,-0.7003609764007166],[135.8041477203369,-0.702334934339433],[135.8031177520752,-0.7036222977635305],[135.80183029174805,-0.7060253752041916],[135.80217361450195,-0.707398561755781],[135.80294609069824,-0.7086000996551007]]}},{"type":"Feature","id":"pmtiles:10/898/513:water:380:0","properties":{"class":"ocean","water":"ocean","kind":"waterway","verification":"verified","source":"OpenMapTiles/OpenStreetMap national PMTiles","sourceId":"10/898/513:water:380:0","sourceLayer":"water","archive":"https://its.hanifahseptiani45.workers.dev/v1/map/archive/indonesia.pmtiles","updatedAt":"2026-07-26T09:41:51.901Z"},"geometry":{"type":"Polygon","coordinates":[[[135.6976318359375,-0.7086000996551007],[135.6976318359375,-0.34606723172845477],[136.0601806640625,-0.34606723172845477],[136.0601806640625,-0.7086000996551007],[135.8671474456787,-0.7086000996551007],[135.86706161499023,-0.7085142755297653],[135.8656883239746,-0.7068836168465111],[135.8642292022705,-0.706111199375556],[135.86328506469727,-0.7050813092146768],[135.85856437683105,-0.7034506493274932],[135.85530281066895,-0.7007900977625496],[135.85281372070312,-0.6998460307146672],[135.85161209106445,-0.6994169092664322],[135.85015296936035,-0.6998460307146672],[135.84783554077148,-0.6992452606761503],[135.84732055664062,-0.698987787778961],[135.84654808044434,-0.698987787778961],[135.8437156677246,-0.6972713014372403],[135.84174156188965,-0.6966705310696995],[135.84139823913574,-0.6964988823792027],[135.84131240844727,-0.6960697606255621],[135.84036827087402,-0.6958122875546593],[135.83959579467773,-0.6962414093317051],[135.83856582641602,-0.6957264631945606],[135.83770751953125,-0.6956406388328986],[135.8353042602539,-0.6942674488342391],[135.83410263061523,-0.6940958000563597],[135.83358764648438,-0.6942674488342391],[135.82963943481445,-0.6917785409457196],[135.82534790039062,-0.6899762275215835],[135.82097053527832,-0.6898045785883937],[135.8192539215088,-0.6891179827938032],[135.81753730773926,-0.6877447909078285],[135.81127166748047,-0.6851700550574265],[135.8060359954834,-0.685599177795396],[135.80363273620605,-0.6866290722095414],[135.80148696899414,-0.6886030358829203],[135.7994270324707,-0.6934950292846906],[135.79934120178223,-0.6947823951305168],[135.7987403869629,-0.6966705310696995],[135.7968521118164,-0.7001893278449813],[135.7943630218506,-0.7024207585787536],[135.79350471496582,-0.7027640555202339],[135.79058647155762,-0.7046521882470671],[135.78861236572266,-0.7067119685307404],[135.7884407043457,-0.7086000996551007],[135.71805953979492,-0.7086000996551007],[135.71685791015625,-0.7083426272743196],[135.71385383605957,-0.7084284514028241],[135.7133388519287,-0.7086000996551007],[135.6976318359375,-0.7086000996551007]]]}},{"type":"Feature","id":"pmtiles:8/224/128:water:380:0","properties":{"class":"ocean","water":"ocean","kind":"waterway","verification":"verified","source":"OpenMapTiles/OpenStreetMap national PMTiles","sourceId":"8/224/128:water:380:0","sourceLayer":"water","archive":"https://its.hanifahseptiani45.workers.dev/v1/map/archive/indonesia.pmtiles","updatedAt":"2026-07-26T09:35:33.835Z"},"geometry":{"type":"Polygon","coordinates":[[[134.97802734375,0.00034332275390625],[134.97802734375,0.021972655711437028],[134.9996566772461,0.021972655711437028],[135.0003433227539,0.021972655711437028],[136.42822265625,0.021972655711437028],[136.42822265625,0.00034332275390625],[136.42822265625,-0.00034332275390625],[136.42822265625,-1.428074771366937],[135.0003433227539,-1.428074771366937],[134.9996566772461,-1.428074771366937],[134.97802734375,-1.428074771366937],[134.97802734375,-1.0748804870876114],[134.98180389404297,-1.0717911244639424],[134.98180389404297,-1.0704180734081206],[134.98043060302734,-1.0693882847127583],[134.98077392578125,-1.064925863044735],[134.97802734375,-1.0614932265948056],[134.97802734375,-1.0546279422758715],[134.97802734375,-1.0494789690934994],[134.98146057128906,-1.0453597844424678],[134.98111724853516,-1.0433001900892407],[134.98008728027344,-1.0419271264378835],[134.98111724853516,-1.0388377310354855],[134.97974395751953,-1.037121398950589],[134.9828338623047,-1.036091599252785],[134.9842071533203,-1.0367781324218726],[134.98523712158203,-1.036091599252785],[134.9842071533203,-1.0281964571401403],[134.98043060302734,-1.0120628453117604],[134.97940063476562,-1.0130926527334765],[134.97802734375,-1.0134359218013458],[134.97802734375,-0.00034332275390625],[134.97802734375,0.00034332275390625]],[[136.4124298095703,-1.2746522296662306],[136.4110565185547,-1.2787710799462957],[136.41002655029297,-1.2849493429668684],[136.41036987304688,-1.28941141252578],[136.41311645507812,-1.3079460789741404],[136.41414642333984,-1.299365231778097],[136.41071319580078,-1.28941141252578],[136.4117431640625,-1.2852925793638548],[136.4120864868164,-1.2811737395587102],[136.41277313232422,-1.2784278426751143],[136.41551971435547,-1.2739657539784588],[136.42066955566406,-1.2705333727978996],[136.4220428466797,-1.2677874645693805],[136.4179229736328,-1.2677874645693805],[136.41586303710938,-1.2695036575538978],[136.4124298095703,-1.2746522296662306]],[[135.41576385498047,-0.7443027955751376],[135.41645050048828,-0.7463625578083537],[135.41748046875,-0.7449893830932126],[135.41919708251953,-0.7456759705043368],[135.41748046875,-0.7460192641697176],[135.4167938232422,-0.7473924385633808],[135.42125701904297,-0.7504820793781874],[135.42125701904297,-0.7511686659298675],[135.41954040527344,-0.7511686659298675],[135.41851043701172,-0.7535717180105905],[135.42194366455078,-0.7542583040760604],[135.42675018310547,-0.7580345254974077],[135.4277801513672,-0.757691232776736],[135.4281234741211,-0.7583778181908514],[135.42640686035156,-0.7597509886922467],[135.42640686035156,-0.7607808662819338],[135.4281234741211,-0.7607808662819338],[135.4277801513672,-0.7624973283849954],[135.42949676513672,-0.7621540360190835],[135.43087005615234,-0.7649003741792058],[135.43258666992188,-0.7652436663257731],[135.4346466064453,-0.7679900025082844],[135.44116973876953,-0.770736336926177],[135.4442596435547,-0.771079628604042],[135.4456329345703,-0.7738259610292602],[135.44769287109375,-0.7745125438579947],[135.44803619384766,-0.7772588740597257],[135.4500961303711,-0.7789753295293167],[135.4507827758789,-0.7810350751697968],[135.45215606689453,-0.7810350751697968],[135.45318603515625,-0.7830948198008656],[135.4566192626953,-0.7817216568257948],[135.4617691040039,-0.7834381104743926],[135.46485900878906,-0.7865277252688685],[135.46485900878906,-0.7906472081021008],[135.46794891357422,-0.7920203681392621],[135.4676055908203,-0.793393527721463],[135.47000885009766,-0.7957965558932045],[135.4730987548828,-0.7954532662400027],[135.47447204589844,-0.7978562932120923],[135.48580169677734,-0.8030056319920789],[135.48580169677734,-0.8036922100069006],[135.4885482788086,-0.804722076812709],[135.49060821533203,-0.8064385209110867],[135.4888916015625,-0.8071250983478677],[135.4882049560547,-0.8091848299623621],[135.48614501953125,-0.8095281184631773],[135.48236846923828,-0.8115878488573145],[135.4833984375,-0.8153640185203557],[135.48545837402344,-0.8146774424809706],[135.4895782470703,-0.8157073064961651],[135.49095153808594,-0.8177670337355778],[135.4940414428711,-0.8177670337355778],[135.49575805664062,-0.8205133350769245],[135.49747467041016,-0.820856622612169],[135.49884796142578,-0.8198267599180866],[135.4998779296875,-0.8225730598460927],[135.50228118896484,-0.8236029218321761],[135.50228118896484,-0.8249760707329443],[135.50331115722656,-0.8249760707329443],[135.5046844482422,-0.8232596345330307],[135.50399780273438,-0.8253193578841262],[135.5060577392578,-0.8263492191598516],[135.50983428955078,-0.827035793195364],[135.50949096679688,-0.8284089409099664],[135.5105209350586,-0.828752227764312],[135.50914764404297,-0.8301253748840054],[135.50949096679688,-0.8325283811956012],[135.50777435302734,-0.8332149541586915],[135.50708770751953,-0.8345880997257922],[135.50846099853516,-0.836647817177365],[135.50708770751953,-0.8424836774092626],[135.50880432128906,-0.8445433907014035],[135.50811767578125,-0.8459165322899622],[135.5156707763672,-0.8544986561785208],[135.51807403564453,-0.855185225263881],[135.5215072631836,-0.8531255176397536],[135.52459716796875,-0.8558717942264451],[135.52562713623047,-0.8548419407365486],[135.5276870727539,-0.8565583630660996],[135.52906036376953,-0.8548419407365486],[135.53043365478516,-0.8579315003763099],[135.5324935913086,-0.8575882160949249],[135.53146362304688,-0.8586180688466527],[135.53112030029297,-0.8603344894829092],[135.53421020507812,-0.8613643414941237],[135.5328369140625,-0.8634240446813095],[135.53386688232422,-0.8647971795196554],[135.53661346435547,-0.8665135973689502],[135.53695678710938,-0.8713195632047501],[135.53970336914062,-0.872006129253009],[135.54176330566406,-0.8702897138977619],[135.54279327392578,-0.8665135973689502],[135.54107666015625,-0.8620509093470048],[135.54485321044922,-0.8493493841338022],[135.5438232421875,-0.8424836774092626],[135.54244995117188,-0.8393941054303014],[135.54107666015625,-0.8380209615445153],[135.538330078125,-0.8376776754978152],[135.52837371826172,-0.8318418081129835],[135.52597045898438,-0.8314985215268536],[135.52425384521484,-0.8325283811956012],[135.52631378173828,-0.8290955145889001],[135.52356719970703,-0.8225730598460927],[135.52082061767578,-0.8211999101179401],[135.52013397216797,-0.8194834722944933],[135.5221939086914,-0.8150207305152861],[135.52322387695312,-0.8060952321492607],[135.5221939086914,-0.8036922100069006],[135.51979064941406,-0.8019757647536636],[135.51841735839844,-0.7968264246813845],[135.5160140991211,-0.7927069479872699],[135.51258087158203,-0.7892740476108031],[135.50537109375,-0.7879008866661223],[135.50159454345703,-0.7899606279131746],[135.50159454345703,-0.7930502378685986],[135.50228118896484,-0.793393527721463],[135.5005645751953,-0.7954532662400027],[135.50262451171875,-0.7971697142202316],[135.50262451171875,-0.7985428720893708],[135.5002212524414,-0.7985428720893708],[135.49850463867188,-0.8009458972561276],[135.49816131591797,-0.8030056319920789],[135.49884796142578,-0.8040354989710465],[135.50090789794922,-0.8036922100069006],[135.49850463867188,-0.804722076812709],[135.49884796142578,-0.806781809643951],[135.50090789794922,-0.806781809643951],[135.4991912841797,-0.807811675668745],[135.4991912841797,-0.8095281184631773],[135.50090789794922,-0.8112445605310512],[135.49850463867188,-0.8136475782025201],[135.4991912841797,-0.8115878488573145],[135.49678802490234,-0.8095281184631773],[135.49575805664062,-0.8064385209110867],[135.4936981201172,-0.805408654538823],[135.49163818359375,-0.8030056319920789],[135.49026489257812,-0.7999160294997978],[135.4895782470703,-0.7968264246813845],[135.49129486083984,-0.7923636580774769],[135.48992156982422,-0.7909904981540024],[135.48751831054688,-0.7906472081021008],[135.48648834228516,-0.7889307574171056],[135.48442840576172,-0.7879008866661223],[135.48236846923828,-0.7837814011197679],[135.48065185546875,-0.7824082383694986],[135.47962188720703,-0.7830948198008656],[135.4779052734375,-0.7796619115214725],[135.4772186279297,-0.7796619115214725],[135.47653198242188,-0.7776021652095011],[135.47618865966797,-0.7772588740597257],[135.47687530517578,-0.7762290004430099],[135.47550201416016,-0.7745125438579947],[135.47481536865234,-0.7748558352306532],[135.47584533691406,-0.7721095034714409],[135.47412872314453,-0.771079628604042],[135.47584533691406,-0.7700497534874842],[135.47618865966797,-0.7686765862784313],[135.47550201416016,-0.7679900025082844],[135.47481536865234,-0.7686765862784313],[135.47515869140625,-0.7676467105818432],[135.47378540039062,-0.7666168346372046],[135.47481536865234,-0.7655869584448709],[135.4727554321289,-0.7659302505364849],[135.4727554321289,-0.7652436663257731],[135.47103881835938,-0.7642137898036907],[135.4720687866211,-0.7621540360190835],[135.47103881835938,-0.7628406207235372],[135.47069549560547,-0.7621540360190835],[135.47000885009766,-0.7631839130346805],[135.46897888183594,-0.7621540360190835],[135.47000885009766,-0.7600942812494367],[135.46863555908203,-0.7611241587572124],[135.46794891357422,-0.7604375737793276],[135.46863555908203,-0.7597509886922467],[135.46829223632812,-0.7590644034960548],[135.4662322998047,-0.7594076961077718],[135.46554565429688,-0.7583778181908514],[135.4669189453125,-0.7566613544516088],[135.4662322998047,-0.7580345254974077],[135.4669189453125,-0.7583778181908514],[135.46863555908203,-0.7563180616222098],[135.46863555908203,-0.7552881829711566],[135.4676055908203,-0.7556314758819695],[135.4672622680664,-0.7549448900332294],[135.4676055908203,-0.751855252373673],[135.46554565429688,-0.7508253726674923],[135.4676055908203,-0.7491089059516156],[135.46588897705078,-0.7470491450051782],[135.4672622680664,-0.7439595017760041],[135.46897888183594,-0.7439595017760041],[135.46829223632812,-0.7463625578083537],[135.47035217285156,-0.7446460893475546],[135.47103881835938,-0.7453326768121542],[135.46897888183594,-0.7463625578083537],[135.46829223632812,-0.7480790255992389],[135.46932220458984,-0.7480790255992389],[135.47000885009766,-0.7467058514201597],[135.4717254638672,-0.7463625578083537],[135.47138214111328,-0.7477357320947391],[135.472412109375,-0.7473924385633808],[135.4720687866211,-0.7456759705043368],[135.4730987548828,-0.7456759705043368],[135.4720687866211,-0.7436162079501685],[135.47069549560547,-0.7432729140976306],[135.4727554321289,-0.7418997384207557],[135.4720687866211,-0.7405265623177257],[135.472412109375,-0.7405265623177257],[135.47447204589844,-0.7412131504224675],[135.47378540039062,-0.742929620218419],[135.47481536865234,-0.7439595017760041],[135.47584533691406,-0.7432729140976306],[135.47584533691406,-0.7443027955751376],[135.47687530517578,-0.7446460893475546],[135.4775619506836,-0.7439595017760041],[135.47893524169922,-0.7463625578083537],[135.48133850097656,-0.7477357320947391],[135.4830551147461,-0.7480790255992389],[135.48511505126953,-0.7467058514201597],[135.48477172851562,-0.7456759705043368],[135.48580169677734,-0.7460192641697176],[135.48614501953125,-0.7480790255992389],[135.4837417602539,-0.7480790255992389],[135.4827117919922,-0.7491089059516156],[135.48477172851562,-0.7508253726674923],[135.48236846923828,-0.7511686659298675],[135.4827117919922,-0.7528851318368908],[135.48168182373047,-0.7542583040760604],[135.4833984375,-0.7556314758819695],[135.48099517822266,-0.757347940028879],[135.48202514648438,-0.7614674512051778],[135.4837417602539,-0.7618107436258015],[135.4833984375,-0.7628406207235372],[135.48648834228516,-0.7649003741792058],[135.48477172851562,-0.7649003741792058],[135.48614501953125,-0.7690198781221227],[135.4885482788086,-0.770736336926177],[135.49163818359375,-0.770736336926177],[135.49232482910156,-0.7697064617266562],[135.49575805664062,-0.771766211876681],[135.4998779296875,-0.7721095034714409],[135.5005645751953,-0.7745125438579947],[135.50846099853516,-0.779318620539371],[135.51395416259766,-0.7786320384912813],[135.516357421875,-0.7806917842997478],[135.52047729492188,-0.7810350751697968],[135.5215072631836,-0.7803484934016609],[135.5266571044922,-0.7827515290992295],[135.52871704101562,-0.7827515290992295],[135.5324935913086,-0.787557596359207],[135.5328369140625,-0.7892740476108031],[135.53592681884766,-0.7909904981540024],[135.5379867553711,-0.793393527721463],[135.54004669189453,-0.7985428720893708],[135.5431365966797,-0.7992294508519677],[135.5438232421875,-0.8019757647536636],[135.54519653320312,-0.8023190538619502],[135.54691314697266,-0.8012891864507452],[135.5486297607422,-0.8026623429414315],[135.55137634277344,-0.8019757647536636],[135.55343627929688,-0.8033489210139209],[135.5551528930664,-0.8033489210139209],[135.55583953857422,-0.8050653656902256],[135.5551528930664,-0.8060952321492607],[135.55652618408203,-0.806781809643951],[135.55824279785156,-0.8112445605310512],[135.5609893798828,-0.8112445605310512],[135.56373596191406,-0.8157073064961651],[135.56304931640625,-0.8177670337355778],[135.5661392211914,-0.8232596345330307],[135.56854248046875,-0.8229163472043268],[135.56888580322266,-0.8249760707329443],[135.5706024169922,-0.8246327835521612],[135.57025909423828,-0.8260059320976012],[135.5712890625,-0.8266925061924582],[135.57231903076172,-0.8253193578841262],[135.57231903076172,-0.827035793195364],[135.5709457397461,-0.827035793195364],[135.57231903076172,-0.8280656540259059],[135.57231903076172,-0.8297820881487468],[135.57506561279297,-0.8304686615894497],[135.5764389038086,-0.832185094669228],[135.57781219482422,-0.8308119482650795],[135.57781219482422,-0.8332149541586915],[135.5819320678711,-0.835274672329632],[135.58433532714844,-0.8356179585865675],[135.58502197265625,-0.8363045310104553],[135.58467864990234,-0.8376776754978152],[135.58673858642578,-0.838364247561131],[135.5877685546875,-0.8387075335476339],[135.5881118774414,-0.8373343894210592],[135.59326171875,-0.8400806771924465],[135.59497833251953,-0.839050819504024],[135.59532165527344,-0.8407672488339415],[135.59463500976562,-0.8428269630336445],[135.60047149658203,-0.8469463881625501],[135.6035614013672,-0.8503792390929306],[135.61111450195312,-0.8520956634140617],[135.61180114746094,-0.8534688023204069],[135.6104278564453,-0.8548419407365486],[135.61351776123047,-0.8579315003763099],[135.61626434326172,-0.8565583630660996],[135.6155776977539,-0.8606777735175513],[135.62175750732422,-0.8689165810511099],[135.62175750732422,-0.8706329970313362],[135.62347412109375,-0.8716628462445328],[135.62519073486328,-0.8757822402775872],[135.6269073486328,-0.8768120880792623],[135.62759399414062,-0.874065826646131],[135.62896728515625,-0.874065826646131],[135.62999725341797,-0.8754389576141222],[135.62965393066406,-0.8768120880792623],[135.63823699951172,-0.8809314764497174],[135.63961029052734,-0.8850508602661478],[135.6427001953125,-0.8867672688405008],[135.64407348632812,-0.8843642966138816],[135.64579010009766,-0.8836777328346415],[135.6536865234375,-0.8757822402775872],[135.6536865234375,-0.87440910943522],[135.65505981445312,-0.872006129253009],[135.6584930419922,-0.8696031475368642],[135.65814971923828,-0.8685732977614151],[135.6598663330078,-0.8685732977614151],[135.6639862060547,-0.8634240446813095],[135.66673278808594,-0.8623941932270469],[135.6698226928711,-0.8565583630660996],[135.670166015625,-0.8541553715897976],[135.67153930664062,-0.8534688023204069],[135.67119598388672,-0.8500359541370699],[135.67256927490234,-0.848662814008577],[135.6760025024414,-0.8476329585922571],[135.67703247070312,-0.8428269630336445],[135.67840576171875,-0.84214039175464],[135.67943572998047,-0.8404239630282717],[135.68355560302734,-0.8400806771924465],[135.68458557128906,-0.8363045310104553],[135.68424224853516,-0.8345880997257922],[135.68286895751953,-0.8356179585865675],[135.68389892578125,-0.8345880997257922],[135.68286895751953,-0.8314985215268536],[135.68389892578125,-0.8314985215268536],[135.68561553955078,-0.8294388013837022],[135.68767547607422,-0.8290955145889001],[135.68870544433594,-0.8273790801685834],[135.69076538085938,-0.827035793195364],[135.6928253173828,-0.8242894963417342],[135.6924819946289,-0.8211999101179401],[135.69454193115234,-0.8205133350769245],[135.6972885131836,-0.8174237459356561],[135.6976318359375,-0.8119311371544313],[135.69900512695312,-0.8074683870227943],[135.6976318359375,-0.804378787906316],[135.70072174072266,-0.7995727401902428],[135.7038116455078,-0.7999160294997978],[135.70518493652344,-0.7995727401902428],[135.70655822753906,-0.7985428720893708],[135.7082748413086,-0.7937368175458204],[135.70999145507812,-0.7944233971090711],[135.71273803710938,-0.793393527721463],[135.71205139160156,-0.7885874671950859],[135.7137680053711,-0.787557596359207],[135.71514129638672,-0.7882441769447581],[135.71582794189453,-0.7848112728870547],[135.71651458740234,-0.7844679823261203],[135.71754455566406,-0.7861844348489342],[135.71857452392578,-0.7837814011197679],[135.7202911376953,-0.7841246917370199],[135.72097778320312,-0.7806917842997478],[135.72166442871094,-0.7803484934016609],[135.72372436523438,-0.776572291676473],[135.7254409790039,-0.7751991265755009],[135.72612762451172,-0.7738259610292602],[135.72681427001953,-0.7741692524575257],[135.72921752929688,-0.7673034186278329],[135.72750091552734,-0.7738259610292602],[135.72853088378906,-0.7751991265755009],[135.7299041748047,-0.7745125438579947],[135.72956085205078,-0.7762290004430099],[135.72784423828125,-0.7762290004430099],[135.72750091552734,-0.7786320384912813],[135.72509765625,-0.7806917842997478],[135.72303771972656,-0.7851545634198374],[135.72372436523438,-0.78687101566058],[135.72303771972656,-0.7913337881774964],[135.72372436523438,-0.793393527721463],[135.72235107421875,-0.7937368175458204],[135.72063446044922,-0.7971697142202316],[135.71651458740234,-0.7978562932120923],[135.714111328125,-0.7999160294997978],[135.7093048095703,-0.7999160294997978],[135.7082748413086,-0.8019757647536636],[135.71033477783203,-0.8050653656902256],[135.7137680053711,-0.8060952321492607],[135.71651458740234,-0.8060952321492607],[135.7202911376953,-0.804378787906316],[135.72166442871094,-0.8019757647536636],[135.72338104248047,-0.8026623429414315],[135.72406768798828,-0.8012891864507452],[135.72681427001953,-0.8012891864507452],[135.7302474975586,-0.8016324756165858],[135.7309341430664,-0.8036922100069006],[135.72921752929688,-0.8036922100069006],[135.73230743408203,-0.8060952321492607],[135.7364273071289,-0.8060952321492607],[135.73711395263672,-0.804378787906316],[135.73848724365234,-0.8040354989710465],[135.73883056640625,-0.8026623429414315],[135.7408905029297,-0.8023190538619502],[135.73986053466797,-0.8040354989710465],[135.7408905029297,-0.804378787906316],[135.73883056640625,-0.804378787906316],[135.73745727539062,-0.806781809643951],[135.736083984375,-0.8071250983478677],[135.7412338256836,-0.8098714069349313],[135.7415771484375,-0.8157073064961651],[135.74329376220703,-0.8174237459356561],[135.74569702148438,-0.8242894963417342],[135.74844360351562,-0.8273790801685834],[135.75084686279297,-0.8263492191598516],[135.74981689453125,-0.8277223671121021],[135.75016021728516,-0.8308119482650795],[135.7529067993164,-0.8363045310104553],[135.75428009033203,-0.836647817177365],[135.75496673583984,-0.8373343894210592],[135.75428009033203,-0.8435135341916151],[135.75599670410156,-0.8442001052284525],[135.7587432861328,-0.8490060990864237],[135.76045989990234,-0.8503792390929306],[135.75977325439453,-0.8524389481865597],[135.76045989990234,-0.8558717942264451],[135.76663970947266,-0.8634240446813095],[135.76698303222656,-0.8654837467526022],[135.76560974121094,-0.8689165810511099],[135.76766967773438,-0.874065826646131],[135.77041625976562,-0.874065826646131],[135.7741928100586,-0.8761255229095894],[135.77281951904297,-0.8778419355976439],[135.7683563232422,-0.8785285004523615],[135.76732635498047,-0.8829911689285126],[135.76457977294922,-0.8853941420446034],[135.76629638671875,-0.8860807055061741],[135.76732635498047,-0.8881403951270528],[135.76663970947266,-0.8932896141517261],[135.7693862915039,-0.8950060188918911],[135.76904296875,-0.8977522648047511],[135.77110290527344,-0.8991253869880751],[135.77144622802734,-0.9011850692944705],[135.77281951904297,-0.901871629804603],[135.7738494873047,-0.9032447504362011],[135.77556610107422,-0.9032447504362011],[135.7741928100586,-0.9049611504960353],[135.77693939208984,-0.9090805073229831],[135.77728271484375,-0.9131998594504296],[135.77625274658203,-0.9159460915806932],[135.77590942382812,-0.9217818278623042],[135.7803726196289,-0.9272742768040985],[135.7803726196289,-0.9300204980824844],[135.78174591064453,-0.9313936079207679],[135.78208923339844,-0.9341398259916218],[135.78311920166016,-0.9344831030997085],[135.78243255615234,-0.9365427650432849],[135.78689575195312,-0.937572595561349],[135.78758239746094,-0.9372293187556267],[135.78861236572266,-0.9403188087943306],[135.78723907470703,-0.9461545047333431],[135.78826904296875,-0.9475276082358448],[135.78792572021484,-0.9509603646093012],[135.78964233398438,-0.9574825923035775],[135.78792572021484,-0.9598855151728145],[135.78758239746094,-0.9650346299157633],[135.7917022705078,-0.9674375474641295],[135.79410552978516,-0.9722433774513775],[135.79273223876953,-0.9773924734170549],[135.79376220703125,-0.9835713781513817],[135.79788208007812,-0.9880339133489855],[135.80062866210938,-0.9942127983364486],[135.79994201660156,-0.9973022364982853],[135.80303192138672,-1.0003916717602124],[135.80337524414062,-1.002451293652669],[135.8074951171875,-1.0027945638422011],[135.8068084716797,-1.004167644240212],[135.80921173095703,-1.0072570730257553],[135.8136749267578,-1.0062272637555623],[135.8133316040039,-1.0034811041132627],[135.81539154052734,-1.0038243741947497],[135.81573486328125,-1.0058839939265596],[135.81401824951172,-1.0065705335484267],[135.81436157226562,-1.008286881970534],[135.81745147705078,-1.012406114488698],[135.81710815429688,-1.0148089977088262],[135.82054138183594,-1.0203012955021507],[135.82088470458984,-1.0223609047599922],[135.82225799560547,-1.0230474408858043],[135.823974609375,-1.026480119309383],[135.8236312866211,-1.0275099221184831],[135.82500457763672,-1.0312858629091153],[135.8291244506836,-1.03094259574938],[135.82672119140625,-1.0336887319900825],[135.82534790039062,-1.0330021981523032],[135.823974609375,-1.0340319988533224],[135.82260131835938,-1.0388377310354855],[135.82294464111328,-1.0450165188106837],[135.82088470458984,-1.055314471390858],[135.82191467285156,-1.0560010003542857],[135.82294464111328,-1.0625230179304594],[135.82191467285156,-1.0683584956719017],[135.82294464111328,-1.0724776497610549],[135.82088470458984,-1.075223749408579],[135.81985473632812,-1.0858648621535991],[135.8177947998047,-1.0889542104666816],[135.81127166748047,-1.091013774250257],[135.80886840820312,-1.091013774250257],[135.80337524414062,-1.0927300763263474],[135.8016586303711,-1.0923868159895278],[135.8016586303711,-1.0934165968822782],[135.80371856689453,-1.0941031172812217],[135.802001953125,-1.0978789766646173],[135.80646514892578,-1.1037143863262031],[135.80577850341797,-1.1047441633149049],[135.8074951171875,-1.1071469749000187],[135.8071517944336,-1.1085200092174432],[135.81024169921875,-1.111952592223858],[135.81127166748047,-1.1146986557556602],[135.81436157226562,-1.1140121401125498],[135.8177947998047,-1.1174447167266237],[135.8184814453125,-1.1215638033676356],[135.82191467285156,-1.1263693971200013],[135.8232879638672,-1.1318614945598426],[135.82706451416016,-1.1359805608167335],[135.8342742919922,-1.1400996212017134],[135.83633422851562,-1.142845658185692],[135.84217071533203,-1.1476512165862545],[135.85350036621094,-1.1603515819731882],[135.8576202392578,-1.1661868659084433],[135.86517333984375,-1.1685896263689273],[135.87444305419922,-1.1730518903392095],[135.8905792236328,-1.174424893207373],[135.89641571044922,-1.1771708969193924],[135.9060287475586,-1.1778573974251003],[135.9067153930664,-1.1764843962446747],[135.9063720703125,-1.1720221377459126],[135.90774536132812,-1.168246375000308],[135.90740203857422,-1.1675598721373035],[135.911865234375,-1.1630975994458765],[135.91358184814453,-1.1593218247333397],[135.91632843017578,-1.158292067118964],[135.9225082397461,-1.158292067118964],[135.92388153076172,-1.1569190563844387],[135.92697143554688,-1.156575803596951],[135.93074798583984,-1.1534865266428511],[135.93280792236328,-1.1541730329227988],[135.93486785888672,-1.1497107391452772],[135.9386444091797,-1.1486809780513028],[135.94104766845703,-1.1459349466540516],[135.94036102294922,-1.1449051842010363],[135.93692779541016,-1.1462782007228185],[135.93555450439453,-1.1452484383931534],[135.93830108642578,-1.142159149185602],[135.94036102294922,-1.1414726400215045],[135.9444808959961,-1.142159149185602],[135.94379425048828,-1.1442186756935229],[135.9451675415039,-1.1462782007228185],[135.95169067382812,-1.1455916925441727],[135.9554672241211,-1.1483377242708457],[135.95752716064453,-1.1490242317905484],[135.96439361572266,-1.1483377242708457],[135.97057342529297,-1.1462782007228185],[135.977783203125,-1.1473079626821487],[135.9825897216797,-1.1438754213781408],[135.98533630371094,-1.1438754213781408],[135.9884262084961,-1.1445619299678214],[135.9935760498047,-1.142845658185692],[135.99735260009766,-1.1431889126242112],[136.0004425048828,-1.142159149185602],[136.00284576416016,-1.1431889126242112],[136.01829528808594,-1.1452484383931534],[136.021728515625,-1.1473079626821487],[136.0272216796875,-1.1459349466540516],[136.03134155273438,-1.1476512165862545],[136.0334014892578,-1.1466214547504308],[136.0382080078125,-1.1483377242708457],[136.043701171875,-1.1552027920319858],[136.04541778564453,-1.1555460449854422],[136.0498809814453,-1.1572623091303882],[136.0488510131836,-1.1613813388381686],[136.0498809814453,-1.1703058825825394],[136.05606079101562,-1.1771708969193924],[136.06189727783203,-1.1802601478626116],[136.07391357421875,-1.1843791437806033],[136.07391357421875,-1.1850656425056485],[136.0770034790039,-1.1854088918043857],[136.08009338378906,-1.1847223931643924],[136.0814666748047,-1.1860953902741613],[136.08455657958984,-1.1864386394451998],[136.08455657958984,-1.187468386702733],[136.0873031616211,-1.187125137659507],[136.09073638916016,-1.1891846312793177],[136.0931396484375,-1.1888413824493256],[136.10103607177734,-1.1919306203815125],[136.1254119873047,-1.1967360947177923],[136.13296508789062,-1.1991388287307103],[136.14086151123047,-1.1998253237757694],[136.1480712890625,-1.1987955811435995],[136.15493774414062,-1.1946766067455314],[136.16077423095703,-1.1864386394451998],[136.16214752197266,-1.1854088918043857],[136.16729736328125,-1.1847223931643924],[136.1697006225586,-1.1826628962242154],[136.17382049560547,-1.181289897414885],[136.17828369140625,-1.1819763969044033],[136.17897033691406,-1.1809466476065182],[136.1865234375,-1.179230397929075],[136.19029998779297,-1.1795736479492547],[136.19338989257812,-1.1778573974251003],[136.2026596069336,-1.1757978954010326],[136.20471954345703,-1.1740816425535456],[136.20677947998047,-1.1747681438190511],[136.20643615722656,-1.1733951411194425],[136.20746612548828,-1.1757978954010326],[136.20849609375,-1.1733951411194425],[136.2136459350586,-1.1723653886524374],[136.22360229492188,-1.1709923847739958],[136.2366485595703,-1.1713356358066846],[136.24248504638672,-1.1703058825825394],[136.24832153320312,-1.168246375000308],[136.2527847290039,-1.1648138590098256],[136.25518798828125,-1.1644706071806041],[136.25999450683594,-1.1610380865915175],[136.26480102539062,-1.159665077188265],[136.2682342529297,-1.1603515819731882],[136.2740707397461,-1.1576055618348136],[136.2744140625,-1.158292067118964],[136.2744140625,-1.1572623091303882],[136.2799072265625,-1.152800020197276],[136.2792205810547,-1.1521135135861726],[136.28196716308594,-1.1500539927607463],[136.28299713134766,-1.1507404998678084],[136.28849029541016,-1.1490242317905484],[136.2902069091797,-1.1476512165862545],[136.29364013671875,-1.1473079626821487],[136.3025665283203,-1.1425024037061462],[136.31458282470703,-1.1404428759680911],[136.3187026977539,-1.1370103264642921],[136.32625579833984,-1.1332345172965859],[136.33312225341797,-1.1263693971200013],[136.35475158691406,-1.1102363012188192],[136.3574981689453,-1.0995952748089195],[136.35852813720703,-1.0971924571309444],[136.35955810546875,-1.097535716917477],[136.36093139648438,-1.0958194175910592],[136.36093139648438,-1.0937598571013893],[136.36951446533203,-1.0899839925345418],[136.3794708251953,-1.0903272531455883],[136.38084411621094,-1.0892974711950814],[136.3849639892578,-1.0834620335045742],[136.38702392578125,-1.0762535361398875],[136.38427734375,-1.0714478617576617],[136.37741088867188,-1.06973154764961],[136.37020111083984,-1.0662989165550272],[136.36093139648438,-1.0635528089228075],[136.35440826416016,-1.0666421798369328],[136.3451385498047,-1.0659556532348375],[136.33930206298828,-1.0714478617576617],[136.33140563964844,-1.0759102739347384],[136.3241958618164,-1.0741939623299004],[136.31938934326172,-1.0707613362297508],[136.31629943847656,-1.0676719694528742],[136.31389617919922,-1.063209545296857],[136.31046295166016,-1.060120170947215],[136.30943298339844,-1.061149962740032],[136.3015365600586,-1.059776906940158],[136.2957000732422,-1.054971206852315],[136.29329681396484,-1.0501654993418015],[136.29192352294922,-1.0446732531413687],[136.29192352294922,-1.0354050659349383],[136.2912368774414,-1.032315664166191],[136.28917694091797,-1.0295695267404312],[136.2850570678711,-1.0281964571401403],[136.27853393554688,-1.0223609047599922],[136.2751007080078,-1.0213311002960523],[136.26789093017578,-1.021674368487382],[136.26136779785156,-1.0199580271642361],[136.25553131103516,-1.0172118791439004],[136.25106811523438,-1.0206445638034296],[136.2469482421875,-1.026136851632657],[136.2366485595703,-1.0295695267404312],[136.22360229492188,-1.0285397245956034],[136.2078094482422,-1.0312858629091153],[136.20609283447266,-1.033345465089738],[136.20128631591797,-1.0354050659349383],[136.19441986083984,-1.0422703924068486],[136.19029998779297,-1.0446732531413687],[136.18515014648438,-1.0439867216902599],[136.18000030517578,-1.0457030500367352],[136.17244720458984,-1.0439867216902599],[136.16077423095703,-1.0343752656794294],[136.16111755371094,-1.033345465089738],[136.1583709716797,-1.0254503161686586],[136.1590576171875,-1.0209878320680588],[136.15768432617188,-1.0168686104769193],[136.1587142944336,-1.0072570730257553],[136.15665435791016,-1.0058839939265596],[136.15253448486328,-0.99695896573445],[136.14532470703125,-0.9918098999892351],[136.13948822021484,-0.9914666286542513],[136.1367416381836,-0.9904368144358244],[136.13056182861328,-0.9842579224170152],[136.12472534179688,-0.9808251996775397],[136.1202621459961,-0.9763626548541424],[136.1151123046875,-0.9749895629463055],[136.1099624633789,-0.9715568307283746],[136.1037826538086,-0.9660644519303077],[136.0982894897461,-0.9588556912924986],[136.09416961669922,-0.9475276082358448],[136.09519958496094,-0.9410053617652636],[136.09657287597656,-0.9365427650432849],[136.0979461669922,-0.9351696572152122],[136.0979461669922,-0.9327667172240837],[136.09142303466797,-0.9173192068570728],[136.0873031616211,-0.9142296967454939],[136.08455657958984,-0.9152595337451856],[136.0759735107422,-0.9121700218602911],[136.0704803466797,-0.9039313105575104],[136.06979370117188,-0.8960358613505264],[136.06121063232422,-0.8888269580790791],[136.0605239868164,-0.8871105504599228],[136.0540008544922,-0.8888269580790791],[136.05091094970703,-0.8908866461689513],[136.0498809814453,-0.8922597709227063],[136.04816436767578,-0.8991253869880751],[136.043701171875,-0.8987821064906285],[136.03958129882812,-0.8960358613505264],[136.0388946533203,-0.8950060188918911],[136.043701171875,-0.8888269580790791],[136.04610443115234,-0.8836777328346415],[136.04473114013672,-0.8819613228316001],[136.04644775390625,-0.8761255229095894],[136.04644775390625,-0.8713195632047501],[136.0498809814453,-0.8613643414941237],[136.05125427246094,-0.8596479213209847],[136.05091094970703,-0.8562150786616343],[136.0495376586914,-0.855185225263881],[136.0485076904297,-0.8562150786616343],[136.0430145263672,-0.8548419407365486],[136.0382080078125,-0.8593046371937305],[136.03580474853516,-0.8593046371937305],[136.03477478027344,-0.8579315003763099],[136.0382080078125,-0.8493493841338022],[136.0385513305664,-0.8466031029020797],[136.03683471679688,-0.8435135341916151],[136.03065490722656,-0.839050819504024],[136.02928161621094,-0.836991103314233],[136.00971221923828,-0.8314985215268536],[136.00215911865234,-0.8256626450056785],[136.00078582763672,-0.8232596345330307],[135.9990692138672,-0.8236029218321761],[135.99254608154297,-0.8205133350769245],[135.9829330444336,-0.8143341544173808],[135.97881317138672,-0.8139908663245592],[135.9781265258789,-0.8150207305152861],[135.9774398803711,-0.8136475782025201],[135.9729766845703,-0.8122744254223875],[135.96302032470703,-0.8040354989710465],[135.95924377441406,-0.7992294508519677],[135.94688415527344,-0.795109976558237],[135.9444808959961,-0.7930502378685986],[135.94207763671875,-0.7879008866661223],[135.93624114990234,-0.7861844348489342],[135.93521118164062,-0.7879008866661223],[135.92971801757812,-0.7903039180218343],[135.92422485351562,-0.7899606279131746],[135.91941833496094,-0.7834381104743926],[135.9177017211914,-0.7755424178925239],[135.9125518798828,-0.770736336926177],[135.9111785888672,-0.7683332944071566],[135.91083526611328,-0.7638704975747856],[135.90877532958984,-0.7604375737793276],[135.90877532958984,-0.7570046472538365],[135.9056854248047,-0.755974768765654],[135.89401245117188,-0.7439595017760041],[135.889892578125,-0.736407031459521],[135.8905792236328,-0.735377148149297],[135.88851928710938,-0.7340039700327452],[135.88714599609375,-0.7309143177301394],[135.88302612304688,-0.7274813682347627],[135.88268280029297,-0.728167958343164],[135.88165283203125,-0.728167958343164],[135.8792495727539,-0.7240484161276015],[135.87718963623047,-0.7233618253938374],[135.8730697631836,-0.7161526164364744],[135.86585998535156,-0.7068836168465111],[135.8631134033203,-0.7051671334034637],[135.85865020751953,-0.7034506493274932],[135.85281372070312,-0.7000176792829507],[135.8466339111328,-0.698987787778961],[135.84148406982422,-0.6962414093317051],[135.83358764648438,-0.6941816244460739],[135.82534790039062,-0.6900620519858478],[135.82088470458984,-0.6897187541194825],[135.81127166748047,-0.6852558796080928],[135.80612182617188,-0.685599177795396],[135.80371856689453,-0.6866290722095414],[135.8013153076172,-0.6886888603719257],[135.7968521118164,-0.7000176792829507],[135.78861236572266,-0.7065403202086031],[135.78861236572266,-0.7110031745182965],[135.78243255615234,-0.7164959123591359],[135.7803726196289,-0.722331939098467],[135.76904296875,-0.7243917114554961],[135.76526641845703,-0.7271380731413757],[135.7642364501953,-0.7309143177301394],[135.7628631591797,-0.7322874967942425],[135.7642364501953,-0.7329740861685963],[135.7632064819336,-0.7367503258434169],[135.76457977294922,-0.7388100915908353],[135.76148986816406,-0.7381235031143376],[135.76183319091797,-0.7360637370492071],[135.76045989990234,-0.735377148149297],[135.7583999633789,-0.7370936202008522],[135.74913024902344,-0.740183268225465],[135.74501037597656,-0.7432729140976306],[135.74260711669922,-0.7436162079501685],[135.7408905029297,-0.7453326768121542],[135.7422637939453,-0.7432729140976306],[135.74466705322266,-0.742929620218419],[135.74569702148438,-0.7405265623177257],[135.7463836669922,-0.7412131504224675],[135.7474136352539,-0.7398399741066441],[135.7463836669922,-0.7381235031143376],[135.7367706298828,-0.7326307914945858],[135.73402404785156,-0.7288545483470159],[135.73196411132812,-0.7216453481051843],[135.72750091552734,-0.7168392082560615],[135.72750091552734,-0.7151227285143307],[135.72921752929688,-0.71409284036109],[135.72818756103516,-0.7123763595931223],[135.7196044921875,-0.7089433961405405],[135.7137680053711,-0.7086000996551007],[135.71067810058594,-0.7099732854441214],[135.70999145507812,-0.7116897671068045],[135.7034683227539,-0.7120330633627532],[135.70106506347656,-0.7158093204881197],[135.70037841796875,-0.7199288701688147],[135.69557189941406,-0.7230185299879963],[135.69007873535156,-0.7226752345562062],[135.68492889404297,-0.7195855745039523],[135.68012237548828,-0.7127196557978976],[135.68115234375,-0.7099732854441214],[135.68286895751953,-0.7086000996551007],[135.68389892578125,-0.7058537268567306],[135.6818389892578,-0.7034506493274932],[135.6818389892578,-0.7010475705607604],[135.67977905273438,-0.6958981119131948],[135.68012237548828,-0.6928084340237035],[135.67806243896484,-0.6886888603719257],[135.67462921142578,-0.6852558796080928],[135.67394256591797,-0.682852791608866],[135.66913604736328,-0.6790765080417742],[135.6650161743164,-0.6777033132851074],[135.66192626953125,-0.6797631052738637],[135.66055297851562,-0.6790765080417742],[135.66020965576172,-0.6780466120108031],[135.66123962402344,-0.6746136236604485],[135.6598663330078,-0.6708373336781079],[135.65814971923828,-0.6687775379129306],[135.6536865234375,-0.667747639706036],[135.65093994140625,-0.6656878426452977],[135.64510345458984,-0.6632847449871804],[135.63926696777344,-0.6625981454417769],[135.63446044921875,-0.6643146441266481],[135.63274383544922,-0.666717741283378],[135.6320571899414,-0.6698074359037491],[135.62965393066406,-0.6735837266824802],[135.62759399414062,-0.6728971285762384],[135.626220703125,-0.6704940344440473],[135.62519073486328,-0.671180632888067],[135.61935424804688,-0.6698074359037491],[135.61832427978516,-0.6749569226046646],[135.6145477294922,-0.6773600145350684],[135.6159210205078,-0.6804497024083531],[135.615234375,-0.6818228963840625],[135.60836791992188,-0.6869723702983066],[135.60527801513672,-0.6910919454361988],[135.60184478759766,-0.6928084340237035],[135.60081481933594,-0.6969280040937491],[135.59463500976562,-0.7024207585787536],[135.59326171875,-0.7010475705607604],[135.59326171875,-0.6962414093317051],[135.59497833251953,-0.6945249219893839],[135.59463500976562,-0.6921218386632404],[135.5987548828125,-0.6869723702983066],[135.5987548828125,-0.6859424759580719],[135.59703826904297,-0.6845692831597177],[135.5987548828125,-0.6811362994451144],[135.59566497802734,-0.6763301181391341],[135.59635162353516,-0.6722105303733628],[135.59772491455078,-0.6722105303733628],[135.59635162353516,-0.6701507351859135],[135.59635162353516,-0.6663744417612634],[135.59463500976562,-0.6650012434337214],[135.5925750732422,-0.6653445430514466],[135.58982849121094,-0.6632847449871804],[135.58605194091797,-0.6636280447241631],[135.58467864990234,-0.6629414452263802],[135.57952880859375,-0.6653445430514466],[135.57334899902344,-0.6653445430514466],[135.56922912597656,-0.6636280447241631],[135.5661392211914,-0.6636280447241631],[135.5651092529297,-0.6615682459453041],[135.56373596191406,-0.6619115458012317],[135.560302734375,-0.6591651462894532],[135.55927276611328,-0.6567620454739824],[135.5554962158203,-0.6584785461746065],[135.55137634277344,-0.6581352460817129],[135.55068969726562,-0.6574486458250561],[135.55068969726562,-0.6608816461622098],[135.54725646972656,-0.6643146441266481],[135.5445098876953,-0.6646579437921076],[135.5438232421875,-0.6656878426452977],[135.54039001464844,-0.6660311422152319],[135.5386734008789,-0.6653445430514466],[135.53592681884766,-0.6722105303733628],[135.53592681884766,-0.6746136236604485],[135.5328369140625,-0.6735837266824802],[135.53180694580078,-0.6718672312357086],[135.5321502685547,-0.6680909391323269],[135.5280303955078,-0.6687775379129306],[135.52906036376953,-0.6674043402557714],[135.53146362304688,-0.6660311422152319],[135.53009033203125,-0.6643146441266481],[135.52528381347656,-0.6619115458012317],[135.5160140991211,-0.6605383462350574],[135.51189422607422,-0.6625981454417769],[135.5115509033203,-0.6605383462350574],[135.50880432128906,-0.6584785461746065],[135.50743103027344,-0.6560754450286055],[135.50434112548828,-0.6540156431275221],[135.50090789794922,-0.653672342728413],[135.49747467041016,-0.6519558403811487],[135.4892349243164,-0.653672342728413],[135.48992156982422,-0.6591651462894532],[135.48751831054688,-0.6577919459652009],[135.48545837402344,-0.6588218462438533],[135.48477172851562,-0.6622548456333988],[135.48236846923828,-0.6619115458012317],[135.47996520996094,-0.6605383462350574],[135.4727554321289,-0.6529857418598368],[135.46932220458984,-0.6516125398414232],[135.4676055908203,-0.6492094354089915],[135.46314239501953,-0.646119728032545],[135.46039581298828,-0.6457764270967914],[135.45490264892578,-0.6495527361122129],[135.450439453125,-0.655045544183892],[135.44700622558594,-0.6564187452630819],[135.44631958007812,-0.655045544183892],[135.44631958007812,-0.6581352460817129],[135.4442596435547,-0.6581352460817129],[135.44391632080078,-0.6591651462894532],[135.4446029663086,-0.6584785461746065],[135.4452896118164,-0.659508446311392],[135.44357299804688,-0.659508446311392],[135.44288635253906,-0.6577919459652009],[135.44357299804688,-0.654702243855283],[135.44219970703125,-0.6519558403811487],[135.44048309326172,-0.6522991408974548],[135.44151306152344,-0.6505826380819286],[135.44322967529297,-0.6509259386917847],[135.4446029663086,-0.6526424413903555],[135.44666290283203,-0.653329042305856],[135.44666290283203,-0.6519558403811487],[135.44872283935547,-0.6512692392782924],[135.44769287109375,-0.6492094354089915],[135.44906616210938,-0.6492094354089915],[135.450439453125,-0.6474929315434679],[135.4500961303711,-0.6447465241504773],[135.44803619384766,-0.643373319898032],[135.44769287109375,-0.6413135128266418],[135.439453125,-0.6450898251557504],[135.43807983398438,-0.6444032231220405],[135.43807983398438,-0.6426867176331683],[135.43739318847656,-0.6423434164661188],[135.43636322021484,-0.6430300187771394],[135.4339599609375,-0.6426867176331683],[135.43190002441406,-0.6440599220704968],[135.43224334716797,-0.6447465241504773],[135.43052673339844,-0.6464630289451065],[135.43121337890625,-0.6478362323631046],[135.42949676513672,-0.648522833932617],[135.4291534423828,-0.6498960367921143],[135.42537689208984,-0.6498960367921143],[135.42606353759766,-0.6522991408974548],[135.4236602783203,-0.6529857418598368],[135.4226303100586,-0.6512692392782924],[135.42091369628906,-0.6502393374486957],[135.42022705078125,-0.6505826380819286],[135.41988372802734,-0.653329042305856],[135.4171371459961,-0.653672342728413],[135.41645050048828,-0.6522991408974548],[135.41645050048828,-0.6502393374486957],[135.41336059570312,-0.6512692392782924],[135.41027069091797,-0.6498960367921143],[135.41027069091797,-0.6474929315434679],[135.4071807861328,-0.6423434164661188],[135.40340423583984,-0.6402836089799564],[135.40306091308594,-0.6382238006662391],[135.39962768554688,-0.6354773882985683],[135.39379119873047,-0.6210586995589864],[135.39138793945312,-0.6203720943449724],[135.38555145263672,-0.6203720943449724],[135.38246154785156,-0.6238051195221885],[135.38040161132812,-0.624148421916928],[135.3783416748047,-0.6224319097193671],[135.37696838378906,-0.6248350266391753],[135.37731170654297,-0.6262082358143886],[135.37490844726562,-0.6279247467774383],[135.3676986694336,-0.6282680489024699],[135.3632354736328,-0.6303278611785288],[135.36048889160156,-0.6354773882985683],[135.362548828125,-0.6371938961998751],[135.3628921508789,-0.6444032231220405],[135.36598205566406,-0.6481795331595066],[135.36632537841797,-0.6495527361122129],[135.3673553466797,-0.6495527361122129],[135.36941528320312,-0.6516125398414232],[135.37181854248047,-0.6560754450286055],[135.37216186523438,-0.6598517463096414],[135.37113189697266,-0.6629414452263802],[135.3728485107422,-0.6663744417612634],[135.37353515625,-0.666717741283378],[135.37628173828125,-0.6704940344440473],[135.38211822509766,-0.674270324692003],[135.384521484375,-0.6739270256993279],[135.38692474365234,-0.6753002215246653],[135.38761138916016,-0.6787332093891507],[135.38555145263672,-0.6818228963840625],[135.38555145263672,-0.6835393883028331],[135.39138793945312,-0.6897187541194825],[135.39379119873047,-0.6910919454361988],[135.39379119873047,-0.6921218386632404],[135.3907012939453,-0.6976145987557061],[135.3893280029297,-0.6976145987557061],[135.38761138916016,-0.6993310849720729],[135.3852081298828,-0.698987787778961],[135.384521484375,-0.6996743821400742],[135.38898468017578,-0.7068836168465111],[135.38864135742188,-0.7089433961405405],[135.39344787597656,-0.7178690957923806],[135.39379119873047,-0.7226752345562062],[135.3955078125,-0.7230185299879963],[135.39447784423828,-0.7240484161276015],[135.3955078125,-0.7247350067573848],[135.39859771728516,-0.7240484161276015],[135.39928436279297,-0.7261081877046252],[135.4013442993164,-0.7257648925068736],[135.40340423583984,-0.7271380731413757],[135.40374755859375,-0.7302277280405889],[135.40752410888672,-0.7360637370492071],[135.4071807861328,-0.7377802088363268],[135.40821075439453,-0.7384667973658452],[135.40924072265625,-0.7377802088363268],[135.41061401367188,-0.7391533857893222],[135.4116439819336,-0.7384667973658452],[135.41301727294922,-0.739496679961249],[135.41095733642578,-0.739496679961249],[135.4113006591797,-0.7418997384207557],[135.4119873046875,-0.7418997384207557],[135.4116439819336,-0.7463625578083537],[135.41404724121094,-0.7456759705043368],[135.41439056396484,-0.7425863263125194],[135.41507720947266,-0.7425863263125194],[135.41645050048828,-0.742929620218419],[135.41576385498047,-0.7443027955751376]],[[135.4720687866211,-0.7621540360190835],[135.4727554321289,-0.7611241587572124],[135.4717254638672,-0.7611241587572124],[135.4720687866211,-0.7621540360190835]],[[136.37466430664062,-1.2574902828257137],[136.37775421142578,-1.2602362019430586],[136.3780975341797,-1.2609226812703014],[136.37672424316406,-1.254744360819629],[136.3791275024414,-1.2499389903769895],[136.3674545288086,-1.2475363018559449],[136.37466430664062,-1.2574902828257137]],[[136.33277893066406,-1.2190471147357158],[136.32282257080078,-1.2180173793937286],[136.31595611572266,-1.218703869665461],[136.30874633789062,-1.222136318397446],[136.29261016845703,-1.2338066111992276],[136.29364013671875,-1.237582283226942],[136.2970733642578,-1.2420444341467203],[136.3018798828125,-1.2444471276768212],[136.3025665283203,-1.2427309182355515],[136.30496978759766,-1.2423876762134398],[136.30531311035156,-1.2403282231446582],[136.30943298339844,-1.2358660693342216],[136.3128662109375,-1.2338066111992276],[136.31698608398438,-1.2334633680216598],[136.3241958618164,-1.2300309338128272],[136.33243560791016,-1.227628227238938],[136.33380889892578,-1.2272849832663155],[136.33758544921875,-1.2331201247997967],[136.34410858154297,-1.2368957978030295],[136.34410858154297,-1.2351795834665467],[136.34136199951172,-1.2331201247997967],[136.34033203125,-1.2303741774326085],[136.3399887084961,-1.2265984951889095],[136.3410186767578,-1.2262552510841545],[136.3410186767578,-1.2231660521621706],[136.33827209472656,-1.222479563029566],[136.33792877197266,-1.220763339430377],[136.33277893066406,-1.2190471147357158]],[[136.3132095336914,-1.2856358157147127],[136.3135528564453,-1.2866655244903455],[136.31492614746094,-1.2870087606565477],[136.31561279296875,-1.2856358157147127],[136.32282257080078,-1.2811737395587102],[136.3235092163086,-1.2791143171715902],[136.32144927978516,-1.2773981305862776],[136.31938934326172,-1.27705489313162],[136.31732940673828,-1.2794575543509552],[136.31561279296875,-1.2835763969178373],[136.3132095336914,-1.2856358157147127]],[[136.19922637939453,-1.2341498543325145],[136.18995666503906,-1.2437606440342392],[136.18789672851562,-1.2454768528056661],[136.18789672851562,-1.2468498190181663],[136.19029998779297,-1.2499389903769895],[136.20059967041016,-1.2581767628761042],[136.20574951171875,-1.2564605624116183],[136.22257232666016,-1.2441038858778626],[136.2242889404297,-1.2406714654341755],[136.22669219970703,-1.2392984960090843],[136.2308120727539,-1.2320903948687345],[136.2297821044922,-1.2310606645396263],[136.22703552246094,-1.2300309338128272],[136.2191390991211,-1.2290012026886927],[136.2091827392578,-1.2310606645396263],[136.19922637939453,-1.2341498543325145]],[[135.52528381347656,-0.6430300187771394],[135.52425384521484,-0.6512692392782924],[135.52562713623047,-0.653672342728413],[135.52528381347656,-0.6553888444889964],[135.5270004272461,-0.6553888444889964],[135.53180694580078,-0.653329042305856],[135.53421020507812,-0.6502393374486957],[135.53043365478516,-0.6440599220704968],[135.52631378173828,-0.6423434164661188],[135.52528381347656,-0.6430300187771394]],[[135.49678802490234,-0.9581691418668328],[135.49610137939453,-0.9616018876173058],[135.49335479736328,-0.9643480817328225],[135.50296783447266,-0.967094273632739],[135.50846099853516,-0.9674375474641295],[135.5108642578125,-0.9660644519303077],[135.51292419433594,-0.9629749849516287],[135.51223754882812,-0.9612586131974012],[135.50914764404297,-0.9588556912924986],[135.50708770751953,-0.958512416596875],[135.50399780273438,-0.9561094927646963],[135.50262451171875,-0.9516469154747256],[135.50090789794922,-0.9427217436012114],[135.494384765625,-0.9358562111964375],[135.49060821533203,-0.9296772205393893],[135.49163818359375,-0.9337965488500117],[135.4950714111328,-0.9396322556883803],[135.494384765625,-0.9416919146010656],[135.49232482910156,-0.9420351909682694],[135.49232482910156,-0.9458112287727687],[135.4947280883789,-0.9475276082358448],[135.49610137939453,-0.9513036400590948],[135.49678802490234,-0.9581691418668328]],[[135.50811767578125,-0.8308119482650795],[135.50640106201172,-0.8290955145889001],[135.5050277709961,-0.8280656540259059],[135.50228118896484,-0.8290955145889001],[135.50090789794922,-0.8328716676921033],[135.50228118896484,-0.8328716676921033],[135.50331115722656,-0.8349313860427117],[135.5060577392578,-0.8345880997257922],[135.50811767578125,-0.8308119482650795]],[[135.48442840576172,-0.6361639915276243],[135.48751831054688,-0.6392537049263751],[135.4885482788086,-0.6402836089799564],[135.4892349243164,-0.6385671021092065],[135.4885482788086,-0.6306711631454078],[135.48580169677734,-0.6286113510049489],[135.48133850097656,-0.6289546530848469],[135.48442840576172,-0.6361639915276243]],[[135.2753448486328,-0.3999677597943361],[135.27019500732422,-0.3927581544837011],[135.26779174804688,-0.39207152508036813],[135.26676177978516,-0.39310146916423605],[135.26573181152344,-0.3965346151911575],[135.26573181152344,-0.3999677597943361],[135.2633285522461,-0.401341017234202],[135.26229858398438,-0.40408753142148157],[135.26229858398438,-0.40855061499260614],[135.2633285522461,-0.40992387097855953],[135.2688217163086,-0.41095381281351706],[135.2753448486328,-0.4071773587719605],[135.27740478515625,-0.407863986911579],[135.27843475341797,-0.4071773587719605],[135.2753448486328,-0.3999677597943361]]]}}]}