{"type":"FeatureCollection","features":[{"type":"Feature","id":"pmtiles:10/842/515:landuse:5210602332:0","properties":{"class":"residential","kind":"green","verification":"verified","source":"OpenMapTiles/OpenStreetMap national PMTiles","sourceId":"10/842/515:landuse:5210602332:0","sourceLayer":"landuse","archive":"https://its.hanifahseptiani45.workers.dev/v1/map/archive/indonesia.pmtiles","updatedAt":"2026-07-26T09:42:07.752Z"},"geometry":{"type":"Polygon","coordinates":[[[116.12136840820312,-1.2911275910441873],[116.12059593200684,-1.2911275910441873],[116.12076759338379,-1.2894972214791949],[116.12016677856445,-1.2899262662028548],[116.11922264099121,-1.288553322832584],[116.11776351928711,-1.2889823677153345],[116.1156177520752,-1.2870087606565477],[116.11613273620605,-1.2864080973353822],[116.11793518066406,-1.2875236148192215],[116.11836433410645,-1.2871803787223115],[116.1188793182373,-1.2879526598753586],[116.11973762512207,-1.2879526598753586],[116.12016677856445,-1.2878668508699036],[116.12059593200684,-1.28657971544159],[116.12093925476074,-1.2867513335362162],[116.12171173095703,-1.2889823677153345],[116.12136840820312,-1.2911275910441873]]]}},{"type":"Feature","id":"pmtiles:10/842/515:transportation:6143808640:0","properties":{"class":"secondary","highway":"secondary","kind":"road","verification":"verified","source":"OpenMapTiles/OpenStreetMap national PMTiles","sourceId":"10/842/515:transportation:6143808640:0","sourceLayer":"transportation","archive":"https://its.hanifahseptiani45.workers.dev/v1/map/archive/indonesia.pmtiles","updatedAt":"2026-07-26T09:42:07.752Z"},"geometry":{"type":"LineString","coordinates":[[116.0884952545166,-1.273450897092573],[116.08840942382812,-1.2750812768781685],[116.08892440795898,-1.275767752268493],[116.08943939208984,-1.2756819428547317],[116.09029769897461,-1.2750812768781685],[116.09210014343262,-1.2756819428547317],[116.09295845031738,-1.2755103240185832],[116.09347343444824,-1.275853561679412],[116.09450340270996,-1.2775697492964184],[116.09742164611816,-1.2788568892569288],[116.09956741333008,-1.2791143171715902],[116.1005973815918,-1.2799724100339063],[116.10403060913086,-1.2802298378366146],[116.1064338684082,-1.2808305026090778],[116.10875129699707,-1.280144028571911],[116.11089706420898,-1.280658884117031],[116.1119270324707,-1.2816027856810734],[116.11364364624023,-1.2846061065237535],[116.11656188964844,-1.2871803787223115],[116.11827850341797,-1.2882958958682593],[116.11862182617188,-1.28915398564817],[116.11819267272949,-1.2906127376102319],[116.11913681030273,-1.2925863418739567],[116.11896514892578,-1.294045091865712],[116.11913681030273,-1.2949889884722268],[116.12042427062988,-1.2961045021903175],[116.12128257751465,-1.2975632501571113],[116.1225700378418,-1.2985929540978276],[116.12428665161133,-1.3005665521447014],[116.12574577331543,-1.3010814035553722],[116.12900733947754,-1.298936188651524],[116.13089561462402,-1.2981639108401595],[116.13295555114746,-1.299365231778097],[116.1353588104248,-1.3026259571567493],[116.13801956176758,-1.304256318264379],[116.14076614379883,-1.3033124251201968],[116.14334106445312,-1.3036556590317474],[116.14419937133789,-1.3035698505582474],[116.14505767822266,-1.304256318264379],[116.14548683166504,-1.3058866783157583],[116.14385604858398,-1.3081176956194298],[116.14402770996094,-1.3088899703779049],[116.1460018157959,-1.3100054779424681],[116.14703178405762,-1.3113784096477872],[116.14831924438477,-1.312493916103847],[116.14909172058105,-1.3137810383194477],[116.14943504333496,-1.3166985128854094],[116.1485767364502,-1.319615984036858],[116.14883422851562,-1.3211605262026893],[116.15012168884277,-1.3223618361122789],[116.15080833435059,-1.3233915298577728],[116.15080833435059,-1.3249360696743366],[116.15364074707031,-1.3270812622661907],[116.15381240844727,-1.3291406454039247],[116.15312576293945,-1.332830369228887],[116.15398406982422,-1.3347181327699644],[116.15355491638184,-1.3360052434444896],[116.1518383026123,-1.3390084990615065],[116.1526107788086,-1.3438137003917632],[116.15218162536621,-1.3444143498940235],[116.15046501159668,-1.3450149992485194],[116.14952087402344,-1.3459588765068418],[116.14883422851562,-1.348275664591469],[116.14866256713867,-1.3497343818841898],[116.14574432373047,-1.3533382679127754],[116.14505767822266,-1.355140208919721],[116.14531517028809,-1.3568563419656954],[116.14445686340332,-1.3584008606661655],[116.14462852478027,-1.360288604403621],[116.14402770996094,-1.3623479595236319],[116.14359855651855,-1.3665524707583359],[116.14282608032227,-1.367753758331645],[116.14274024963379,-1.369469882393048],[116.14480018615723,-1.3734169630683795],[116.14608764648438,-1.378822736889603],[116.14814758300781,-1.3815685220686902],[116.15046501159668,-1.385343971506856],[116.1518383026123,-1.3869742773598546],[116.1526107788086,-1.3889478039948102],[116.15226745605469,-1.3902348856949942],[116.15235328674316,-1.3910071343783414],[116.15355491638184,-1.3931522682832878],[116.15509986877441,-1.395039984504038],[116.15776062011719,-1.395898036831099],[116.15870475769043,-1.3966702836577127],[116.15870475769043,-1.3975283353896373],[116.15767478942871,-1.3992444379128415],[116.15750312805176,-1.400703124070489],[116.15776062011719,-1.4013037592832802],[116.1587905883789,-1.402076004330553],[116.16024971008301,-1.4040495182935757],[116.16273880004883,-1.4063662499501532],[116.16308212280273,-1.406280445114973],[116.16522789001465,-1.4037921035232728],[116.16617202758789,-1.403448883785444],[116.16694450378418,-1.4037062985935336],[116.1679744720459,-1.4049933722088213],[116.16969108581543,-1.4063662499501532],[116.17097854614258,-1.4094552219141434],[116.17106437683105,-1.4103132689551074],[116.17046356201172,-1.4116003389233214]]}},{"type":"Feature","id":"pmtiles:10/842/515:waterway:3120165660:0","properties":{"name_int":"Telake River","name_de":"Sungai Telake","name":"Sungai Telake","name:en":"Telake River","class":"river","name:latin":"Sungai Telake","name_en":"Telake River","waterway":"river","kind":"waterway","verification":"verified","source":"OpenMapTiles/OpenStreetMap national PMTiles","sourceId":"10/842/515:waterway:3120165660:0","sourceLayer":"waterway","archive":"https://its.hanifahseptiani45.workers.dev/v1/map/archive/indonesia.pmtiles","updatedAt":"2026-07-26T09:42:07.752Z"},"geometry":{"type":"LineString","coordinates":[[116.00841522216797,-1.2493383184526579],[116.01107597351074,-1.250797092887666],[116.01150512695312,-1.2507112826492204],[116.01167678833008,-1.2498531801104917],[116.01064682006836,-1.2483944051512736],[116.0104751586914,-1.2479653535386035],[116.01064682006836,-1.2475363018559449],[116.01150512695312,-1.247021439744401],[116.01227760314941,-1.2471930604594377],[116.01279258728027,-1.2468498190181663],[116.01322174072266,-1.2463349567723583],[116.01356506347656,-1.2446187485595601],[116.01399421691895,-1.2445329381195904],[116.01519584655762,-1.2426451077342193],[116.01648330688477,-1.2420444341467203],[116.01725578308105,-1.2404140337212226],[116.0185432434082,-1.2396417384321126],[116.01888656616211,-1.2390410641626204],[116.01991653442383,-1.2382687684731337],[116.02274894714355,-1.2376680938924238],[116.02386474609375,-1.2371532298578103],[116.02463722229004,-1.2361235014888763],[116.02506637573242,-1.2349221512204167],[116.0254955291748,-1.2344072866534077],[116.02815628051758,-1.2334633680216598],[116.02875709533691,-1.2328626923543737],[116.0317611694336,-1.2322620165515588],[116.03485107421875,-1.2308032318952087],[116.03519439697266,-1.2308032318952087],[116.03665351867676,-1.2320045840231728],[116.03673934936523,-1.2325194490550757],[116.03605270385742,-1.2338066111992276],[116.0361385345459,-1.2349221512204167],[116.0372543334961,-1.2357802586104611],[116.03837013244629,-1.2359518800552252],[116.0387134552002,-1.236209312201538],[116.0390567779541,-1.2371532298578103],[116.04025840759277,-1.2378397152150882],[116.04386329650879,-1.237582283226942],[116.04549407958984,-1.2378397152150882],[116.04686737060547,-1.2373248512137849],[116.04789733886719,-1.2373248512137849],[116.05133056640625,-1.2391268747808795],[116.05510711669922,-1.2392126853963816],[116.05613708496094,-1.2391268747808795],[116.05690956115723,-1.238697821661745],[116.05785369873047,-1.238697821661745],[116.0592269897461,-1.2394701172261477],[116.06008529663086,-1.2402424125653368],[116.06025695800781,-1.2406714654341755],[116.06223106384277,-1.2420444341467203],[116.06755256652832,-1.2450478007175292],[116.07012748718262,-1.2469356293826763],[116.07476234436035,-1.249595749294187],[116.07587814331055,-1.250797092887666],[116.07682228088379,-1.252684917423153],[116.07785224914551,-1.25680380259476],[116.07768058776855,-1.2592064826129814],[116.07828140258789,-1.2603220118688654],[116.07956886291504,-1.2611801109713525],[116.0811996459961,-1.261694970297043],[116.08798027038574,-1.2610084911734845],[116.09029769897461,-1.2605794416293037],[116.09158515930176,-1.2606652515437986],[116.0921859741211,-1.2610943010738254],[116.09278678894043,-1.2623814492394558],[116.09304428100586,-1.2646125045500725],[116.09261512756348,-1.2656422217390997],[116.09175682067871,-1.266757748232493],[116.09158515930176,-1.2677874645693805],[116.09192848205566,-1.2686455612039396],[116.09373092651367,-1.2704475632099133],[116.09536170959473,-1.271048230266004],[116.0976791381836,-1.2712198493992304],[116.09922409057617,-1.271820516275696],[116.10068321228027,-1.2728502305957363],[116.10154151916504,-1.2737941350279272],[116.10308647155762,-1.2779129866822956],[116.10394477844238,-1.2788568892569288],[116.10548973083496,-1.2796291729234213],[116.1075496673584,-1.279800791484405],[116.11038208007812,-1.2792001264707267],[116.11141204833984,-1.2793717450604163],[116.11630439758301,-1.2822034501316324],[116.11845016479492,-1.2822892593273565],[116.11939430236816,-1.2826324960814475],[116.12059593200684,-1.284177060905023],[116.1214542388916,-1.2861506701544698],[116.12205505371094,-1.2897546483220736],[116.12179756164551,-1.2915566354928103],[116.12008094787598,-1.293873474263151],[116.12051010131836,-1.2945599446037335],[116.12608909606934,-1.2949031797043205],[116.12643241882324,-1.2951606059992855],[116.12643241882324,-1.2955896497660717],[116.12548828125,-1.2964477370816638],[116.12480163574219,-1.2975632501571113],[116.12531661987305,-1.2985929540978276],[116.12651824951172,-1.2988503800174698],[116.12857818603516,-1.2983355281519522],[116.13038063049316,-1.2975632501571113],[116.1313247680664,-1.2974774414764596],[116.1320972442627,-1.297906484850614],[116.1335563659668,-1.299365231778097],[116.13561630249023,-1.302025297535323],[116.13638877868652,-1.3027117656624085],[116.13716125488281,-1.303226616634987],[116.13819122314453,-1.303398233602465],[116.13913536071777,-1.3030549996558278],[116.14059448242188,-1.3013388292212937],[116.14239692687988,-1.2999658920328443],[116.14265441894531,-1.299107805910893],[116.1423110961914,-1.2980781021798862],[116.14068031311035,-1.297391632792909],[116.1375904083252,-1.2987645713805165],[116.13673210144043,-1.2983355281519522],[116.13621711730957,-1.2976490588348497],[116.13587379455566,-1.2954180322680742],[116.13604545593262,-1.2949889884722268],[116.136474609375,-1.2945599446037335],[116.13990783691406,-1.2933586213858064],[116.1408519744873,-1.293873474263151],[116.14145278930664,-1.2961045021903175],[116.14205360412598,-1.2967051632196416],[116.14565849304199,-1.2983355281519522],[116.14540100097656,-1.300480743566041],[116.14462852478027,-1.3027975741651545],[116.1448860168457,-1.303140808146864],[116.14625930786133,-1.3030549996558278],[116.14797592163086,-1.3036556590317474],[116.14840507507324,-1.3039988928965158],[116.14977836608887,-1.3066589537605466],[116.15192413330078,-1.3064015286386592],[116.15767478942871,-1.3045137436059093],[116.16016387939453,-1.30296919116185],[116.16119384765625,-1.30348404208182],[116.16230964660645,-1.3053718278873987],[116.16213798522949,-1.3081176956194298],[116.16179466247559,-1.3094906283589722],[116.16093635559082,-1.3111209850103762],[116.15930557250977,-1.3126655324375633],[116.15784645080566,-1.3135236139293482],[116.15604400634766,-1.3138668464435739],[116.15200996398926,-1.312493916103847],[116.15158081054688,-1.312493916103847],[116.15123748779297,-1.312922956916026],[116.15140914916992,-1.3136094220623278],[116.15106582641602,-1.31532558410278],[116.15106582641602,-1.3195301761106322],[116.1514949798584,-1.320817294693228],[116.15140914916992,-1.321332141939635],[116.15080833435059,-1.3221044126091641],[116.15089416503906,-1.3226192595887198],[116.15235328674316,-1.3239921843452436],[116.15475654602051,-1.3252793006139427],[116.15784645080566,-1.3261373777548329],[116.15930557250977,-1.3269096469272768],[116.16110801696777,-1.3263089931473075],[116.16333961486816,-1.327252877593196],[116.16668701171875,-1.3258799546437956],[116.16840362548828,-1.326480608527902],[116.16951942443848,-1.326480608527902],[116.1697769165039,-1.3262231854525623],[116.1697769165039,-1.3240779921172816],[116.16934776306152,-1.323563145440474],[116.16677284240723,-1.3220186047688571],[116.16608619689941,-1.3217611812301442],[116.16582870483398,-1.32193279692558],[116.1653995513916,-1.3233915298577728],[116.16462707519531,-1.3239921843452436],[116.16411209106445,-1.3239063765702213],[116.16385459899902,-1.323563145440474],[116.16385459899902,-1.3229624908490933],[116.16574287414551,-1.319615984036858],[116.16548538208008,-1.3193585602492703],[116.16411209106445,-1.3190153284910622],[116.16402626037598,-1.3187579046413447],[116.16522789001465,-1.3173849769932247],[116.16582870483398,-1.3162694727220412],[116.16728782653809,-1.3160978566360058],[116.17544174194336,-1.3166985128854094],[116.1778450012207,-1.3157546244285356],[116.17853164672852,-1.317041744962964],[116.18050575256348,-1.317299168990104],[116.18084907531738,-1.3181572488884257],[116.18136405944824,-1.3183288648326226],[116.1833381652832,-1.3161836646804943],[116.18453979492188,-1.3142958870200374],[116.18488311767578,-1.3140384626830013],[116.1862564086914,-1.3138668464435739],[116.18659973144531,-1.3139526545647726],[116.18865966796875,-1.3162694727220412],[116.18926048278809,-1.316612704858656],[116.1902904510498,-1.3168701289300913],[116.1910629272461,-1.316355280760618],[116.19235038757324,-1.3161836646804943],[116.19518280029297,-1.3181572488884257],[116.19595527648926,-1.3179856329324053],[116.1965560913086,-1.316441088796239],[116.19707107543945,-1.3160978566360058],[116.19784355163574,-1.317299168990104],[116.1983585357666,-1.3186720966855034],[116.19870185852051,-1.320817294693228],[116.19810104370117,-1.3221044126091641],[116.19878768920898,-1.3227908752248396],[116.19964599609375,-1.3228766830384444],[116.2020492553711,-1.3218469890793472],[116.20307922363281,-1.3218469890793472],[116.20917320251465,-1.3261373777548329],[116.21011734008789,-1.326051570054119],[116.21217727661133,-1.3246786464384144],[116.2148380279541,-1.3273386852522435],[116.21569633483887,-1.3276819158586193],[116.21749877929688,-1.32785353114393],[116.21827125549316,-1.3276819158586193],[116.21895790100098,-1.3270812622661907],[116.21955871582031,-1.3271670699311926],[116.22204780578613,-1.3291406454039247],[116.22247695922852,-1.3289690302080004],[116.22307777404785,-1.3275961082114947],[116.22342109680176,-1.3242496076524617],[116.22316360473633,-1.323820568792243],[116.22118949890137,-1.322533451766219],[116.2217903137207,-1.321503757664729],[116.22359275817871,-1.320817294693228],[116.22427940368652,-1.320817294693228],[116.22668266296387,-1.3218469890793472],[116.22977256774902,-1.3237347610112948],[116.23226165771484,-1.3249360696743366],[116.23363494873047,-1.3249360696743366],[116.23483657836914,-1.3245070309329492],[116.2356948852539,-1.3245070309329492],[116.23749732971191,-1.3263948008390827],[116.23904228210449,-1.3293980681754363],[116.23929977416992,-1.3305135665417822],[116.23964309692383,-1.3307709891701052],[116.24024391174316,-1.3307709891701052],[116.24273300170898,-1.3292264529974176],[116.24384880065918,-1.3296554909201177],[116.24419212341309,-1.3301703363289334],[116.24419212341309,-1.3317148719106484],[116.24273300170898,-1.334031673468047],[116.24256134033203,-1.3346323253676928],[116.24273300170898,-1.3356620139971938],[116.24350547790527,-1.3364342801861682],[116.24642372131348,-1.3366058948618615],[116.2474536895752,-1.3370349314986072],[116.24805450439453,-1.3376355826640918],[116.24968528747559,-1.3424407866891386],[116.25054359436035,-1.3441569286968615],[116.25286102294922,-1.3469885603719831],[116.25354766845703,-1.3472459812702908],[116.25543594360352,-1.3457872624870504],[116.25663757324219,-1.3432988578436635],[116.2569808959961,-1.3415827152334856],[116.25629425048828,-1.3378071972557848],[116.2562084197998,-1.3356620139971938],[116.25715255737305,-1.3347181327699644],[116.25801086425781,-1.335061362349066],[116.26195907592773,-1.33523297712064],[116.26633644104004,-1.3382362336825366],[116.2679672241211,-1.3406388362846542],[116.2686538696289,-1.3411536793927752],[116.27105712890625,-1.3409820650354334],[116.2723445892334,-1.3396091497436373],[116.27311706542969,-1.3358336287268315],[116.27303123474121,-1.3347181327699644],[116.2734603881836,-1.334031673468047],[116.27440452575684,-1.3334310214217453],[116.27629280090332,-1.3342890957287068],[116.27826690673828,-1.3360910507988137],[116.2789535522461,-1.3372065461323217],[116.27869606018066,-1.339094306310841],[116.27835273742676,-1.3398665714194635],[116.27577781677246,-1.3427840151871067],[116.27517700195312,-1.3436420862211094],[116.27509117126465,-1.3444143498940235],[116.27680778503418,-1.3462162975139051],[116.27989768981934,-1.3478466299272185],[116.2818717956543,-1.348361471515247],[116.28393173217773,-1.3481040507348467],[116.28461837768555,-1.3476750160403554],[116.28762245178223,-1.3474175951873804],[116.28848075866699,-1.3475892090923907],[116.28865242004395,-1.3487905060887613],[116.28719329833984,-1.3523085867361573],[116.2873649597168,-1.3532524611647432],[116.29277229309082,-1.3565131154538506],[116.29345893859863,-1.3571995684288396],[116.29354476928711,-1.3578002146221309],[116.2932014465332,-1.3586582803536231],[116.29131317138672,-1.360975056305719],[116.28805160522461,-1.3639782810787011],[116.28719329833984,-1.3644073128833583],[116.28667831420898,-1.3643215065285403],[116.2859058380127,-1.3636350555799197],[116.28341674804688,-1.3590873131050785],[116.2822151184082,-1.3579718277927952],[116.28161430358887,-1.3579718277927952],[116.28015518188477,-1.358572473794183],[116.2778377532959,-1.3604602173974598],[116.27697944641113,-1.3624337659487793],[116.27663612365723,-1.3643215065285403],[116.27886772155762,-1.369555688563878],[116.27921104431152,-1.371014392997722],[116.2796401977539,-1.3757337247776036],[116.28067016601562,-1.3787369310516908],[116.28358840942383,-1.3832846361944746],[116.28393173217773,-1.3834562475388168],[116.28521919250488,-1.3832846361944746],[116.28642082214355,-1.3836278588707387],[116.28650665283203,-1.3854297771060686],[116.28470420837402,-1.3885187766055935],[116.28384590148926,-1.389462636759049],[116.28230094909668,-1.3903206911167274],[116.27826690673828,-1.3885187766055935],[116.27457618713379,-1.3874891105538296],[116.27363204956055,-1.3874033050292809],[116.27028465270996,-1.3886045820896697],[116.2686538696289,-1.3905781073632397],[116.26607894897461,-1.3952115949944925],[116.26582145690918,-1.3969276992101953],[116.26607894897461,-1.3976999456984203],[116.26805305480957,-1.398815412399685],[116.26968383789062,-1.3994160480961426],[116.27062797546387,-1.4006173190275177],[116.27311706542969,-1.4100558548760205],[116.27285957336426,-1.4150325220203825]]}},{"type":"Feature","id":"pmtiles:10/842/515:waterway:3650348730:0","properties":{"name_int":"Toyu River","name_de":"Sungai Toyu","name":"Sungai Toyu","name:en":"Toyu River","class":"river","name:latin":"Sungai Toyu","name_en":"Toyu River","waterway":"river","kind":"waterway","verification":"verified","source":"OpenMapTiles/OpenStreetMap national PMTiles","sourceId":"10/842/515:waterway:3650348730:0","sourceLayer":"waterway","archive":"https://its.hanifahseptiani45.workers.dev/v1/map/archive/indonesia.pmtiles","updatedAt":"2026-07-26T09:42:07.752Z"},"geometry":{"type":"LineString","coordinates":[[116.37310981750488,-1.0763393516851352],[116.37259483337402,-1.0765109827683972],[116.37053489685059,-1.0759102739347384],[116.36950492858887,-1.0760819050421304],[116.36941909790039,-1.0765967983063973],[116.37087821960449,-1.0791712633225643],[116.37062072753906,-1.07994360240275],[116.36993408203125,-1.0805443104405157],[116.36933326721191,-1.0802010487191893],[116.3683032989502,-1.0790854478570964],[116.36795997619629,-1.0791712633225643],[116.36761665344238,-1.07994360240275],[116.36761665344238,-1.0807159412866412],[116.3683032989502,-1.0820031723233399],[116.36650085449219,-1.0826038799535667],[116.36538505554199,-1.0820889877063564],[116.36512756347656,-1.0821748030869571],[116.36521339416504,-1.085092524581654],[116.3646125793457,-1.0853499704608822],[116.36306762695312,-1.0844918174448992],[116.36220932006836,-1.0845776327574583],[116.36186599731445,-1.0848350786804986],[116.36083602905273,-1.0868946452758905],[116.3591194152832,-1.0876669823871765],[116.3573169708252,-1.0889542104666816],[116.35680198669434,-1.0896407318843728],[116.35645866394043,-1.091271219624133],[116.3558578491211,-1.0913570347438508],[116.35439872741699,-1.0908421439887803],[116.35448455810547,-1.0923868159895278],[116.35396957397461,-1.0934165968822782],[116.35233879089355,-1.0947896375230641],[116.35139465332031,-1.097535716917477],[116.35122299194336,-1.0985654960406492],[116.35173797607422,-1.0991662003652891],[116.35311126708984,-1.0994236450388684],[116.35388374328613,-1.1003676086520073],[116.35431289672852,-1.100539238367773],[116.35499954223633,-1.1002817937904297],[116.35577201843262,-1.0990803854691649],[116.35602951049805,-1.0995952748089195],[116.35645866394043,-1.1027704237732934],[116.35774612426758,-1.1026846089809226],[116.35851860046387,-1.1028562385632057],[116.36014938354492,-1.1051732369548972],[116.36014938354492,-1.1059455693506237],[116.35963439941406,-1.1067179015453945],[116.36066436767578,-1.1079193067818665],[116.36040687561035,-1.1086058238411596],[116.35946273803711,-1.1089490823111134],[116.35757446289062,-1.109034896922381],[116.35697364807129,-1.1098930428982072],[116.35740280151367,-1.1112660759415007],[116.35886192321777,-1.1128965518513638],[116.3587760925293,-1.1135830677543623],[116.35774612426758,-1.1137546967051435],[116.35637283325195,-1.1134114387936052],[116.3558578491211,-1.1140979545766925],[116.35551452636719,-1.1159858721550506],[116.35457038879395,-1.117101459245518],[116.35396957397461,-1.1174447167266237],[116.35319709777832,-1.1175305310906367],[116.35225296020508,-1.117015644868971],[116.3503646850586,-1.1174447167266237],[116.34984970092773,-1.1184744889292233],[116.34976387023926,-1.1200191465555065],[116.3477897644043,-1.1195042607704835],[116.34598731994629,-1.1194184464641808],[116.34512901306152,-1.1199333322642815],[116.34341239929199,-1.1195042607704835],[116.34255409240723,-1.1199333322642815],[116.34092330932617,-1.1198475179705412],[116.33997917175293,-1.1195900750742567],[116.33920669555664,-1.1181312315684977],[116.3382625579834,-1.118045417222035],[116.33766174316406,-1.1184744889292233],[116.33731842041016,-1.1191610035302233],[116.33525848388672,-1.1198475179705412],[116.33482933044434,-1.120448217973916],[116.33474349975586,-1.121048917854111],[116.33577346801758,-1.1219928745596945],[116.33585929870605,-1.1233659019513027],[116.33500099182129,-1.1238807870568621],[116.33225440979004,-1.1237091586984178],[116.33156776428223,-1.123966601232297],[116.33139610290527,-1.1251679994235246],[116.33148193359375,-1.1277424224523145],[116.33182525634766,-1.1293728891930925],[116.33148193359375,-1.1301452152248288],[116.32856369018555,-1.131604052724299],[116.32719039916992,-1.1309175410511756],[116.32598876953125,-1.1310891689846727],[116.32538795471191,-1.13177568061721],[116.32547378540039,-1.1332345172965859],[116.32478713989258,-1.1337494006551196],[116.32375717163086,-1.1330628894900627],[116.32341384887695,-1.1330628894900627],[116.32204055786133,-1.1341784700505997],[116.32109642028809,-1.133835214539289],[116.32023811340332,-1.1341784700505997],[116.31912231445312,-1.1341784700505997],[116.31792068481445,-1.1345217255211963],[116.3162899017334,-1.133921028420943],[116.31457328796387,-1.133835214539289],[116.3107967376709,-1.13795427798523],[116.31071090698242,-1.1384691605028223],[116.3111400604248,-1.1391556703832322],[116.31122589111328,-1.140700317015984],[116.31028175354004,-1.1419017082682785],[116.30959510803223,-1.1423307764510042],[116.30916595458984,-1.144132862118525],[116.30916595458984,-1.1462782007228185],[116.30899429321289,-1.1465356412473824],[116.30702018737793,-1.1468788952441287],[116.30341529846191,-1.1507404998678084],[116.30453109741211,-1.1524567669124082],[116.30504608154297,-1.152628393560022],[116.30573272705078,-1.1524567669124082],[116.30616188049316,-1.1517702602185835],[116.30684852600098,-1.1515986335192991],[116.30753517150879,-1.1521135135861726],[116.30882263183594,-1.1540872196468683],[116.31011009216309,-1.153915593087234],[116.31242752075195,-1.154430472735072],[116.3151741027832,-1.154258846196143],[116.31620407104492,-1.154859539037048],[116.31654739379883,-1.1552886052742366],[116.31714820861816,-1.1573481223103954],[116.31912231445312,-1.158292067118964],[116.31980895996094,-1.1614671518933193],[116.32101058959961,-1.162325282301481],[116.32152557373047,-1.1634408514422034],[116.32186889648438,-1.1653287366752494],[116.3217830657959,-1.1680747493002883],[116.3221263885498,-1.1686754392045202],[116.32444381713867,-1.1697051930271414],[116.32513046264648,-1.1697910058286567],[116.32590293884277,-1.1694477546069066],[116.32822036743164,-1.1702200697967697],[116.3283920288086,-1.1708207592418916],[116.32804870605469,-1.1739958298834807],[116.32847785949707,-1.174853956465384],[116.33225440979004,-1.1788871478665328],[116.3327693939209,-1.1800027104149677],[116.33259773254395,-1.1815473347433283],[116.33285522460938,-1.1822338341692245],[116.33379936218262,-1.18309195821287],[116.33560180664062,-1.1829203334253577],[116.33628845214844,-1.18317777060264],[116.3368034362793,-1.1842075190727712],[116.33834838867188,-1.1859237656726833],[116.33894920349121,-1.187468386702733],[116.33877754211426,-1.1894420678737845],[116.33903503417969,-1.1899569409906974],[116.34092330932617,-1.1915015597646317],[116.3422966003418,-1.1931319897530557],[116.34495735168457,-1.1941617345111268],[116.34572982788086,-1.195620538924615],[116.3481330871582,-1.1973367784185172],[116.34976387023926,-1.1980232739153251],[116.35156631469727,-1.1996537000306517],[116.35345458984375,-1.2001685712337036],[116.35379791259766,-1.201026689690039],[116.35354042053223,-1.2016273724491668],[116.35225296020508,-1.2030003611167785],[116.35096549987793,-1.2040301021641113],[116.3477897644043,-1.2059179597404182],[116.34736061096191,-1.20660445307999],[116.34607315063477,-1.21029435180958],[116.34572982788086,-1.2106375979480504],[116.34512901306152,-1.2108092210009715],[116.34427070617676,-1.2100369171772343],[116.34358406066895,-1.209951105627681],[116.34212493896484,-1.210465974884258],[116.3393783569336,-1.210465974884258],[116.33869171142578,-1.21029435180958],[116.33834838867188,-1.209779482520446],[116.33757591247559,-1.2092646131336124],[116.33637428283691,-1.209951105627681],[116.3353443145752,-1.2115815246046964],[116.33251190185547,-1.2138126226671062],[116.33302688598633,-1.2152714165589913],[116.33268356323242,-1.218789680937121],[116.33208274841309,-1.2209349618396175],[116.33259773254395,-1.224024163330938],[116.33191108703613,-1.2253971406297381],[116.33173942565918,-1.2266843062082131],[116.33199691772461,-1.2277140382252156],[116.33173942565918,-1.229087013630874],[116.33251190185547,-1.231403908026877],[116.33251190185547,-1.2320903948687345],[116.33199691772461,-1.2338924219867096],[116.3313102722168,-1.2344072866534077],[116.33028030395508,-1.234235665108912],[116.32684707641602,-1.2346647189493751],[116.32573127746582,-1.235093772720603],[116.32521629333496,-1.2357802586104611],[116.3261604309082,-1.2374106618876084],[116.32719039916992,-1.238354579116418],[116.33036613464355,-1.2395559278305228],[116.33242607116699,-1.2435032126222296],[116.33397102355957,-1.2435890230956943],[116.3338851928711,-1.2441038858778626],[116.33182525634766,-1.2458200944258664],[116.33148193359375,-1.2459059048239425],[116.33079528808594,-1.2454768528056661],[116.33053779602051,-1.2435890230956943],[116.3301944732666,-1.2435032126222296],[116.32967948913574,-1.2441038858778626],[116.32916450500488,-1.2490808875859045],[116.33070945739746,-1.250196421159643],[116.33079528808594,-1.2507112826492204],[116.32925033569336,-1.2512261440377728],[116.32822036743164,-1.25096871335613],[116.32684707641602,-1.248051163866748],[116.32564544677734,-1.246592387907853],[116.32504463195801,-1.246592387907853],[116.3247013092041,-1.2475363018559449],[116.32418632507324,-1.2477079225374013],[116.32272720336914,-1.2468498190181663],[116.32015228271484,-1.2446187485595601],[116.31834983825684,-1.2447045589967303],[116.31783485412598,-1.24513361114073],[116.31723403930664,-1.2471072501033262],[116.31586074829102,-1.2482227845146099],[116.31577491760254,-1.2485660257767393],[116.31749153137207,-1.2499389903769895],[116.31877899169922,-1.249595749294187],[116.32083892822266,-1.2512261440377728],[116.32195472717285,-1.2546585507104737],[116.3221263885498,-1.2548301709259846],[116.32307052612305,-1.2546585507104737],[116.32341384887695,-1.2548301709259846],[116.32349967956543,-1.2552592214155283],[116.32281303405762,-1.2583483828604898],[116.31980895996094,-1.2592064826129814],[116.31817817687988,-1.2613517307578945],[116.3148307800293,-1.2610943010738254],[116.31217002868652,-1.2612659208660375],[116.31148338317871,-1.2616091604164978],[116.31139755249023,-1.262467259094521],[116.31251335144043,-1.2636685967679],[116.3137149810791,-1.2629821181653966],[116.31448745727539,-1.2629821181653966],[116.31500244140625,-1.263496977134281],[116.3151741027832,-1.2647841241099655],[116.31208419799805,-1.2693320383066862],[116.30916595458984,-1.2725069925347299],[116.30779266357422,-1.2749954674414994],[116.30727767944336,-1.275167086311967],[116.30659103393555,-1.2746522296662306],[116.30616188049316,-1.2747380391143395],[116.30538940429688,-1.2752528957429092],[116.3038444519043,-1.2771407024995796],[116.30041122436523,-1.2785994613164462],[116.30118370056152,-1.2796291729234213],[116.30307197570801,-1.280658884117031],[116.30513191223145,-1.2811737395587102],[116.30538940429688,-1.2818602133200017],[116.30487442016602,-1.283833824358183],[116.30350112915039,-1.2861506701544698],[116.30066871643066,-1.2884675138473796],[116.30066871643066,-1.2888965587445682],[116.30195617675781,-1.2896688393773275],[116.30032539367676,-1.2929295772415657],[116.29989624023438,-1.2948173709335293],[116.30023956298828,-1.296190310917524],[116.30101203918457,-1.2970483980295455],[116.30427360534668,-1.297391632792909],[116.30375862121582,-1.2984213368035],[116.30221366882324,-1.2999658920328443],[116.30169868469238,-1.3009955949942196],[116.30212783813477,-1.302025297535323],[116.30290031433105,-1.302883382664973],[116.30315780639648,-1.3041705098113425],[116.29938125610352,-1.3085467371812598],[116.29740715026855,-1.3130945732202832],[116.29526138305664,-1.312236491581217],[116.29483222961426,-1.3124081079325833],[116.29414558410645,-1.3133519976545642],[116.29302978515625,-1.3157546244285356],[116.28856658935547,-1.3148107356145005],[116.28702163696289,-1.3148107356145005],[116.28461837768555,-1.316441088796239],[116.28298759460449,-1.317041744962964],[116.2804126739502,-1.3187579046413447],[116.27998352050781,-1.3207314868084552],[116.27989768981934,-1.3239921843452436],[116.27955436706543,-1.3246786464384144],[116.27800941467285,-1.3253651083414155],[116.27723693847656,-1.3253651083414155],[116.27663612365723,-1.3250218774136897],[116.27620697021484,-1.3244212231757473],[116.27655029296875,-1.3231341064614668],[116.27732276916504,-1.322533451766219],[116.27878189086914,-1.3203882552397488],[116.27886772155762,-1.319615984036858],[116.27809524536133,-1.318929520544117],[116.27758026123047,-1.318929520544117],[116.27569198608398,-1.320045023623635],[116.27311706542969,-1.322190220446501],[116.27217292785645,-1.3237347610112948],[116.2708854675293,-1.3266522238965734],[116.27002716064453,-1.3296554909201177],[116.2694263458252,-1.3301703363289334],[116.26813888549805,-1.3300845287682534],[116.2679672241211,-1.3306851816303151],[116.26813888549805,-1.332229716889529],[116.26916885375977,-1.3337742511804436],[116.27174377441406,-1.3346323253676928],[116.27303123474121,-1.3347181327699644]]}},{"type":"Feature","id":"pmtiles:10/842/515:waterway:3650789662:0","properties":{"name_int":"Pias River","name_de":"Sungai Pias","name":"Sungai Pias","name:en":"Pias River","class":"river","name:latin":"Sungai Pias","name_en":"Pias River","waterway":"river","kind":"waterway","verification":"verified","source":"OpenMapTiles/OpenStreetMap national PMTiles","sourceId":"10/842/515:waterway:3650789662:0","sourceLayer":"waterway","archive":"https://its.hanifahseptiani45.workers.dev/v1/map/archive/indonesia.pmtiles","updatedAt":"2026-07-26T09:42:07.752Z"},"geometry":{"type":"LineString","coordinates":[[116.2130355834961,-1.413659649390297],[116.21337890625,-1.4111713156797236],[116.21269226074219,-1.4109139016955652],[116.21260643005371,-1.4097984407684692],[116.21294975280762,-1.408940393537776],[116.21174812316895,-1.4074817125203651],[116.21149063110352,-1.4067952740787462],[116.21166229248047,-1.4065378596110634],[116.21269226074219,-1.4061946402766523],[116.21209144592285,-1.4054223965896853],[116.21209144592285,-1.4044785428477695],[116.21037483215332,-1.403448883785444],[116.21037483215332,-1.4031056639972377],[116.21140480041504,-1.4022476143064466],[116.21123313903809,-1.4018185893430797],[116.21071815490723,-1.4017327843409788],[116.21106147766113,-1.4012179542623073],[116.21234893798828,-1.401561174327341],[116.21320724487305,-1.4013895643011125],[116.21432304382324,-1.4000166836387677],[116.21458053588867,-1.4000166836387677],[116.21518135070801,-1.4009605391805309],[116.21535301208496,-1.3994160480961426],[116.21561050415039,-1.3990728277170064],[116.2159538269043,-1.3990728277170064],[116.21638298034668,-1.3996734633475398],[116.21664047241211,-1.3995018531830823],[116.21664047241211,-1.3990728277170064],[116.21621131896973,-1.3983863868080846],[116.21664047241211,-1.3972709199029651],[116.21715545654297,-1.3970993095628472],[116.21861457824707,-1.3975283353896373],[116.2188720703125,-1.3985579970541409],[116.21955871582031,-1.3980431662783417],[116.22015953063965,-1.3983005816803598],[116.22067451477051,-1.3992444379128415],[116.21973037719727,-1.3999308785706717],[116.22110366821289,-1.4000166836387677],[116.22196197509766,-1.400703124070489],[116.22307777404785,-1.4010463442109398],[116.22299194335938,-1.4013037592832802],[116.22196197509766,-1.4013895643011125],[116.22187614440918,-1.4019043943420542],[116.22230529785156,-1.4021618093200772],[116.22333526611328,-1.4021618093200772],[116.22350692749023,-1.4009605391805309],[116.22376441955566,-1.400703124070489],[116.22496604919434,-1.4007889291103197],[116.22556686401367,-1.400188293765538],[116.22651100158691,-1.399845073499435],[116.22857093811035,-1.4019043943420542],[116.22900009155273,-1.4026766391911707],[116.22942924499512,-1.4028482491230392],[116.23071670532227,-1.4023334192896897],[116.2309741973877,-1.4012179542623073],[116.23311996459961,-1.4016469793357231],[116.23406410217285,-1.4007889291103197],[116.23466491699219,-1.4006173190275177],[116.23457908630371,-1.3994160480961426],[116.23123168945312,-1.3965844784672896],[116.23088836669922,-1.3960696472589262],[116.23200416564941,-1.394181931864054],[116.2324333190918,-1.392980657642724],[116.23269081115723,-1.3910071343783414],[116.23363494873047,-1.3900632748421629],[116.23517990112305,-1.3900632748421629],[116.23595237731934,-1.3916935774402361],[116.23715400695801,-1.3927232416584445],[116.23655319213867,-1.3938387107204875],[116.2368106842041,-1.3944393476889019],[116.23775482177734,-1.3938387107204875],[116.23801231384277,-1.3934096842206714],[116.23835563659668,-1.3914361613154398],[116.23887062072754,-1.391092939771994],[116.23990058898926,-1.391521966693503],[116.23998641967773,-1.3918651881745063],[116.2393856048584,-1.3923800203023546],[116.23929977416992,-1.3927232416584445],[116.24067306518555,-1.393924516011083],[116.24333381652832,-1.392980657642724],[116.24384880065918,-1.393924516011083],[116.24556541442871,-1.3928948523177667],[116.24582290649414,-1.3938387107204875],[116.24693870544434,-1.3945251529575984],[116.24728202819824,-1.3940961265828662],[116.24736785888672,-1.3919509935369518],[116.2477970123291,-1.3917793828089344],[116.24959945678711,-1.3935812948299855],[116.24942779541016,-1.394696763485598],[116.2507152557373,-1.394954179254114],[116.25157356262207,-1.3947825687449011],[116.2521743774414,-1.3936671001299459],[116.25062942504883,-1.3923800203023546],[116.25054359436035,-1.3920367988962852],[116.25080108642578,-1.3916935774402361],[116.25500679016113,-1.391521966693503],[116.25543594360352,-1.3918651881745063],[116.25543594360352,-1.3927232416584445],[116.25500679016113,-1.393752905426794],[116.25629425048828,-1.3947825687449011],[116.25672340393066,-1.3935812948299855],[116.25783920288086,-1.392980657642724],[116.25818252563477,-1.3938387107204875],[116.25929832458496,-1.3936671001299459],[116.25938415527344,-1.3925516309866595],[116.25852584838867,-1.3922942149555269],[116.25869750976562,-1.390492301950843],[116.25895500183105,-1.3901490802701346],[116.25972747802734,-1.390492301950843],[116.26084327697754,-1.3918651881745063],[116.26161575317383,-1.3923800203023546],[116.26178741455078,-1.3928090469896688],[116.26101493835449,-1.393066462964569],[116.26092910766602,-1.3934954895268845],[116.26178741455078,-1.3938387107204875],[116.26255989074707,-1.3936671001299459],[116.26238822937012,-1.3928090469896688],[116.2628173828125,-1.3921226042524921],[116.26290321350098,-1.3910071343783414],[116.26461982727051,-1.391521966693503],[116.26401901245117,-1.3921226042524921],[116.26341819763184,-1.394353542417079],[116.26255989074707,-1.3953832054724273],[116.2631607055664,-1.3960696472589262],[116.26401901245117,-1.395898036831099],[116.26461982727051,-1.3947825687449011],[116.26564979553223,-1.394696763485598],[116.26625061035156,-1.394954179254114]]}},{"type":"Feature","id":"pmtiles:10/842/515:waterway:3650789662:2","properties":{"name_int":"Pias River","name_de":"Sungai Pias","name":"Sungai Pias","name:en":"Pias River","class":"river","name:latin":"Sungai Pias","name_en":"Pias River","waterway":"river","kind":"waterway","verification":"verified","source":"OpenMapTiles/OpenStreetMap national PMTiles","sourceId":"10/842/515:waterway:3650789662:2","sourceLayer":"waterway","archive":"https://its.hanifahseptiani45.workers.dev/v1/map/archive/indonesia.pmtiles","updatedAt":"2026-07-26T09:42:07.752Z"},"geometry":{"type":"LineString","coordinates":[[116.10025405883789,-1.413573844823972],[116.10033988952637,-1.4116003389233214],[116.10085487365723,-1.4115145342809399],[116.10222816467285,-1.4121151667111747],[116.10342979431152,-1.4121151667111747],[116.10342979431152,-1.411257120334767],[116.10231399536133,-1.4091978077401848],[116.1023998260498,-1.4083397602882428],[116.10300064086914,-1.406623664436779],[116.10291481018066,-1.4038779084498572],[116.1031723022461,-1.4035346887246192],[116.10360145568848,-1.4035346887246192],[116.10514640808105,-1.4047359575424707],[116.1060905456543,-1.4044785428477695],[116.10669136047363,-1.403448883785444],[116.10651969909668,-1.4022476143064466],[116.10600471496582,-1.4013895643011125],[116.10626220703125,-1.4007889291103197],[116.10763549804688,-1.4008747341470098],[116.10815048217773,-1.4006173190275177],[116.10857963562012,-1.3995018531830823],[116.10909461975098,-1.3993302430060623],[116.11003875732422,-1.4003599038797603],[116.11166954040527,-1.4008747341470098],[116.11544609069824,-1.4032772738976291],[116.11630439758301,-1.4042211281247035],[116.11793518066406,-1.404564347749158],[116.1185359954834,-1.4042211281247035],[116.11939430236816,-1.402076004330553],[116.12188339233398,-1.4017327843409788],[116.12308502197266,-1.4022476143064466],[116.12351417541504,-1.4021618093200772],[116.12420082092285,-1.4013895643011125],[116.12574577331543,-1.4002740988242266],[116.12643241882324,-1.3993302430060623],[116.12668991088867,-1.3981289714154883],[116.12729072570801,-1.3980431662783417],[116.12823486328125,-1.3990728277170064],[116.12814903259277,-1.3997592684250577],[116.12754821777344,-1.4007889291103197],[116.12746238708496,-1.4013037592832802],[116.12763404846191,-1.401561174327341],[116.13166809082031,-1.3999308785706717],[116.13226890563965,-1.3995018531830823],[116.13183975219727,-1.3981289714154883],[116.1320972442627,-1.3966702836577127],[116.13252639770508,-1.3964986732737117],[116.13458633422852,-1.3972709199029651],[116.13844871520996,-1.3970993095628472],[116.1393928527832,-1.3958122316124673],[116.13930702209473,-1.3948683740010779],[116.13879203796387,-1.3940103212985377],[116.13716125488281,-1.392980657642724],[116.13604545593262,-1.3916935774402361],[116.13638877868652,-1.391092939771994],[116.13638877868652,-1.3898058585395177],[116.1375904083252,-1.3890336094632971],[116.13973617553711,-1.389376831306123],[116.14033699035645,-1.3889478039948102],[116.14076614379883,-1.3881755546381669],[116.14093780517578,-1.386287832926996],[116.1423110961914,-1.3847433322255256],[116.14394187927246,-1.38388527584533],[116.14437103271484,-1.3842284984346804],[116.14445686340332,-1.3851723602991655],[116.14548683166504,-1.3864594440538696],[116.14591598510742,-1.3878323326209028],[116.14625930786133,-1.3880897491385156],[116.14651679992676,-1.3880897491385156],[116.14668846130371,-1.3874891105538296],[116.14660263061523,-1.3869742773598546],[116.14608764648438,-1.3864594440538696],[116.14608764648438,-1.3858588050553777],[116.14754676818848,-1.3848291378464808],[116.14797592163086,-1.3848291378464808],[116.14823341369629,-1.3854297771060686],[116.14789009094238,-1.3856871938849764],[116.14789009094238,-1.3862020273589053],[116.14900588989258,-1.3882613601346918],[116.14952087402344,-1.3886045820896697],[116.15209579467773,-1.389291025850099],[116.15209579467773,-1.389720053099083],[116.14986419677734,-1.391092939771994],[116.14986419677734,-1.3914361613154398],[116.15132331848145,-1.3914361613154398],[116.15218162536621,-1.3921226042524921],[116.15278244018555,-1.394353542417079],[116.1526107788086,-1.3957264263907234],[116.15321159362793,-1.3964986732737117],[116.15415573120117,-1.3968418940291656],[116.15535736083984,-1.3965844784672896],[116.15647315979004,-1.3959838420465616],[116.15690231323242,-1.3962412576742338],[116.15750312805176,-1.3975283353896373],[116.15741729736328,-1.3981289714154883],[116.15604400634766,-1.398987022614378],[116.15501403808594,-1.4007889291103197],[116.15269660949707,-1.3996734633475398],[116.15192413330078,-1.3999308785706717],[116.15166664123535,-1.4004457089321534],[116.15269660949707,-1.40147536931579],[116.15372657775879,-1.4019043943420542],[116.15389823913574,-1.4021618093200772],[116.15338325500488,-1.4036204936606538],[116.15346908569336,-1.4040495182935757],[116.15398406982422,-1.4043927379432262],[116.15535736083984,-1.4042211281247035],[116.15595817565918,-1.4032772738976291],[116.15638732910156,-1.4031056639972377],[116.15707397460938,-1.4032772738976291],[116.15793228149414,-1.4037921035232728],[116.16059303283691,-1.4068810788949975],[116.16368293762207,-1.4081681507599342],[116.16411209106445,-1.407996541218992],[116.16634368896484,-1.4047359575424707],[116.16694450378418,-1.4042211281247035],[116.16737365722656,-1.405250786846807],[116.16891860961914,-1.4065378596110634],[116.17046356201172,-1.4065378596110634],[116.17286682128906,-1.4097984407684692],[116.17406845092773,-1.4106564876829282],[116.17561340332031,-1.4103990736417984],[116.17647171020508,-1.40988424547416],[116.17741584777832,-1.4085113698039038],[116.17818832397461,-1.408253955525666],[116.17921829223633,-1.4072242981284262],[116.18067741394043,-1.4065378596110634],[116.18093490600586,-1.4068810788949975],[116.1807632446289,-1.4075675173113638],[116.18102073669434,-1.4078249316654166],[116.18273735046387,-1.4076533220992076],[116.18308067321777,-1.4081681507599342],[116.1829948425293,-1.408597174557002],[116.18282318115234,-1.4086829793069455],[116.18222236633301,-1.408253955525666],[116.1815357208252,-1.4083397602882428],[116.18256568908691,-1.4095410266324535],[116.1833381652832,-1.4094552219141434],[116.18368148803711,-1.4097126360596377],[116.1833381652832,-1.4100558548760205],[116.18136405944824,-1.4103990736417984],[116.18110656738281,-1.4115145342809399],[116.18119239807129,-1.4124583851730392]]}},{"type":"Feature","id":"pmtiles:10/842/515:waterway:13400231132:0","properties":{"name":"Sungai Sangar","name_int":"Sungai Sangar","class":"river","name:latin":"Sungai Sangar","name_de":"Sungai Sangar","name_en":"Sungai Sangar","waterway":"river","kind":"waterway","verification":"verified","source":"OpenMapTiles/OpenStreetMap national PMTiles","sourceId":"10/842/515:waterway:13400231132:0","sourceLayer":"waterway","archive":"https://its.hanifahseptiani45.workers.dev/v1/map/archive/indonesia.pmtiles","updatedAt":"2026-07-26T09:42:07.753Z"},"geometry":{"type":"LineString","coordinates":[[116.02197647094727,-1.3147249275228035],[116.02352142333984,-1.3133519976545642],[116.02472305297852,-1.311807450651287],[116.02523803710938,-1.3107777521193356],[116.0254955291748,-1.3095764366302376],[116.02506637573242,-1.3094048200847652],[116.02429389953613,-1.3097480531639434],[116.02352142333984,-1.309061586958606],[116.0225772857666,-1.309233203527569],[116.02197647094727,-1.3088899703779049],[116.02180480957031,-1.308203503937662],[116.02240562438965,-1.3075170373095943],[116.02231979370117,-1.3070879955717203],[116.02214813232422,-1.3067447621286448],[116.02128982543945,-1.3069163788560445],[116.02128982543945,-1.3067447621286448],[116.02206230163574,-1.304256318264379],[116.02266311645508,-1.30348404208182],[116.02498054504395,-1.3021111060614317],[116.02738380432129,-1.3027117656624085],[116.02704048156738,-1.3021111060614317],[116.0251522064209,-1.301510446317323],[116.02506637573242,-1.3011672121135973],[116.0254955291748,-1.300137509222239],[116.02532386779785,-1.299365231778097],[116.02618217468262,-1.2979922935167139],[116.02583885192871,-1.2970483980295455],[116.02601051330566,-1.296190310917524],[116.0254955291748,-1.296018693460212],[116.02420806884766,-1.2967051632196416],[116.02386474609375,-1.2967051632196416],[116.02352142333984,-1.296190310917524],[116.02352142333984,-1.2955896497660717],[116.02446556091309,-1.294474135821332],[116.02446556091309,-1.2936160478375456],[116.02480888366699,-1.2934444302059518],[116.02532386779785,-1.2936160478375456],[116.02540969848633,-1.294045091865712],[116.02506637573242,-1.2948173709335293],[116.0251522064209,-1.2951606059992855],[116.0254955291748,-1.2953322235147198],[116.02618217468262,-1.2953322235147198],[116.02746963500977,-1.2949031797043205],[116.02798461914062,-1.2952464147584521],[116.0280704498291,-1.2945599446037335],[116.02781295776367,-1.2935302390231982],[116.0280704498291,-1.2930153860762061],[116.03013038635254,-1.2920714887355444],[116.03021621704102,-1.2915566354928103],[116.02987289428711,-1.2909559732444507],[116.02995872497559,-1.2906985465231315],[116.03055953979492,-1.2904411197757497],[116.03201866149902,-1.2905269286944332],[116.03184700012207,-1.2914708266088866],[116.0324478149414,-1.292500533024807],[116.0324478149414,-1.2931870037368043],[116.03158950805664,-1.2941309006626511],[116.03158950805664,-1.2949031797043205],[116.03227615356445,-1.2949889884722268],[116.03287696838379,-1.294474135821332],[116.03339195251465,-1.293272812562762],[116.03313446044922,-1.2916424443738492],[116.03407859802246,-1.2912133999396929],[116.03459358215332,-1.2916424443738492],[116.03639602661133,-1.2912992088323278],[116.03682518005371,-1.2904411197757497],[116.03768348693848,-1.2912992088323278],[116.03940010070801,-1.2906127376102319],[116.03957176208496,-1.2910417821457543],[116.03931427001953,-1.2929295772415657],[116.03965759277344,-1.2931870037368043],[116.04043006896973,-1.2929295772415657],[116.04146003723145,-1.292414724172744],[116.04085922241211,-1.2913850177220496],[116.04154586791992,-1.2905269286944332],[116.04146003723145,-1.2902695019297],[116.03974342346191,-1.2889823677153345],[116.03948593139648,-1.2883817048592618],[116.03982925415039,-1.2880384688779145],[116.04025840759277,-1.2881242778775857],[116.04077339172363,-1.2887249407943528],[116.04137420654297,-1.2888965587445682],[116.04171752929688,-1.288639131814918],[116.04231834411621,-1.288639131814918],[116.04249000549316,-1.290012075138904],[116.04351997375488,-1.2912992088323278],[116.04412078857422,-1.2915566354928103],[116.04437828063965,-1.2912992088323278],[116.04334831237793,-1.2900978840720683],[116.04334831237793,-1.2889823677153345],[116.04386329650879,-1.2882100868743578],[116.04429244995117,-1.2879526598753586],[116.04540824890137,-1.2881242778775857],[116.04557991027832,-1.2878668508699036],[116.04515075683594,-1.2868371425792162],[116.04592323303223,-1.285721624795201],[116.0471248626709,-1.283233160290365],[116.04806900024414,-1.2805730748666946],[116.04841232299805,-1.2804872656134734],[116.048583984375,-1.2812595487889382],[116.04918479919434,-1.2811737395587102],[116.04995727539062,-1.280058219304351],[116.04987144470215,-1.2786852706328062],[116.0500431060791,-1.2784278426751143],[116.05047225952148,-1.2784278426751143],[116.05081558227539,-1.2788568892569288],[116.0511589050293,-1.2788568892569288],[116.05193138122559,-1.2778271773401286],[116.05527877807617,-1.2774839399427833],[116.05510711669922,-1.2761967992944534],[116.05622291564941,-1.275767752268493],[116.05630874633789,-1.2753387051710092],[116.05596542358398,-1.2743948013047515],[116.05613708496094,-1.274051563449433],[116.0566520690918,-1.274051563449433],[116.05673789978027,-1.2745664202152653],[116.05716705322266,-1.2749096580019597],[116.05759620666504,-1.2747380391143395],[116.05836868286133,-1.2737941350279272],[116.0592269897461,-1.27362251606597],[116.05974197387695,-1.2731076591115311],[116.06008529663086,-1.2721637544280355],[116.06077194213867,-1.2713914685210597],[116.06137275695801,-1.2715630876314634],[116.06145858764648,-1.2720779448942352],[116.06171607971191,-1.2722495639589937],[116.0621452331543,-1.2721637544280355],[116.06240272521973,-1.2715630876314634],[116.06231689453125,-1.2711340398340525],[116.06180191040039,-1.2708766111213805],[116.06180191040039,-1.2706191823830437],[116.06205940246582,-1.2703617536190563],[116.06334686279297,-1.2702759440253573],[116.06377601623535,-1.2700185152271786],[116.06386184692383,-1.2683881322434587],[116.06420516967773,-1.268216512922237],[116.06463432312012,-1.2683023225842618],[116.06626510620117,-1.2694178479317202],[116.06746673583984,-1.2695036575538978],[116.06781005859375,-1.2694178479317202],[116.06789588928223,-1.2691604190480774],[116.06781005859375,-1.2679590839190524],[116.0679817199707,-1.267530035523535],[116.06875419616699,-1.2676158452083257],[116.06892585754395,-1.268044893589618],[116.06866836547852,-1.2686455612039396],[116.06875419616699,-1.2689887997780858],[116.07072830200195,-1.2706191823830437],[116.07115745544434,-1.2716488971823878],[116.07253074645996,-1.2713914685210597],[116.07398986816406,-1.2706191823830437],[116.0745906829834,-1.2700185152271786],[116.07510566711426,-1.2700185152271786],[116.07587814331055,-1.2707049919653457],[116.07673645019531,-1.2703617536190563],[116.0775089263916,-1.2704475632099133],[116.07845306396484,-1.2712198493992304],[116.07810974121094,-1.2724211830123409],[116.07871055603027,-1.2729360401038576],[116.07931137084961,-1.2728502305957363],[116.07982635498047,-1.27362251606597],[116.07948303222656,-1.2739657539784588],[116.07853889465332,-1.274223182382812],[116.07845306396484,-1.2746522296662306],[116.07888221740723,-1.2750812768781685],[116.0811996459961,-1.275853561679412],[116.08308792114258,-1.2755961334380856],[116.08351707458496,-1.2753387051710092],[116.08386039733887,-1.2746522296662306],[116.08368873596191,-1.27362251606597],[116.08283042907715,-1.2727644210847728],[116.08162879943848,-1.272678611570953],[116.08094215393066,-1.2720779448942352],[116.08094215393066,-1.27173470673047],[116.08283042907715,-1.2707908015447913],[116.08308792114258,-1.2704475632099133],[116.08205795288086,-1.2689029901388125],[116.08463287353516,-1.2678732742456447],[116.08540534973145,-1.2677874645693805],[116.08574867248535,-1.2690746094145027],[116.08660697937012,-1.2701901344288302],[116.08652114868164,-1.2709624206951133],[116.08686447143555,-1.2719063258180654],[116.0881519317627,-1.273193468611069],[116.08909606933594,-1.2735367065806997],[116.0896110534668,-1.272678611570953],[116.08943939208984,-1.2712198493992304],[116.08901023864746,-1.2703617536190563],[116.08901023864746,-1.2685597515532834],[116.09021186828613,-1.2669293676504054],[116.09072685241699,-1.266757748232493],[116.09167098999023,-1.2671009870569492]]}},{"type":"Feature","id":"pmtiles:10/842/515:waterway:13400231142:0","properties":{"name":"Sungai Lambakan","name_int":"Sungai Lambakan","class":"river","name:latin":"Sungai Lambakan","name_de":"Sungai Lambakan","name_en":"Sungai Lambakan","waterway":"river","kind":"waterway","verification":"verified","source":"OpenMapTiles/OpenStreetMap national PMTiles","sourceId":"10/842/515:waterway:13400231142:0","sourceLayer":"waterway","archive":"https://its.hanifahseptiani45.workers.dev/v1/map/archive/indonesia.pmtiles","updatedAt":"2026-07-26T09:42:07.753Z"},"geometry":{"type":"LineString","coordinates":[[116.10325813293457,-1.2117531475978467],[116.10368728637695,-1.2120963935515334],[116.10480308532715,-1.2122680165120698],[116.10669136047363,-1.2106375979480504],[116.1075496673584,-1.2108950325233678],[116.1086654663086,-1.2117531475978467],[116.10926628112793,-1.2139842455187875],[116.10909461975098,-1.2141558683595548],[116.1075496673584,-1.2139842455187875],[116.10617637634277,-1.214499114008433],[116.10574722290039,-1.214928171008225],[116.10557556152344,-1.2155288506934454],[116.10677719116211,-1.218360624551451],[116.10686302185059,-1.2209349618396175],[116.10737800598145,-1.221793073721443],[116.1086654663086,-1.222393751875643],[116.10969543457031,-1.2225653741807463],[116.11029624938965,-1.2223079407189772],[116.11089706420898,-1.2199910384532586],[116.1130428314209,-1.2202484721369302],[116.11433029174805,-1.2191329259964334],[116.11527442932129,-1.2192187372544367],[116.11639022827148,-1.2202484721369302],[116.11836433410645,-1.2214498290015996],[116.11862182617188,-1.222136318397446],[116.11759185791016,-1.224024163330938],[116.11759185791016,-1.2248822742251093],[116.11845016479492,-1.2264268731420316],[116.11819267272949,-1.2274566052581406],[116.11630439758301,-1.2286579588923843],[116.1159610748291,-1.2293444464408765],[116.1159610748291,-1.2296876901489213],[116.11656188964844,-1.2303741774326085],[116.11690521240234,-1.2318329623237503],[116.11724853515625,-1.2343214758825383],[116.11750602722168,-1.2391268747808795],[116.11690521240234,-1.240070791398324],[116.11544609069824,-1.24118632878492],[116.11544609069824,-1.2414437604227118],[116.11630439758301,-1.242216055185665],[116.11639022827148,-1.2426451077342193],[116.1156177520752,-1.2439322649616287],[116.11398696899414,-1.24513361114073],[116.11347198486328,-1.24513361114073],[116.11269950866699,-1.2441038858778626],[116.11287117004395,-1.2424734867231564],[116.11261367797852,-1.241958623623077],[116.11209869384766,-1.2418728130966485],[116.11141204833984,-1.242301865700938],[116.1101245880127,-1.2435890230956943],[116.10986709594727,-1.2444471276768212],[116.10986709594727,-1.245734284025005],[116.11029624938965,-1.2473646811633046],[116.11021041870117,-1.2479653535386035],[116.10969543457031,-1.2483944051512736],[116.1078929901123,-1.248051163866748],[116.10686302185059,-1.2483944051512736],[116.10634803771973,-1.2490808875859045],[116.10669136047363,-1.250625472407961],[116.1064338684082,-1.252684917423153],[116.10566139221191,-1.2532855885811074],[116.1049747467041,-1.2534572088866582],[116.10428810119629,-1.2531997784241184],[116.1038589477539,-1.2525132970670114],[116.10368728637695,-1.2508829031232978],[116.10300064086914,-1.250797092887666],[116.10222816467285,-1.2513119542593785],[116.10171318054199,-1.2528565377680536],[116.10248565673828,-1.2542295001224062],[116.10531806945801,-1.25680380259476],[116.10583305358887,-1.2568896126335005],[116.1064338684082,-1.25680380259476],[116.10746383666992,-1.2532855885811074],[116.1078929901123,-1.252684917423153],[116.1086654663086,-1.252684917423153],[116.10909461975098,-1.2531139682643158],[116.11021041870117,-1.2570612327025117],[116.11003875732422,-1.2580909528796838],[116.10815048217773,-1.2593781025295954],[116.10772132873535,-1.2633253574893217],[116.10926628112793,-1.265127363195674],[116.11184120178223,-1.265728031486418],[116.11321449279785,-1.265127363195674],[116.11398696899414,-1.2622956393815628],[116.11510276794434,-1.2611801109713525],[116.11613273620605,-1.2608368713643046],[116.11673355102539,-1.2603220118688654],[116.11724853515625,-1.2583483828604898],[116.11776351928711,-1.258262572869711],[116.11810684204102,-1.2588632427458748],[116.11956596374512,-1.2602362019430586],[116.1199951171875,-1.2610084911734845],[116.12042427062988,-1.2631537378330222],[116.12154006958008,-1.2639260261970549],[116.12162590026855,-1.2642692653962513],[116.12128257751465,-1.2646983143314259],[116.12068176269531,-1.2648699338856346],[116.11793518066406,-1.2640976458023374],[116.11733436584473,-1.2645266947658627],[116.11690521240234,-1.2656422217390997],[116.11699104309082,-1.2664145093625905],[116.11776351928711,-1.2678732742456447],[116.11879348754883,-1.2685597515532834],[116.12136840820312,-1.2686455612039396],[116.12231254577637,-1.2689887997780858],[116.12274169921875,-1.2700185152271786],[116.12231254577637,-1.2706191823830437],[116.12154006958008,-1.2707908015447913],[116.11905097961426,-1.2706191823830437],[116.11802101135254,-1.2707908015447913],[116.11724853515625,-1.2713914685210597],[116.1170768737793,-1.2723353734870955],[116.11802101135254,-1.2743948013047515],[116.11896514892578,-1.2754245145962244],[116.12085342407227,-1.2763684180848003],[116.12196922302246,-1.2763684180848003],[116.1225700378418,-1.2760251804926668],[116.12282752990723,-1.2729360401038576],[116.12411499023438,-1.2720779448942352],[116.12488746643066,-1.2723353734870955],[116.12608909606934,-1.273450897092573],[116.12626075744629,-1.275853561679412],[116.12608909606934,-1.2767116556311322],[116.12540245056152,-1.2776555586471972],[116.1258316040039,-1.2787710799462957],[116.12677574157715,-1.2794575543509552],[116.12832069396973,-1.2796291729234213],[116.12909317016602,-1.2792859357670068],[116.1306381225586,-1.2778271773401286],[116.13089561462402,-1.2778271773401286],[116.13304138183594,-1.2803156470984334],[116.13286972045898,-1.2812595487889382],[116.13218307495117,-1.2817744041099104],[116.13183975219727,-1.2823750685201958],[116.13295555114746,-1.2869229516193315],[116.13286972045898,-1.2875236148192215],[116.13252639770508,-1.2883817048592618],[116.13046646118164,-1.2894972214791949],[116.12394332885742,-1.2864939063899214],[116.12360000610352,-1.285721624795201],[116.12368583679199,-1.2844344882849157],[116.12308502197266,-1.2835763969178373],[116.12214088439941,-1.2830615419593414],[116.12119674682617,-1.2830615419593414],[116.12059593200684,-1.2831473511262885],[116.1203384399414,-1.283833824358183]]}},{"type":"Feature","id":"pmtiles:10/842/516:waterway:3650789662:1","properties":{"name_int":"Pias River","name_de":"Sungai Pias","name":"Sungai Pias","name:en":"Pias River","class":"river","name:latin":"Sungai Pias","name_en":"Pias River","waterway":"river","kind":"waterway","verification":"verified","source":"OpenMapTiles/OpenStreetMap national PMTiles","sourceId":"10/842/516:waterway:3650789662:1","sourceLayer":"waterway","archive":"https://its.hanifahseptiani45.workers.dev/v1/map/archive/indonesia.pmtiles","updatedAt":"2026-07-26T09:42:17.660Z"},"geometry":{"type":"LineString","coordinates":[[116.11003875732422,-1.4003599038797603],[116.11166954040527,-1.4008747341470098],[116.11544609069824,-1.4032772738976291],[116.11630439758301,-1.4042211281247035],[116.11793518066406,-1.404564347749158],[116.1185359954834,-1.4042211281247035],[116.11939430236816,-1.402076004330553],[116.12188339233398,-1.4017327843409788],[116.12308502197266,-1.4022476143064466],[116.12351417541504,-1.4021618093200772],[116.12420082092285,-1.4013895643011125],[116.12574577331543,-1.4002740988242266]]}},{"type":"Feature","id":"pmtiles:10/842/516:waterway:3650789662:2","properties":{"name_int":"Pias River","name_de":"Sungai Pias","name":"Sungai Pias","name:en":"Pias River","class":"river","name:latin":"Sungai Pias","name_en":"Pias River","waterway":"river","kind":"waterway","verification":"verified","source":"OpenMapTiles/OpenStreetMap national PMTiles","sourceId":"10/842/516:waterway:3650789662:2","sourceLayer":"waterway","archive":"https://its.hanifahseptiani45.workers.dev/v1/map/archive/indonesia.pmtiles","updatedAt":"2026-07-26T09:42:17.660Z"},"geometry":{"type":"LineString","coordinates":[[116.12814903259277,-1.3997592684250577],[116.12754821777344,-1.4007889291103197],[116.12746238708496,-1.4013037592832802],[116.12763404846191,-1.401561174327341],[116.13166809082031,-1.3999308785706717]]}},{"type":"Feature","id":"pmtiles:10/842/516:waterway:3650789662:3","properties":{"name_int":"Pias River","name_de":"Sungai Pias","name":"Sungai Pias","name:en":"Pias River","class":"river","name:latin":"Sungai Pias","name_en":"Pias River","waterway":"river","kind":"waterway","verification":"verified","source":"OpenMapTiles/OpenStreetMap national PMTiles","sourceId":"10/842/516:waterway:3650789662:3","sourceLayer":"waterway","archive":"https://its.hanifahseptiani45.workers.dev/v1/map/archive/indonesia.pmtiles","updatedAt":"2026-07-26T09:42:17.660Z"},"geometry":{"type":"LineString","coordinates":[[116.15604400634766,-1.398987022614378],[116.15501403808594,-1.4007889291103197],[116.15269660949707,-1.3996734633475398]]}},{"type":"Feature","id":"pmtiles:10/842/516:waterway:3650789662:5","properties":{"name_int":"Pias River","name_de":"Sungai Pias","name":"Sungai Pias","name:en":"Pias River","class":"river","name:latin":"Sungai Pias","name_en":"Pias River","waterway":"river","kind":"waterway","verification":"verified","source":"OpenMapTiles/OpenStreetMap national PMTiles","sourceId":"10/842/516:waterway:3650789662:5","sourceLayer":"waterway","archive":"https://its.hanifahseptiani45.workers.dev/v1/map/archive/indonesia.pmtiles","updatedAt":"2026-07-26T09:42:17.660Z"},"geometry":{"type":"LineString","coordinates":[[116.22110366821289,-1.4000166836387677],[116.22196197509766,-1.400703124070489],[116.22307777404785,-1.4010463442109398],[116.22299194335938,-1.4013037592832802],[116.22196197509766,-1.4013895643011125],[116.22187614440918,-1.4019043943420542],[116.22230529785156,-1.4021618093200772],[116.22333526611328,-1.4021618093200772],[116.22350692749023,-1.4009605391805309],[116.22376441955566,-1.400703124070489],[116.22496604919434,-1.4007889291103197],[116.22556686401367,-1.400188293765538],[116.22651100158691,-1.399845073499435],[116.22857093811035,-1.4019043943420542],[116.22900009155273,-1.4026766391911707],[116.22942924499512,-1.4028482491230392],[116.23071670532227,-1.4023334192896897],[116.2309741973877,-1.4012179542623073],[116.23311996459961,-1.4016469793357231],[116.23406410217285,-1.4007889291103197],[116.23466491699219,-1.4006173190275177],[116.23457908630371,-1.3994160480961426]]}}]}