{"type":"FeatureCollection","features":[{"type":"Feature","id":"pmtiles:10/812/497:water:1810:0","properties":{"class":"ocean","water":"ocean","kind":"waterway","verification":"verified","source":"OpenMapTiles/OpenStreetMap national PMTiles","sourceId":"10/812/497:water:1810:0","sourceLayer":"water","archive":"https://its.hanifahseptiani45.workers.dev/v1/map/archive/indonesia.pmtiles","updatedAt":"2026-07-26T09:38:30.051Z"},"geometry":{"type":"Polygon","coordinates":[[[105.4632568359375,5.271477837928373],[105.8258056640625,5.271477837928373],[105.8258056640625,4.910359820532264],[105.4632568359375,4.910359820532264],[105.4632568359375,5.271477837928373]]]}}]}