{"type":"FeatureCollection","features":[{"type":"Feature","id":"pmtiles:10/864/495:water:20:0","properties":{"class":"ocean","water":"ocean","kind":"waterway","verification":"verified","source":"OpenMapTiles/OpenStreetMap national PMTiles","sourceId":"10/864/495:water:20:0","sourceLayer":"water","archive":"https://its.hanifahseptiani45.workers.dev/v1/map/archive/indonesia.pmtiles","updatedAt":"2026-07-26T09:38:15.315Z"},"geometry":{"type":"Polygon","coordinates":[[[123.7445068359375,5.971217057997222],[124.1070556640625,5.971217057997222],[124.1070556640625,5.61051899590089],[123.7445068359375,5.61051899590089],[123.7445068359375,5.971217057997222]]]}}]}