{"type":"FeatureCollection","features":[{"type":"Feature","id":"pmtiles:10/872/512:water:1200:0","properties":{"class":"ocean","water":"ocean","kind":"waterway","verification":"verified","source":"OpenMapTiles/OpenStreetMap national PMTiles","sourceId":"10/872/512:water:1200:0","sourceLayer":"water","archive":"https://its.hanifahseptiani45.workers.dev/v1/map/archive/indonesia.pmtiles","updatedAt":"2026-07-26T09:41:28.476Z"},"geometry":{"type":"Polygon","coordinates":[[[126.5570068359375,0.005493164054087174],[126.9195556640625,0.005493164054087174],[126.9195556640625,-0.3570533530246962],[126.5570068359375,-0.3570533530246962],[126.5570068359375,0.005493164054087174]]]}}]}