{"type":"FeatureCollection","features":[{"type":"Feature","id":"pmtiles:10/804/544:water:2630:0","properties":{"class":"ocean","water":"ocean","kind":"waterway","verification":"verified","source":"OpenMapTiles/OpenStreetMap national PMTiles","sourceId":"10/804/544:water:2630:0","sourceLayer":"water","archive":"https://its.hanifahseptiani45.workers.dev/v1/map/archive/indonesia.pmtiles","updatedAt":"2026-07-26T09:47:36.674Z"},"geometry":{"type":"Polygon","coordinates":[[[102.6507568359375,-11.173012874215061],[103.0133056640625,-11.173012874215061],[103.0133056640625,-11.52846990075463],[102.6507568359375,-11.52846990075463],[102.6507568359375,-11.173012874215061]]]}}]}