{"type":"FeatureCollection","features":[{"type":"Feature","id":"pmtiles:12/3532/1973:water:2760:0","properties":{"class":"ocean","water":"ocean","kind":"waterway","verification":"verified","source":"OpenMapTiles/OpenStreetMap national PMTiles","sourceId":"12/3532/1973:water:2760:0","sourceLayer":"water","archive":"https://its.hanifahseptiani45.workers.dev/v1/map/archive/indonesia.pmtiles","updatedAt":"2026-07-26T10:34:12.477Z"},"geometry":{"type":"Polygon","coordinates":[[[130.42831420898438,6.578667368565007],[130.51895141601562,6.578667368565007],[130.51895141601562,6.488618840362278],[130.42831420898438,6.488618840362278],[130.42831420898438,6.578667368565007]]]}},{"type":"Feature","id":"pmtiles:12/3533/1973:water:2760:0","properties":{"class":"ocean","water":"ocean","kind":"waterway","verification":"verified","source":"OpenMapTiles/OpenStreetMap national PMTiles","sourceId":"12/3533/1973:water:2760:0","sourceLayer":"water","archive":"https://its.hanifahseptiani45.workers.dev/v1/map/archive/indonesia.pmtiles","updatedAt":"2026-07-26T10:34:12.550Z"},"geometry":{"type":"Polygon","coordinates":[[[130.51620483398438,6.578667368565007],[130.60684204101562,6.578667368565007],[130.60684204101562,6.488618840362278],[130.51620483398438,6.488618840362278],[130.51620483398438,6.578667368565007]]]}},{"type":"Feature","id":"pmtiles:12/3534/1973:water:2760:0","properties":{"class":"ocean","water":"ocean","kind":"waterway","verification":"verified","source":"OpenMapTiles/OpenStreetMap national PMTiles","sourceId":"12/3534/1973:water:2760:0","sourceLayer":"water","archive":"https://its.hanifahseptiani45.workers.dev/v1/map/archive/indonesia.pmtiles","updatedAt":"2026-07-26T10:34:12.612Z"},"geometry":{"type":"Polygon","coordinates":[[[130.60409545898438,6.578667368565007],[130.69473266601562,6.578667368565007],[130.69473266601562,6.488618840362278],[130.60409545898438,6.488618840362278],[130.60409545898438,6.578667368565007]]]}},{"type":"Feature","id":"pmtiles:12/3535/1973:water:2760:0","properties":{"class":"ocean","water":"ocean","kind":"waterway","verification":"verified","source":"OpenMapTiles/OpenStreetMap national PMTiles","sourceId":"12/3535/1973:water:2760:0","sourceLayer":"water","archive":"https://its.hanifahseptiani45.workers.dev/v1/map/archive/indonesia.pmtiles","updatedAt":"2026-07-26T10:34:12.680Z"},"geometry":{"type":"Polygon","coordinates":[[[130.69198608398438,6.578667368565007],[130.78262329101562,6.578667368565007],[130.78262329101562,6.488618840362278],[130.69198608398438,6.488618840362278],[130.69198608398438,6.578667368565007]]]}},{"type":"Feature","id":"pmtiles:12/3532/1974:water:2760:0","properties":{"class":"ocean","water":"ocean","kind":"waterway","verification":"verified","source":"OpenMapTiles/OpenStreetMap national PMTiles","sourceId":"12/3532/1974:water:2760:0","sourceLayer":"water","archive":"https://its.hanifahseptiani45.workers.dev/v1/map/archive/indonesia.pmtiles","updatedAt":"2026-07-26T10:34:44.736Z"},"geometry":{"type":"Polygon","coordinates":[[[130.42831420898438,6.491347821282432],[130.51895141601562,6.491347821282432],[130.51895141601562,6.4012836786624945],[130.42831420898438,6.4012836786624945],[130.42831420898438,6.491347821282432]]]}},{"type":"Feature","id":"pmtiles:12/3533/1974:water:2760:0","properties":{"class":"ocean","water":"ocean","kind":"waterway","verification":"verified","source":"OpenMapTiles/OpenStreetMap national PMTiles","sourceId":"12/3533/1974:water:2760:0","sourceLayer":"water","archive":"https://its.hanifahseptiani45.workers.dev/v1/map/archive/indonesia.pmtiles","updatedAt":"2026-07-26T10:34:44.807Z"},"geometry":{"type":"Polygon","coordinates":[[[130.51620483398438,6.491347821282432],[130.60684204101562,6.491347821282432],[130.60684204101562,6.4012836786624945],[130.51620483398438,6.4012836786624945],[130.51620483398438,6.491347821282432]]]}},{"type":"Feature","id":"pmtiles:12/3534/1974:water:2760:0","properties":{"class":"ocean","water":"ocean","kind":"waterway","verification":"verified","source":"OpenMapTiles/OpenStreetMap national PMTiles","sourceId":"12/3534/1974:water:2760:0","sourceLayer":"water","archive":"https://its.hanifahseptiani45.workers.dev/v1/map/archive/indonesia.pmtiles","updatedAt":"2026-07-26T10:34:44.869Z"},"geometry":{"type":"Polygon","coordinates":[[[130.60409545898438,6.491347821282432],[130.69473266601562,6.491347821282432],[130.69473266601562,6.4012836786624945],[130.60409545898438,6.4012836786624945],[130.60409545898438,6.491347821282432]]]}},{"type":"Feature","id":"pmtiles:12/3535/1974:water:2760:0","properties":{"class":"ocean","water":"ocean","kind":"waterway","verification":"verified","source":"OpenMapTiles/OpenStreetMap national PMTiles","sourceId":"12/3535/1974:water:2760:0","sourceLayer":"water","archive":"https://its.hanifahseptiani45.workers.dev/v1/map/archive/indonesia.pmtiles","updatedAt":"2026-07-26T10:34:44.933Z"},"geometry":{"type":"Polygon","coordinates":[[[130.69198608398438,6.491347821282432],[130.78262329101562,6.491347821282432],[130.78262329101562,6.4012836786624945],[130.69198608398438,6.4012836786624945],[130.69198608398438,6.491347821282432]]]}},{"type":"Feature","id":"pmtiles:12/3532/1975:water:2760:0","properties":{"class":"ocean","water":"ocean","kind":"waterway","verification":"verified","source":"OpenMapTiles/OpenStreetMap national PMTiles","sourceId":"12/3532/1975:water:2760:0","sourceLayer":"water","archive":"https://its.hanifahseptiani45.workers.dev/v1/map/archive/indonesia.pmtiles","updatedAt":"2026-07-26T10:35:16.236Z"},"geometry":{"type":"Polygon","coordinates":[[[130.42831420898438,6.40401312961761],[130.51895141601562,6.40401312961761],[130.51895141601562,6.31393357916707],[130.42831420898438,6.31393357916707],[130.42831420898438,6.40401312961761]]]}},{"type":"Feature","id":"pmtiles:12/3533/1975:water:2760:0","properties":{"class":"ocean","water":"ocean","kind":"waterway","verification":"verified","source":"OpenMapTiles/OpenStreetMap national PMTiles","sourceId":"12/3533/1975:water:2760:0","sourceLayer":"water","archive":"https://its.hanifahseptiani45.workers.dev/v1/map/archive/indonesia.pmtiles","updatedAt":"2026-07-26T10:35:16.301Z"},"geometry":{"type":"Polygon","coordinates":[[[130.51620483398438,6.40401312961761],[130.60684204101562,6.40401312961761],[130.60684204101562,6.31393357916707],[130.51620483398438,6.31393357916707],[130.51620483398438,6.40401312961761]]]}},{"type":"Feature","id":"pmtiles:12/3534/1975:water:2760:0","properties":{"class":"ocean","water":"ocean","kind":"waterway","verification":"verified","source":"OpenMapTiles/OpenStreetMap national PMTiles","sourceId":"12/3534/1975:water:2760:0","sourceLayer":"water","archive":"https://its.hanifahseptiani45.workers.dev/v1/map/archive/indonesia.pmtiles","updatedAt":"2026-07-26T10:35:16.361Z"},"geometry":{"type":"Polygon","coordinates":[[[130.60409545898438,6.40401312961761],[130.69473266601562,6.40401312961761],[130.69473266601562,6.31393357916707],[130.60409545898438,6.31393357916707],[130.60409545898438,6.40401312961761]]]}},{"type":"Feature","id":"pmtiles:12/3535/1975:water:2760:0","properties":{"class":"ocean","water":"ocean","kind":"waterway","verification":"verified","source":"OpenMapTiles/OpenStreetMap national PMTiles","sourceId":"12/3535/1975:water:2760:0","sourceLayer":"water","archive":"https://its.hanifahseptiani45.workers.dev/v1/map/archive/indonesia.pmtiles","updatedAt":"2026-07-26T10:35:16.423Z"},"geometry":{"type":"Polygon","coordinates":[[[130.69198608398438,6.40401312961761],[130.78262329101562,6.40401312961761],[130.78262329101562,6.31393357916707],[130.69198608398438,6.31393357916707],[130.69198608398438,6.40401312961761]]]}},{"type":"Feature","id":"pmtiles:10/883/493:water:2760:0","properties":{"class":"ocean","water":"ocean","kind":"waterway","verification":"verified","source":"OpenMapTiles/OpenStreetMap national PMTiles","sourceId":"10/883/493:water:2760:0","sourceLayer":"water","archive":"https://its.hanifahseptiani45.workers.dev/v1/map/archive/indonesia.pmtiles","updatedAt":"2026-07-26T09:37:51.972Z"},"geometry":{"type":"Polygon","coordinates":[[[130.4241943359375,6.670063575977281],[130.7867431640625,6.670063575977281],[130.7867431640625,6.309838680093364],[130.4241943359375,6.309838680093364],[130.4241943359375,6.670063575977281]]]}}]}