{"type":"FeatureCollection","features":[{"type":"Feature","id":"pmtiles:10/830/503:water:880:0","properties":{"class":"ocean","water":"ocean","kind":"waterway","verification":"verified","source":"OpenMapTiles/OpenStreetMap national PMTiles","sourceId":"10/830/503:water:880:0","sourceLayer":"water","archive":"https://its.hanifahseptiani45.workers.dev/v1/map/archive/indonesia.pmtiles","updatedAt":"2026-07-26T09:39:45.484Z"},"geometry":{"type":"Polygon","coordinates":[[[112.1539306640625,2.9257258440873954],[112.1528148651123,2.9255544064510133],[112.14517593383789,2.9235828717489767],[112.13933944702148,2.9226399626231228],[112.1293830871582,2.919811230493252],[112.1195125579834,2.917668246864409],[112.10277557373047,2.9147537825739533],[112.09891319274902,2.9146680629216917],[112.09796905517578,2.9140680251730657],[112.09650993347168,2.9120964703185166],[112.0964241027832,2.9098677519796183],[112.0949649810791,2.9098677519796183],[112.09256172180176,2.911667870980338],[112.0909309387207,2.911839310735189],[112.05994606018066,2.9043816573013714],[112.05857276916504,2.9039530550316215],[112.05754280090332,2.9032672910617094],[112.05591201782227,2.903438732093207],[112.05050468444824,2.9025815266755473],[112.04604148864746,2.9012957173299014],[112.02827453613281,2.8974382805210013],[112.02200889587402,2.8957238599412847],[112.02140808105469,2.895380975513916],[112.02115058898926,2.8947809275162797],[112.01943397521973,2.895123812125263],[112.01823234558105,2.894952369833746],[112.01703071594238,2.894523763991458],[112.01668739318848,2.8946952063478193],[112.01591491699219,2.8946952063478193],[112.00175285339355,2.8916092399657884],[111.99960708618164,2.890923468518224],[111.99883460998535,2.8902376966561576],[111.99746131896973,2.890666304118511],[111.99505805969238,2.8904948611530017],[111.98304176330566,2.8882661002447776],[111.98081016540527,2.88766604848351],[111.9792652130127,2.8868945528961376],[111.97797775268555,2.8856087257531158],[111.97591781616211,2.886294500410443],[111.97205543518066,2.886037334962438],[111.96587562561035,2.8849229506820393],[111.95849418640137,2.8830370671040697],[111.9565200805664,2.8830370671040697],[111.94064140319824,2.880722569349672],[111.92536354064941,2.8779794548080275],[111.92218780517578,2.8778080099298933],[111.9056224822998,2.8761792823015924],[111.8902587890625,2.8742076615342],[111.88553810119629,2.8745505523471877],[111.884765625,2.8742076615342],[111.88356399536133,2.8734361568282623],[111.88279151916504,2.872664651600928],[111.8821907043457,2.8715502542411286],[111.87935829162598,2.8720645916192353],[111.87849998474121,2.87395049335683],[111.87661170959473,2.87532205629968],[111.87532424926758,2.8758363919781402],[111.8726634979248,2.8762650048663687],[111.86528205871582,2.8761792823015924],[111.85532569885254,2.8749791657185284],[111.82820320129395,2.870778747739749],[111.7913818359375,2.8639208892919186],[111.7913818359375,3.167940314402756],[112.1539306640625,3.167940314402756],[112.1539306640625,2.9257258440873954]]]}}]}