{"type":"FeatureCollection","features":[{"type":"Feature","id":"pmtiles:10/845/512:water:1160:0","properties":{"class":"ocean","water":"ocean","kind":"waterway","verification":"verified","source":"OpenMapTiles/OpenStreetMap national PMTiles","sourceId":"10/845/512:water:1160:0","sourceLayer":"water","archive":"https://its.hanifahseptiani45.workers.dev/v1/map/archive/indonesia.pmtiles","updatedAt":"2026-07-26T09:41:24.730Z"},"geometry":{"type":"Polygon","coordinates":[[[117.4273681640625,-0.22092764467502946],[117.4273681640625,-0.278176168489324],[117.42711067199707,-0.2778328497768001],[117.42427825927734,-0.271481451808782],[117.4233341217041,-0.26753328381794006],[117.42273330688477,-0.2616968592490849],[117.42204666137695,-0.2582636670538534],[117.41998672485352,-0.25405800535222056],[117.41732597351074,-0.24701995618856643],[117.41681098937988,-0.24435922930858567],[117.4174976348877,-0.24307178062873902],[117.41732597351074,-0.24023939310198728],[117.41801261901855,-0.23517542606521147],[117.41732597351074,-0.23320133672052634],[117.41655349731445,-0.2297681372021998],[117.41655349731445,-0.22427501626201263],[117.41732597351074,-0.22281590566369402],[117.41766929626465,-0.22135679492086524],[117.41904258728027,-0.21929687362799655],[117.41955757141113,-0.21809525274274222],[117.41964340209961,-0.2170652919075735],[117.4189567565918,-0.21586367084461244],[117.4189567565918,-0.21526286027747688],[117.41955757141113,-0.21406123907227936],[117.41998672485352,-0.2126021274822989],[117.4215316772461,-0.21045637489389435],[117.42281913757324,-0.2099413942286361],[117.42281913757324,-0.20908309308221362],[117.42376327514648,-0.20813896176694868],[117.42565155029297,-0.20736649064879487],[117.42711067199707,-0.20625069896716752],[117.4273681640625,-0.20616486883456275],[117.4273681640625,-0.21569201068500377],[117.42711067199707,-0.21594950092368492],[117.42693901062012,-0.21697946183482486],[117.42522239685059,-0.21818108280915283],[117.42470741271973,-0.21878189326037045],[117.42359161376953,-0.2194685337465927],[117.42256164550781,-0.22127096487270137],[117.42264747619629,-0.22178594515428074],[117.42384910583496,-0.22195760524417096],[117.42487907409668,-0.22238675546017816],[117.42573738098145,-0.22212926533207167],[117.4273681640625,-0.22092764467502946]]]}},{"type":"Feature","id":"pmtiles:10/845/512:waterway:3900387422:0","properties":{"name_int":"Marang Kayu River","name_de":"Sungai Marang Kayu","name":"Sungai Marang Kayu","name:en":"Marang Kayu River","class":"river","name:latin":"Sungai Marang Kayu","name_en":"Marang Kayu River","waterway":"river","kind":"waterway","verification":"verified","source":"OpenMapTiles/OpenStreetMap national PMTiles","sourceId":"10/845/512:waterway:3900387422:0","sourceLayer":"waterway","archive":"https://its.hanifahseptiani45.workers.dev/v1/map/archive/indonesia.pmtiles","updatedAt":"2026-07-26T09:41:24.730Z"},"geometry":{"type":"LineString","coordinates":[[117.42788314819336,-0.17294857464355573],[117.42650985717773,-0.1737210473049089],[117.42650985717773,-0.17492267138197803],[117.42762565612793,-0.17715425874914104],[117.4277114868164,-0.17827005233215232],[117.42711067199707,-0.17904252477312355],[117.42547988891602,-0.1799866577123197],[117.42505073547363,-0.18153160241638489],[117.42513656616211,-0.18556562407411548],[117.42573738098145,-0.18633809620210684],[117.42985725402832,-0.18805470080954478]]}},{"type":"Feature","id":"pmtiles:10/846/512:landuse:15408082142:0","properties":{"class":"industrial","kind":"green","verification":"verified","source":"OpenMapTiles/OpenStreetMap national PMTiles","sourceId":"10/846/512:landuse:15408082142:0","sourceLayer":"landuse","archive":"https://its.hanifahseptiani45.workers.dev/v1/map/archive/indonesia.pmtiles","updatedAt":"2026-07-26T09:41:24.800Z"},"geometry":{"type":"Polygon","coordinates":[[[117.4357795715332,-0.09209628907740353],[117.43569374084473,-0.09192462792179867],[117.43818283081055,-0.09106632213142518],[117.43809700012207,-0.08995052457339625],[117.43921279907227,-0.0898646939905916],[117.43921279907227,-0.08883472698127548],[117.43861198425293,-0.08866306581023764],[117.43852615356445,-0.08823391287920401],[117.43620872497559,-0.08608814815028154],[117.43612289428711,-0.0842857056845503],[117.43826866149902,-0.08033749808964785],[117.43878364562988,-0.08025166748545587],[117.43955612182617,-0.07802007171378023],[117.43904113769531,-0.07673261256067576],[117.44161605834961,-0.07467267783538034],[117.44256019592285,-0.07432935537171659],[117.44264602661133,-0.072612743013579],[117.44453430175781,-0.07269857363304766],[117.44633674621582,-0.07338521858289937],[117.4467658996582,-0.0739860329053954],[117.44693756103516,-0.07638929011326923],[117.44874000549316,-0.08196827953486263],[117.44796752929688,-0.08634563992418975],[117.4482250213623,-0.08806225170540927],[117.46830940246582,-0.1063441619641452],[117.47079849243164,-0.10823243380004044],[117.47071266174316,-0.10857575593945512],[117.46994018554688,-0.10951989180269095],[117.46959686279297,-0.10951989180269095],[117.4478816986084,-0.0898646939905916],[117.4464225769043,-0.09201045849971479],[117.4325180053711,-0.09475703688265469],[117.43217468261719,-0.0946712063114461],[117.4317455291748,-0.0929545948430075],[117.4357795715332,-0.09209628907740353]]]}},{"type":"Feature","id":"pmtiles:10/846/512:landuse:13295731282:0","properties":{"class":"residential","kind":"green","verification":"verified","source":"OpenMapTiles/OpenStreetMap national PMTiles","sourceId":"10/846/512:landuse:13295731282:0","sourceLayer":"landuse","archive":"https://its.hanifahseptiani45.workers.dev/v1/map/archive/indonesia.pmtiles","updatedAt":"2026-07-26T09:41:24.800Z"},"geometry":{"type":"Polygon","coordinates":[[[117.4233341217041,-0.3540493367697479],[117.42359161376953,-0.35173195213620545],[117.42874145507812,-0.34821295955661924],[117.43071556091309,-0.3477838140299667],[117.43698120117188,-0.3423765787303239],[117.44324684143066,-0.3389434118749506],[117.44410514831543,-0.3378276323843181],[117.44359016418457,-0.3352527561484777],[117.44728088378906,-0.3343086346920643],[117.45148658752441,-0.33559607301916117],[117.45182991027832,-0.34057416628374426],[117.44908332824707,-0.3404883371111964],[117.44685173034668,-0.34357818683990615],[117.44659423828125,-0.34829878865961916],[117.44230270385742,-0.3523327556151088],[117.43620872497559,-0.3547359691426948],[117.43371963500977,-0.35465014009885465],[117.42728233337402,-0.35653837887903705],[117.42505073547363,-0.3558517466400275],[117.4233341217041,-0.3540493367697479]]]}},{"type":"Feature","id":"pmtiles:10/846/512:transportation:484423460:0","properties":{"class":"secondary","highway":"secondary","kind":"road","verification":"verified","source":"OpenMapTiles/OpenStreetMap national PMTiles","sourceId":"10/846/512:transportation:484423460:0","sourceLayer":"transportation","archive":"https://its.hanifahseptiani45.workers.dev/v1/map/archive/indonesia.pmtiles","updatedAt":"2026-07-26T09:41:24.800Z"},"geometry":{"type":"LineString","coordinates":[[117.4826431274414,0.005493164054087174],[117.48238563537598,0.003433227537001926],[117.48358726501465,-0.0011157989501242582],[117.48384475708008,-0.005149841301658853],[117.48796463012695,-0.019655227275620746],[117.49165534973145,-0.030727385001682705],[117.49199867248535,-0.03321647457977406],[117.49148368835449,-0.03510474939056962],[117.49131202697754,-0.03707885483376572],[117.48444557189941,-0.03742217751511134],[117.48427391052246,-0.03862380688916289],[117.48444557189941,-0.039396282906395186],[117.48496055603027,-0.03999709758153358],[117.4863338470459,-0.040426250918230267],[117.48693466186523,-0.044031138854521146],[117.48702049255371,-0.04703521200224259],[117.48805046081543,-0.05132674484407573],[117.48822212219238,-0.05424498701350444],[117.48710632324219,-0.05930899514561361],[117.48556137084961,-0.061025607968574036],[117.48367309570312,-0.06402968027603606],[117.48290061950684,-0.06445883344864001],[117.47955322265625,-0.06806371995340044],[117.47500419616699,-0.07561681459661429],[117.47354507446289,-0.07690427378334164],[117.47045516967773,-0.08437153628005944],[117.46719360351562,-0.09072299980952891],[117.45663642883301,-0.0851440116311295],[117.45268821716309,-0.08377072210751635],[117.45320320129395,-0.072612743013579],[117.43921279907227,-0.07244108177415853],[117.43809700012207,-0.07278440425235999],[117.43732452392578,-0.07372854105388171],[117.4354362487793,-0.07759091866708445],[117.43586540222168,-0.07913586961463182],[117.43560791015625,-0.08325573852370383],[117.43586540222168,-0.08419987508884219],[117.43517875671387,-0.08531567281815455],[117.43500709533691,-0.08625980933307176],[117.4357795715332,-0.08874889639585604],[117.4354362487793,-0.09072299980952891],[117.43569374084473,-0.09218211965489331],[117.43191719055176,-0.09286876426739354],[117.43165969848633,-0.09312625599363855],[117.43200302124023,-0.09449954516840364],[117.43234634399414,-0.09484286745365011],[117.43440628051758,-0.09449954516840364],[117.43466377258301,-0.09475703688265469],[117.43457794189453,-0.10085100688313275],[117.43371963500977,-0.10574334817384567],[117.43423461914062,-0.10840409487022384],[117.43226051330566,-0.11080734975003281],[117.43080139160156,-0.11329643495569997],[117.43148803710938,-0.11621467251038098],[117.43131637573242,-0.1175021301596928],[117.43200302124023,-0.11913290976359292],[117.43208885192871,-0.12033453677845785],[117.42934226989746,-0.12282362114028444],[117.42693901062012,-0.1308058556102054],[117.42659568786621,-0.13501154802921178],[117.42547988891602,-0.13792978315912308],[117.42470741271973,-0.14908773764349803],[117.42350578308105,-0.1520918013639374],[117.42307662963867,-0.15518169504009904],[117.42273330688477,-0.1636789002954373],[117.42170333862305,-0.16994451399629895],[117.42110252380371,-0.17200444134812187],[117.41766929626465,-0.1754376531057602],[117.4163818359375,-0.18084496034191488]]}},{"type":"Feature","id":"pmtiles:10/846/512:transportation:484423460:2","properties":{"class":"secondary","highway":"secondary","kind":"road","verification":"verified","source":"OpenMapTiles/OpenStreetMap national PMTiles","sourceId":"10/846/512:transportation:484423460:2","sourceLayer":"transportation","archive":"https://its.hanifahseptiani45.workers.dev/v1/map/archive/indonesia.pmtiles","updatedAt":"2026-07-26T09:41:24.800Z"},"geometry":{"type":"LineString","coordinates":[[117.4163818359375,-0.24435922930858567],[117.41715431213379,-0.25010983189639546],[117.41938591003418,-0.25689038991542645],[117.41981506347656,-0.2592936248103399],[117.42144584655762,-0.2643575825547373],[117.42341995239258,-0.2725114084647231],[117.42281913757324,-0.2746571512146829],[117.42290496826172,-0.2767170638922778],[117.42341995239258,-0.27860531686593504],[117.42513656616211,-0.2819526736651454],[117.43105888366699,-0.29010648745926915],[117.43268966674805,-0.29139393120971135],[117.43672370910645,-0.29637204565457864],[117.43680953979492,-0.2968011933473207],[117.43595123291016,-0.29903276108069576],[117.43698120117188,-0.3018651348578345],[117.44195938110352,-0.3022942823356516],[117.44333267211914,-0.3028092592866187],[117.4435043334961,-0.30289508877608284],[117.44333267211914,-0.3032384067270897],[117.44161605834961,-0.30546997314274904],[117.44067192077637,-0.3071865623780923],[117.43929862976074,-0.31061974002004433],[117.43818283081055,-0.3124221578363944],[117.43741035461426,-0.31422457534355885],[117.43698120117188,-0.3190310205042266],[117.43620872497559,-0.3204901194853136],[117.43552207946777,-0.3235799754639004],[117.43226051330566,-0.32255002357516105],[117.42831230163574,-0.3224641942463933],[117.42831230163574,-0.3228933408829988],[117.42350578308105,-0.32297917020815703],[117.42067337036133,-0.32212087692407465],[117.41972923278809,-0.3224641942463933],[117.4163818359375,-0.3264123426178003]]}},{"type":"Feature","id":"pmtiles:10/846/512:transportation:484423460:3","properties":{"class":"secondary","highway":"secondary","kind":"road","verification":"verified","source":"OpenMapTiles/OpenStreetMap national PMTiles","sourceId":"10/846/512:transportation:484423460:3","sourceLayer":"transportation","archive":"https://its.hanifahseptiani45.workers.dev/v1/map/archive/indonesia.pmtiles","updatedAt":"2026-07-26T09:41:24.800Z"},"geometry":{"type":"LineString","coordinates":[[117.44333267211914,-0.3032384067270897],[117.44333267211914,-0.3028092592866187]]}},{"type":"Feature","id":"pmtiles:10/846/512:water:1160:0","properties":{"class":"ocean","water":"ocean","kind":"waterway","verification":"verified","source":"OpenMapTiles/OpenStreetMap national PMTiles","sourceId":"10/846/512:water:1160:0","sourceLayer":"water","archive":"https://its.hanifahseptiani45.workers.dev/v1/map/archive/indonesia.pmtiles","updatedAt":"2026-07-26T09:41:24.800Z"},"geometry":{"type":"Polygon","coordinates":[[[117.50890731811523,0.00042915344239702335],[117.50693321228027,0.0030040740953012346],[117.50710487365723,0.003433227537001926],[117.50813484191895,0.004720687860867656],[117.50822067260742,0.005149841301658853],[117.50813484191895,0.005493164054087174],[117.7789306640625,0.005493164054087174],[117.7789306640625,0.00042915344239702335],[117.7789306640625,-0.0004291534423828125],[117.7789306640625,-0.3570533530246962],[117.52967834472656,-0.3570533530246962],[117.52753257751465,-0.3528477299947781],[117.52564430236816,-0.3507878323055138],[117.52452850341797,-0.3501870287272908],[117.52315521240234,-0.34992954146768795],[117.52058029174805,-0.3496720542010081],[117.5181770324707,-0.349843712379581],[117.49706268310547,-0.3463247190935306],[117.49380111694336,-0.34555225697735636],[117.49234199523926,-0.341260799636558],[117.4921703338623,-0.330360489439272],[117.49199867248535,-0.32984551385547434],[117.49156951904297,-0.3294163675152788],[117.4907112121582,-0.3290730504298125],[117.48839378356934,-0.32872973333253697],[117.48204231262207,-0.32872973333253697],[117.47723579406738,-0.3292447089740165],[117.47354507446289,-0.3307038064803294],[117.47234344482422,-0.3316479282819387],[117.47114181518555,-0.33336451314488613],[117.46822357177734,-0.3360252190905584],[117.46607780456543,-0.3389434118749506],[117.46418952941895,-0.3403166787638128],[117.46315956115723,-0.34280572450106206],[117.46058464050293,-0.34666803556939385],[117.45783805847168,-0.35259024280850326],[117.45732307434082,-0.3528477299947781],[117.4551773071289,-0.35293355905528756],[117.45268821716309,-0.35259024280850326],[117.45217323303223,-0.3523327556151088],[117.4519157409668,-0.3509594904636373],[117.45140075683594,-0.3500153705549991],[117.45148658752441,-0.34915707964648846],[117.45071411132812,-0.34417899083807413],[117.45122909545898,-0.3418616037800746],[117.45088577270508,-0.3402308495889912],[117.45114326477051,-0.3382567783574473],[117.45019912719727,-0.334394463919125],[117.44925498962402,-0.3325062207507159],[117.4489974975586,-0.3313904405267749],[117.44839668273926,-0.33096129425331355],[117.44831085205078,-0.32967385532160165],[117.44762420654297,-0.32804309910257246],[117.4467658996582,-0.32418078068407397],[117.4464225769043,-0.3201468020966729],[117.4464225769043,-0.3185160443437951],[117.44685173034668,-0.3156836750026315],[117.4496841430664,-0.30873149245418574],[117.45182991027832,-0.30615660886988394],[117.4522590637207,-0.3046116784221482],[117.45217323303223,-0.3034100656985288],[117.45174407958984,-0.3027234297965009],[117.45062828063965,-0.3022942823356516],[117.4482250213623,-0.3022942823356516],[117.44462013244629,-0.30014854477749964],[117.44118690490723,-0.2971445114895346],[117.4398136138916,-0.29517043202646676],[117.43672370910645,-0.29010648745926915],[117.42711067199707,-0.2778328497768001],[117.42427825927734,-0.271481451808782],[117.4233341217041,-0.26753328381794006],[117.42273330688477,-0.2616968592490849],[117.42204666137695,-0.2582636670538534],[117.41998672485352,-0.25405800535222056],[117.41732597351074,-0.24701995618856643],[117.41681098937988,-0.24435922930858567],[117.4174976348877,-0.24307178062873902],[117.41732597351074,-0.24023939310198728],[117.41801261901855,-0.23517542606521147],[117.41732597351074,-0.23320133672052634],[117.41655349731445,-0.2297681372021998],[117.41655349731445,-0.22427501626201263],[117.41732597351074,-0.22281590566369402],[117.41766929626465,-0.22135679492086524],[117.41904258728027,-0.21929687362799655],[117.41955757141113,-0.21809525274274222],[117.41964340209961,-0.2170652919075735],[117.4189567565918,-0.21586367084461244],[117.4189567565918,-0.21526286027747688],[117.41955757141113,-0.21406123907227936],[117.41998672485352,-0.2126021274822989],[117.4215316772461,-0.21045637489389435],[117.42281913757324,-0.2099413942286361],[117.42281913757324,-0.20908309308221362],[117.42376327514648,-0.20813896176694868],[117.42565155029297,-0.20736649064879487],[117.42711067199707,-0.20625069896716752],[117.42951393127441,-0.20496324692965118],[117.4314022064209,-0.2044482660856204],[117.43226051330566,-0.20461992636879245],[117.43337631225586,-0.20745232077489106],[117.4332046508789,-0.20805313164457573],[117.43183135986328,-0.20882560272913508],[117.43148803710938,-0.20934058343107154],[117.4325180053711,-0.20985556411611128],[117.43277549743652,-0.21054220500312226],[117.43226051330566,-0.21105718564854214],[117.43200302124023,-0.21148633617335122],[117.43114471435547,-0.2120013167874788],[117.43062973022461,-0.21346042843434532],[117.42899894714355,-0.21423289925022004],[117.42711067199707,-0.21594950092368492],[117.42693901062012,-0.21697946183482486],[117.42522239685059,-0.21818108280915283],[117.42470741271973,-0.21878189326037045],[117.42359161376953,-0.2194685337465927],[117.42256164550781,-0.22127096487270137],[117.42264747619629,-0.22178594515428074],[117.42384910583496,-0.22195760524417096],[117.42487907409668,-0.22238675546017816],[117.42573738098145,-0.22212926533207167],[117.43071556091309,-0.21869606319738466],[117.43311882019043,-0.21594950092368492],[117.43749618530273,-0.20959807377570883],[117.4386978149414,-0.2082247918888669],[117.44101524353027,-0.2035041344953754],[117.44195938110352,-0.20238834254479343],[117.44247436523438,-0.19852598520272124],[117.44290351867676,-0.18917049371394512],[117.44333267211914,-0.18547979383556878],[117.44453430175781,-0.17990082744714186],[117.44573593139648,-0.17595263481538836],[117.45037078857422,-0.16385056097118422],[117.45251655578613,-0.15930155257139234],[117.45397567749023,-0.155267525413592],[117.45543479919434,-0.1520918013639374],[117.45758056640625,-0.14265045687309907],[117.45912551879883,-0.13947473102469132],[117.4606704711914,-0.13329493896517874],[117.46341705322266,-0.12694348439995906],[117.46384620666504,-0.12496938333528362],[117.46487617492676,-0.1233386040829032],[117.46624946594238,-0.11801711320285335],[117.46659278869629,-0.1172446386345598],[117.46719360351562,-0.116643825066717],[117.46830940246582,-0.11432640118542281],[117.46916770935059,-0.11003487498830111],[117.46933937072754,-0.10960572233423704],[117.46994018554688,-0.10951989180269095],[117.47071266174316,-0.10857575593945512],[117.47217178344727,-0.1046275511039596],[117.47251510620117,-0.10153765131998682],[117.47225761413574,-0.09664530939498661],[117.47285842895508,-0.09020801632060227],[117.47431755065918,-0.084714858660206],[117.4756908416748,-0.08222577133595621],[117.4756908416748,-0.08136746532585448],[117.47517585754395,-0.07947919203964204],[117.47594833374023,-0.0772475962265986],[117.47697830200195,-0.07638929011326923],[117.47860908508301,-0.0760459676631342],[117.48032569885254,-0.07295606549047307],[117.48135566711426,-0.06960867123095227],[117.48178482055664,-0.06909368747733424],[117.48298645019531,-0.06900785685118649],[117.48513221740723,-0.0672912442960154],[117.48650550842285,-0.06583212357656976],[117.49448776245117,-0.05896567257458685],[117.4973201751709,-0.0566482451653485],[117.49895095825195,-0.05561827739794012],[117.50083923339844,-0.05364417246046571],[117.50247001647949,-0.05124091418997523],[117.50384330749512,-0.050640099608116884],[117.51474380493164,-0.035190580062888444],[117.51551628112793,-0.032443998510316874],[117.5167179107666,-0.032014845135819314],[117.51809120178223,-0.031070707705666223],[117.51894950866699,-0.03021240094363975],[117.51912117004395,-0.02840995672157476],[117.51877784729004,-0.026006697715374116],[117.5149154663086,-0.010213851874610214],[117.51371383666992,-0.006780624373817545],[117.51302719116211,-0.005493164054087174],[117.51199722290039,-0.0036907196019484445],[117.50882148742676,0.00042915344239702335],[117.50890731811523,0.00042915344239702335]]]}},{"type":"Feature","id":"pmtiles:10/846/512:water:22663933:0","properties":{"intermittent":0,"class":"river","id":2266393,"water":"river","kind":"waterway","verification":"verified","source":"OpenMapTiles/OpenStreetMap national PMTiles","sourceId":"10/846/512:water:22663933:0","sourceLayer":"water","archive":"https://its.hanifahseptiani45.workers.dev/v1/map/archive/indonesia.pmtiles","updatedAt":"2026-07-26T09:41:24.801Z"},"geometry":{"type":"Polygon","coordinates":[[[117.49551773071289,-0.3570533530246962],[117.48933792114258,-0.3570533530246962],[117.49268531799316,-0.3490712505513187],[117.49380111694336,-0.34555225697735636],[117.49706268310547,-0.3463247190935306],[117.5181770324707,-0.349843712379581],[117.51620292663574,-0.3507878323055138],[117.5152587890625,-0.3519036102769917],[117.51328468322754,-0.3550792853100688],[117.51242637634277,-0.3570533530246962],[117.50873565673828,-0.3570533530246962],[117.50950813293457,-0.355250943388981],[117.51070976257324,-0.35293355905528756],[117.51079559326172,-0.3523327556151088],[117.51028060913086,-0.35087366138498055],[117.50873565673828,-0.3489854214553816],[117.50701904296875,-0.34855627596390093],[117.50598907470703,-0.34864210506376025],[117.50255584716797,-0.3500153705549991],[117.50083923339844,-0.35027285781224293],[117.49955177307129,-0.35027285781224293],[117.49860763549805,-0.35087366138498055],[117.49792098999023,-0.35181778120698937],[117.49689102172852,-0.3537918496167691],[117.49551773071289,-0.3570533530246962]]]}},{"type":"Feature","id":"pmtiles:10/846/512:water:4113656672:0","properties":{"intermittent":0,"class":"river","id":411365667,"water":"river","kind":"waterway","verification":"verified","source":"OpenMapTiles/OpenStreetMap national PMTiles","sourceId":"10/846/512:water:4113656672:0","sourceLayer":"water","archive":"https://its.hanifahseptiani45.workers.dev/v1/map/archive/indonesia.pmtiles","updatedAt":"2026-07-26T09:41:24.801Z"},"geometry":{"type":"Polygon","coordinates":[[[117.44685173034668,-0.08651730110582889],[117.44736671447754,-0.08668896228668643],[117.44745254516602,-0.0864314705151088],[117.44762420654297,-0.0864314705151088],[117.44771003723145,-0.08806225170540927],[117.4493408203125,-0.08960720224096974],[117.47071266174316,-0.10866158647368707],[117.47002601623535,-0.10943406127088906],[117.46976852416992,-0.10909073914125145],[117.46170043945312,-0.10162348187355974],[117.44865417480469,-0.0898646939905916],[117.44668006896973,-0.08771892935544656],[117.44685173034668,-0.08651730110582889]]]}},{"type":"Feature","id":"pmtiles:10/846/512:waterway:3900387422:0","properties":{"name_int":"Marang Kayu River","name_de":"Sungai Marang Kayu","name":"Sungai Marang Kayu","name:en":"Marang Kayu River","class":"river","name:latin":"Sungai Marang Kayu","name_en":"Marang Kayu River","waterway":"river","kind":"waterway","verification":"verified","source":"OpenMapTiles/OpenStreetMap national PMTiles","sourceId":"10/846/512:waterway:3900387422:0","sourceLayer":"waterway","archive":"https://its.hanifahseptiani45.workers.dev/v1/map/archive/indonesia.pmtiles","updatedAt":"2026-07-26T09:41:24.801Z"},"geometry":{"type":"LineString","coordinates":[[117.43440628051758,-0.10685914520364292],[117.43423461914062,-0.10771745058363535],[117.43483543395996,-0.10806077272887649],[117.43474960327148,-0.10831826433525293],[117.43552207946777,-0.10823243380004044],[117.4354362487793,-0.10883324754145463],[117.43603706359863,-0.10857575593945512],[117.43612289428711,-0.10823243380004044],[117.43646621704102,-0.10840409487022384],[117.43655204772949,-0.10874741700769164],[117.43629455566406,-0.10943406127088906],[117.4357795715332,-0.10943406127088906],[117.43663787841797,-0.11003487498830111],[117.43715286254883,-0.11003487498830111],[117.43698120117188,-0.11054985816501528],[117.43775367736816,-0.11029236657776664],[117.43766784667969,-0.10926240020654632],[117.43783950805664,-0.1089190780749476],[117.43826866149902,-0.10917656967401967],[117.43852615356445,-0.10840409487022384],[117.43938446044922,-0.10806077272887649],[117.43912696838379,-0.10866158647368707],[117.43929862976074,-0.1089190780749476],[117.43964195251465,-0.10874741700769164],[117.43895530700684,-0.10917656967401967],[117.43878364562988,-0.10951989180269095],[117.4398136138916,-0.10900490860822742],[117.4398136138916,-0.10951989180269095],[117.44041442871094,-0.10960572233423704],[117.44067192077637,-0.10926240020654632],[117.44067192077637,-0.10986321392741161],[117.4412727355957,-0.11054985816501528],[117.44213104248047,-0.11046402763619767],[117.4423885345459,-0.11226646868935575],[117.4435043334961,-0.11192314659250258],[117.44384765625,-0.11209480764144075],[117.44427680969238,-0.11166565501721948],[117.44462013244629,-0.11200897711709956],[117.44522094726562,-0.111837316067664],[117.44487762451172,-0.11260979078218725],[117.44565010070801,-0.11295311287096865],[117.44573593139648,-0.11398307911292704],[117.4464225769043,-0.11295311287096865],[117.44668006896973,-0.11321060443489728],[117.44633674621582,-0.11346809599653795],[117.44650840759277,-0.1138114180751586],[117.44728088378906,-0.11398307911292704],[117.44659423828125,-0.11415474014968652],[117.44650840759277,-0.11449806222012171],[117.44693756103516,-0.11449806222012171],[117.4478816986084,-0.11501304531806511],[117.44779586791992,-0.11535636737818322],[117.44745254516602,-0.11544219789257681],[117.44762420654297,-0.11587135046062258],[117.44702339172363,-0.11587135046062258],[117.44685173034668,-0.11544219789257681],[117.44659423828125,-0.11544219789257681],[117.4467658996582,-0.11655799455596139],[117.44616508483887,-0.116643825066717],[117.44599342346191,-0.1170729776164876],[117.44556427001953,-0.1169871471070536],[117.44547843933105,-0.1171588081256516],[117.44556427001953,-0.1175879606675494],[117.44633674621582,-0.1171588081256516],[117.44693756103516,-0.1172446386345598],[117.44650840759277,-0.11904707926052538],[117.44702339172363,-0.11870375724555515],[117.44728088378906,-0.11904707926052538],[117.4478816986084,-0.11870375724555515],[117.44805335998535,-0.11956206227495159],[117.4478816986084,-0.11990538427919262],[117.4482250213623,-0.12033453677845785],[117.44745254516602,-0.12162199423563891],[117.44831085205078,-0.12290945163140066],[117.4482250213623,-0.12308111261283727],[117.44753837585449,-0.12265196015719937],[117.44607925415039,-0.12290945163140066],[117.44659423828125,-0.12342443457237096],[117.4464225769043,-0.12419690896511781],[117.44659423828125,-0.1256560272008045],[117.44616508483887,-0.1262568405683453],[117.44625091552734,-0.12668599296523553],[117.44736671447754,-0.12694348439995906],[117.4467658996582,-0.12840260248147217],[117.44719505310059,-0.12883175484257947],[117.44728088378906,-0.12926090719646766],[117.44719505310059,-0.12960422907434577],[117.44607925415039,-0.13037670328255047],[117.4453067779541,-0.13046253374866978],[117.44522094726562,-0.1309775165392324],[117.44479179382324,-0.13132083839371944],[117.44565010070801,-0.1316641602435027],[117.44565010070801,-0.13303744759521408],[117.44607925415039,-0.13346659987699638],[117.4467658996582,-0.13372409124247042],[117.44668006896973,-0.1342390739653183],[117.44582176208496,-0.1347540566773091],[117.44565010070801,-0.1352690393784144],[117.44625091552734,-0.13544070027634802],[117.44693756103516,-0.1347540566773091],[117.44719505310059,-0.1347540566773091],[117.44702339172363,-0.13629900474779788],[117.44796752929688,-0.1365564960832728],[117.45011329650879,-0.13767229183841323],[117.45019912719727,-0.1381872744770476],[117.44985580444336,-0.1393889005903617],[117.4496841430664,-0.13947473102469132],[117.44891166687012,-0.13878808754134297],[117.44874000549316,-0.13904557884993096],[117.44908332824707,-0.14024720491951825],[117.45114326477051,-0.14059052664237015],[117.45182991027832,-0.14024720491951825],[117.45268821716309,-0.14084801793120505],[117.45182991027832,-0.14316543940208248],[117.45268821716309,-0.14582618228325828],[117.45234489440918,-0.14668448637168297],[117.45140075683594,-0.147371129618719],[117.44874000549316,-0.1475427904271669],[117.44874000549316,-0.14865858564978396],[117.45002746582031,-0.15071851514311163],[117.44976997375488,-0.15114766709645266],[117.44753837585449,-0.15149098865302335],[117.44736671447754,-0.1520918013639374],[117.44796752929688,-0.15621165949897886],[117.44771003723145,-0.15827158826495236],[117.44565010070801,-0.15878657042458144],[117.44513511657715,-0.15938738292794596],[117.44513511657715,-0.16239144518050352],[117.44453430175781,-0.16393639130852478],[117.44367599487305,-0.16488052499481398],[117.44256019592285,-0.16522384632419573],[117.43972778320312,-0.16522384632419573],[117.43586540222168,-0.1667687922328156],[117.4332046508789,-0.16694045288187453],[117.43217468261719,-0.1676270954630752],[117.42959976196289,-0.17140362922668828],[117.42788314819336,-0.17294857464355573],[117.42650985717773,-0.1737210473049089],[117.42650985717773,-0.17492267138197803],[117.42762565612793,-0.17715425874914104],[117.4277114868164,-0.17827005233215232],[117.42711067199707,-0.17904252477312355],[117.42547988891602,-0.1799866577123197],[117.42505073547363,-0.18153160241638489],[117.42513656616211,-0.18556562407411548],[117.42573738098145,-0.18633809620210684],[117.42985725402832,-0.18805470080954478],[117.43226051330566,-0.18985713546564398],[117.432861328125,-0.19097292825394163],[117.43277549743652,-0.19526443829947482],[117.43303298950195,-0.19706687219331798],[117.43389129638672,-0.19826849468097407],[117.43655204772949,-0.19895513606337545],[117.43844032287598,-0.1998992679175018],[117.43861198425293,-0.2013583806761119],[117.43698120117188,-0.20659401949293965],[117.43629455566406,-0.20779564127467154],[117.43500709533691,-0.20908309308221362],[117.4325180053711,-0.20985556411611128]]}},{"type":"Feature","id":"pmtiles:10/846/512:waterway:5834310722:0","properties":{"name":"Sungai Santan","name_int":"Sungai Santan","class":"river","name:latin":"Sungai Santan","name_de":"Sungai Santan","name_en":"Sungai Santan","waterway":"river","kind":"waterway","verification":"verified","source":"OpenMapTiles/OpenStreetMap national PMTiles","sourceId":"10/846/512:waterway:5834310722:0","sourceLayer":"waterway","archive":"https://its.hanifahseptiani45.workers.dev/v1/map/archive/indonesia.pmtiles","updatedAt":"2026-07-26T09:41:24.801Z"},"geometry":{"type":"LineString","coordinates":[[117.41586685180664,-0.01605033853519444],[117.4167251586914,-0.016221999905340567],[117.41732597351074,-0.014419555511850035],[117.41835594177246,-0.014505386197583903],[117.41861343383789,-0.015792846479712352],[117.41921424865723,-0.01596450785005743],[117.42015838623047,-0.015277862367781836],[117.42015838623047,-0.01502037031134762],[117.41964340209961,-0.014505386197583903],[117.41964340209961,-0.014076232768545083],[117.42161750793457,-0.013303756594325478],[117.42410659790039,-0.016221999905340567],[117.42427825927734,-0.01673698401489787],[117.42453575134277,-0.016822814699693822],[117.42573738098145,-0.01613616922027461],[117.42608070373535,-0.01613616922027461],[117.42633819580078,-0.01759529086113787],[117.42788314819336,-0.019826888642384688],[117.42839813232422,-0.0199985500089781],[117.42865562438965,-0.01905441249056139],[117.43045806884766,-0.018796920439186238],[117.43088722229004,-0.019655227275620746],[117.43020057678223,-0.020256042058520052],[117.42951393127441,-0.02034187274159649],[117.4288272857666,-0.021371840935074715],[117.42891311645508,-0.021886825029227452],[117.43011474609375,-0.021886825029227452],[117.43054389953613,-0.021543502299977035],[117.43200302124023,-0.021371840935074715],[117.43217468261719,-0.021200179569959232],[117.43157386779785,-0.0199985500089781],[117.4325180053711,-0.01888275112301585],[117.43329048156738,-0.01888275112301585],[117.43354797363281,-0.02017021137537256],[117.4343204498291,-0.0199985500089781],[117.43569374084473,-0.018711089755313992],[117.43483543395996,-0.018196105651156813],[117.43492126464844,-0.016393661275330373],[117.43509292602539,-0.016221999905340567],[117.43655204772949,-0.016221999905340567],[117.43620872497559,-0.017681121545535916],[117.43620872497559,-0.019397735225140877],[117.4368953704834,-0.020513534107635678],[117.4368953704834,-0.021371840935074715],[117.43783950805664,-0.022230147757696272],[117.43766784667969,-0.023002623893788154],[117.43715286254883,-0.023345946619613756],[117.43715286254883,-0.024290084111271426],[117.4383544921875,-0.02506256023590936],[117.43809700012207,-0.025663374996383936],[117.43852615356445,-0.02737998858192725],[117.43955612182617,-0.02703666586674558],[117.43972778320312,-0.027723311296142583],[117.44067192077637,-0.02901077146547948],[117.44041442871094,-0.02969741688316674],[117.4398136138916,-0.030040739590432963],[117.43964195251465,-0.030641554325512743],[117.4383544921875,-0.03124236905723876],[117.43826866149902,-0.032358167835553786],[117.43775367736816,-0.032358167835553786],[117.43655204772949,-0.031156538381480914],[117.43595123291016,-0.03124236905723876],[117.43569374084473,-0.03304481323152686],[117.43646621704102,-0.03390311996979278],[117.4357795715332,-0.03484725737311578],[117.43595123291016,-0.03527641073513621],[117.43741035461426,-0.03699302416320904],[117.43775367736816,-0.03707885483376572],[117.43818283081055,-0.03596305611024775],[117.4383544921875,-0.03570556409518133],[117.43861198425293,-0.03579139476696014],[117.43895530700684,-0.03656387080924617],[117.43844032287598,-0.03707885483376572],[117.43818283081055,-0.0382804842125779],[117.43861198425293,-0.03870963755809953],[117.44084358215332,-0.036392209467081216],[117.4412727355957,-0.036478040138206325],[117.44161605834961,-0.03742217751511134],[117.44333267211914,-0.0381088228737525],[117.44359016418457,-0.039396282906395186],[117.44298934936523,-0.04016875891647942],[117.44307518005371,-0.04051208158529107],[117.44376182556152,-0.04051208158529107],[117.44359016418457,-0.041284557584774007],[117.44470596313477,-0.04119872691853743],[117.44616508483887,-0.041885372245857866],[117.44796752929688,-0.041370388250911105],[117.44831085205078,-0.04154204958294372],[117.44874000549316,-0.04231452557239379],[117.44856834411621,-0.04488944548087659],[117.44908332824707,-0.045661921435979025],[117.4493408203125,-0.045747752097142325],[117.45037078857422,-0.045318598790288434],[117.45114326477051,-0.04540442945184964],[117.4519157409668,-0.045747752097142325],[117.4522590637207,-0.04643439738278232],[117.4537181854248,-0.046520228043021916],[117.45406150817871,-0.04677772002310121],[117.4533748626709,-0.04849433319928664],[117.45285987854004,-0.0491809784576418],[117.45500564575195,-0.04943847042771665],[117.45552062988281,-0.04858016385695407],[117.45655059814453,-0.04926680911445658],[117.4562931060791,-0.05003928502065946],[117.45655059814453,-0.05046843829796899],[117.45732307434082,-0.05021094633193002],[117.45749473571777,-0.04986762370894837],[117.4577522277832,-0.049953454364867866],[117.45792388916016,-0.05081176091778161],[117.45723724365234,-0.05218505137865748],[117.45680809020996,-0.052270882031464794],[117.45577812194824,-0.051584236805666706],[117.45543479919434,-0.051584236805666706],[117.45526313781738,-0.051841728766220285],[117.45534896850586,-0.05287169659790436],[117.45800971984863,-0.05373000311125509],[117.45938301086426,-0.05218505137865748],[117.45964050292969,-0.050983422227005804],[117.4599838256836,-0.050725930262998986],[117.46041297912598,-0.050983422227005804],[117.4606704711914,-0.052356712684158424],[117.46264457702637,-0.05192755941949656],[117.46281623840332,-0.05132674484407573],[117.46187210083008,-0.05046843829796899],[117.4617862701416,-0.049953454364867866],[117.46418952941895,-0.05115508353576104],[117.46453285217285,-0.05278586594590706],[117.46487617492676,-0.05295752724977376],[117.46590614318848,-0.052700035293781866],[117.46573448181152,-0.050640099608116884],[117.46590614318848,-0.04986762370894837],[117.46624946594238,-0.04943847042771665],[117.46753692626953,-0.0497817930529294],[117.46702194213867,-0.050983422227005804],[117.46719360351562,-0.05149840615190726],[117.46848106384277,-0.05141257549806255],[117.4687385559082,-0.051584236805666706],[117.46882438659668,-0.052270882031464794],[117.46951103210449,-0.052270882031464794],[117.47028350830078,-0.05089759157245055],[117.46942520141602,-0.050296776987394765],[117.46933937072754,-0.049695962396796745],[117.4724292755127,-0.048665994514522026],[117.47320175170898,-0.049095147800741756],[117.47345924377441,-0.049009317143713815],[117.47337341308594,-0.04858016385695407],[117.4727725982666,-0.04780768793395396],[117.47174263000488,-0.04815101056748006],[117.4716567993164,-0.04789351859248825],[117.47208595275879,-0.04712104266174322],[117.47354507446289,-0.045661921435979025],[117.47414588928223,-0.04557609077470204],[117.47543334960938,-0.04677772002310121],[117.4756908416748,-0.04780768793395396],[117.47491836547852,-0.04806517990924419],[117.47474670410156,-0.04849433319928664],[117.47809410095215,-0.04780768793395396],[117.47886657714844,-0.04737853463961983],[117.47895240783691,-0.04712104266174322],[117.47835159301758,-0.045919413419170496],[117.47878074645996,-0.04557609077470204],[117.47989654541016,-0.04540442945184964],[117.47998237609863,-0.044975276142963594],[117.47878074645996,-0.043773646864693205],[117.47809410095215,-0.04231452557239379],[117.47946739196777,-0.04008292824904913],[117.47998237609863,-0.040340420251055775],[117.48066902160645,-0.04171371091457843],[117.4819564819336,-0.04205703357675361],[117.4819564819336,-0.04248618690233741],[117.48075485229492,-0.04334449354632852],[117.48101234436035,-0.04446029216894942],[117.48144149780273,-0.04471778415640415],[117.48307228088379,-0.044288630843482224],[117.48410224914551,-0.04351615487395577],[117.48332977294922,-0.04205703357675361],[117.48461723327637,-0.04171371091457843],[117.48470306396484,-0.04145621891697715],[117.48401641845703,-0.040683742919142674],[117.48410224914551,-0.040426250918230267],[117.48581886291504,-0.04094123491925927],[117.48581886291504,-0.04119872691853743],[117.48470306396484,-0.04222869490726566],[117.48470306396484,-0.042829509561087775],[117.48684883117676,-0.042829509561087775],[117.48727798461914,-0.042657848231911544],[117.48684883117676,-0.041027065585780065],[117.48710632324219,-0.0405979122522524],[117.48805046081543,-0.04025458958382444],[117.48787879943848,-0.03982543624621826],[117.48641967773438,-0.039138790901446896],[117.48547554016113,-0.03922462156984352],[117.48547554016113,-0.03888129889568859],[117.48727798461914,-0.03793716153460025],[117.4881362915039,-0.03802299220421901],[117.48942375183105,-0.0393104522381833],[117.48968124389648,-0.0393104522381833],[117.49028205871582,-0.03802299220421901],[117.49079704284668,-0.03776550019510694],[117.49131202697754,-0.03793716153460025],[117.49156951904297,-0.03819465354320073],[117.49131202697754,-0.039052960232950795],[117.49139785766602,-0.0397396055784327],[117.4921703338623,-0.040426250918230267],[117.49371528625488,-0.04119872691853743],[117.49457359313965,-0.041370388250911105],[117.49508857727051,-0.041284557584774007],[117.49594688415527,-0.04025458958382444],[117.49740600585938,-0.04016875891647942],[117.4984359741211,-0.040683742919142674],[117.49929428100586,-0.040683742919142674],[117.49955177307129,-0.04025458958382444],[117.49809265136719,-0.03888129889568859],[117.49792098999023,-0.03802299220421901],[117.49929428100586,-0.03819465354320073],[117.50006675720215,-0.03750800818524169],[117.50066757202148,-0.037593838855272566],[117.5013542175293,-0.03888129889568859],[117.50204086303711,-0.037164685504222916],[117.50410079956055,-0.037164685504222916],[117.50367164611816,-0.03862380688916289],[117.5039291381836,-0.03896712956435522],[117.50452995300293,-0.039138790901446896],[117.50487327575684,-0.03896712956435522],[117.50495910644531,-0.03862380688916289],[117.50487327575684,-0.03699302416320904],[117.50564575195312,-0.03570556409518133],[117.50521659851074,-0.035190580062888444],[117.5042724609375,-0.035190580062888444],[117.50418663024902,-0.034933088045676186],[117.50598907470703,-0.03364562794911308],[117.50607490539551,-0.032529829184980485],[117.50633239746094,-0.032358167835553786],[117.50676155090332,-0.032529829184980485],[117.50701904296875,-0.03304481323152686],[117.50744819641113,-0.03536224140731292],[117.50779151916504,-0.03544807207940437],[117.50907897949219,-0.034589765354951396],[117.50916481018066,-0.03407478131654784],[117.50839233398438,-0.03338813592773704],[117.5083065032959,-0.03295898255728957],[117.50847816467285,-0.031070707705666223],[117.50873565673828,-0.030641554325512743],[117.50933647155762,-0.030727385001682705],[117.5101089477539,-0.03124236905723876],[117.51045227050781,-0.031757353110265285],[117.51045227050781,-0.03398895064320584],[117.5108814239502,-0.03441810400912004],[117.51139640808105,-0.03450393468207835],[117.51182556152344,-0.03407478131654784],[117.51354217529297,-0.030384062296604952],[117.51354217529297,-0.02969741688316674],[117.51319885253906,-0.02935409417484891],[117.51199722290039,-0.029525755529135722],[117.5112247467041,-0.02901077146547948],[117.51199722290039,-0.02840995672157476],[117.51285552978516,-0.02832412604361423],[117.51397132873535,-0.028924940787973696],[117.5149154663086,-0.030384062296604952],[117.51500129699707,-0.031757353110265285],[117.51551628112793,-0.032443998510316874]]}},{"type":"Feature","id":"pmtiles:10/846/513:landuse:3169728880:0","properties":{"class":"residential","kind":"green","verification":"verified","source":"OpenMapTiles/OpenStreetMap national PMTiles","sourceId":"10/846/513:landuse:3169728880:0","sourceLayer":"landuse","archive":"https://its.hanifahseptiani45.workers.dev/v1/map/archive/indonesia.pmtiles","updatedAt":"2026-07-26T09:41:48.227Z"},"geometry":{"type":"Polygon","coordinates":[[[117.4233341217041,-0.3540493367697479],[117.42359161376953,-0.35173195213620545],[117.42874145507812,-0.34821295955661924],[117.43071556091309,-0.3477838140299667],[117.43268966674805,-0.34606723172845477],[117.4467658996582,-0.34606723172845477],[117.44659423828125,-0.34829878865961916],[117.44230270385742,-0.3523327556151088],[117.43620872497559,-0.3547359691426948],[117.43371963500977,-0.35465014009885465],[117.42728233337402,-0.35653837887903705],[117.42505073547363,-0.3558517466400275],[117.4233341217041,-0.3540493367697479]]]}},{"type":"Feature","id":"pmtiles:10/846/513:water:1160:0","properties":{"class":"ocean","water":"ocean","kind":"waterway","verification":"verified","source":"OpenMapTiles/OpenStreetMap national PMTiles","sourceId":"10/846/513:water:1160:0","sourceLayer":"water","archive":"https://its.hanifahseptiani45.workers.dev/v1/map/archive/indonesia.pmtiles","updatedAt":"2026-07-26T09:41:48.227Z"},"geometry":{"type":"Polygon","coordinates":[[[117.45105743408203,-0.34606723172845477],[117.46101379394531,-0.34606723172845477],[117.46058464050293,-0.34666803556939385],[117.45783805847168,-0.35259024280850326],[117.45732307434082,-0.3528477299947781],[117.4551773071289,-0.35293355905528756],[117.45268821716309,-0.35259024280850326],[117.45217323303223,-0.3523327556151088],[117.4519157409668,-0.3509594904636373],[117.45140075683594,-0.3500153705549991],[117.45148658752441,-0.34915707964648846],[117.45105743408203,-0.34606723172845477]]]}},{"type":"Feature","id":"pmtiles:8/211/128:landuse:172071940:2","properties":{"class":"residential","kind":"green","verification":"verified","source":"OpenMapTiles/OpenStreetMap national PMTiles","sourceId":"8/211/128:landuse:172071940:2","sourceLayer":"landuse","archive":"https://its.hanifahseptiani45.workers.dev/v1/map/archive/indonesia.pmtiles","updatedAt":"2026-07-26T09:35:32.970Z"},"geometry":{"type":"Polygon","coordinates":[[[117.42324829101562,-0.3539635077195413],[117.42359161376953,-0.3519036102769917],[117.44316101074219,-0.33885758268790767],[117.4435043334961,-0.3354244145853187],[117.45140075683594,-0.33576773144997674],[117.45174407958984,-0.34057416628374426],[117.4489974975586,-0.34057416628374426],[117.44659423828125,-0.34812713045285193],[117.44247436523438,-0.3522469265490855],[117.4273681640625,-0.3567100369307923],[117.42324829101562,-0.3539635077195413]]]}}]}