{"type":"FeatureCollection","features":[{"type":"Feature","id":"pmtiles:10/818/523:water:940:0","properties":{"class":"ocean","water":"ocean","kind":"waterway","verification":"verified","source":"OpenMapTiles/OpenStreetMap national PMTiles","sourceId":"10/818/523:water:940:0","sourceLayer":"water","archive":"https://its.hanifahseptiani45.workers.dev/v1/map/archive/indonesia.pmtiles","updatedAt":"2026-07-26T09:43:51.212Z"},"geometry":{"type":"Polygon","coordinates":[[[107.5726318359375,-3.8587739225726523],[107.9351806640625,-3.8587739225726523],[107.9351806640625,-4.2204214290145785],[107.5726318359375,-4.2204214290145785],[107.5726318359375,-3.8587739225726523]]]}}]}