{"type":"FeatureCollection","features":[{"type":"Feature","id":"pmtiles:10/861/515:landuse:3165596460:32","properties":{"class":"residential","kind":"green","verification":"verified","source":"OpenMapTiles/OpenStreetMap national PMTiles","sourceId":"10/861/515:landuse:3165596460:32","sourceLayer":"landuse","archive":"https://its.hanifahseptiani45.workers.dev/v1/map/archive/indonesia.pmtiles","updatedAt":"2026-07-26T09:42:09.508Z"},"geometry":{"type":"Polygon","coordinates":[[[123.04086685180664,-1.4116003389233214],[123.04095268249512,-1.4111713156797236],[123.04275512695312,-1.40936941719265],[123.04524421691895,-1.4091120030092128],[123.04232597351074,-1.4107422923569715],[123.04189682006836,-1.4116003389233214],[123.04086685180664,-1.4116003389233214]]]}},{"type":"Feature","id":"pmtiles:10/862/515:landuse:3169134900:27","properties":{"class":"residential","kind":"green","verification":"verified","source":"OpenMapTiles/OpenStreetMap national PMTiles","sourceId":"10/862/515:landuse:3169134900:27","sourceLayer":"landuse","archive":"https://its.hanifahseptiani45.workers.dev/v1/map/archive/indonesia.pmtiles","updatedAt":"2026-07-26T09:42:09.570Z"},"geometry":{"type":"Polygon","coordinates":[[[123.0413818359375,-1.4107422923569715],[123.04275512695312,-1.40936941719265],[123.04524421691895,-1.4091120030092128],[123.04232597351074,-1.4107422923569715],[123.04189682006836,-1.4116003389233214],[123.0413818359375,-1.4116003389233214],[123.0413818359375,-1.4107422923569715]]]}},{"type":"Feature","id":"pmtiles:10/861/516:landuse:14117440340:0","properties":{"class":"residential","kind":"green","verification":"verified","source":"OpenMapTiles/OpenStreetMap national PMTiles","sourceId":"10/861/516:landuse:14117440340:0","sourceLayer":"landuse","archive":"https://its.hanifahseptiani45.workers.dev/v1/map/archive/indonesia.pmtiles","updatedAt":"2026-07-26T09:42:18.989Z"},"geometry":{"type":"Polygon","coordinates":[[[122.79539108276367,-1.4205240044069],[122.79461860656738,-1.4191511350318962],[122.7930736541748,-1.4186363088061427],[122.79427528381348,-1.4148609129860432],[122.79358863830566,-1.411257120334767],[122.794189453125,-1.4111713156797236],[122.79513359069824,-1.414346085806855],[122.79582023620605,-1.4128874081791025],[122.7967643737793,-1.4123725805623195],[122.79702186584473,-1.4134880402544496],[122.79633522033691,-1.4140886721744437],[122.79642105102539,-1.4151183265327916],[122.79496192932129,-1.4154615445506664],[122.7953052520752,-1.4182072868638045],[122.79659271240234,-1.4195801567991708],[122.79539108276367,-1.4205240044069]]]}},{"type":"Feature","id":"pmtiles:10/861/516:landuse:14117440340:1","properties":{"class":"residential","kind":"green","verification":"verified","source":"OpenMapTiles/OpenStreetMap national PMTiles","sourceId":"10/861/516:landuse:14117440340:1","sourceLayer":"landuse","archive":"https://its.hanifahseptiani45.workers.dev/v1/map/archive/indonesia.pmtiles","updatedAt":"2026-07-26T09:42:18.989Z"},"geometry":{"type":"Polygon","coordinates":[[[122.79264450073242,-1.425329040790274],[122.7930736541748,-1.425329040790274],[122.79333114624023,-1.4263586901405318],[122.79461860656738,-1.4258438655229781],[122.7956485748291,-1.4242135868079515],[122.79607772827148,-1.4243851951480906],[122.7945327758789,-1.4278173592646226],[122.79487609863281,-1.4285037914733891],[122.79410362243652,-1.4291044194878282],[122.79264450073242,-1.425329040790274]]]}},{"type":"Feature","id":"pmtiles:10/861/516:landuse:14117440340:2","properties":{"class":"residential","kind":"green","verification":"verified","source":"OpenMapTiles/OpenStreetMap national PMTiles","sourceId":"10/861/516:landuse:14117440340:2","sourceLayer":"landuse","archive":"https://its.hanifahseptiani45.workers.dev/v1/map/archive/indonesia.pmtiles","updatedAt":"2026-07-26T09:42:18.989Z"},"geometry":{"type":"Polygon","coordinates":[[[122.86869049072266,-1.482559675920001],[122.87306785583496,-1.4784411781867988],[122.87718772888184,-1.4769825417396305],[122.87306785583496,-1.4795566054115596],[122.87323951721191,-1.48007141778767],[122.87272453308105,-1.4804146259720312],[122.87229537963867,-1.479985615733284],[122.87169456481934,-1.4803288239309182],[122.86911964416504,-1.482988685660274],[122.86869049072266,-1.482559675920001]]]}},{"type":"Feature","id":"pmtiles:10/861/516:landuse:14117440340:3","properties":{"class":"residential","kind":"green","verification":"verified","source":"OpenMapTiles/OpenStreetMap national PMTiles","sourceId":"10/861/516:landuse:14117440340:3","sourceLayer":"landuse","archive":"https://its.hanifahseptiani45.workers.dev/v1/map/archive/indonesia.pmtiles","updatedAt":"2026-07-26T09:42:18.989Z"},"geometry":{"type":"Polygon","coordinates":[[[122.81993865966797,-1.4832460914645225],[122.8201961517334,-1.4827312798260834],[122.82174110412598,-1.4834176953173852],[122.82268524169922,-1.482988685660274],[122.82285690307617,-1.4845331200365166],[122.8242301940918,-1.4862491569669203],[122.82594680786133,-1.4858201478592719],[122.82637596130371,-1.4891664166873682],[122.82740592956543,-1.4904534418075173],[122.82732009887695,-1.491912069367615],[122.8286075592041,-1.4926842835667742],[122.82835006713867,-1.4933706959605928],[122.8260326385498,-1.4941429096473655],[122.82629013061523,-1.4926842835667742],[122.82560348510742,-1.4920836725464142],[122.82371520996094,-1.4924268788638528],[122.82285690307617,-1.4916546645743125],[122.82251358032227,-1.490281838501602],[122.82156944274902,-1.489252218385431],[122.8219985961914,-1.4888232098617067],[122.82114028930664,-1.4859059496874778],[122.82148361206055,-1.4853911386683052],[122.81993865966797,-1.4832460914645225]]]}},{"type":"Feature","id":"pmtiles:10/861/516:landuse:14117440340:4","properties":{"class":"residential","kind":"green","verification":"verified","source":"OpenMapTiles/OpenStreetMap national PMTiles","sourceId":"10/861/516:landuse:14117440340:4","sourceLayer":"landuse","archive":"https://its.hanifahseptiani45.workers.dev/v1/map/archive/indonesia.pmtiles","updatedAt":"2026-07-26T09:42:18.989Z"},"geometry":{"type":"Polygon","coordinates":[[[122.82079696655273,-1.482216468067918],[122.82036781311035,-1.4818732601626436],[122.81847953796387,-1.4832460914645225],[122.81787872314453,-1.4830744875983441],[122.81744956970215,-1.4842757143820364],[122.81736373901367,-1.482645477874712],[122.81624794006348,-1.4821306660965945],[122.81693458557129,-1.4813584482050146],[122.81959533691406,-1.4821306660965945],[122.82071113586426,-1.481530052204178],[122.82114028930664,-1.4820448641219315],[122.82079696655273,-1.482216468067918]]]}},{"type":"Feature","id":"pmtiles:10/861/516:landuse:14117440340:5","properties":{"class":"residential","kind":"green","verification":"verified","source":"OpenMapTiles/OpenStreetMap national PMTiles","sourceId":"10/861/516:landuse:14117440340:5","sourceLayer":"landuse","archive":"https://its.hanifahseptiani45.workers.dev/v1/map/archive/indonesia.pmtiles","updatedAt":"2026-07-26T09:42:18.989Z"},"geometry":{"type":"Polygon","coordinates":[[[122.78586387634277,-1.4611090834061287],[122.78929710388184,-1.4616239000375373],[122.7898120880127,-1.4629967438108764],[122.78938293457031,-1.4629967438108764],[122.78921127319336,-1.461881308308989],[122.78689384460449,-1.4620529138069145],[122.78586387634277,-1.4611090834061287]]]}},{"type":"Feature","id":"pmtiles:10/861/516:landuse:14117440340:6","properties":{"class":"residential","kind":"green","verification":"verified","source":"OpenMapTiles/OpenStreetMap national PMTiles","sourceId":"10/861/516:landuse:14117440340:6","sourceLayer":"landuse","archive":"https://its.hanifahseptiani45.workers.dev/v1/map/archive/indonesia.pmtiles","updatedAt":"2026-07-26T09:42:18.989Z"},"geometry":{"type":"Polygon","coordinates":[[[122.82465934753418,-1.5048680716106446],[122.82629013061523,-1.5052112759245944],[122.82671928405762,-1.5047822705237195],[122.82629013061523,-1.5027230434253624],[122.82671928405762,-1.5028088445932326],[122.82671928405762,-1.504267463931285],[122.82792091369629,-1.5055544801845144],[122.82766342163086,-1.5080427094522975],[122.82757759094238,-1.5055544801845144],[122.8268051147461,-1.5059834854334468],[122.82465934753418,-1.5048680716106446]]]}},{"type":"Feature","id":"pmtiles:10/861/516:landuse:14117440340:7","properties":{"class":"residential","kind":"green","verification":"verified","source":"OpenMapTiles/OpenStreetMap national PMTiles","sourceId":"10/861/516:landuse:14117440340:7","sourceLayer":"landuse","archive":"https://its.hanifahseptiani45.workers.dev/v1/map/archive/indonesia.pmtiles","updatedAt":"2026-07-26T09:42:18.989Z"},"geometry":{"type":"Polygon","coordinates":[[[122.82517433166504,-1.4983471793981664],[122.82594680786133,-1.4944003141493027],[122.8260326385498,-1.496287946241381],[122.8274917602539,-1.4967169533085496],[122.82723426818848,-1.4974033644414533],[122.8260326385498,-1.4974033644414533],[122.82508850097656,-1.4987761860622584],[122.82285690307617,-1.4989477887043705],[122.82294273376465,-1.4986903847361788],[122.82517433166504,-1.4983471793981664]]]}},{"type":"Feature","id":"pmtiles:10/861/516:landuse:14117440340:8","properties":{"class":"residential","kind":"green","verification":"verified","source":"OpenMapTiles/OpenStreetMap national PMTiles","sourceId":"10/861/516:landuse:14117440340:8","sourceLayer":"landuse","archive":"https://its.hanifahseptiani45.workers.dev/v1/map/archive/indonesia.pmtiles","updatedAt":"2026-07-26T09:42:18.989Z"},"geometry":{"type":"Polygon","coordinates":[[[122.83907890319824,-1.5089865198099517],[122.83985137939453,-1.5087291170257373],[122.83976554870605,-1.5076137046089428],[122.84036636352539,-1.5079569084903852],[122.84088134765625,-1.5097587279797722],[122.84182548522949,-1.5106167367356278],[122.84259796142578,-1.5104451350115653],[122.84225463867188,-1.5115605459757262],[122.84191131591797,-1.5118179484245502],[122.8407096862793,-1.5107025375925929],[122.83993721008301,-1.5090723207312493],[122.83907890319824,-1.5089865198099517]]]}},{"type":"Feature","id":"pmtiles:10/861/516:landuse:14117440340:9","properties":{"class":"residential","kind":"green","verification":"verified","source":"OpenMapTiles/OpenStreetMap national PMTiles","sourceId":"10/861/516:landuse:14117440340:9","sourceLayer":"landuse","archive":"https://its.hanifahseptiani45.workers.dev/v1/map/archive/indonesia.pmtiles","updatedAt":"2026-07-26T09:42:18.989Z"},"geometry":{"type":"Polygon","coordinates":[[[122.85264015197754,-1.524001629333128],[122.85401344299316,-1.5247738321441346],[122.85306930541992,-1.5264040371685752],[122.85229682922363,-1.5266614378489436],[122.85238265991211,-1.5274336397051655],[122.85152435302734,-1.5263182369349266],[122.8516960144043,-1.5257176352035913],[122.85281181335449,-1.5256318349425584],[122.85298347473145,-1.5251170333045536],[122.8516960144043,-1.524859632439373],[122.85264015197754,-1.524001629333128]]]}},{"type":"Feature","id":"pmtiles:10/861/516:landuse:14117440340:10","properties":{"class":"residential","kind":"green","verification":"verified","source":"OpenMapTiles/OpenStreetMap national PMTiles","sourceId":"10/861/516:landuse:14117440340:10","sourceLayer":"landuse","archive":"https://its.hanifahseptiani45.workers.dev/v1/map/archive/indonesia.pmtiles","updatedAt":"2026-07-26T09:42:18.989Z"},"geometry":{"type":"Polygon","coordinates":[[[122.85289764404297,-1.5312088447825403],[122.8534984588623,-1.5312088447825403],[122.8534984588623,-1.532152645013582],[122.85727500915527,-1.5366142404722325],[122.85684585571289,-1.5368716399261473],[122.85435676574707,-1.5342118440739227],[122.85272598266602,-1.5349840432106703],[122.8516960144043,-1.5331822447913623],[122.85289764404297,-1.5326674449643463],[122.85289764404297,-1.5312088447825403]]]}},{"type":"Feature","id":"pmtiles:10/861/516:landuse:14117440340:11","properties":{"class":"residential","kind":"green","verification":"verified","source":"OpenMapTiles/OpenStreetMap national PMTiles","sourceId":"10/861/516:landuse:14117440340:11","sourceLayer":"landuse","archive":"https://its.hanifahseptiani45.workers.dev/v1/map/archive/indonesia.pmtiles","updatedAt":"2026-07-26T09:42:18.989Z"},"geometry":{"type":"Polygon","coordinates":[[[122.85049438476562,-1.5459664006782532],[122.85118103027344,-1.5457948017786975],[122.85186767578125,-1.5466527961377636],[122.8520393371582,-1.548797780517333],[122.85332679748535,-1.5519723534136034],[122.85324096679688,-1.553602537644153],[122.8546142578125,-1.5551469215442921],[122.85547256469727,-1.5582356859529511],[122.85564422607422,-1.5590078763477067],[122.85512924194336,-1.5594368708890727],[122.85487174987793,-1.5581498870027275],[122.85418510437012,-1.558321484899679],[122.85375595092773,-1.556262309213821],[122.85409927368164,-1.5560049121116606],[122.85049438476562,-1.5459664006782532]]]}},{"type":"Feature","id":"pmtiles:10/861/516:landuse:14117440340:12","properties":{"class":"residential","kind":"green","verification":"verified","source":"OpenMapTiles/OpenStreetMap national PMTiles","sourceId":"10/861/516:landuse:14117440340:12","sourceLayer":"landuse","archive":"https://its.hanifahseptiani45.workers.dev/v1/map/archive/indonesia.pmtiles","updatedAt":"2026-07-26T09:42:18.989Z"},"geometry":{"type":"Polygon","coordinates":[[[122.86774635314941,-1.540132030321871],[122.86834716796875,-1.5394456327580173],[122.86860466003418,-1.5409042273169433],[122.86929130554199,-1.5413332255265715],[122.86602973937988,-1.5427060192164532],[122.86577224731445,-1.5421054220860952],[122.86766052246094,-1.5409900269657868],[122.86774635314941,-1.540132030321871]]]}},{"type":"Feature","id":"pmtiles:10/861/516:landuse:14117440340:13","properties":{"class":"residential","kind":"green","verification":"verified","source":"OpenMapTiles/OpenStreetMap national PMTiles","sourceId":"10/861/516:landuse:14117440340:13","sourceLayer":"landuse","archive":"https://its.hanifahseptiani45.workers.dev/v1/map/archive/indonesia.pmtiles","updatedAt":"2026-07-26T09:42:18.989Z"},"geometry":{"type":"Polygon","coordinates":[[[122.88516998291016,-1.6002767473529644],[122.88508415222168,-1.5996761667753958],[122.88345336914062,-1.5995045722923749],[122.88336753845215,-1.5988181942167614],[122.88388252258301,-1.5977028293544748],[122.88637161254883,-1.5987323969411875],[122.88628578186035,-1.5980460186074055],[122.88508415222168,-1.5972738427077076],[122.88577079772949,-1.5959868822300791],[122.88825988769531,-1.5959010848362567],[122.89031982421875,-1.597016450676648],[122.89186477661133,-1.595214705556856],[122.89220809936523,-1.595557895225184],[122.8904914855957,-1.5990755860220247],[122.88774490356445,-1.5990755860220247],[122.88705825805664,-1.5996761667753958],[122.88680076599121,-1.599161383283274],[122.88516998291016,-1.6002767473529644]]]}},{"type":"Feature","id":"pmtiles:10/861/516:landuse:14117440340:14","properties":{"class":"residential","kind":"green","verification":"verified","source":"OpenMapTiles/OpenStreetMap national PMTiles","sourceId":"10/861/516:landuse:14117440340:14","sourceLayer":"landuse","archive":"https://its.hanifahseptiani45.workers.dev/v1/map/archive/indonesia.pmtiles","updatedAt":"2026-07-26T09:42:18.989Z"},"geometry":{"type":"Polygon","coordinates":[[[122.87847518920898,-1.5972738427077076],[122.87890434265137,-1.5974454373771607],[122.87813186645508,-1.5990755860220247],[122.87727355957031,-1.5992471805409139],[122.87598609924316,-1.598389207802967],[122.87615776062012,-1.5979602212995445],[122.87735939025879,-1.5982176132123556],[122.87847518920898,-1.5972738427077076]]]}},{"type":"Feature","id":"pmtiles:10/861/516:landuse:14117440340:15","properties":{"class":"residential","kind":"green","verification":"verified","source":"OpenMapTiles/OpenStreetMap national PMTiles","sourceId":"10/861/516:landuse:14117440340:15","sourceLayer":"landuse","archive":"https://its.hanifahseptiani45.workers.dev/v1/map/archive/indonesia.pmtiles","updatedAt":"2026-07-26T09:42:18.989Z"},"geometry":{"type":"Polygon","coordinates":[[[122.87426948547363,-1.594699920947022],[122.87298202514648,-1.592297591065929],[122.87323951721191,-1.590581639436337],[122.87375450134277,-1.5907532346635236],[122.87418365478516,-1.592297591065929],[122.87349700927734,-1.592469186150339],[122.87478446960449,-1.5943567311355906],[122.87426948547363,-1.594699920947022]]]}},{"type":"Feature","id":"pmtiles:10/861/516:landuse:14117440340:16","properties":{"class":"residential","kind":"green","verification":"verified","source":"OpenMapTiles/OpenStreetMap national PMTiles","sourceId":"10/861/516:landuse:14117440340:16","sourceLayer":"landuse","archive":"https://its.hanifahseptiani45.workers.dev/v1/map/archive/indonesia.pmtiles","updatedAt":"2026-07-26T09:42:18.989Z"},"geometry":{"type":"Polygon","coordinates":[[[122.87555694580078,-1.598303410509459],[122.87212371826172,-1.5964158691454742],[122.87229537963867,-1.5957294900378827],[122.87152290344238,-1.5959868822300791],[122.8722095489502,-1.5953005029793133],[122.87332534790039,-1.5959868822300791],[122.87375450134277,-1.5953863003981752],[122.87375450134277,-1.5964158691454742],[122.87555694580078,-1.598303410509459]]]}},{"type":"Feature","id":"pmtiles:10/861/516:landuse:14117440340:17","properties":{"class":"residential","kind":"green","verification":"verified","source":"OpenMapTiles/OpenStreetMap national PMTiles","sourceId":"10/861/516:landuse:14117440340:17","sourceLayer":"landuse","archive":"https://its.hanifahseptiani45.workers.dev/v1/map/archive/indonesia.pmtiles","updatedAt":"2026-07-26T09:42:18.990Z"},"geometry":{"type":"Polygon","coordinates":[[[123.00636291503906,-1.4963737476615222],[123.00679206848145,-1.49508672600696],[123.00739288330078,-1.4956015347593734],[123.00576210021973,-1.4989477887043705],[123.0055046081543,-1.4982613780552754],[123.00456047058105,-1.498432980737718],[123.0040454864502,-1.4992909939482217],[123.00267219543457,-1.499462596549975],[123.00353050231934,-1.4980039740064086],[123.00524711608887,-1.4977465699273012],[123.00636291503906,-1.4963737476615222]]]}},{"type":"Feature","id":"pmtiles:10/861/516:landuse:14117440340:18","properties":{"class":"residential","kind":"green","verification":"verified","source":"OpenMapTiles/OpenStreetMap national PMTiles","sourceId":"10/861/516:landuse:14117440340:18","sourceLayer":"landuse","archive":"https://its.hanifahseptiani45.workers.dev/v1/map/archive/indonesia.pmtiles","updatedAt":"2026-07-26T09:42:18.990Z"},"geometry":{"type":"Polygon","coordinates":[[[122.98945426940918,-1.5153357788310018],[122.98945426940918,-1.5152499781573],[122.98808097839355,-1.5156789814917744],[122.98782348632812,-1.5173949939795364],[122.98696517944336,-1.5171375921931372],[122.98739433288574,-1.515507380168188],[122.98825263977051,-1.5143919712334366],[122.98954010009766,-1.5148209747378445],[122.9916000366211,-1.5128475579146397],[122.99323081970215,-1.5101019315227688],[122.99357414245605,-1.5107025375925929],[122.99168586730957,-1.5137055654497829],[122.991943359375,-1.5152499781573],[122.99151420593262,-1.515507380168188],[122.99108505249023,-1.5138771669160747],[122.98945426940918,-1.5153357788310018]]]}},{"type":"Feature","id":"pmtiles:10/861/516:landuse:14117440340:19","properties":{"class":"residential","kind":"green","verification":"verified","source":"OpenMapTiles/OpenStreetMap national PMTiles","sourceId":"10/861/516:landuse:14117440340:19","sourceLayer":"landuse","archive":"https://its.hanifahseptiani45.workers.dev/v1/map/archive/indonesia.pmtiles","updatedAt":"2026-07-26T09:42:18.990Z"},"geometry":{"type":"Polygon","coordinates":[[[122.9644775390625,-1.5377296378817533],[122.96396255493164,-1.5379870372011766],[122.96224594116211,-1.5360994414713645],[122.96361923217773,-1.535756242068544],[122.9644775390625,-1.5377296378817533]]]}},{"type":"Feature","id":"pmtiles:10/861/516:landuse:14117440340:20","properties":{"class":"residential","kind":"green","verification":"verified","source":"OpenMapTiles/OpenStreetMap national PMTiles","sourceId":"10/861/516:landuse:14117440340:20","sourceLayer":"landuse","archive":"https://its.hanifahseptiani45.workers.dev/v1/map/archive/indonesia.pmtiles","updatedAt":"2026-07-26T09:42:18.990Z"},"geometry":{"type":"Polygon","coordinates":[[[122.9575252532959,-1.5428776183654378],[122.96052932739258,-1.5450226065590442],[122.96147346496582,-1.5445078095900016],[122.96224594116211,-1.5457948017786975],[122.9578685760498,-1.5451942055209997],[122.95701026916504,-1.5445078095900016],[122.9575252532959,-1.5428776183654378]]]}},{"type":"Feature","id":"pmtiles:10/861/516:landuse:14117440340:21","properties":{"class":"residential","kind":"green","verification":"verified","source":"OpenMapTiles/OpenStreetMap national PMTiles","sourceId":"10/861/516:landuse:14117440340:21","sourceLayer":"landuse","archive":"https://its.hanifahseptiani45.workers.dev/v1/map/archive/indonesia.pmtiles","updatedAt":"2026-07-26T09:42:18.990Z"},"geometry":{"type":"Polygon","coordinates":[[[122.94198989868164,-1.5451084060417628],[122.94370651245117,-1.5451084060417628],[122.94413566589355,-1.5427060192164532],[122.94602394104004,-1.5399604309516377],[122.9468822479248,-1.5397888315675772],[122.9483413696289,-1.540475229020899],[122.947998046875,-1.5410758266111628],[122.9465389251709,-1.5409900269657868],[122.94499397277832,-1.5427918187926792],[122.94422149658203,-1.5438214134372714],[122.94490814208984,-1.5439072129684916],[122.94490814208984,-1.544422010083025],[122.94353485107422,-1.5459664006782532],[122.94207572937012,-1.5457090023237043],[122.94198989868164,-1.5451084060417628]]]}},{"type":"Feature","id":"pmtiles:10/861/516:landuse:14117440340:22","properties":{"class":"residential","kind":"green","verification":"verified","source":"OpenMapTiles/OpenStreetMap national PMTiles","sourceId":"10/861/516:landuse:14117440340:22","sourceLayer":"landuse","archive":"https://its.hanifahseptiani45.workers.dev/v1/map/archive/indonesia.pmtiles","updatedAt":"2026-07-26T09:42:18.990Z"},"geometry":{"type":"Polygon","coordinates":[[[122.93400764465332,-1.559265273083028],[122.93529510498047,-1.5581498870027275],[122.93658256530762,-1.558321484899679],[122.93752670288086,-1.5572918973082466],[122.93692588806152,-1.556262309213821],[122.93726921081543,-1.5560049121116606],[122.93787002563477,-1.5566055053011638],[122.93804168701172,-1.5576350932279723],[122.93546676635742,-1.5600374631000875],[122.93400764465332,-1.559265273083028]]]}},{"type":"Feature","id":"pmtiles:10/861/516:landuse:14117440340:23","properties":{"class":"residential","kind":"green","verification":"verified","source":"OpenMapTiles/OpenStreetMap national PMTiles","sourceId":"10/861/516:landuse:14117440340:23","sourceLayer":"landuse","archive":"https://its.hanifahseptiani45.workers.dev/v1/map/archive/indonesia.pmtiles","updatedAt":"2026-07-26T09:42:18.990Z"},"geometry":{"type":"Polygon","coordinates":[[[122.88405418395996,-1.5380728369674301],[122.88688659667969,-1.537643838101701],[122.88928985595703,-1.5359278417768394],[122.89100646972656,-1.5356704422092236],[122.8904914855957,-1.534898243320356],[122.89092063903809,-1.5342976439917777],[122.89315223693848,-1.5344692438171563],[122.8934097290039,-1.5350698430975456],[122.89486885070801,-1.5353272427374947],[122.89529800415039,-1.5364426408190752],[122.89409637451172,-1.5377296378817533],[122.88946151733398,-1.5372148391497689],[122.8901481628418,-1.5386734352345286],[122.88843154907227,-1.5387592349731705],[122.88808822631836,-1.5397030318703742],[122.88525581359863,-1.5395314324655942],[122.88525581359863,-1.5390166341683909],[122.88396835327148,-1.538845034708359],[122.88405418395996,-1.5380728369674301]]]}},{"type":"Feature","id":"pmtiles:10/861/516:landuse:14117440340:24","properties":{"class":"residential","kind":"green","verification":"verified","source":"OpenMapTiles/OpenStreetMap national PMTiles","sourceId":"10/861/516:landuse:14117440340:24","sourceLayer":"landuse","archive":"https://its.hanifahseptiani45.workers.dev/v1/map/archive/indonesia.pmtiles","updatedAt":"2026-07-26T09:42:18.990Z"},"geometry":{"type":"Polygon","coordinates":[[[122.92971611022949,-1.4801572198387447],[122.9315185546875,-1.4796424074825438],[122.93048858642578,-1.47878438662336],[122.9304027557373,-1.4775831568633038],[122.93194770812988,-1.4771541460772397],[122.93237686157227,-1.4783553760693735],[122.93340682983398,-1.4778405632951603],[122.93581008911133,-1.4747516841452182],[122.93623924255371,-1.4750948931515353],[122.93246269226074,-1.4790417929159503],[122.9329776763916,-1.48007141778767],[122.93383598327637,-1.4802430218864941],[122.93366432189941,-1.4805862300442811],[122.93280601501465,-1.4809294381489337],[122.93203353881836,-1.48007141778767],[122.92963027954102,-1.4805862300442811],[122.92971611022949,-1.4801572198387447]]]}},{"type":"Feature","id":"pmtiles:10/861/516:landuse:14117440340:25","properties":{"class":"residential","kind":"green","verification":"verified","source":"OpenMapTiles/OpenStreetMap national PMTiles","sourceId":"10/861/516:landuse:14117440340:25","sourceLayer":"landuse","archive":"https://its.hanifahseptiani45.workers.dev/v1/map/archive/indonesia.pmtiles","updatedAt":"2026-07-26T09:42:18.990Z"},"geometry":{"type":"Polygon","coordinates":[[[122.91581153869629,-1.484876327529193],[122.9164981842041,-1.484876327529193],[122.91812896728516,-1.4830744875983441],[122.92104721069336,-1.4812726462004377],[122.92096138000488,-1.4820448641219315],[122.9194164276123,-1.4837609029831924],[122.91624069213867,-1.485562742354702],[122.91581153869629,-1.484876327529193]]]}},{"type":"Feature","id":"pmtiles:10/861/516:landuse:14117440340:26","properties":{"class":"residential","kind":"green","verification":"verified","source":"OpenMapTiles/OpenStreetMap national PMTiles","sourceId":"10/861/516:landuse:14117440340:26","sourceLayer":"landuse","archive":"https://its.hanifahseptiani45.workers.dev/v1/map/archive/indonesia.pmtiles","updatedAt":"2026-07-26T09:42:18.990Z"},"geometry":{"type":"Polygon","coordinates":[[[122.99915313720703,-1.434338456957832],[122.99983978271484,-1.4328797919791185],[123.00189971923828,-1.43270818427348],[123.00250053405762,-1.431850145552474],[123.00456047058105,-1.4329655958271132],[123.0069637298584,-1.4328797919791185],[123.00610542297363,-1.4339952417523563],[123.00172805786133,-1.4335662226731216],[123.00044059753418,-1.4337378303144561],[122.99983978271484,-1.4347674758923148],[122.99915313720703,-1.434338456957832]]]}},{"type":"Feature","id":"pmtiles:10/861/516:landuse:14117440340:27","properties":{"class":"residential","kind":"green","verification":"verified","source":"OpenMapTiles/OpenStreetMap national PMTiles","sourceId":"10/861/516:landuse:14117440340:27","sourceLayer":"landuse","archive":"https://its.hanifahseptiani45.workers.dev/v1/map/archive/indonesia.pmtiles","updatedAt":"2026-07-26T09:42:18.990Z"},"geometry":{"type":"Polygon","coordinates":[[[122.98576354980469,-1.4549312746378291],[122.98705101013184,-1.4526145919840587],[122.98782348632812,-1.452700395087703],[122.98636436462402,-1.4554460926823651],[122.98576354980469,-1.4555318956783623],[122.98576354980469,-1.4549312746378291]]]}},{"type":"Feature","id":"pmtiles:10/861/516:landuse:14117440340:28","properties":{"class":"residential","kind":"green","verification":"verified","source":"OpenMapTiles/OpenStreetMap national PMTiles","sourceId":"10/861/516:landuse:14117440340:28","sourceLayer":"landuse","archive":"https://its.hanifahseptiani45.workers.dev/v1/map/archive/indonesia.pmtiles","updatedAt":"2026-07-26T09:42:18.990Z"},"geometry":{"type":"Polygon","coordinates":[[[123.02335739135742,-1.461967111059593],[123.02395820617676,-1.4599078441406874],[123.02481651306152,-1.4601652526087463],[123.02515983581543,-1.4607658722529493],[123.02490234375,-1.4617097027979753],[123.02335739135742,-1.461967111059593]]]}},{"type":"Feature","id":"pmtiles:10/861/516:landuse:14117440340:29","properties":{"class":"residential","kind":"green","verification":"verified","source":"OpenMapTiles/OpenStreetMap national PMTiles","sourceId":"10/861/516:landuse:14117440340:29","sourceLayer":"landuse","archive":"https://its.hanifahseptiani45.workers.dev/v1/map/archive/indonesia.pmtiles","updatedAt":"2026-07-26T09:42:18.990Z"},"geometry":{"type":"Polygon","coordinates":[[[123.02618980407715,-1.4532152136410588],[123.02679061889648,-1.4534726228737327],[123.02507400512695,-1.4590498157009506],[123.02464485168457,-1.4588782099737188],[123.02464485168457,-1.45793437824004],[123.02361488342285,-1.4575053636847883],[123.0237865447998,-1.4569047431701563],[123.02498817443848,-1.4575053636847883],[123.02618980407715,-1.4532152136410588]]]}},{"type":"Feature","id":"pmtiles:10/861/516:landuse:14117440340:30","properties":{"class":"residential","kind":"green","verification":"verified","source":"OpenMapTiles/OpenStreetMap national PMTiles","sourceId":"10/861/516:landuse:14117440340:30","sourceLayer":"landuse","archive":"https://its.hanifahseptiani45.workers.dev/v1/map/archive/indonesia.pmtiles","updatedAt":"2026-07-26T09:42:18.990Z"},"geometry":{"type":"Polygon","coordinates":[[[123.02713394165039,-1.4528720012851863],[123.02618980407715,-1.4526145919840587],[123.02696228027344,-1.4511559387239288],[123.02644729614258,-1.450212103760137],[123.02550315856934,-1.4507269228801078],[123.02481651306152,-1.4503837101464825],[123.02618980407715,-1.4456645297857023],[123.02687644958496,-1.4456645297857023],[123.02773475646973,-1.4414601608369537],[123.02721977233887,-1.4392292680366836],[123.02790641784668,-1.4383712317629715],[123.02824974060059,-1.441545964362561],[123.02936553955078,-1.4423181959475357],[123.0278205871582,-1.4477238096967966],[123.02713394165039,-1.4528720012851863]]]}},{"type":"Feature","id":"pmtiles:10/861/516:landuse:14117440340:31","properties":{"class":"residential","kind":"green","verification":"verified","source":"OpenMapTiles/OpenStreetMap national PMTiles","sourceId":"10/861/516:landuse:14117440340:31","sourceLayer":"landuse","archive":"https://its.hanifahseptiani45.workers.dev/v1/map/archive/indonesia.pmtiles","updatedAt":"2026-07-26T09:42:18.990Z"},"geometry":{"type":"Polygon","coordinates":[[[123.03485870361328,-1.4357113172649036],[123.03408622741699,-1.4354539060201006],[123.03408622741699,-1.4332230073518417],[123.03640365600586,-1.4325365765549805],[123.03640365600586,-1.433394615018912],[123.03494453430176,-1.4335662226731216],[123.03537368774414,-1.4355397097715894],[123.03485870361328,-1.4357113172649036]]]}},{"type":"Feature","id":"pmtiles:10/861/516:landuse:14117440340:32","properties":{"class":"residential","kind":"green","verification":"verified","source":"OpenMapTiles/OpenStreetMap national PMTiles","sourceId":"10/861/516:landuse:14117440340:32","sourceLayer":"landuse","archive":"https://its.hanifahseptiani45.workers.dev/v1/map/archive/indonesia.pmtiles","updatedAt":"2026-07-26T09:42:18.990Z"},"geometry":{"type":"Polygon","coordinates":[[[123.03863525390625,-1.416748611665156],[123.03949356079102,-1.417949873660234],[123.03829193115234,-1.418550504424033],[123.03812026977539,-1.419751765483781],[123.0373477935791,-1.4189795263027207],[123.0370044708252,-1.4161479804340047],[123.03769111633301,-1.4157189580307374],[123.03863525390625,-1.416748611665156]]]}},{"type":"Feature","id":"pmtiles:10/861/516:landuse:14117440340:33","properties":{"class":"residential","kind":"green","verification":"verified","source":"OpenMapTiles/OpenStreetMap national PMTiles","sourceId":"10/861/516:landuse:14117440340:33","sourceLayer":"landuse","archive":"https://its.hanifahseptiani45.workers.dev/v1/map/archive/indonesia.pmtiles","updatedAt":"2026-07-26T09:42:18.990Z"},"geometry":{"type":"Polygon","coordinates":[[[123.04052352905273,-1.4128874081791025],[123.04095268249512,-1.4111713156797236],[123.04275512695312,-1.40936941719265],[123.04524421691895,-1.4091120030092128],[123.04232597351074,-1.4107422923569715],[123.04112434387207,-1.413144821944698],[123.04052352905273,-1.4128874081791025]]]}},{"type":"Feature","id":"pmtiles:10/861/516:transportation:12805597152:0","properties":{"class":"ferry","highway":"ferry","kind":"road","verification":"verified","source":"OpenMapTiles/OpenStreetMap national PMTiles","sourceId":"10/861/516:transportation:12805597152:0","sourceLayer":"transportation","archive":"https://its.hanifahseptiani45.workers.dev/v1/map/archive/indonesia.pmtiles","updatedAt":"2026-07-26T09:42:18.990Z"},"geometry":{"type":"LineString","coordinates":[[122.70810127258301,-1.7630273831138652],[122.6898193359375,-1.4521855764170226]]}},{"type":"Feature","id":"pmtiles:10/861/516:water:30:0","properties":{"class":"ocean","water":"ocean","kind":"waterway","verification":"verified","source":"OpenMapTiles/OpenStreetMap national PMTiles","sourceId":"10/861/516:water:30:0","sourceLayer":"water","archive":"https://its.hanifahseptiani45.workers.dev/v1/map/archive/indonesia.pmtiles","updatedAt":"2026-07-26T09:42:18.990Z"},"geometry":{"type":"Polygon","coordinates":[[[122.6898193359375,-1.7630273831138652],[122.6898193359375,-1.4006173190275177],[122.79221534729004,-1.4006173190275177],[122.79238700866699,-1.4009605391805309],[122.79255867004395,-1.40147536931579],[122.79247283935547,-1.4021618093200772],[122.79290199279785,-1.4025908342205327],[122.79298782348633,-1.4031056639972377],[122.79212951660156,-1.4049075673231926],[122.79212951660156,-1.4059372257427043],[122.79144287109375,-1.406023030590518],[122.79187202453613,-1.4068810788949975],[122.79109954833984,-1.4075675173113638],[122.79058456420898,-1.4076533220992076],[122.79041290283203,-1.407996541218992],[122.79152870178223,-1.408940393537776],[122.79230117797852,-1.4103990736417984],[122.79221534729004,-1.4107422923569715],[122.79178619384766,-1.411085511021497],[122.79101371765137,-1.4113429249866698],[122.79067039489746,-1.4103990736417984],[122.79135704040527,-1.4100558548760205],[122.79135704040527,-1.4096268313476372],[122.79075622558594,-1.40936941719265],[122.78998374938965,-1.4099700501766677],[122.78998374938965,-1.4102274642652475],[122.79032707214355,-1.4106564876829282],[122.78998374938965,-1.4111713156797236],[122.79058456420898,-1.4130590173593447],[122.78964042663574,-1.4142602812658964],[122.78964042663574,-1.4157189580307374],[122.78921127319336,-1.4171776338777988],[122.7898120880127,-1.42043820009485],[122.78998374938965,-1.4230981322857161],[122.79041290283203,-1.4236987617109094],[122.79118537902832,-1.4236987617109094],[122.79230117797852,-1.4242993909796127],[122.79281616210938,-1.4265302983207846],[122.79367446899414,-1.4288470075008632],[122.79393196105957,-1.4289328114997204],[122.79376029968262,-1.430134067147094],[122.79315948486328,-1.4315927338735293],[122.79255867004395,-1.433909437942944],[122.7927303314209,-1.4341668493615316],[122.7930736541748,-1.4341668493615316],[122.79427528381348,-1.4334804188476085],[122.79436111450195,-1.4345958683281737],[122.79436111450195,-1.4348532796695537],[122.79358863830566,-1.4349390834435667],[122.79238700866699,-1.436740961954186],[122.79230117797852,-1.437341587808632],[122.79264450073242,-1.4378564098438602],[122.79393196105957,-1.4368267656573437],[122.79333114624023,-1.4386286426789638],[122.79144287109375,-1.4402589111389545],[122.79067039489746,-1.440516321841855],[122.79067039489746,-1.4418891784326746],[122.78989791870117,-1.4423181959475357],[122.78998374938965,-1.4435194445587882],[122.78938293457031,-1.4436910514514523],[122.78929710388184,-1.4440342651979137],[122.78955459594727,-1.4443774788925765],[122.79006958007812,-1.444463282308135],[122.79006958007812,-1.445578726415519],[122.78861045837402,-1.4477238096967966],[122.78955459594727,-1.4483244326519724],[122.78938293457031,-1.4507269228801078],[122.7898120880127,-1.4508127260553891],[122.79024124145508,-1.450212103760137],[122.79049873352051,-1.450212103760137],[122.79024124145508,-1.450898529227402],[122.79041290283203,-1.4524429857670214],[122.79006958007812,-1.4533010167218805],[122.7901554107666,-1.4535584259447631],[122.79075622558594,-1.4541590473507284],[122.79135704040527,-1.4541590473507284],[122.79152870178223,-1.454330653437367],[122.79118537902832,-1.4548454716189667],[122.79084205627441,-1.4548454716189667],[122.7898120880127,-1.4538158351383146],[122.7883529663086,-1.4537300320770612],[122.78800964355469,-1.4538158351383146],[122.7875804901123,-1.4547596685968642],[122.78663635253906,-1.4550170776534088],[122.78620719909668,-1.4548454716189667],[122.78620719909668,-1.4538158351383146],[122.78586387634277,-1.4538158351383146],[122.78552055358887,-1.454244850395682],[122.78483390808105,-1.4563041224953963],[122.78491973876953,-1.4566473343291477],[122.7861213684082,-1.458277589825343],[122.7875804901123,-1.458020181141265],[122.78809547424316,-1.458277589825343],[122.78826713562012,-1.4587066042333987],[122.78792381286621,-1.4598220413114404],[122.78783798217773,-1.4609374778360973],[122.78749465942383,-1.4612806889630434],[122.78655052185059,-1.461538097273845],[122.78594970703125,-1.4611090834061287],[122.78594970703125,-1.460594266656699],[122.78552055358887,-1.460594266656699],[122.78517723083496,-1.4637689680642438],[122.78560638427734,-1.4641121787581568],[122.78646469116211,-1.4636831653825482],[122.78646469116211,-1.4634257573177933],[122.78603553771973,-1.4632541519248718],[122.78680801391602,-1.4621387165509532],[122.78921127319336,-1.461967111059593],[122.78921127319336,-1.4636831653825482],[122.7898120880127,-1.4648844026273053],[122.78852462768555,-1.4669436649768102],[122.79084205627441,-1.4677158878693604],[122.79195785522461,-1.4671152700870778],[122.79247283935547,-1.4672010726372804],[122.79281616210938,-1.4675442828051644],[122.79281616210938,-1.468573912992781],[122.7916145324707,-1.4697751476120828],[122.79255867004395,-1.470976381585217],[122.7927303314209,-1.4719202078247235],[122.79358863830566,-1.4725208243146142],[122.79367446899414,-1.4728640336647345],[122.79333114624023,-1.4732072429619905],[122.7927303314209,-1.4732072429619905],[122.79230117797852,-1.4721776149116295],[122.7916145324707,-1.472778231332157],[122.79118537902832,-1.472778231332157],[122.79092788696289,-1.4721776149116295],[122.79058456420898,-1.4721776149116295],[122.79058456420898,-1.4726066266570967],[122.79006958007812,-1.472949835994001],[122.78955459594727,-1.4741510682568162],[122.78972625732422,-1.476038717645892],[122.78938293457031,-1.4784411781867988],[122.79032707214355,-1.481530052204178],[122.79075622558594,-1.481444250206252],[122.7916145324707,-1.4801572198387447],[122.79255867004395,-1.48007141778767],[122.79255867004395,-1.4805004280098188],[122.79170036315918,-1.4810152401667978],[122.79144287109375,-1.4817016561900687],[122.79195785522461,-1.482988685660274],[122.79298782348633,-1.484361516270198],[122.79350280761719,-1.4859059496874778],[122.79461860656738,-1.4864207605866397],[122.79496192932129,-1.4877077873093612],[122.7953052520752,-1.4880509943086224],[122.79590606689453,-1.4879651925638058],[122.79599189758301,-1.486935571365791],[122.79624938964844,-1.4865065623914973],[122.79659271240234,-1.486334958778457],[122.7971076965332,-1.486678165991222],[122.79770851135254,-1.4879651925638058],[122.79753684997559,-1.4885658047073917],[122.79762268066406,-1.4889090115731278],[122.79830932617188,-1.490281838501602],[122.79865264892578,-1.4913972597508973],[122.80071258544922,-1.4912256565185658],[122.79985427856445,-1.490710846741294],[122.79942512512207,-1.4895954251442873],[122.7996826171875,-1.4888232098617067],[122.80036926269531,-1.4880509943086224],[122.8007984161377,-1.488222597788237],[122.80088424682617,-1.4891664166873682],[122.80148506164551,-1.4889948132812236],[122.80122756958008,-1.4879651925638058],[122.80071258544922,-1.4876219855511863],[122.8000259399414,-1.4864207605866397],[122.80011177062988,-1.4847047237895197],[122.80062675476074,-1.4842757143820364],[122.80097007751465,-1.4842757143820364],[122.80122756958008,-1.484876327529193],[122.80139923095703,-1.4849621293940487],[122.80242919921875,-1.4841041105957373],[122.80320167541504,-1.4838467048913202],[122.80466079711914,-1.4820448641219315],[122.80517578125,-1.4817016561900687],[122.80577659606934,-1.4820448641219315],[122.80637741088867,-1.4819590621439431],[122.80689239501953,-1.4804146259720312],[122.80646324157715,-1.4796424074825438],[122.80680656433105,-1.4795566054115596],[122.80697822570801,-1.4790417929159503],[122.80757904052734,-1.479127595006858],[122.80817985534668,-1.4788701887242155],[122.80860900878906,-1.4794708033372501],[122.8092098236084,-1.4796424074825438],[122.80946731567383,-1.4793850012596295],[122.80946731567383,-1.47861278241173],[122.80963897705078,-1.47861278241173],[122.80972480773926,-1.4792133970944263],[122.81023979187012,-1.4798140116145646],[122.80998229980469,-1.4811010421813364],[122.80963897705078,-1.4810152401667978],[122.8092098236084,-1.479985615733284],[122.80826568603516,-1.4801572198387447],[122.80817985534668,-1.4806720320754323],[122.80852317810059,-1.4813584482050146],[122.80757904052734,-1.4821306660965945],[122.80732154846191,-1.482988685660274],[122.80672073364258,-1.483160289533103],[122.80714988708496,-1.483675101071725],[122.80817985534668,-1.483675101071725],[122.80869483947754,-1.4845331200365166],[122.80998229980469,-1.485047931255565],[122.8106689453125,-1.485047931255565],[122.8110122680664,-1.484618921914688],[122.8121280670166,-1.4841899124905495],[122.81247138977051,-1.482988685660274],[122.81410217285156,-1.4832460914645225],[122.81418800354004,-1.4828170817741437],[122.81453132629395,-1.4827312798260834],[122.81487464904785,-1.4821306660965945],[122.81530380249023,-1.482216468067918],[122.81530380249023,-1.4829028837188645],[122.81564712524414,-1.483160289533103],[122.81599044799805,-1.482988685660274],[122.816162109375,-1.482216468067918],[122.81736373901367,-1.4827312798260834],[122.8172779083252,-1.4834176953173852],[122.81744956970215,-1.4842757143820364],[122.81753540039062,-1.4835892991569466],[122.81796455383301,-1.483160289533103],[122.81856536865234,-1.4833318933926165],[122.81925201416016,-1.482988685660274],[122.81950950622559,-1.482388072000603],[122.8201961517334,-1.482388072000603],[122.82028198242188,-1.4819590621439431],[122.82071113586426,-1.482216468067918],[122.82062530517578,-1.482559675920001],[122.82011032104492,-1.4828170817741437],[122.81985282897949,-1.4832460914645225],[122.82011032104492,-1.4835892991569466],[122.82062530517578,-1.4837609029831924],[122.82045364379883,-1.4842757143820364],[122.82139778137207,-1.4852195349685928],[122.82114028930664,-1.486077553333871],[122.82174110412598,-1.486935571365791],[122.8219985961914,-1.4888232098617067],[122.82182693481445,-1.4891664166873682],[122.82122611999512,-1.4893380200801687],[122.82122611999512,-1.4895954251442873],[122.82156944274902,-1.4895954251442873],[122.8216552734375,-1.489767028503664],[122.82208442687988,-1.4895954251442873],[122.82191276550293,-1.4901102351823425],[122.82242774963379,-1.490281838501602],[122.82259941101074,-1.4913972597508973],[122.82371520996094,-1.4924268788638528],[122.82431602478027,-1.4925984820024922],[122.82543182373047,-1.4921694741307903],[122.82620429992676,-1.4927700851277308],[122.82629013061523,-1.4929416882395827],[122.82560348510742,-1.4939713066293052],[122.82577514648438,-1.4952583289378651],[122.82534599304199,-1.4953441303982657],[122.82560348510742,-1.4956015347593734],[122.82517433166504,-1.496030541960792],[122.82560348510742,-1.4973175630615998],[122.82491683959961,-1.4985187820739014],[122.82388687133789,-1.4983471793981664],[122.82285690307617,-1.4986903847361788],[122.82225608825684,-1.4998058017131228],[122.82191276550293,-1.4995483978457997],[122.82174110412598,-1.4987761860622584],[122.82071113586426,-1.4989477887043705],[122.8205394744873,-1.4981755767090021],[122.82011032104492,-1.4979181726500599],[122.81865119934082,-1.4983471793981664],[122.81856536865234,-1.4992909939482217],[122.8213119506836,-1.5022940375354068],[122.82285690307617,-1.5034094526740063],[122.82380104064941,-1.5044390661422682],[122.82663345336914,-1.5058118833439949],[122.8274917602539,-1.5069272966837701],[122.82723426818848,-1.507527903630134],[122.82740592956543,-1.5081285104108275],[122.82766342163086,-1.5080427094522975],[122.82800674438477,-1.5074421026479428],[122.82869338989258,-1.5067556946686835],[122.82920837402344,-1.5067556946686835],[122.83023834228516,-1.507270500673414],[122.83032417297363,-1.5076995055843838],[122.83066749572754,-1.5078711075251192],[122.83075332641602,-1.5086433160908967],[122.83135414123535,-1.5091581216491505],[122.8311824798584,-1.5098445288706017],[122.82903671264648,-1.5104451350115653],[122.82800674438477,-1.5103593341444537],[122.8274917602539,-1.509930329758049],[122.82723426818848,-1.5087291170257373],[122.82663345336914,-1.5091581216491505],[122.82697677612305,-1.5110457409865177],[122.8274917602539,-1.5115605459757262],[122.82774925231934,-1.5128475579146397],[122.82920837402344,-1.5145635726454003],[122.8329849243164,-1.517738196313772],[122.83341407775879,-1.518510401366612],[122.83435821533203,-1.5188536035237803],[122.8352165222168,-1.5210844162160981],[122.83796310424805,-1.5241732299817272],[122.838134765625,-1.523830028670858],[122.83616065979004,-1.5195400076745642],[122.83753395080566,-1.51911100510587],[122.8377914428711,-1.5174807945682147],[122.83710479736328,-1.5138771669160747],[122.83736228942871,-1.5133623624764567],[122.83770561218262,-1.5135339639699197],[122.8377914428711,-1.5141345690900465],[122.8384780883789,-1.5146493733462734],[122.83822059631348,-1.515421579501293],[122.8384780883789,-1.5162795860172622],[122.8392505645752,-1.5169659909851703],[122.83916473388672,-1.5197974091748563],[122.83942222595215,-1.5200548106444955],[122.83993721008301,-1.5197116086781648],[122.84019470214844,-1.5198832096681514],[122.84010887145996,-1.5208270148692264],[122.84036636352539,-1.5213418175322317],[122.84002304077148,-1.5219424204837964],[122.8392505645752,-1.522028220891798],[122.83899307250977,-1.5224572228805755],[122.83907890319824,-1.5228862247839885],[122.83967971801758,-1.524087429659133],[122.84002304077148,-1.5243448306166556],[122.84062385559082,-1.523830028670858],[122.84053802490234,-1.5231436258850408],[122.8410530090332,-1.522199821697555],[122.84165382385254,-1.522028220891798],[122.84182548522949,-1.5228004244101356],[122.8410530090332,-1.5257176352035913],[122.8407096862793,-1.5259750359661268],[122.8395938873291,-1.5258892357153684],[122.83942222595215,-1.526489837398799],[122.84036636352539,-1.5272620393166534],[122.84345626831055,-1.528634842040944],[122.84371376037598,-1.529149642836316],[122.8432846069336,-1.5294928432979447],[122.84131050109863,-1.529149642836316],[122.84139633178711,-1.5300076438874726],[122.84113883972168,-1.5300934439737262],[122.8392505645752,-1.5273478395126148],[122.83882141113281,-1.526489837398799],[122.83736228942871,-1.5261466364573693],[122.8370189666748,-1.5264040371685752],[122.83710479736328,-1.5269188384985029],[122.838134765625,-1.529750243608163],[122.83864974975586,-1.5302650441359305],[122.84079551696777,-1.5311230447409372],[122.84302711486816,-1.5324958449945143],[122.84379959106445,-1.5334396446584435],[122.8450870513916,-1.5373864387408958],[122.84714698791504,-1.5420196224822007],[122.8480052947998,-1.54244862046707],[122.8487777709961,-1.5440788120205156],[122.8505802154541,-1.546309598435755],[122.85221099853516,-1.5501705693810095],[122.85289764404297,-1.5522297510072747],[122.85264015197754,-1.5542031315173261],[122.85375595092773,-1.556433907264477],[122.85409927368164,-1.558321484899679],[122.85409927368164,-1.560209060843178],[122.85178184509277,-1.5630404215819595],[122.84929275512695,-1.5673303548183526],[122.84860610961914,-1.5753096072435682],[122.84920692443848,-1.576939773339447],[122.84912109375,-1.5777119568340083],[122.85118103027344,-1.5791705248749253],[122.85324096679688,-1.5797711114178128],[122.85392761230469,-1.5804574958256552],[122.8557300567627,-1.5816586679934233],[122.85744667053223,-1.5822592538165878],[122.85778999328613,-1.583374627026771],[122.85890579223633,-1.5837178186630325],[122.86113739013672,-1.585519573820605],[122.86259651184082,-1.586291754122442],[122.8644847869873,-1.588608293298222],[122.8652572631836,-1.590581639436337],[122.86602973937988,-1.5916970081579933],[122.86834716796875,-1.59341295885919],[122.86869049072266,-1.5953863003981752],[122.87117958068848,-1.5961584770069805],[122.87186622619629,-1.5966732612517376],[122.87323951721191,-1.596930653325785],[122.8740119934082,-1.5974454373771607],[122.87426948547363,-1.5979602212995445],[122.87735939025879,-1.5995045722923749],[122.88268089294434,-1.6007057333721093],[122.88439750671387,-1.6007057333721093],[122.88688659667969,-1.599933558473026],[122.88946151733398,-1.5994187750454785],[122.89229393005371,-1.5997619640115346],[122.89306640625,-1.6001909501383693],[122.89461135864258,-1.6005341389752346],[122.89632797241211,-1.6001909501383693],[122.89770126342773,-1.6003625445639784],[122.90061950683594,-1.5992471805409139],[122.90302276611328,-1.599161383283274],[122.90448188781738,-1.5997619640115346],[122.90654182434082,-1.5992471805409139],[122.90714263916016,-1.5989039914887826],[122.90800094604492,-1.5986465996620183],[122.90834426879883,-1.5977886266730792],[122.9092025756836,-1.5977886266730792],[122.90911674499512,-1.5966732612517376],[122.90937423706055,-1.5964158691454742],[122.91014671325684,-1.5961584770069805],[122.91134834289551,-1.5968448559713693],[122.91186332702637,-1.5958152874388531],[122.91263580322266,-1.5959010848362567],[122.9139232635498,-1.595214705556856],[122.91418075561523,-1.5947857183909377],[122.91512489318848,-1.5940993387394826],[122.9150390625,-1.5933271613580615],[122.91581153869629,-1.5928123762762993],[122.91658401489258,-1.592898173798858],[122.91701316833496,-1.592640781220453],[122.91709899902344,-1.592469186150339],[122.91666984558105,-1.5919544008542346],[122.91675567626953,-1.591439615429607],[122.91855812072754,-1.589981056028762],[122.91967391967773,-1.5896378654316834],[122.92001724243164,-1.5889514840663992],[122.92061805725098,-1.5885224955972603],[122.92010307312012,-1.5882651024730308],[122.92036056518555,-1.5876645183918043],[122.92181968688965,-1.5870639341360828],[122.9219913482666,-1.5868065408302385],[122.92173385620117,-1.5867207430544994],[122.92173385620117,-1.586377551915973],[122.92259216308594,-1.5856053716461531],[122.92465209960938,-1.584918988942249],[122.92465209960938,-1.5845757975049821],[122.92422294616699,-1.5843184038896965],[122.92387962341309,-1.5835462228520072],[122.92370796203613,-1.583374627026771],[122.92267799377441,-1.584918988942249],[122.92250633239746,-1.583803616563216],[122.92207717895508,-1.5831172332622998],[122.92216300964355,-1.5822592538165878],[122.9216480255127,-1.5815728700044929],[122.92139053344727,-1.5815728700044929],[122.92121887207031,-1.582345051777125],[122.92078971862793,-1.5826882435838172],[122.91967391967773,-1.5826024456374768],[122.91864395141602,-1.5829456374015507],[122.91847229003906,-1.5826024456374768],[122.91915893554688,-1.581744465978801],[122.9190731048584,-1.5803716977870863],[122.91933059692383,-1.5801143036500918],[122.91993141174316,-1.5801143036500918],[122.92001724243164,-1.5791705248749253],[122.92036056518555,-1.5790847267831936],[122.92139053344727,-1.5797711114178128],[122.92224884033203,-1.5795995152804068],[122.92259216308594,-1.5789989286879234],[122.92242050170898,-1.5777977549823987],[122.92267799377441,-1.5777119568340083],[122.92387962341309,-1.5795137172064102],[122.92482376098633,-1.5797711114178128],[122.9256820678711,-1.5805432938606856],[122.9263687133789,-1.5820876578848413],[122.92722702026367,-1.5820876578848413],[122.92731285095215,-1.581744465978801],[122.92654037475586,-1.5808864859653653],[122.92645454406738,-1.5803716977870863],[122.92662620544434,-1.5795995152804068],[122.9271411895752,-1.5787415343808675],[122.9271411895752,-1.577454562367663],[122.9274845123291,-1.576510782385327],[122.92722702026367,-1.575738598445156],[122.9274845123291,-1.5747948176850741],[122.9274845123291,-1.5740226331089104],[122.92799949645996,-1.573250448246796],[122.92765617370605,-1.5727356581799086],[122.9289436340332,-1.5729072548829777],[122.9286003112793,-1.5723066663604897],[122.92963027954102,-1.5711054887971727],[122.9300594329834,-1.5674161533935091],[122.93066024780273,-1.5665581674837057],[122.93091773986816,-1.565871778502867],[122.9318618774414,-1.565271187960235],[122.93246269226074,-1.564584798558002],[122.93289184570312,-1.5644132011723428],[122.93349266052246,-1.5649279932871991],[122.93383598327637,-1.564842194610165],[122.93349266052246,-1.5643274024742624],[122.93392181396484,-1.5633836165637263],[122.9329776763916,-1.5624398302288967],[122.93194770812988,-1.5621824338821568],[122.93108940124512,-1.5614960434700151],[122.93340682983398,-1.5618392387041098],[122.93400764465332,-1.5616676410940755],[122.93435096740723,-1.562268232667904],[122.93495178222656,-1.5624398302288967],[122.93512344360352,-1.5616676410940755],[122.93581008911133,-1.5614960434700151],[122.93726921081543,-1.560209060843178],[122.93769836425781,-1.5608954516755205],[122.93804168701172,-1.5609812505138052],[122.93829917907715,-1.5602948597094581],[122.93821334838867,-1.5593510719877912],[122.93718338012695,-1.5582356859529511],[122.93795585632324,-1.558321484899679],[122.93829917907715,-1.5579782890917784],[122.93795585632324,-1.5561765101832634],[122.93821334838867,-1.5561765101832634],[122.93889999389648,-1.5566913043142563],[122.93907165527344,-1.5561765101832634],[122.93838500976562,-1.5558333140261027],[122.93889999389648,-1.555404318751144],[122.93907165527344,-1.5555759168715895],[122.93950080871582,-1.5554901178131075],[122.93924331665039,-1.5553185196856845],[122.93915748596191,-1.5541173324030382],[122.94018745422363,-1.5529161444371766],[122.94027328491211,-1.5522297510072747],[122.94001579284668,-1.5517149557886114],[122.94061660766602,-1.551371758906555],[122.94087409973145,-1.5522297510072747],[122.94156074523926,-1.5520581526149755],[122.94181823730469,-1.5515433573545465],[122.94147491455078,-1.5509427627256969],[122.94207572937012,-1.5506853649754362],[122.94198989868164,-1.5501705693810095],[122.94233322143555,-1.5492267771328159],[122.94310569763184,-1.5485403825063742],[122.94336318969727,-1.5488835798473843],[122.94387817382812,-1.5489693791739683],[122.94413566589355,-1.5495699743626261],[122.94447898864746,-1.5494841750603854],[122.94447898864746,-1.5490551784970563],[122.9439640045166,-1.548797780517333],[122.9450798034668,-1.5475107901499712],[122.94516563415527,-1.546995993784293],[122.94482231140137,-1.5465669967174733],[122.94525146484375,-1.5465669967174733],[122.94568061828613,-1.546137999563939],[122.94550895690918,-1.5454516039379484],[122.94559478759766,-1.5452800049967834],[122.94585227966309,-1.5454516039379484],[122.94636726379395,-1.5449368070728724],[122.94610977172852,-1.5443362105725953],[122.9468822479248,-1.5445078095900016],[122.94791221618652,-1.543735613902598],[122.94825553894043,-1.542963417934729],[122.94868469238281,-1.5430492175005526],[122.94937133789062,-1.5426202196367882],[122.94980049133301,-1.5427918187926792],[122.95022964477539,-1.5433924157292864],[122.95125961303711,-1.542963417934729],[122.95211791992188,-1.5432208166218402],[122.9520320892334,-1.543649814364457],[122.95246124267578,-1.543735613902598],[122.95254707336426,-1.5433066161772757],[122.95323371887207,-1.5430492175005526],[122.95323371887207,-1.54244862046707],[122.95271873474121,-1.5420196224822007],[122.95151710510254,-1.5421912216865223],[122.95134544372559,-1.5415906244108726],[122.95246124267578,-1.5416764240320475],[122.95340538024902,-1.5413332255265715],[122.95400619506836,-1.5425344200536557],[122.95477867126465,-1.5421054220860952],[122.9560661315918,-1.541933822874853],[122.9560661315918,-1.5422770212834962],[122.95692443847656,-1.5430492175005526],[122.95778274536133,-1.5431350170629372],[122.95855522155762,-1.5440788120205156],[122.95924186706543,-1.5440788120205156],[122.9593276977539,-1.5445078095900016],[122.96001434326172,-1.5451084060417628],[122.96001434326172,-1.5452800049967834],[122.95941352844238,-1.5453658044690997],[122.95778274536133,-1.5445078095900016],[122.95761108398438,-1.544851007583219],[122.95804023742676,-1.5458806012301949],[122.95881271362305,-1.546395397866462],[122.95915603637695,-1.5464811972937156],[122.95967102050781,-1.5458806012301949],[122.9604434967041,-1.5457948017786975],[122.96361923217773,-1.5459664006782532],[122.96379089355469,-1.5439930124962444],[122.96353340148926,-1.5431350170629372],[122.96387672424316,-1.5420196224822007],[122.96464920043945,-1.5415048247862302],[122.96627998352051,-1.541933822874853],[122.96730995178223,-1.5417622236497692],[122.96662330627441,-1.5409042273169433],[122.96602249145508,-1.5407326280088967],[122.96464920043945,-1.5396172321697037],[122.96439170837402,-1.5391024338932056],[122.96473503112793,-1.5383302362454572],[122.96542167663574,-1.537901237431484],[122.9655933380127,-1.5381586367302162],[122.96619415283203,-1.5381586367302162],[122.96679496765137,-1.5386734352345286],[122.96713829040527,-1.5385876354924335],[122.96799659729004,-1.537901237431484],[122.96825408935547,-1.537300638947059],[122.96876907348633,-1.537643838101701],[122.96919822692871,-1.5373864387408958],[122.96954154968262,-1.5360136416258143],[122.97048568725586,-1.5356704422092236],[122.97082901000977,-1.5350698430975456],[122.97048568725586,-1.5330106448627845],[122.97091484069824,-1.532152645013582],[122.97074317932129,-1.5316378449390982],[122.97091484069824,-1.5306940444813506],[122.97125816345215,-1.5306940444813506],[122.97117233276367,-1.5313804448554578],[122.9714298248291,-1.5318952449918015],[122.97134399414062,-1.5324958449945143],[122.97168731689453,-1.5334396446584435],[122.9728889465332,-1.5330106448627845],[122.97340393066406,-1.533525444607264],[122.9743480682373,-1.5328390449204505],[122.97486305236816,-1.5330964448287858],[122.97477722167969,-1.5322384450139594],[122.97409057617188,-1.5317236449600955],[122.9740047454834,-1.5314662448867722],[122.97460556030273,-1.5306082444191276],[122.97443389892578,-1.5295786434047756],[122.97503471374512,-1.5288064423197767],[122.97563552856445,-1.5290638427123184],[122.97623634338379,-1.5288922424540488],[122.97700881958008,-1.527176239117253],[122.97760963439941,-1.526489837398799],[122.97735214233398,-1.5262324366978675],[122.97752380371094,-1.5243448306166556],[122.97675132751465,-1.5237442283345786],[122.97726631164551,-1.523486827305291],[122.9780387878418,-1.5246880318454714],[122.97881126403809,-1.5249454327311867],[122.98027038574219,-1.5246022315433976],[122.98138618469238,-1.524001629333128],[122.9820728302002,-1.524259030300911],[122.98275947570801,-1.5237442283345786],[122.98370361328125,-1.523401026955355],[122.9838752746582,-1.5225430232680992],[122.98464775085449,-1.522028220891798],[122.9853343963623,-1.5201406111275446],[122.9864501953125,-1.5202264116071973],[122.98670768737793,-1.5197116086781648],[122.9864501953125,-1.5189394040545494],[122.98653602600098,-1.5183388002675997],[122.98713684082031,-1.518081398593523],[122.98765182495117,-1.518510401366612],[122.98833847045898,-1.517823996888822],[122.98868179321289,-1.5166227885284371],[122.98971176147461,-1.515936383451674],[122.99074172973633,-1.5162795860172622],[122.99091339111328,-1.5167085891477257],[122.99117088317871,-1.5166227885284371],[122.99117088317871,-1.5161937853809633],[122.99074172973633,-1.5161937853809633],[122.98979759216309,-1.5158505828017894],[122.98962593078613,-1.515507380168188],[122.99099922180176,-1.513962967644133],[122.99117088317871,-1.5153357788310018],[122.99168586730957,-1.5156789814917744],[122.99245834350586,-1.5153357788310018],[122.99323081970215,-1.5141345690900465],[122.99443244934082,-1.5137913661846198],[122.99614906311035,-1.5146493733462734],[122.9970932006836,-1.516022184098162],[122.99769401550293,-1.5161937853809633],[122.99846649169922,-1.5157647821484659],[122.99898147583008,-1.5157647821484659],[122.99872398376465,-1.5152499781573],[122.9988956451416,-1.5144777719411167],[122.99949645996094,-1.5131907609694224],[122.99915313720703,-1.5123327532306519],[122.99958229064941,-1.5113889443262138],[122.99941062927246,-1.5107883384461473],[122.99966812133789,-1.509930329758049],[122.99941062927246,-1.5091581216491505],[122.99941062927246,-1.508385913266082],[123.00069808959961,-1.5083001123177127],[123.00095558166504,-1.5080427094522975],[123.00104141235352,-1.5070988986853564],[123.00086975097656,-1.5055544801845144],[123.0018138885498,-1.5046964694334264],[123.00198554992676,-1.5028088445932326],[123.00267219543457,-1.5019508327627733],[123.00284385681152,-1.5008354168795393],[123.00335884094238,-1.4998058017131228],[123.0040454864502,-1.5004064106190924],[123.0043888092041,-1.499462596549975],[123.00524711608887,-1.4988619873849984],[123.00541877746582,-1.4989477887043705],[123.00567626953125,-1.4996341991382849],[123.00481796264648,-1.4998916029954898],[123.00481796264648,-1.5010070193601592],[123.0058479309082,-1.5010928205954173],[123.00713539123535,-1.5022082363473004],[123.00713539123535,-1.502637242254096],[123.00627708435059,-1.5034952538149042],[123.00687789916992,-1.504010060589522],[123.00739288330078,-1.504010060589522],[123.00893783569336,-1.5027230434253624],[123.00902366638184,-1.5010928205954173],[123.00996780395508,-1.4981755767090021],[123.01108360290527,-1.4963737476615222],[123.01142692565918,-1.4953441303982657],[123.01468849182129,-1.493284894423084],[123.01666259765625,-1.4925126804348423],[123.01666259765625,-1.491912069367615],[123.01614761352539,-1.4914830613620609],[123.01614761352539,-1.4911398548973835],[123.01743507385254,-1.489252218385431],[123.01769256591797,-1.4879651925638058],[123.01700592041016,-1.4877935890641822],[123.01709175109863,-1.487107174932163],[123.01769256591797,-1.4859059496874778],[123.01915168762207,-1.484618921914688],[123.01923751831055,-1.4830744875983441],[123.01983833312988,-1.4813584482050146],[123.02000999450684,-1.479985615733284],[123.02129745483398,-1.4774115525588059],[123.02249908447266,-1.475438102104917],[123.02258491516113,-1.4748374864017535],[123.02224159240723,-1.4742368705365152],[123.02370071411133,-1.4713195911730708],[123.02361488342285,-1.470289962251158],[123.02404403686523,-1.4687455179779363],[123.02404403686523,-1.467372677727809],[123.02473068237305,-1.4661714418177212],[123.02464485168457,-1.4652276131504038],[123.02507400512695,-1.464455389399518],[123.02481651306152,-1.4635115600093371],[123.02550315856934,-1.462396124763373],[123.0260181427002,-1.460508463853671],[123.02807807922363,-1.4584491955983907],[123.02850723266602,-1.4566473343291477],[123.02876472473145,-1.4538158351383146],[123.02833557128906,-1.4506411197015723],[123.02850723266602,-1.4496972845230545],[123.02790641784668,-1.4482386293824163],[123.02850723266602,-1.4470373832674568],[123.02824974060059,-1.4465225633091308],[123.02833557128906,-1.4459219398767829],[123.02876472473145,-1.4452355129023573],[123.02953720092773,-1.4424898029308366],[123.02936553955078,-1.4418033749199992],[123.0289363861084,-1.4418033749199992],[123.02885055541992,-1.4413743573081064],[123.02850723266602,-1.441545964362561],[123.02824974060059,-1.4413743573081064],[123.02859306335449,-1.440173107564874],[123.02824974060059,-1.4372557841248152],[123.02833557128906,-1.436740961954186],[123.02953720092773,-1.4369125693572755],[123.02979469299316,-1.4372557841248152],[123.02979469299316,-1.43802801716312],[123.0300521850586,-1.4381996244695046],[123.03082466125488,-1.4381138208179323],[123.03125381469727,-1.437341587808632],[123.03168296813965,-1.437427391489237],[123.03168296813965,-1.4381138208179323],[123.03125381469727,-1.439057660807748],[123.03133964538574,-1.4402589111389545],[123.03194046020508,-1.4418891784326746],[123.03271293640137,-1.4427472133815087],[123.03194046020508,-1.4442916754737638],[123.0318546295166,-1.44609354658796],[123.03228378295898,-1.4466083666436447],[123.03374290466309,-1.4474663998101533],[123.03425788879395,-1.4481528261095775],[123.03322792053223,-1.4446348891295315],[123.03357124328613,-1.4425756064176198],[123.0333137512207,-1.4424039994408133],[123.03271293640137,-1.4425756064176198],[123.03254127502441,-1.4416317678849424],[123.03262710571289,-1.4410311431604015],[123.03408622741699,-1.4393150716462912],[123.03485870361328,-1.4391434644238217],[123.03520202636719,-1.438714446311181],[123.03528785705566,-1.4381138208179323],[123.03485870361328,-1.437427391489237],[123.03494453430176,-1.4368267656573437],[123.0344295501709,-1.4368267656573437],[123.03434371948242,-1.4365693545381788],[123.0347728729248,-1.4358829247453144],[123.03545951843262,-1.4356255135198523],[123.03537368774414,-1.4345100645412856],[123.03614616394043,-1.4340810455585569],[123.03666114807129,-1.433394615018912],[123.03674697875977,-1.4328797919791185],[123.03648948669434,-1.431678537769713],[123.03597450256348,-1.4310779104289395],[123.03597450256348,-1.4290186154953801],[123.03614616394043,-1.4284179874585021],[123.03648948669434,-1.4283321834404177],[123.03640365600586,-1.429962459235938],[123.03657531738281,-1.430134067147094],[123.0370044708252,-1.4290186154953801],[123.03691864013672,-1.4273025349735207],[123.03743362426758,-1.4267019064882476],[123.0373477935791,-1.424041978455051],[123.03794860839844,-1.4224116984654103],[123.0370044708252,-1.4212104387885347],[123.03717613220215,-1.4208672216232259],[123.03829193115234,-1.4200949828148026],[123.03820610046387,-1.418807917560784],[123.03889274597168,-1.418293091258647],[123.04009437561035,-1.4180356780646264],[123.04095268249512,-1.4174350471672312],[123.04232597351074,-1.4174350471672312],[123.04301261901855,-1.4176066560109604],[123.04275512695312,-1.416748611665156],[123.04241180419922,-1.416491198299454],[123.04198265075684,-1.416491198299454],[123.04095268249512,-1.4172634383107834],[123.04078102111816,-1.41700602500228],[123.04095268249512,-1.416491198299454],[123.0424976348877,-1.4153757400509477],[123.04301261901855,-1.415547349047202],[123.04301261901855,-1.4162337849051312],[123.04352760314941,-1.4159763714822304],[123.04378509521484,-1.4150325220203825],[123.04327011108398,-1.4140028676239496],[123.0439567565918,-1.41254418978059],[123.04438591003418,-1.41254418978059],[123.04455757141113,-1.413144821944698],[123.04498672485352,-1.413144821944698],[123.04601669311523,-1.4101416595722185],[123.0472183227539,-1.407996541218992],[123.0483341217041,-1.406966883708094],[123.04859161376953,-1.4059372257427043],[123.04927825927734,-1.4053365917198306],[123.04962158203125,-1.4046501526473918],[123.04970741271973,-1.404135323210724],[123.05039405822754,-1.4035346887246192],[123.05150985717773,-1.401561174327341],[123.05219650268555,-1.4006173190275177],[123.0523681640625,-1.4006173190275177],[123.0523681640625,-1.7630273831138652],[122.6898193359375,-1.7630273831138652]],[[122.95117378234863,-1.5452800049967834],[122.95134544372559,-1.5449368070728724],[122.95168876647949,-1.5440788120205156],[122.95134544372559,-1.5435640148228629],[122.95048713684082,-1.543735613902598],[122.94971466064453,-1.5434782152778013],[122.94928550720215,-1.543735613902598],[122.94928550720215,-1.5443362105725953],[122.94962882995605,-1.5447652080901122],[122.9509162902832,-1.5449368070728724],[122.95117378234863,-1.5452800049967834]],[[122.94885635375977,-1.5474249907643554],[122.94980049133301,-1.5451942055209997],[122.94825553894043,-1.5449368070728724],[122.94774055480957,-1.5452800049967834],[122.9476547241211,-1.5457948017786975],[122.94696807861328,-1.5458806012301949],[122.94628143310547,-1.5465669967174733],[122.9465389251709,-1.5469101943778725],[122.94696807861328,-1.5469101943778725],[122.94791221618652,-1.5464811972937156],[122.94902801513672,-1.546395397866462],[122.94894218444824,-1.546738595554615],[122.94842720031738,-1.546738595554615],[122.94816970825195,-1.5469101943778725],[122.94825553894043,-1.5472533919827356],[122.94885635375977,-1.5474249907643554]],[[122.9413890838623,-1.5540315332852686],[122.94156074523926,-1.5535167385054933],[122.9413890838623,-1.5531735419159247],[122.94078826904297,-1.5529161444371766],[122.94070243835449,-1.5537741359110555],[122.9399299621582,-1.5542031315173261],[122.93967247009277,-1.5548037252196707],[122.94001579284668,-1.5552327206167433],[122.94010162353516,-1.5560049121116606],[122.94044494628906,-1.5558333140261027],[122.94078826904297,-1.5548037252196707],[122.9413890838623,-1.5540315332852686]],[[122.83907890319824,-1.592297591065929],[122.83890724182129,-1.5941851362084236],[122.83804893493652,-1.5951289081308317],[122.83804893493652,-1.5959868822300791],[122.83864974975586,-1.596930653325785],[122.83967971801758,-1.5979602212995445],[122.84088134765625,-1.6006199361754625],[122.84182548522949,-1.6020784880301306],[122.84191131591797,-1.6025074736721479],[122.84148216247559,-1.6030222563239676],[122.84131050109863,-1.6036228359208167],[122.84156799316406,-1.6039660241827534],[122.84208297729492,-1.6039660241827534],[122.84465789794922,-1.6014779079803958],[122.84517288208008,-1.599933558473026],[122.84577369689941,-1.5994187750454785],[122.84577369689941,-1.5986465996620183],[122.84491539001465,-1.5977886266730792],[122.84603118896484,-1.5974454373771607],[122.84663200378418,-1.5977886266730792],[122.84671783447266,-1.5975312347065085],[122.84611701965332,-1.596930653325785],[122.84585952758789,-1.5959010848362567],[122.84534454345703,-1.5953005029793133],[122.8447437286377,-1.5938419463111728],[122.84354209899902,-1.5927265787501739],[122.84354209899902,-1.592297591065929],[122.84405708312988,-1.5921259959672227],[122.84379959106445,-1.5916970081579933],[122.84319877624512,-1.5917828057269645],[122.84225463867188,-1.592469186150339],[122.84062385559082,-1.5907532346635236],[122.8395938873291,-1.5909248298764567],[122.83907890319824,-1.592297591065929]],[[122.81607627868652,-1.48599175151233],[122.81719207763672,-1.486678165991222],[122.81753540039062,-1.486678165991222],[122.81770706176758,-1.486334958778457],[122.81719207763672,-1.4853911386683052],[122.81513214111328,-1.4841041105957373],[122.81410217285156,-1.4839325067961227],[122.81375885009766,-1.4841899124905495],[122.81350135803223,-1.485047931255565],[122.81487464904785,-1.4870213731506396],[122.81384468078613,-1.4880509943086224],[122.81281471252441,-1.4879651925638058],[122.81264305114746,-1.488222597788237],[122.81272888183594,-1.4886516064288315],[122.81315803527832,-1.4889090115731278],[122.81384468078613,-1.4885658047073917],[122.81599044799805,-1.4880509943086224],[122.81710624694824,-1.4883942012544935],[122.81719207763672,-1.4881367960500995],[122.81667709350586,-1.4871929767103325],[122.81556129455566,-1.4867639677860751],[122.81607627868652,-1.48599175151233]],[[122.80706405639648,-1.4870213731506396],[122.80732154846191,-1.4864207605866397],[122.80800819396973,-1.4852195349685928],[122.8077507019043,-1.4847047237895197],[122.80637741088867,-1.48599175151233],[122.80611991882324,-1.4867639677860751],[122.8062915802002,-1.4870213731506396],[122.80672073364258,-1.487107174932163],[122.80706405639648,-1.4870213731506396]],[[122.80242919921875,-1.4992051926423073],[122.80131340026855,-1.498604583406717],[122.80045509338379,-1.498604583406717],[122.80028343200684,-1.4988619873849984],[122.80028343200684,-1.4999774042745173],[122.79994010925293,-1.5006638143854616],[122.80028343200684,-1.5016076279362522],[122.8000259399414,-1.5032378503820638],[122.80028343200684,-1.503924259468846],[122.8000259399414,-1.5050396737743768],[122.80011177062988,-1.5056402812410568],[122.80242919921875,-1.5065840926400398],[122.80294418334961,-1.5070988986853564],[122.80303001403809,-1.507527903630134],[122.80337333679199,-1.507527903630134],[122.80354499816895,-1.5056402812410568],[122.80397415161133,-1.5049538726941876],[122.80285835266113,-1.5047822705237195],[122.80251502990723,-1.5044390661422682],[122.80200004577637,-1.5035810549524484],[122.80191421508789,-1.5027230434253624],[122.8022575378418,-1.5022082363473004],[122.80423164367676,-1.5016934291479345],[122.80466079711914,-1.502122435155826],[122.80474662780762,-1.502637242254096],[122.80457496643066,-1.5031520492310477],[122.80397415161133,-1.5035810549524484],[122.80414581298828,-1.5044390661422682],[122.80474662780762,-1.5043532650384606],[122.80508995056152,-1.5038384583448021],[122.80586242675781,-1.503924259468846],[122.80637741088867,-1.504267463931285],[122.80654907226562,-1.5048680716106446],[122.80766487121582,-1.5056402812410568],[122.80757904052734,-1.5045248672426936],[122.80800819396973,-1.503924259468846],[122.80792236328125,-1.5031520492310477],[122.80732154846191,-1.502122435155826],[122.80689239501953,-1.5020366339609694],[122.80603408813477,-1.5013502242809835],[122.80569076538086,-1.5002348080913634],[122.80440330505371,-1.4997200004273878],[122.80397415161133,-1.4993767952507824],[122.80303001403809,-1.4991193913330108],[122.80242919921875,-1.4992051926423073]],[[122.80457496643066,-1.4873645802566813],[122.80303001403809,-1.4870213731506396],[122.80285835266113,-1.486678165991222],[122.80328750610352,-1.4852195349685928],[122.80311584472656,-1.484790525661026],[122.80234336853027,-1.4853911386683052],[122.80174255371094,-1.4872787784851624],[122.80277252197266,-1.4881367960500995],[122.80320167541504,-1.490196036843642],[122.80345916748047,-1.4905392434554443],[122.80354499816895,-1.4896812268256525],[122.80431747436523,-1.4889948132812236],[122.80474662780762,-1.4876219855511863],[122.80457496643066,-1.4873645802566813]],[[122.79195785522461,-1.50641249059791],[122.79170036315918,-1.5065840926400398],[122.79144287109375,-1.50615508750937],[122.79170036315918,-1.5058118833439949],[122.79101371765137,-1.5056402812410568],[122.79075622558594,-1.505726082294217],[122.79075622558594,-1.5070130976862544],[122.79221534729004,-1.5101019315227688],[122.79281616210938,-1.5107883384461473],[122.794189453125,-1.5107025375925929],[122.79479026794434,-1.5101877324000554],[122.79461860656738,-1.5093297234748349],[122.79358863830566,-1.5082143113659612],[122.79281616210938,-1.5076995055843838],[122.79238700866699,-1.5066698936560527],[122.79195785522461,-1.50641249059791]],[[122.79075622558594,-1.4918262677731917],[122.78989791870117,-1.4919978709586985],[122.78972625732422,-1.491740466175429],[122.78938293457031,-1.491912069367615],[122.78929710388184,-1.4927700851277308],[122.79135704040527,-1.4951725274740966],[122.79212951660156,-1.4953441303982657],[122.79298782348633,-1.4951725274740966],[122.79376029968262,-1.4946577186210845],[122.79427528381348,-1.4939713066293052],[122.7938461303711,-1.491740466175429],[122.79264450073242,-1.491912069367615],[122.79221534729004,-1.4922552757118268],[122.7916145324707,-1.4923410772895238],[122.79075622558594,-1.4918262677731917]],[[122.78998374938965,-1.5257176352035913],[122.78895378112793,-1.5245164312379131],[122.78818130493164,-1.5246022315433976],[122.7875804901123,-1.525546034678115],[122.78732299804688,-1.5253744341389535],[122.78697967529297,-1.5257176352035913],[122.78749465942383,-1.5260608362134604],[122.78809547424316,-1.5260608362134604],[122.7883529663086,-1.5264040371685752],[122.78886795043945,-1.5258034354611993],[122.78946876525879,-1.5260608362134604],[122.78964042663574,-1.5264040371685752],[122.7901554107666,-1.526489837398799],[122.78998374938965,-1.5257176352035913]],[[122.78260231018066,-1.5276052400799784],[122.7828598022461,-1.528634842040944],[122.78260231018066,-1.5290638427123184],[122.78260231018066,-1.5295786434047756],[122.783203125,-1.5320668450097656],[122.78423309326172,-1.5318952449918015],[122.78500556945801,-1.5325816449811498],[122.78560638427734,-1.5322384450139594],[122.78603553771973,-1.5323242450109262],[122.7861213684082,-1.5318952449918015],[122.78655052185059,-1.531981045002496],[122.78689384460449,-1.5323242450109262],[122.78775215148926,-1.5320668450097656],[122.78843879699707,-1.532152645013582],[122.78878211975098,-1.5324100450044398],[122.78921127319336,-1.5323242450109262],[122.78826713562012,-1.5315520449146476],[122.78818130493164,-1.5307798445401346],[122.78826713562012,-1.5306082444191276],[122.78972625732422,-1.5302650441359305],[122.78972625732422,-1.529836043704691],[122.78878211975098,-1.5295786434047756],[122.78826713562012,-1.529750243608163],[122.78766632080078,-1.5290638427123184],[122.78689384460449,-1.5290638427123184],[122.78526306152344,-1.5294928432979447],[122.78509140014648,-1.529149642836316],[122.78509140014648,-1.528634842040944],[122.78457641601562,-1.5282916414421237],[122.78457641601562,-1.5276052400799784],[122.7843189239502,-1.5276052400799784],[122.78406143188477,-1.527176239117253],[122.78449058532715,-1.5269188384985029],[122.78406143188477,-1.5269188384985029],[122.78371810913086,-1.5265756376255837],[122.7835464477539,-1.5272620393166534],[122.78260231018066,-1.5276052400799784]],[[122.78543472290039,-1.5040958617068156],[122.7846622467041,-1.504010060589522],[122.7843189239502,-1.5044390661422682],[122.78388977050781,-1.50615508750937],[122.78346061706543,-1.50641249059791],[122.78260231018066,-1.50615508750937],[122.7820873260498,-1.505897684390419],[122.7817440032959,-1.505297076994637],[122.7820873260498,-1.5048680716106446],[122.78268814086914,-1.5050396737743768],[122.78268814086914,-1.504267463931285],[122.78122901916504,-1.5024656399014873],[122.78045654296875,-1.5022940375354068],[122.78002738952637,-1.5024656399014873],[122.77968406677246,-1.5029804469188832],[122.77942657470703,-1.5029804469188832],[122.77925491333008,-1.5033236515297261],[122.77848243713379,-1.5035810549524484],[122.77796745300293,-1.505297076994637],[122.77822494506836,-1.5060692864730925],[122.77788162231445,-1.5067556946686835],[122.77779579162598,-1.5081285104108275],[122.77839660644531,-1.509930329758049],[122.77856826782227,-1.5117321476116672],[122.77908325195312,-1.512675956366877],[122.77925491333008,-1.5137913661846198],[122.78045654296875,-1.5153357788310018],[122.78071403503418,-1.5162795860172622],[122.78088569641113,-1.5179955980287048],[122.78054237365723,-1.5185962019110093],[122.78131484985352,-1.5219424204837964],[122.78114318847656,-1.5235726276518022],[122.7802848815918,-1.5243448306166556],[122.78045654296875,-1.5246880318454714],[122.78019905090332,-1.5256318349425584],[122.78045654296875,-1.5263182369349266],[122.78191566467285,-1.5261466364573693],[122.78251647949219,-1.5256318349425584],[122.78277397155762,-1.524859632439373],[122.7835464477539,-1.5247738321441346],[122.78380393981934,-1.5246022315433976],[122.78371810913086,-1.524001629333128],[122.7828598022461,-1.5239158290036983],[122.78268814086914,-1.5233152266019943],[122.78217315673828,-1.5229720251544308],[122.78243064880371,-1.522628823652198],[122.783203125,-1.522628823652198],[122.78346061706543,-1.5228004244101356],[122.783203125,-1.523057825521434],[122.78363227844238,-1.5231436258850408],[122.78397560119629,-1.5215992188176841],[122.78363227844238,-1.5213418175322317],[122.78303146362305,-1.521427617964136],[122.78268814086914,-1.5204838130256775],[122.78182983398438,-1.5202264116071973],[122.78140068054199,-1.5184246008188182],[122.78148651123047,-1.518081398593523],[122.78294563293457,-1.5167943897636036],[122.78328895568848,-1.5145635726454003],[122.78491973876953,-1.5125901555879153],[122.78809547424316,-1.5116463467953878],[122.78886795043945,-1.5118179484245502],[122.78912544250488,-1.5115605459757262],[122.7886962890625,-1.510959940143124],[122.78895378112793,-1.5095871261879665],[122.78783798217773,-1.5090723207312493],[122.78689384460449,-1.5082143113659612],[122.78637886047363,-1.5082143113659612],[122.78637886047363,-1.5087291170257373],[122.7857780456543,-1.5093297234748349],[122.78457641601562,-1.5097587279797722],[122.78406143188477,-1.5097587279797722],[122.7835464477539,-1.5091581216491505],[122.78346061706543,-1.5088149179571957],[122.78371810913086,-1.5078711075251192],[122.78414726257324,-1.5070988986853564],[122.78534889221191,-1.5071846996810763],[122.7861213684082,-1.5067556946686835],[122.78620719909668,-1.5070130976862544],[122.78663635253906,-1.507527903630134],[122.78697967529297,-1.5074421026479428],[122.78783798217773,-1.5052112759245944],[122.78646469116211,-1.5038384583448021],[122.78543472290039,-1.5040958617068156]],[[122.78140068054199,-1.4811868441925498],[122.78131484985352,-1.4805862300442811],[122.78088569641113,-1.479899813675587],[122.78088569641113,-1.4802430218864941],[122.78191566467285,-1.4830744875983441],[122.78191566467285,-1.4835892991569466],[122.78225898742676,-1.4840183086975998],[122.78303146362305,-1.4840183086975998],[122.78311729431152,-1.4834176953173852],[122.78251647949219,-1.4828170817741437],[122.7820873260498,-1.481615854198779],[122.78140068054199,-1.4811868441925498]],[[122.74045944213867,-1.4945719171338396],[122.74114608764648,-1.4928558866853336],[122.74131774902344,-1.4915688629698565],[122.74114608764648,-1.4909682516449863],[122.74080276489258,-1.4907966483792023],[122.73985862731934,-1.4921694741307903],[122.73968696594238,-1.4941429096473655],[122.73985862731934,-1.4944861156432552],[122.74045944213867,-1.4945719171338396]]]}},{"type":"Feature","id":"pmtiles:10/862/516:landuse:3169339260:0","properties":{"class":"residential","kind":"green","verification":"verified","source":"OpenMapTiles/OpenStreetMap national PMTiles","sourceId":"10/862/516:landuse:3169339260:0","sourceLayer":"landuse","archive":"https://its.hanifahseptiani45.workers.dev/v1/map/archive/indonesia.pmtiles","updatedAt":"2026-07-26T09:42:19.048Z"},"geometry":{"type":"Polygon","coordinates":[[[123.0413818359375,-1.4107422923569715],[123.04275512695312,-1.40936941719265],[123.04524421691895,-1.4091120030092128],[123.04232597351074,-1.4107422923569715],[123.0413818359375,-1.4126299943849716],[123.0413818359375,-1.4107422923569715]]]}},{"type":"Feature","id":"pmtiles:8/215/129:landuse:3165414610:2","properties":{"class":"residential","kind":"green","verification":"verified","source":"OpenMapTiles/OpenStreetMap national PMTiles","sourceId":"8/215/129:landuse:3165414610:2","sourceLayer":"landuse","archive":"https://its.hanifahseptiani45.workers.dev/v1/map/archive/indonesia.pmtiles","updatedAt":"2026-07-26T09:35:35.995Z"},"geometry":{"type":"Polygon","coordinates":[[[122.82028198242188,-1.482645477874712],[122.82577514648438,-1.4857343460277406],[122.82852172851562,-1.4925984820024922],[122.82611846923828,-1.4939713066293052],[122.82611846923828,-1.4925984820024922],[122.82268524169922,-1.4915688629698565],[122.82028198242188,-1.482645477874712]]]}}]}