{"type":"FeatureCollection","features":[{"type":"Feature","id":"pmtiles:10/811/535:water:130:0","properties":{"class":"ocean","water":"ocean","kind":"waterway","verification":"verified","source":"OpenMapTiles/OpenStreetMap national PMTiles","sourceId":"10/811/535:water:130:0","sourceLayer":"water","archive":"https://its.hanifahseptiani45.workers.dev/v1/map/archive/indonesia.pmtiles","updatedAt":"2026-07-26T09:45:47.267Z"},"geometry":{"type":"Polygon","coordinates":[[[105.1116943359375,-8.053790678898523],[105.4742431640625,-8.053790678898523],[105.4742431640625,-8.412602260297831],[105.1116943359375,-8.412602260297831],[105.1116943359375,-8.053790678898523]]]}}]}