{"type":"FeatureCollection","features":[{"type":"Feature","id":"pmtiles:10/898/518:transportation:7066455060:0","properties":{"class":"ferry","highway":"ferry","kind":"road","verification":"verified","source":"OpenMapTiles/OpenStreetMap national PMTiles","sourceId":"10/898/518:transportation:7066455060:0","sourceLayer":"transportation","archive":"https://its.hanifahseptiani45.workers.dev/v1/map/archive/indonesia.pmtiles","updatedAt":"2026-07-26T09:42:50.816Z"},"geometry":{"type":"LineString","coordinates":[[135.90139389038086,-2.4656692707025485],[136.0601806640625,-2.200758314089839]]}},{"type":"Feature","id":"pmtiles:10/898/518:transportation:7066455060:1","properties":{"class":"ferry","highway":"ferry","kind":"road","verification":"verified","source":"OpenMapTiles/OpenStreetMap national PMTiles","sourceId":"10/898/518:transportation:7066455060:1","sourceLayer":"transportation","archive":"https://its.hanifahseptiani45.workers.dev/v1/map/archive/indonesia.pmtiles","updatedAt":"2026-07-26T09:42:50.816Z"},"geometry":{"type":"LineString","coordinates":[[135.9055995941162,-2.4656692707025485],[136.0601806640625,-2.2096780949404717]]}},{"type":"Feature","id":"pmtiles:10/898/518:water:380:0","properties":{"class":"ocean","water":"ocean","kind":"waterway","verification":"verified","source":"OpenMapTiles/OpenStreetMap national PMTiles","sourceId":"10/898/518:water:380:0","sourceLayer":"water","archive":"https://its.hanifahseptiani45.workers.dev/v1/map/archive/indonesia.pmtiles","updatedAt":"2026-07-26T09:42:50.816Z"},"geometry":{"type":"Polygon","coordinates":[[[135.6976318359375,-2.103409206077373],[136.0601806640625,-2.103409206077373],[136.0601806640625,-2.4656692707025485],[135.6976318359375,-2.4656692707025485],[135.6976318359375,-2.103409206077373]]]}},{"type":"Feature","id":"pmtiles:8/224/129:transportation:7066082470:5","properties":{"class":"ferry","highway":"ferry","kind":"road","verification":"verified","source":"OpenMapTiles/OpenStreetMap national PMTiles","sourceId":"8/224/129:transportation:7066082470:5","sourceLayer":"transportation","archive":"https://its.hanifahseptiani45.workers.dev/v1/map/archive/indonesia.pmtiles","updatedAt":"2026-07-26T09:35:36.638Z"},"geometry":{"type":"LineString","coordinates":[[135.6808090209961,-2.8333171968552904],[136.2469482421875,-1.8893059628373123],[136.2476348876953,-1.9260211370269644],[136.35921478271484,-2.2420118497874455],[136.3623046875,-2.2481869156745518],[136.3674545288086,-2.24887303249497],[136.3121795654297,-2.2584786340574396],[135.90431213378906,-2.695462091366082],[135.86894989013672,-2.8333171968552904]]}}]}