{"type":"FeatureCollection","features":[{"type":"Feature","id":"pmtiles:10/864/497:water:1420:0","properties":{"class":"ocean","water":"ocean","kind":"waterway","verification":"verified","source":"OpenMapTiles/OpenStreetMap national PMTiles","sourceId":"10/864/497:water:1420:0","sourceLayer":"water","archive":"https://its.hanifahseptiani45.workers.dev/v1/map/archive/indonesia.pmtiles","updatedAt":"2026-07-26T09:38:33.776Z"},"geometry":{"type":"Polygon","coordinates":[[[123.7445068359375,5.271477837928373],[124.1070556640625,5.271477837928373],[124.1070556640625,4.910359820532264],[123.7445068359375,4.910359820532264],[123.7445068359375,5.271477837928373]]]}}]}