{"type":"FeatureCollection","features":[{"type":"Feature","id":"pmtiles:10/892/532:water:980:0","properties":{"class":"ocean","water":"ocean","kind":"waterway","verification":"verified","source":"OpenMapTiles/OpenStreetMap national PMTiles","sourceId":"10/892/532:water:980:0","sourceLayer":"water","archive":"https://its.hanifahseptiani45.workers.dev/v1/map/archive/indonesia.pmtiles","updatedAt":"2026-07-26T09:45:23.515Z"},"geometry":{"type":"Polygon","coordinates":[[[133.5882568359375,-7.008215836663396],[133.9508056640625,-7.008215836663396],[133.9508056640625,-7.367914706747754],[133.5882568359375,-7.367914706747754],[133.5882568359375,-7.008215836663396]]]}}]}