{"type":"FeatureCollection","features":[{"type":"Feature","id":"pmtiles:10/891/514:mountain_peak:58180000561:0","properties":{"name_int":"Mount Niefeb","ele_ft":8944,"name_de":"Niefeb","name":"Niefeb","name:id":"Gunung Niefeb","rank":1,"name:en":"Mount Niefeb","class":"peak","ele":2726,"name:latin":"Niefeb","name_en":"Mount Niefeb","kind":"poi","verification":"verified","source":"OpenMapTiles/OpenStreetMap national PMTiles","sourceId":"10/891/514:mountain_peak:58180000561:0","sourceLayer":"mountain_peak","archive":"https://its.hanifahseptiani45.workers.dev/v1/map/archive/indonesia.pmtiles","updatedAt":"2026-07-26T09:42:00.473Z"},"geometry":{"type":"Point","coordinates":[133.54336738586426,-1.1258545124535715]}},{"type":"Feature","id":"pmtiles:10/892/514:mountain_peak:58180000561:0","properties":{"name_int":"Mount Niefeb","ele_ft":8944,"name_de":"Niefeb","name":"Niefeb","name:id":"Gunung Niefeb","rank":1,"name:en":"Mount Niefeb","class":"peak","ele":2726,"name:latin":"Niefeb","name_en":"Mount Niefeb","kind":"poi","verification":"verified","source":"OpenMapTiles/OpenStreetMap national PMTiles","sourceId":"10/892/514:mountain_peak:58180000561:0","sourceLayer":"mountain_peak","archive":"https://its.hanifahseptiani45.workers.dev/v1/map/archive/indonesia.pmtiles","updatedAt":"2026-07-26T09:42:00.550Z"},"geometry":{"type":"Point","coordinates":[133.54336738586426,-1.1258545124535715]}},{"type":"Feature","id":"pmtiles:10/891/515:landcover:77720533:0","properties":{"subclass":"wood","class":"wood","kind":"green","verification":"verified","source":"OpenMapTiles/OpenStreetMap national PMTiles","sourceId":"10/891/515:landcover:77720533:0","sourceLayer":"landcover","archive":"https://its.hanifahseptiani45.workers.dev/v1/map/archive/indonesia.pmtiles","updatedAt":"2026-07-26T09:42:11.916Z"},"geometry":{"type":"Polygon","coordinates":[[[133.5992431640625,-1.0491357039128246],[133.5992431640625,-1.0596052749223475],[133.59786987304688,-1.0602918029364758],[133.5974407196045,-1.0609783307983776],[133.59872817993164,-1.064410967820649],[133.5985565185547,-1.0652691264796914],[133.59349250793457,-1.0662989165550272],[133.5879135131836,-1.0718769401345014],[133.5856819152832,-1.073249990536226],[133.58233451843262,-1.0741939623299004],[133.58173370361328,-1.0759102739347384],[133.58001708984375,-1.0778840310865405],[133.57993125915527,-1.0796003406135384],[133.57864379882812,-1.0804584950138292],[133.57752799987793,-1.0828613260443802],[133.5751247406006,-1.0853499704608822],[133.57443809509277,-1.0888683952784817],[133.57306480407715,-1.0911854045019567],[133.57229232788086,-1.0917002951982795],[133.56971740722656,-1.0913570347438508],[133.56834411621094,-1.092301000899198],[133.56611251831055,-1.0951328975850458],[133.56499671936035,-1.1000243491908748],[133.56199264526367,-1.1012257571320134],[133.5615634918213,-1.1019122757381297],[133.56173515319824,-1.1038002010888874],[133.55890274047852,-1.106803716221279],[133.5601043701172,-1.1092065261374557],[133.55958938598633,-1.1108370031839883],[133.55555534362793,-1.1118667776972728],[133.55469703674316,-1.1116093341026243],[133.55229377746582,-1.1161575009657412],[133.5523796081543,-1.1228510167550212],[133.55083465576172,-1.1307459131075177],[133.55246543884277,-1.1326338199292962],[133.55280876159668,-1.1342642839220645],[133.55212211608887,-1.1347791670974203],[133.55246543884277,-1.137439395375722],[133.55074882507324,-1.1394131115462187],[133.55109214782715,-1.1419875219099396],[133.54928970336914,-1.1469647087368742],[133.54954719543457,-1.1503114329452444],[133.55109214782715,-1.1536581532283634],[133.5523796081543,-1.154859539037048],[133.55941772460938,-1.1587211328371296],[133.56233596801758,-1.1633550384470368],[133.56534004211426,-1.1655861754726686],[133.5670566558838,-1.1652429237375515],[133.56860160827637,-1.1658436142465547],[133.57151985168457,-1.1715930740536038],[133.57495307922363,-1.172451201372482],[133.57563972473145,-1.174167455220939],[133.57787132263184,-1.1757978954010326],[133.58010292053223,-1.1786297102918724],[133.58156204223633,-1.1828345210276296],[133.58405113220215,-1.1854947041224193],[133.5856819152832,-1.1861812025709213],[133.5871410369873,-1.1910724990809172],[133.58868598937988,-1.1921022446095577],[133.58963012695312,-1.1935610501157896],[133.59203338623047,-1.1945907947131644],[133.59366416931152,-1.1977658381241696],[133.59512329101562,-1.1987097692401107],[133.5966682434082,-1.2009408778565245],[133.59915733337402,-1.20179899607038],[133.5992431640625,-1.2020564314819637],[133.5992431640625,-1.2075483811390058],[133.59881401062012,-1.2080632508512394],[133.5974407196045,-1.209092989982949],[133.59512329101562,-1.212782885328366],[133.59435081481934,-1.2131261311514976],[133.5945224761963,-1.2148423596137121],[133.5930633544922,-1.217073454984586],[133.59289169311523,-1.2197336047449312],[133.59169006347656,-1.2211065842378872],[133.59126091003418,-1.2236809188963633],[133.58963012695312,-1.2266843062082131],[133.58688354492188,-1.2284005260162303],[133.5824203491211,-1.2379255258722566],[133.5764980316162,-1.2417870025674347],[133.5677433013916,-1.2421302446675924],[133.56139183044434,-1.2466781982807476],[133.55976104736328,-1.2468498190181663],[133.55727195739746,-1.2459059048239425],[133.55443954467773,-1.2476221121980728],[133.5527229309082,-1.249595749294187],[133.5527229309082,-1.2549159810295123],[133.55546951293945,-1.26495574365849],[133.55521202087402,-1.2703617536190563],[133.55280876159668,-1.2833189694515426],[133.55280876159668,-1.2869229516193315],[133.5545253753662,-1.2930153860762061],[133.5534954071045,-1.2985071454521204],[133.5520362854004,-1.3178140169645758],[133.55186462402344,-1.3252793006139427],[133.55289459228516,-1.3320581019085296],[133.55486869812012,-1.336520087525514],[133.5582160949707,-1.341496908071349],[133.57023239135742,-1.3524802002959433],[133.57186317443848,-1.3563415021796743],[133.5740089416504,-1.367238920873831],[133.57495307922363,-1.3902348856949942],[133.573579788208,-1.4008747341470098],[133.57117652893066,-1.406623664436779],[133.5673999786377,-1.4116003389233214],[133.32449913024902,-1.4116003389233214],[133.32449913024902,-1.4097126360596377],[133.3238124847412,-1.4085113698039038],[133.32415580749512,-1.4073101029288893],[133.320894241333,-1.4046501526473918],[133.32046508789062,-1.4002740988242266],[133.31934928894043,-1.398472191932683],[133.31754684448242,-1.3976999456984203],[133.31677436828613,-1.3982147765494943],[133.31377029418945,-1.397871555994655],[133.31239700317383,-1.4000166836387677],[133.3106803894043,-1.4013895643011125],[133.30604553222656,-1.4010463442109398],[133.30381393432617,-1.4019901993378596],[133.30175399780273,-1.4003599038797603],[133.29866409301758,-1.4003599038797603],[133.29668998718262,-1.40147536931579],[133.29540252685547,-1.4007889291103197],[133.29179763793945,-1.4005315139814059],[133.2887077331543,-1.398643802172458],[133.28493118286133,-1.397442530230549],[133.2827854156494,-1.397871555994655],[133.28055381774902,-1.395640621165839],[133.2780647277832,-1.3947825687449011],[133.27325820922852,-1.39915863281648],[133.2652759552002,-1.4029340540842696],[133.26261520385742,-1.4037062985935336],[133.25806617736816,-1.4025050292467256],[133.25677871704102,-1.4012179542623073],[133.25257301330566,-1.3994160480961426],[133.2510280609131,-1.3977857508481009],[133.25085639953613,-1.3964986732737117],[133.25008392333984,-1.3960696472589262],[133.24596405029297,-1.3962412576742338],[133.2443332672119,-1.3955548159378424],[133.2418441772461,-1.3967560888450095],[133.23969841003418,-1.3962412576742338],[133.23798179626465,-1.397442530230549],[133.2366943359375,-1.3967560888450095],[133.2366943359375,-1.0491357039128246],[133.5992431640625,-1.0491357039128246]]]}},{"type":"Feature","id":"pmtiles:10/891/515:mountain_peak:58180000561:0","properties":{"name_int":"Mount Niefeb","ele_ft":8944,"name_de":"Niefeb","name":"Niefeb","name:id":"Gunung Niefeb","rank":1,"name:en":"Mount Niefeb","class":"peak","ele":2726,"name:latin":"Niefeb","name_en":"Mount Niefeb","kind":"poi","verification":"verified","source":"OpenMapTiles/OpenStreetMap national PMTiles","sourceId":"10/891/515:mountain_peak:58180000561:0","sourceLayer":"mountain_peak","archive":"https://its.hanifahseptiani45.workers.dev/v1/map/archive/indonesia.pmtiles","updatedAt":"2026-07-26T09:42:11.916Z"},"geometry":{"type":"Point","coordinates":[133.54336738586426,-1.1258545124535715]}},{"type":"Feature","id":"pmtiles:10/891/515:mountain_peak:10701609171:0","properties":{"name_int":"Gunung Niefeb","ele_ft":8179,"name_de":"Gunung Niefeb","name":"Gunung Niefeb","rank":1,"class":"peak","ele":2493,"name:latin":"Gunung Niefeb","name_en":"Gunung Niefeb","kind":"poi","verification":"verified","source":"OpenMapTiles/OpenStreetMap national PMTiles","sourceId":"10/891/515:mountain_peak:10701609171:0","sourceLayer":"mountain_peak","archive":"https://its.hanifahseptiani45.workers.dev/v1/map/archive/indonesia.pmtiles","updatedAt":"2026-07-26T09:42:11.916Z"},"geometry":{"type":"Point","coordinates":[133.5801887512207,-1.1641273553096028]}},{"type":"Feature","id":"pmtiles:10/891/515:mountain_peak:10701791271:0","properties":{"name_int":"Gunung Togwormeri","ele_ft":7582,"name_de":"Gunung Togwormeri","name":"Gunung Togwormeri","rank":2,"class":"peak","ele":2311,"name:latin":"Gunung Togwormeri","name_en":"Gunung Togwormeri","kind":"poi","verification":"verified","source":"OpenMapTiles/OpenStreetMap national PMTiles","sourceId":"10/891/515:mountain_peak:10701791271:0","sourceLayer":"mountain_peak","archive":"https://its.hanifahseptiani45.workers.dev/v1/map/archive/indonesia.pmtiles","updatedAt":"2026-07-26T09:42:11.916Z"},"geometry":{"type":"Point","coordinates":[133.53281021118164,-1.2095220478392434]}},{"type":"Feature","id":"pmtiles:10/891/515:park:77720533:0","properties":{"name":"Cagar Alam Pegunungan Tambrauw Selatan","name_int":"South Tambrauw Mountains Nature Reserve","class":"protected_area","name:latin":"Cagar Alam Pegunungan Tambrauw Selatan","name_de":"Cagar Alam Pegunungan Tambrauw Selatan","name_en":"South Tambrauw Mountains Nature Reserve","kind":"green","verification":"verified","source":"OpenMapTiles/OpenStreetMap national PMTiles","sourceId":"10/891/515:park:77720533:0","sourceLayer":"park","archive":"https://its.hanifahseptiani45.workers.dev/v1/map/archive/indonesia.pmtiles","updatedAt":"2026-07-26T09:42:11.917Z"},"geometry":{"type":"Polygon","coordinates":[[[133.5992431640625,-1.0491357039128246],[133.5992431640625,-1.0596052749223475],[133.59786987304688,-1.0602918029364758],[133.5974407196045,-1.0609783307983776],[133.59872817993164,-1.064410967820649],[133.5985565185547,-1.0652691264796914],[133.5977840423584,-1.0657840215603898],[133.59606742858887,-1.0654407581828167],[133.59349250793457,-1.0662989165550272],[133.59246253967285,-1.0677577852386264],[133.59031677246094,-1.0692166532299154],[133.5893726348877,-1.0706755205279421],[133.5879135131836,-1.0718769401345014],[133.5856819152832,-1.073249990536226],[133.58233451843262,-1.0741939623299004],[133.58173370361328,-1.0759102739347384],[133.58044624328613,-1.0770258759601887],[133.58001708984375,-1.0778840310865405],[133.57993125915527,-1.0796003406135384],[133.57864379882812,-1.0804584950138292],[133.57752799987793,-1.0828613260443802],[133.5751247406006,-1.0853499704608822],[133.57443809509277,-1.0888683952784817],[133.57306480407715,-1.0911854045019567],[133.57229232788086,-1.0917002951982795],[133.56971740722656,-1.0913570347438508],[133.56834411621094,-1.092301000899198],[133.56611251831055,-1.0951328975850458],[133.56534004211426,-1.097449901974528],[133.56499671936035,-1.1000243491908748],[133.56439590454102,-1.1006250532219326],[133.56199264526367,-1.1012257571320134],[133.5615634918213,-1.1019122757381297],[133.56173515319824,-1.1038002010888874],[133.56096267700195,-1.104143460114841],[133.5601043701172,-1.1056881252410449],[133.5593318939209,-1.1060313840488618],[133.55890274047852,-1.106803716221279],[133.5601043701172,-1.1092065261374557],[133.5600185394287,-1.110064672063487],[133.55958938598633,-1.1108370031839883],[133.55624198913574,-1.1114377050270434],[133.55555534362793,-1.1118667776972728],[133.55469703674316,-1.1116093341026243],[133.55401039123535,-1.1121242212694966],[133.55229377746582,-1.1161575009657412],[133.5523796081543,-1.1228510167550212],[133.55083465576172,-1.1307459131075177],[133.55117797851562,-1.131518238774035],[133.55246543884277,-1.1326338199292962],[133.55280876159668,-1.1342642839220645],[133.55212211608887,-1.1347791670974203],[133.55246543884277,-1.137439395375722],[133.55074882507324,-1.1394131115462187],[133.55109214782715,-1.1419875219099396],[133.55031967163086,-1.1435321670217036],[133.5501480102539,-1.14533425193477],[133.54928970336914,-1.1469647087368742],[133.54954719543457,-1.1503114329452444],[133.55109214782715,-1.1536581532283634],[133.5523796081543,-1.154859539037048],[133.55941772460938,-1.1587211328371296],[133.56070518493652,-1.1612097127200514],[133.56233596801758,-1.1633550384470368],[133.56396675109863,-1.1642131682812646],[133.56534004211426,-1.1655861754726686],[133.5670566558838,-1.1652429237375515],[133.56860160827637,-1.1658436142465547],[133.5696315765381,-1.1673882463953333],[133.57151985168457,-1.1715930740536038],[133.57495307922363,-1.172451201372482],[133.57563972473145,-1.174167455220939],[133.57787132263184,-1.1757978954010326],[133.58010292053223,-1.1786297102918724],[133.580961227417,-1.1802601478626116],[133.58156204223633,-1.1828345210276296],[133.58293533325195,-1.1839500819910853],[133.58405113220215,-1.1854947041224193],[133.5856819152832,-1.1861812025709213],[133.5864543914795,-1.187640011208373],[133.5871410369873,-1.1910724990809172],[133.58868598937988,-1.1921022446095577],[133.58963012695312,-1.1935610501157896],[133.59203338623047,-1.1945907947131644],[133.5926342010498,-1.1952772908970246],[133.59366416931152,-1.1977658381241696],[133.59512329101562,-1.1987097692401107],[133.5966682434082,-1.2009408778565245],[133.59915733337402,-1.20179899607038],[133.5992431640625,-1.2019706196808073],[133.5992431640625,-1.2075483811390058],[133.59881401062012,-1.2080632508512394],[133.5974407196045,-1.209092989982949],[133.59641075134277,-1.210465974884258],[133.59512329101562,-1.212782885328366],[133.59435081481934,-1.2131261311514976],[133.5945224761963,-1.2148423596137121],[133.5930633544922,-1.217073454984586],[133.59289169311523,-1.2197336047449312],[133.59169006347656,-1.2211065842378872],[133.59126091003418,-1.2236809188963633],[133.58963012695312,-1.2266843062082131],[133.5874843597412,-1.2277140382252156],[133.58688354492188,-1.2284005260162303],[133.5824203491211,-1.2379255258722566],[133.5764980316162,-1.2417870025674347],[133.57297897338867,-1.241615381500651],[133.57040405273438,-1.2420444341467203],[133.5677433013916,-1.2421302446675924],[133.56139183044434,-1.2466781982807476],[133.55976104736328,-1.2468498190181663],[133.55727195739746,-1.2459059048239425],[133.55443954467773,-1.2476221121980728],[133.5530662536621,-1.2488234566939411],[133.5527229309082,-1.249595749294187],[133.5527229309082,-1.2549159810295123],[133.55375289916992,-1.2598929622115804],[133.55512619018555,-1.263239547662593],[133.55546951293945,-1.26495574365849],[133.55521202087402,-1.2703617536190563],[133.55443954467773,-1.2749954674414994],[133.55332374572754,-1.2785994613164462],[133.55280876159668,-1.2833189694515426],[133.55280876159668,-1.2869229516193315],[133.5545253753662,-1.2930153860762061],[133.5534954071045,-1.2985071454521204],[133.5520362854004,-1.3178140169645758],[133.55186462402344,-1.3252793006139427],[133.55289459228516,-1.3320581019085296],[133.55486869812012,-1.336520087525514],[133.5582160949707,-1.341496908071349],[133.56345176696777,-1.3467311394464758],[133.57023239135742,-1.3524802002959433],[133.57186317443848,-1.3563415021796743],[133.5740089416504,-1.367238920873831],[133.57495307922363,-1.3902348856949942],[133.5743522644043,-1.3965844784672896],[133.573579788208,-1.4008747341470098],[133.57117652893066,-1.406623664436779],[133.5673999786377,-1.4116003389233214],[133.32449913024902,-1.4116003389233214],[133.32449913024902,-1.4097126360596377],[133.3238124847412,-1.4085113698039038],[133.32415580749512,-1.4073101029288893],[133.32295417785645,-1.4065378596110634],[133.32209587097168,-1.4055082014564135],[133.320894241333,-1.4046501526473918],[133.32046508789062,-1.403363078843114],[133.32046508789062,-1.4002740988242266],[133.3202075958252,-1.3994160480961426],[133.31934928894043,-1.398472191932683],[133.31754684448242,-1.3976999456984203],[133.31677436828613,-1.3982147765494943],[133.31600189208984,-1.397871555994655],[133.31514358520508,-1.3981289714154883],[133.31377029418945,-1.397871555994655],[133.31334114074707,-1.3980431662783417],[133.31239700317383,-1.4000166836387677],[133.31153869628906,-1.4010463442109398],[133.3106803894043,-1.4013895643011125],[133.30604553222656,-1.4010463442109398],[133.30381393432617,-1.4019901993378596],[133.30175399780273,-1.4003599038797603],[133.3003807067871,-1.4006173190275177],[133.29866409301758,-1.4003599038797603],[133.29668998718262,-1.40147536931579],[133.29540252685547,-1.4007889291103197],[133.29179763793945,-1.4005315139814059],[133.28990936279297,-1.39915863281648],[133.2887077331543,-1.398643802172458],[133.28750610351562,-1.398472191932683],[133.28630447387695,-1.3977857508481009],[133.28493118286133,-1.397442530230549],[133.28450202941895,-1.3973567250683345],[133.28330039978027,-1.397871555994655],[133.2827854156494,-1.397871555994655],[133.28055381774902,-1.395640621165839],[133.27892303466797,-1.3947825687449011],[133.2780647277832,-1.3947825687449011],[133.27523231506348,-1.3970135043880987],[133.27325820922852,-1.39915863281648],[133.2707691192627,-1.4004457089321534],[133.2652759552002,-1.4029340540842696],[133.26261520385742,-1.4037062985935336],[133.25806617736816,-1.4025050292467256],[133.25677871704102,-1.4012179542623073],[133.25549125671387,-1.4006173190275177],[133.25420379638672,-1.4003599038797603],[133.25257301330566,-1.3994160480961426],[133.25180053710938,-1.3989012175085946],[133.2510280609131,-1.3977857508481009],[133.25085639953613,-1.3964986732737117],[133.25008392333984,-1.3960696472589262],[133.24776649475098,-1.395898036831099],[133.24596405029297,-1.3962412576742338],[133.2443332672119,-1.3955548159378424],[133.24321746826172,-1.3963270628771909],[133.2418441772461,-1.3967560888450095],[133.24090003967285,-1.3967560888450095],[133.23969841003418,-1.3962412576742338],[133.2392692565918,-1.3964986732737117],[133.2388401031494,-1.3971851147344836],[133.23798179626465,-1.397442530230549],[133.2370376586914,-1.3972709199029651],[133.2366943359375,-1.3969276992101953],[133.2366943359375,-1.0491357039128246],[133.5992431640625,-1.0491357039128246]]]}},{"type":"Feature","id":"pmtiles:10/892/515:mountain_peak:58180000561:0","properties":{"name_int":"Mount Niefeb","ele_ft":8944,"name_de":"Niefeb","name":"Niefeb","name:id":"Gunung Niefeb","rank":1,"name:en":"Mount Niefeb","class":"peak","ele":2726,"name:latin":"Niefeb","name_en":"Mount Niefeb","kind":"poi","verification":"verified","source":"OpenMapTiles/OpenStreetMap national PMTiles","sourceId":"10/892/515:mountain_peak:58180000561:0","sourceLayer":"mountain_peak","archive":"https://its.hanifahseptiani45.workers.dev/v1/map/archive/indonesia.pmtiles","updatedAt":"2026-07-26T09:42:11.979Z"},"geometry":{"type":"Point","coordinates":[133.54336738586426,-1.1258545124535715]}},{"type":"Feature","id":"pmtiles:10/892/515:mountain_peak:10701609171:0","properties":{"name_int":"Gunung Niefeb","ele_ft":8179,"name_de":"Gunung Niefeb","name":"Gunung Niefeb","rank":1,"class":"peak","ele":2493,"name:latin":"Gunung Niefeb","name_en":"Gunung Niefeb","kind":"poi","verification":"verified","source":"OpenMapTiles/OpenStreetMap national PMTiles","sourceId":"10/892/515:mountain_peak:10701609171:0","sourceLayer":"mountain_peak","archive":"https://its.hanifahseptiani45.workers.dev/v1/map/archive/indonesia.pmtiles","updatedAt":"2026-07-26T09:42:11.979Z"},"geometry":{"type":"Point","coordinates":[133.5801887512207,-1.1641273553096028]}},{"type":"Feature","id":"pmtiles:10/892/515:mountain_peak:10701791271:0","properties":{"name_int":"Gunung Togwormeri","ele_ft":7582,"name_de":"Gunung Togwormeri","name":"Gunung Togwormeri","rank":2,"class":"peak","ele":2311,"name:latin":"Gunung Togwormeri","name_en":"Gunung Togwormeri","kind":"poi","verification":"verified","source":"OpenMapTiles/OpenStreetMap national PMTiles","sourceId":"10/892/515:mountain_peak:10701791271:0","sourceLayer":"mountain_peak","archive":"https://its.hanifahseptiani45.workers.dev/v1/map/archive/indonesia.pmtiles","updatedAt":"2026-07-26T09:42:11.979Z"},"geometry":{"type":"Point","coordinates":[133.53281021118164,-1.2095220478392434]}},{"type":"Feature","id":"pmtiles:10/891/516:landcover:77720533:0","properties":{"subclass":"wood","class":"wood","kind":"green","verification":"verified","source":"OpenMapTiles/OpenStreetMap national PMTiles","sourceId":"10/891/516:landcover:77720533:0","sourceLayer":"landcover","archive":"https://its.hanifahseptiani45.workers.dev/v1/map/archive/indonesia.pmtiles","updatedAt":"2026-07-26T09:42:20.822Z"},"geometry":{"type":"Polygon","coordinates":[[[133.2553195953369,-1.4006173190275177],[133.27016830444336,-1.4006173190275177],[133.2652759552002,-1.4029340540842696],[133.26261520385742,-1.4037062985935336],[133.25806617736816,-1.4025050292467256],[133.25677871704102,-1.4012179542623073],[133.2553195953369,-1.4006173190275177]]]}},{"type":"Feature","id":"pmtiles:10/891/516:landcover:77720533:1","properties":{"subclass":"wood","class":"wood","kind":"green","verification":"verified","source":"OpenMapTiles/OpenStreetMap national PMTiles","sourceId":"10/891/516:landcover:77720533:1","sourceLayer":"landcover","archive":"https://its.hanifahseptiani45.workers.dev/v1/map/archive/indonesia.pmtiles","updatedAt":"2026-07-26T09:42:20.822Z"},"geometry":{"type":"Polygon","coordinates":[[[133.29540252685547,-1.4007889291103197],[133.2930850982666,-1.4006173190275177],[133.29814910888672,-1.4006173190275177],[133.29668998718262,-1.40147536931579],[133.29540252685547,-1.4007889291103197]]]}},{"type":"Feature","id":"pmtiles:10/891/516:landcover:77720533:2","properties":{"subclass":"wood","class":"wood","kind":"green","verification":"verified","source":"OpenMapTiles/OpenStreetMap national PMTiles","sourceId":"10/891/516:landcover:77720533:2","sourceLayer":"landcover","archive":"https://its.hanifahseptiani45.workers.dev/v1/map/archive/indonesia.pmtiles","updatedAt":"2026-07-26T09:42:20.822Z"},"geometry":{"type":"Polygon","coordinates":[[[133.30381393432617,-1.4019901993378596],[133.30201148986816,-1.4006173190275177],[133.31171035766602,-1.4006173190275177],[133.3106803894043,-1.4013895643011125],[133.30604553222656,-1.4010463442109398],[133.30381393432617,-1.4019901993378596]]]}},{"type":"Feature","id":"pmtiles:10/891/516:park:77720533:0","properties":{"name":"Cagar Alam Pegunungan Tambrauw Selatan","name_int":"South Tambrauw Mountains Nature Reserve","class":"protected_area","name:latin":"Cagar Alam Pegunungan Tambrauw Selatan","name_de":"Cagar Alam Pegunungan Tambrauw Selatan","name_en":"South Tambrauw Mountains Nature Reserve","kind":"green","verification":"verified","source":"OpenMapTiles/OpenStreetMap national PMTiles","sourceId":"10/891/516:park:77720533:0","sourceLayer":"park","archive":"https://its.hanifahseptiani45.workers.dev/v1/map/archive/indonesia.pmtiles","updatedAt":"2026-07-26T09:42:20.822Z"},"geometry":{"type":"Polygon","coordinates":[[[133.25557708740234,-1.4006173190275177],[133.27051162719727,-1.4006173190275177],[133.2652759552002,-1.4029340540842696],[133.26261520385742,-1.4037062985935336],[133.25806617736816,-1.4025050292467256],[133.25677871704102,-1.4012179542623073],[133.25557708740234,-1.4006173190275177]]]}},{"type":"Feature","id":"pmtiles:10/891/516:park:77720533:1","properties":{"name":"Cagar Alam Pegunungan Tambrauw Selatan","name_int":"South Tambrauw Mountains Nature Reserve","class":"protected_area","name:latin":"Cagar Alam Pegunungan Tambrauw Selatan","name_de":"Cagar Alam Pegunungan Tambrauw Selatan","name_en":"South Tambrauw Mountains Nature Reserve","kind":"green","verification":"verified","source":"OpenMapTiles/OpenStreetMap national PMTiles","sourceId":"10/891/516:park:77720533:1","sourceLayer":"park","archive":"https://its.hanifahseptiani45.workers.dev/v1/map/archive/indonesia.pmtiles","updatedAt":"2026-07-26T09:42:20.822Z"},"geometry":{"type":"Polygon","coordinates":[[[133.29540252685547,-1.4007889291103197],[133.2930850982666,-1.4006173190275177],[133.29814910888672,-1.4006173190275177],[133.29668998718262,-1.40147536931579],[133.29540252685547,-1.4007889291103197]]]}},{"type":"Feature","id":"pmtiles:10/891/516:park:77720533:2","properties":{"name":"Cagar Alam Pegunungan Tambrauw Selatan","name_int":"South Tambrauw Mountains Nature Reserve","class":"protected_area","name:latin":"Cagar Alam Pegunungan Tambrauw Selatan","name_de":"Cagar Alam Pegunungan Tambrauw Selatan","name_en":"South Tambrauw Mountains Nature Reserve","kind":"green","verification":"verified","source":"OpenMapTiles/OpenStreetMap national PMTiles","sourceId":"10/891/516:park:77720533:2","sourceLayer":"park","archive":"https://its.hanifahseptiani45.workers.dev/v1/map/archive/indonesia.pmtiles","updatedAt":"2026-07-26T09:42:20.822Z"},"geometry":{"type":"Polygon","coordinates":[[[133.30381393432617,-1.4019901993378596],[133.30201148986816,-1.4006173190275177],[133.31188201904297,-1.4006173190275177],[133.31153869628906,-1.4010463442109398],[133.3106803894043,-1.4013895643011125],[133.30604553222656,-1.4010463442109398],[133.30381393432617,-1.4019901993378596]]]}},{"type":"Feature","id":"pmtiles:8/222/128:mountain_peak:58180000561:0","properties":{"name_int":"Mount Niefeb","ele_ft":8944,"name_de":"Niefeb","name":"Niefeb","name:id":"Gunung Niefeb","rank":1,"name:en":"Mount Niefeb","class":"peak","ele":2726,"name:latin":"Niefeb","name_en":"Mount Niefeb","kind":"poi","verification":"verified","source":"OpenMapTiles/OpenStreetMap national PMTiles","sourceId":"8/222/128:mountain_peak:58180000561:0","sourceLayer":"mountain_peak","archive":"https://its.hanifahseptiani45.workers.dev/v1/map/archive/indonesia.pmtiles","updatedAt":"2026-07-26T09:35:33.705Z"},"geometry":{"type":"Point","coordinates":[133.54328155517578,-1.1256828842112014]}},{"type":"Feature","id":"pmtiles:8/222/128:mountain_peak:10701609171:0","properties":{"name_int":"Gunung Niefeb","ele_ft":8179,"name_de":"Gunung Niefeb","name":"Gunung Niefeb","rank":2,"class":"peak","ele":2493,"name:latin":"Gunung Niefeb","name_en":"Gunung Niefeb","kind":"poi","verification":"verified","source":"OpenMapTiles/OpenStreetMap national PMTiles","sourceId":"8/222/128:mountain_peak:10701609171:0","sourceLayer":"mountain_peak","archive":"https://its.hanifahseptiani45.workers.dev/v1/map/archive/indonesia.pmtiles","updatedAt":"2026-07-26T09:35:33.705Z"},"geometry":{"type":"Point","coordinates":[133.58001708984375,-1.1641273553096028]}},{"type":"Feature","id":"pmtiles:8/222/128:mountain_peak:10701791271:0","properties":{"name_int":"Gunung Togwormeri","ele_ft":7582,"name_de":"Gunung Togwormeri","name":"Gunung Togwormeri","rank":3,"class":"peak","ele":2311,"name:latin":"Gunung Togwormeri","name_en":"Gunung Togwormeri","kind":"poi","verification":"verified","source":"OpenMapTiles/OpenStreetMap national PMTiles","sourceId":"8/222/128:mountain_peak:10701791271:0","sourceLayer":"mountain_peak","archive":"https://its.hanifahseptiani45.workers.dev/v1/map/archive/indonesia.pmtiles","updatedAt":"2026-07-26T09:35:33.705Z"},"geometry":{"type":"Point","coordinates":[133.5329818725586,-1.2094362362734046]}},{"type":"Feature","id":"pmtiles:8/223/128:landcover:77720533:1","properties":{"subclass":"wood","class":"wood","kind":"green","verification":"verified","source":"OpenMapTiles/OpenStreetMap national PMTiles","sourceId":"8/223/128:landcover:77720533:1","sourceLayer":"landcover","archive":"https://its.hanifahseptiani45.workers.dev/v1/map/archive/indonesia.pmtiles","updatedAt":"2026-07-26T09:35:33.768Z"},"geometry":{"type":"Polygon","coordinates":[[[133.57177734375,-1.2420444341467203],[133.57177734375,-1.1716788867973236],[133.57486724853516,-1.1723653886524374],[133.58585357666016,-1.1860953902741613],[133.58722686767578,-1.1912441233624236],[133.60061645507812,-1.2053172779262553],[133.5944366455078,-1.2132119426004806],[133.59134674072266,-1.2235092966626269],[133.5824203491211,-1.2379255258722566],[133.5765838623047,-1.2417011920354355],[133.57177734375,-1.2420444341467203]]]}},{"type":"Feature","id":"pmtiles:8/223/128:mountain_peak:58180000561:0","properties":{"name_int":"Mount Niefeb","ele_ft":8944,"name_de":"Niefeb","name":"Niefeb","name:id":"Gunung Niefeb","rank":1,"name:en":"Mount Niefeb","class":"peak","ele":2726,"name:latin":"Niefeb","name_en":"Mount Niefeb","kind":"poi","verification":"verified","source":"OpenMapTiles/OpenStreetMap national PMTiles","sourceId":"8/223/128:mountain_peak:58180000561:0","sourceLayer":"mountain_peak","archive":"https://its.hanifahseptiani45.workers.dev/v1/map/archive/indonesia.pmtiles","updatedAt":"2026-07-26T09:35:33.769Z"},"geometry":{"type":"Point","coordinates":[133.54328155517578,-1.1256828842112014]}},{"type":"Feature","id":"pmtiles:8/223/128:mountain_peak:10701609171:0","properties":{"name_int":"Gunung Niefeb","ele_ft":8179,"name_de":"Gunung Niefeb","name":"Gunung Niefeb","rank":2,"class":"peak","ele":2493,"name:latin":"Gunung Niefeb","name_en":"Gunung Niefeb","kind":"poi","verification":"verified","source":"OpenMapTiles/OpenStreetMap national PMTiles","sourceId":"8/223/128:mountain_peak:10701609171:0","sourceLayer":"mountain_peak","archive":"https://its.hanifahseptiani45.workers.dev/v1/map/archive/indonesia.pmtiles","updatedAt":"2026-07-26T09:35:33.769Z"},"geometry":{"type":"Point","coordinates":[133.58001708984375,-1.1641273553096028]}},{"type":"Feature","id":"pmtiles:8/223/128:mountain_peak:10701791271:0","properties":{"name_int":"Gunung Togwormeri","ele_ft":7582,"name_de":"Gunung Togwormeri","name":"Gunung Togwormeri","rank":3,"class":"peak","ele":2311,"name:latin":"Gunung Togwormeri","name_en":"Gunung Togwormeri","kind":"poi","verification":"verified","source":"OpenMapTiles/OpenStreetMap national PMTiles","sourceId":"8/223/128:mountain_peak:10701791271:0","sourceLayer":"mountain_peak","archive":"https://its.hanifahseptiani45.workers.dev/v1/map/archive/indonesia.pmtiles","updatedAt":"2026-07-26T09:35:33.769Z"},"geometry":{"type":"Point","coordinates":[133.5329818725586,-1.2094362362734046]}},{"type":"Feature","id":"pmtiles:8/223/128:park:77720533:1","properties":{"name":"Cagar Alam Pegunungan Tambrauw Selatan","name_int":"South Tambrauw Mountains Nature Reserve","class":"protected_area","name:latin":"Cagar Alam Pegunungan Tambrauw Selatan","name_de":"Cagar Alam Pegunungan Tambrauw Selatan","name_en":"South Tambrauw Mountains Nature Reserve","kind":"green","verification":"verified","source":"OpenMapTiles/OpenStreetMap national PMTiles","sourceId":"8/223/128:park:77720533:1","sourceLayer":"park","archive":"https://its.hanifahseptiani45.workers.dev/v1/map/archive/indonesia.pmtiles","updatedAt":"2026-07-26T09:35:33.769Z"},"geometry":{"type":"Polygon","coordinates":[[[133.57177734375,-1.2420444341467203],[133.57177734375,-1.1716788867973236],[133.57486724853516,-1.1723653886524374],[133.57555389404297,-1.1740816425535456],[133.58001708984375,-1.1785438977616849],[133.58139038085938,-1.1826628962242154],[133.58585357666016,-1.1860953902741613],[133.58722686767578,-1.1912441233624236],[133.58963012695312,-1.1936468621803016],[133.59203338623047,-1.1946766067455314],[133.59375,-1.1977658381241696],[133.59649658203125,-1.200855066020324],[133.5992431640625,-1.2018848078769366],[133.60061645507812,-1.2053172779262553],[133.5944366455078,-1.2132119426004806],[133.5944366455078,-1.214928171008225],[133.5930633544922,-1.2169876436582712],[133.59134674072266,-1.2235092966626269],[133.58963012695312,-1.2265984951889095],[133.58688354492188,-1.2283147150519795],[133.5824203491211,-1.2379255258722566],[133.5765838623047,-1.2417011920354355],[133.57177734375,-1.2420444341467203]]]}},{"type":"Feature","id":"pmtiles:8/223/128:park:77720533:2","properties":{"name":"Cagar Alam Pegunungan Tambrauw Selatan","name_int":"South Tambrauw Mountains Nature Reserve","class":"protected_area","name:latin":"Cagar Alam Pegunungan Tambrauw Selatan","name_de":"Cagar Alam Pegunungan Tambrauw Selatan","name_en":"South Tambrauw Mountains Nature Reserve","kind":"green","verification":"verified","source":"OpenMapTiles/OpenStreetMap national PMTiles","sourceId":"8/223/128:park:77720533:2","sourceLayer":"park","archive":"https://its.hanifahseptiani45.workers.dev/v1/map/archive/indonesia.pmtiles","updatedAt":"2026-07-26T09:35:33.769Z"},"geometry":{"type":"Polygon","coordinates":[[[133.57177734375,-1.4050791770912952],[133.57177734375,-1.3563415021796743],[133.57418060302734,-1.367324727124469],[133.57486724853516,-1.3903206911167274],[133.57349395751953,-1.4009605391805309],[133.57177734375,-1.4050791770912952]]]}},{"type":"Feature","id":"pmtiles:8/222/129:mountain_peak:58180000561:0","properties":{"name_int":"Mount Niefeb","ele_ft":8944,"name_de":"Niefeb","name":"Niefeb","name:id":"Gunung Niefeb","rank":1,"name:en":"Mount Niefeb","class":"peak","ele":2726,"name:latin":"Niefeb","name_en":"Mount Niefeb","kind":"poi","verification":"verified","source":"OpenMapTiles/OpenStreetMap national PMTiles","sourceId":"8/222/129:mountain_peak:58180000561:0","sourceLayer":"mountain_peak","archive":"https://its.hanifahseptiani45.workers.dev/v1/map/archive/indonesia.pmtiles","updatedAt":"2026-07-26T09:35:36.491Z"},"geometry":{"type":"Point","coordinates":[133.54328155517578,-1.1256828842112014]}},{"type":"Feature","id":"pmtiles:8/222/129:mountain_peak:10701609171:0","properties":{"name_int":"Gunung Niefeb","ele_ft":8179,"name_de":"Gunung Niefeb","name":"Gunung Niefeb","rank":2,"class":"peak","ele":2493,"name:latin":"Gunung Niefeb","name_en":"Gunung Niefeb","kind":"poi","verification":"verified","source":"OpenMapTiles/OpenStreetMap national PMTiles","sourceId":"8/222/129:mountain_peak:10701609171:0","sourceLayer":"mountain_peak","archive":"https://its.hanifahseptiani45.workers.dev/v1/map/archive/indonesia.pmtiles","updatedAt":"2026-07-26T09:35:36.491Z"},"geometry":{"type":"Point","coordinates":[133.58001708984375,-1.1641273553096028]}},{"type":"Feature","id":"pmtiles:8/222/129:mountain_peak:10701791271:0","properties":{"name_int":"Gunung Togwormeri","ele_ft":7582,"name_de":"Gunung Togwormeri","name":"Gunung Togwormeri","rank":3,"class":"peak","ele":2311,"name:latin":"Gunung Togwormeri","name_en":"Gunung Togwormeri","kind":"poi","verification":"verified","source":"OpenMapTiles/OpenStreetMap national PMTiles","sourceId":"8/222/129:mountain_peak:10701791271:0","sourceLayer":"mountain_peak","archive":"https://its.hanifahseptiani45.workers.dev/v1/map/archive/indonesia.pmtiles","updatedAt":"2026-07-26T09:35:36.491Z"},"geometry":{"type":"Point","coordinates":[133.5329818725586,-1.2094362362734046]}},{"type":"Feature","id":"pmtiles:8/223/129:mountain_peak:58180000561:0","properties":{"name_int":"Mount Niefeb","ele_ft":8944,"name_de":"Niefeb","name":"Niefeb","name:id":"Gunung Niefeb","rank":1,"name:en":"Mount Niefeb","class":"peak","ele":2726,"name:latin":"Niefeb","name_en":"Mount Niefeb","kind":"poi","verification":"verified","source":"OpenMapTiles/OpenStreetMap national PMTiles","sourceId":"8/223/129:mountain_peak:58180000561:0","sourceLayer":"mountain_peak","archive":"https://its.hanifahseptiani45.workers.dev/v1/map/archive/indonesia.pmtiles","updatedAt":"2026-07-26T09:35:36.558Z"},"geometry":{"type":"Point","coordinates":[133.54328155517578,-1.1256828842112014]}},{"type":"Feature","id":"pmtiles:8/223/129:mountain_peak:10701609171:0","properties":{"name_int":"Gunung Niefeb","ele_ft":8179,"name_de":"Gunung Niefeb","name":"Gunung Niefeb","rank":2,"class":"peak","ele":2493,"name:latin":"Gunung Niefeb","name_en":"Gunung Niefeb","kind":"poi","verification":"verified","source":"OpenMapTiles/OpenStreetMap national PMTiles","sourceId":"8/223/129:mountain_peak:10701609171:0","sourceLayer":"mountain_peak","archive":"https://its.hanifahseptiani45.workers.dev/v1/map/archive/indonesia.pmtiles","updatedAt":"2026-07-26T09:35:36.558Z"},"geometry":{"type":"Point","coordinates":[133.58001708984375,-1.1641273553096028]}},{"type":"Feature","id":"pmtiles:8/223/129:mountain_peak:10701791271:0","properties":{"name_int":"Gunung Togwormeri","ele_ft":7582,"name_de":"Gunung Togwormeri","name":"Gunung Togwormeri","rank":3,"class":"peak","ele":2311,"name:latin":"Gunung Togwormeri","name_en":"Gunung Togwormeri","kind":"poi","verification":"verified","source":"OpenMapTiles/OpenStreetMap national PMTiles","sourceId":"8/223/129:mountain_peak:10701791271:0","sourceLayer":"mountain_peak","archive":"https://its.hanifahseptiani45.workers.dev/v1/map/archive/indonesia.pmtiles","updatedAt":"2026-07-26T09:35:36.558Z"},"geometry":{"type":"Point","coordinates":[133.5329818725586,-1.2094362362734046]}},{"type":"Feature","id":"pmtiles:8/223/129:park:77720533:0","properties":{"name":"Cagar Alam Pegunungan Tambrauw Selatan","name_int":"South Tambrauw Mountains Nature Reserve","class":"protected_area","name:latin":"Cagar Alam Pegunungan Tambrauw Selatan","name_de":"Cagar Alam Pegunungan Tambrauw Selatan","name_en":"South Tambrauw Mountains Nature Reserve","kind":"green","verification":"verified","source":"OpenMapTiles/OpenStreetMap national PMTiles","sourceId":"8/223/129:park:77720533:0","sourceLayer":"park","archive":"https://its.hanifahseptiani45.workers.dev/v1/map/archive/indonesia.pmtiles","updatedAt":"2026-07-26T09:35:36.560Z"},"geometry":{"type":"Polygon","coordinates":[[[133.57486724853516,-1.3841426927919969],[133.57486724853516,-1.3903206911167274],[133.57349395751953,-1.4009605391805309],[133.57177734375,-1.4050791770912952],[133.57177734375,-1.3841426927919969],[133.57486724853516,-1.3841426927919969]]]}}]}