{"type":"FeatureCollection","features":[{"type":"Feature","id":"pmtiles:12/3488/1973:water:10:0","properties":{"class":"ocean","water":"ocean","kind":"waterway","verification":"verified","source":"OpenMapTiles/OpenStreetMap national PMTiles","sourceId":"12/3488/1973:water:10:0","sourceLayer":"water","archive":"https://its.hanifahseptiani45.workers.dev/v1/map/archive/indonesia.pmtiles","updatedAt":"2026-07-26T10:34:09.423Z"},"geometry":{"type":"Polygon","coordinates":[[[126.56112670898438,6.578667368565007],[126.65176391601562,6.578667368565007],[126.65176391601562,6.488618840362278],[126.56112670898438,6.488618840362278],[126.56112670898438,6.578667368565007]]]}},{"type":"Feature","id":"pmtiles:12/3489/1973:water:340:0","properties":{"class":"ocean","water":"ocean","kind":"waterway","verification":"verified","source":"OpenMapTiles/OpenStreetMap national PMTiles","sourceId":"12/3489/1973:water:340:0","sourceLayer":"water","archive":"https://its.hanifahseptiani45.workers.dev/v1/map/archive/indonesia.pmtiles","updatedAt":"2026-07-26T10:34:09.489Z"},"geometry":{"type":"Polygon","coordinates":[[[126.64901733398438,6.578667368565007],[126.73965454101562,6.578667368565007],[126.73965454101562,6.488618840362278],[126.64901733398438,6.488618840362278],[126.64901733398438,6.578667368565007]]]}},{"type":"Feature","id":"pmtiles:12/3490/1973:water:340:0","properties":{"class":"ocean","water":"ocean","kind":"waterway","verification":"verified","source":"OpenMapTiles/OpenStreetMap national PMTiles","sourceId":"12/3490/1973:water:340:0","sourceLayer":"water","archive":"https://its.hanifahseptiani45.workers.dev/v1/map/archive/indonesia.pmtiles","updatedAt":"2026-07-26T10:34:09.545Z"},"geometry":{"type":"Polygon","coordinates":[[[126.73690795898438,6.578667368565007],[126.82754516601562,6.578667368565007],[126.82754516601562,6.488618840362278],[126.73690795898438,6.488618840362278],[126.73690795898438,6.578667368565007]]]}},{"type":"Feature","id":"pmtiles:12/3491/1973:water:340:0","properties":{"class":"ocean","water":"ocean","kind":"waterway","verification":"verified","source":"OpenMapTiles/OpenStreetMap national PMTiles","sourceId":"12/3491/1973:water:340:0","sourceLayer":"water","archive":"https://its.hanifahseptiani45.workers.dev/v1/map/archive/indonesia.pmtiles","updatedAt":"2026-07-26T10:34:09.616Z"},"geometry":{"type":"Polygon","coordinates":[[[126.82479858398438,6.578667368565007],[126.91543579101562,6.578667368565007],[126.91543579101562,6.488618840362278],[126.82479858398438,6.488618840362278],[126.82479858398438,6.578667368565007]]]}},{"type":"Feature","id":"pmtiles:12/3488/1974:water:10:0","properties":{"class":"ocean","water":"ocean","kind":"waterway","verification":"verified","source":"OpenMapTiles/OpenStreetMap national PMTiles","sourceId":"12/3488/1974:water:10:0","sourceLayer":"water","archive":"https://its.hanifahseptiani45.workers.dev/v1/map/archive/indonesia.pmtiles","updatedAt":"2026-07-26T10:34:41.768Z"},"geometry":{"type":"Polygon","coordinates":[[[126.56112670898438,6.491347821282432],[126.65176391601562,6.491347821282432],[126.65176391601562,6.4012836786624945],[126.56112670898438,6.4012836786624945],[126.56112670898438,6.491347821282432]]]}},{"type":"Feature","id":"pmtiles:12/3489/1974:water:340:0","properties":{"class":"ocean","water":"ocean","kind":"waterway","verification":"verified","source":"OpenMapTiles/OpenStreetMap national PMTiles","sourceId":"12/3489/1974:water:340:0","sourceLayer":"water","archive":"https://its.hanifahseptiani45.workers.dev/v1/map/archive/indonesia.pmtiles","updatedAt":"2026-07-26T10:34:41.840Z"},"geometry":{"type":"Polygon","coordinates":[[[126.64901733398438,6.491347821282432],[126.73965454101562,6.491347821282432],[126.73965454101562,6.4012836786624945],[126.64901733398438,6.4012836786624945],[126.64901733398438,6.491347821282432]]]}},{"type":"Feature","id":"pmtiles:12/3490/1974:water:340:0","properties":{"class":"ocean","water":"ocean","kind":"waterway","verification":"verified","source":"OpenMapTiles/OpenStreetMap national PMTiles","sourceId":"12/3490/1974:water:340:0","sourceLayer":"water","archive":"https://its.hanifahseptiani45.workers.dev/v1/map/archive/indonesia.pmtiles","updatedAt":"2026-07-26T10:34:41.906Z"},"geometry":{"type":"Polygon","coordinates":[[[126.73690795898438,6.491347821282432],[126.82754516601562,6.491347821282432],[126.82754516601562,6.4012836786624945],[126.73690795898438,6.4012836786624945],[126.73690795898438,6.491347821282432]]]}},{"type":"Feature","id":"pmtiles:12/3491/1974:water:340:0","properties":{"class":"ocean","water":"ocean","kind":"waterway","verification":"verified","source":"OpenMapTiles/OpenStreetMap national PMTiles","sourceId":"12/3491/1974:water:340:0","sourceLayer":"water","archive":"https://its.hanifahseptiani45.workers.dev/v1/map/archive/indonesia.pmtiles","updatedAt":"2026-07-26T10:34:41.971Z"},"geometry":{"type":"Polygon","coordinates":[[[126.82479858398438,6.491347821282432],[126.91543579101562,6.491347821282432],[126.91543579101562,6.4012836786624945],[126.82479858398438,6.4012836786624945],[126.82479858398438,6.491347821282432]]]}},{"type":"Feature","id":"pmtiles:12/3488/1975:water:10:0","properties":{"class":"ocean","water":"ocean","kind":"waterway","verification":"verified","source":"OpenMapTiles/OpenStreetMap national PMTiles","sourceId":"12/3488/1975:water:10:0","sourceLayer":"water","archive":"https://its.hanifahseptiani45.workers.dev/v1/map/archive/indonesia.pmtiles","updatedAt":"2026-07-26T10:35:13.542Z"},"geometry":{"type":"Polygon","coordinates":[[[126.56112670898438,6.40401312961761],[126.65176391601562,6.40401312961761],[126.65176391601562,6.31393357916707],[126.56112670898438,6.31393357916707],[126.56112670898438,6.40401312961761]]]}},{"type":"Feature","id":"pmtiles:12/3489/1975:water:340:0","properties":{"class":"ocean","water":"ocean","kind":"waterway","verification":"verified","source":"OpenMapTiles/OpenStreetMap national PMTiles","sourceId":"12/3489/1975:water:340:0","sourceLayer":"water","archive":"https://its.hanifahseptiani45.workers.dev/v1/map/archive/indonesia.pmtiles","updatedAt":"2026-07-26T10:35:13.592Z"},"geometry":{"type":"Polygon","coordinates":[[[126.64901733398438,6.40401312961761],[126.73965454101562,6.40401312961761],[126.73965454101562,6.31393357916707],[126.64901733398438,6.31393357916707],[126.64901733398438,6.40401312961761]]]}},{"type":"Feature","id":"pmtiles:12/3490/1975:water:340:0","properties":{"class":"ocean","water":"ocean","kind":"waterway","verification":"verified","source":"OpenMapTiles/OpenStreetMap national PMTiles","sourceId":"12/3490/1975:water:340:0","sourceLayer":"water","archive":"https://its.hanifahseptiani45.workers.dev/v1/map/archive/indonesia.pmtiles","updatedAt":"2026-07-26T10:35:13.659Z"},"geometry":{"type":"Polygon","coordinates":[[[126.73690795898438,6.40401312961761],[126.82754516601562,6.40401312961761],[126.82754516601562,6.31393357916707],[126.73690795898438,6.31393357916707],[126.73690795898438,6.40401312961761]]]}},{"type":"Feature","id":"pmtiles:12/3491/1975:water:340:0","properties":{"class":"ocean","water":"ocean","kind":"waterway","verification":"verified","source":"OpenMapTiles/OpenStreetMap national PMTiles","sourceId":"12/3491/1975:water:340:0","sourceLayer":"water","archive":"https://its.hanifahseptiani45.workers.dev/v1/map/archive/indonesia.pmtiles","updatedAt":"2026-07-26T10:35:13.726Z"},"geometry":{"type":"Polygon","coordinates":[[[126.82479858398438,6.40401312961761],[126.91543579101562,6.40401312961761],[126.91543579101562,6.31393357916707],[126.82479858398438,6.31393357916707],[126.82479858398438,6.40401312961761]]]}},{"type":"Feature","id":"pmtiles:10/872/493:water:10:0","properties":{"class":"ocean","water":"ocean","kind":"waterway","verification":"verified","source":"OpenMapTiles/OpenStreetMap national PMTiles","sourceId":"10/872/493:water:10:0","sourceLayer":"water","archive":"https://its.hanifahseptiani45.workers.dev/v1/map/archive/indonesia.pmtiles","updatedAt":"2026-07-26T09:37:51.264Z"},"geometry":{"type":"Polygon","coordinates":[[[126.5570068359375,6.670063575977281],[126.9195556640625,6.670063575977281],[126.9195556640625,6.309838680093364],[126.5570068359375,6.309838680093364],[126.5570068359375,6.670063575977281]]]}}]}