{"type":"FeatureCollection","features":[{"type":"Feature","id":"pmtiles:10/814/506:water:1130:0","properties":{"class":"ocean","water":"ocean","kind":"waterway","verification":"verified","source":"OpenMapTiles/OpenStreetMap national PMTiles","sourceId":"10/814/506:water:1130:0","sourceLayer":"water","archive":"https://its.hanifahseptiani45.workers.dev/v1/map/archive/indonesia.pmtiles","updatedAt":"2026-07-26T09:40:12.640Z"},"geometry":{"type":"Polygon","coordinates":[[[106.1663818359375,2.114388093041839],[106.5289306640625,2.114388093041839],[106.5289306640625,1.7520462233579792],[106.1663818359375,1.7520462233579792],[106.1663818359375,2.114388093041839]]]}},{"type":"Feature","id":"pmtiles:8/203/126:water:790:0","properties":{"class":"ocean","water":"ocean","kind":"waterway","verification":"verified","source":"OpenMapTiles/OpenStreetMap national PMTiles","sourceId":"8/203/126:water:790:0","sourceLayer":"water","archive":"https://its.hanifahseptiani45.workers.dev/v1/map/archive/indonesia.pmtiles","updatedAt":"2026-07-26T09:35:23.437Z"},"geometry":{"type":"Polygon","coordinates":[[[105.44677734375,2.8333171968553046],[105.71147918701172,2.8333171968553046],[105.71250915527344,2.8312597766475847],[105.71353912353516,2.830916872924348],[105.71525573730469,2.8326313905255205],[105.7162857055664,2.8326313905255205],[105.71731567382812,2.8302310651734217],[105.71868896484375,2.8305739690996177],[105.71971893310547,2.829545257016676],[105.72074890136719,2.8244016829154504],[105.72452545166016,2.820629714093883],[105.72521209716797,2.816857733037736],[105.73036193847656,2.816857733037736],[105.7327651977539,2.814800283674387],[105.73619842529297,2.8178864563563764],[105.7375717163086,2.8209726208562103],[105.7382583618164,2.821315527517399],[105.7375717163086,2.8223442468940902],[105.73860168457031,2.8247445885647267],[105.7379150390625,2.8302310651734217],[105.73963165283203,2.832974293741188],[105.74272155761719,2.8285165440208573],[105.74272155761719,2.8250874941127364],[105.74546813964844,2.8250874941127364],[105.74443817138672,2.8223442468940902],[105.74581146240234,2.8209726208562103],[105.7437515258789,2.819258086033642],[105.74409484863281,2.8182293639272444],[105.74821472167969,2.8189151787658915],[105.74958801269531,2.82200134053636],[105.74752807617188,2.8250874941127364],[105.74649810791016,2.825773304904942],[105.74649810791016,2.82680202033346],[105.74752807617188,2.8271449252736716],[105.7492446899414,2.826116210149081],[105.75061798095703,2.827487830112517],[105.75096130371094,2.8292023527861545],[105.75267791748047,2.829545257016676],[105.75302124023438,2.8285165440208573],[105.75542449951172,2.828173639486124],[105.75508117675781,2.8264591152919536],[105.75714111328125,2.82680202033346],[105.75851440429688,2.8247445885647267],[105.7595443725586,2.8285165440208573],[105.75714111328125,2.8326313905255205],[105.75817108154297,2.8326313905255205],[105.75885772705078,2.8333171968553046],[105.76881408691406,2.8333171968553046],[105.76915740966797,2.8333171968553046],[106.8746566772461,2.8333171968553046],[106.8753433227539,2.8333171968553046],[106.89697265625,2.8333171968553046],[106.89697265625,2.811714102819181],[106.89697265625,2.811028283742303],[106.89697265625,1.384142692792011],[106.8753433227539,1.384142692792011],[106.8746566772461,1.384142692792011],[105.44677734375,1.384142692792011],[105.44677734375,2.811028283742303],[105.44677734375,2.811714102819181],[105.44677734375,2.8333171968553046]],[[106.20071411132812,2.811028283742303],[106.19831085205078,2.811028283742303],[106.19625091552734,2.81068537405271],[106.19247436523438,2.8045129824224233],[106.19178771972656,2.80108386188148],[106.19316101074219,2.8024555113035063],[106.19316101074219,2.80108386188148],[106.19487762451172,2.800055123760572],[106.19762420654297,2.7955972481349676],[106.20037078857422,2.795940162246268],[106.20243072509766,2.795254333923438],[106.20243072509766,2.7928539316376515],[106.1989974975586,2.79079644005931],[106.20002746582031,2.7890818609926384],[106.20620727539062,2.7856526953619323],[106.2154769897461,2.7835951911893346],[106.22303009033203,2.766449183631437],[106.2216567993164,2.7640487227526336],[106.21891021728516,2.7630199523179755],[106.21238708496094,2.763705799373483],[106.20723724365234,2.762334104866241],[106.20174407958984,2.762334104866241],[106.20037078857422,2.759933635666428],[106.20174407958984,2.756847311000456],[106.20380401611328,2.756847311000456],[106.20758056640625,2.758561936803787],[106.20929718017578,2.7565043855432663],[106.21479034423828,2.7551326827263267],[106.2154769897461,2.753075125538004],[106.21341705322266,2.752732198994437],[106.21376037597656,2.751360491833438],[106.21719360351562,2.7506746376610636],[106.21753692626953,2.7499887830942384],[106.21479034423828,2.747588289005492],[106.21719360351562,2.7469024326648395],[106.21788024902344,2.745530718801959],[106.22028350830078,2.7462165759303048],[106.22337341308594,2.744159003364203],[106.22577667236328,2.744159003364203],[106.2271499633789,2.7424443568535537],[106.226806640625,2.7410726378752344],[106.22509002685547,2.739015056459934],[106.22577667236328,2.737643333552313],[106.22886657714844,2.7362716090743504],[106.22955322265625,2.734899883026827],[106.2326431274414,2.7345569512697807],[106.23504638671875,2.735585746246727],[106.23882293701172,2.7318134936852374],[106.23985290527344,2.7318134936852374],[106.24019622802734,2.73112762830948],[106.23847961425781,2.730441762542057],[106.24088287353516,2.7283841628908476],[106.24122619628906,2.725640691212007],[106.2436294555664,2.7246118877197603],[106.24637603759766,2.7249548223148707],[106.248779296875,2.726669493824801],[106.25049591064453,2.725640691212007],[106.25083923339844,2.7242689530269644],[106.2539291381836,2.7235830833483874],[106.25221252441406,2.725640691212007],[106.2491226196289,2.730441762542057],[106.24603271484375,2.7300988295115047],[106.24500274658203,2.731470561046322],[106.24603271484375,2.7328422910143217],[106.2436294555664,2.7324993586692443],[106.24431610107422,2.734214019414722],[106.2436294555664,2.7366145403410087],[106.24122619628906,2.7383291952024535],[106.2432861328125,2.739015056459934],[106.24431610107422,2.7407297078849524],[106.24809265136719,2.740043847609627],[106.248779296875,2.7410726378752344],[106.24740600585938,2.7421014272564292],[106.24809265136719,2.743473145054992],[106.24706268310547,2.745187790090128],[106.25049591064453,2.744844861279873],[106.25221252441406,2.7462165759303048],[106.24774932861328,2.7472453608844205],[106.24706268310547,2.748960000504624],[106.2484359741211,2.7503317104269485],[106.24397277832031,2.751360491833438],[106.2432861328125,2.7534180519828766],[106.24774932861328,2.753075125538004],[106.25186920166016,2.755475608578749],[106.2546157836914,2.755475608578749],[106.25358581542969,2.7578760867790635],[106.25221252441406,2.758561936803787],[106.25221252441406,2.7595907110991504],[106.2542724609375,2.7602765601347556],[106.2542724609375,2.7609624087745317],[106.25083923339844,2.7609624087745317],[106.25015258789062,2.7595907110991504],[106.24534606933594,2.760619484504133],[106.24259948730469,2.757190236358852],[106.23847961425781,2.760619484504133],[106.23882293701172,2.764734569213644],[106.24259948730469,2.765420415278186],[106.2429428100586,2.76747795109209],[106.24740600585938,2.769535483334323],[106.24740600585938,2.772278854096811],[106.24500274658203,2.7763938983124348],[106.23985290527344,2.7770797376221594],[106.23298645019531,2.781194765114421],[106.2322998046875,2.7835951911893346],[106.23401641845703,2.7849668610370486],[106.23538970947266,2.7853097782494274],[106.23573303222656,2.7870243628132556],[106.23058319091797,2.786338529287363],[106.2264633178711,2.7890818609926384],[106.2264633178711,2.791139355572554],[106.23023986816406,2.792511016624829],[106.23058319091797,2.795254333923438],[106.22989654541016,2.795940162246268],[106.2271499633789,2.7969689039787795],[106.2271499633789,2.7979976448088877],[106.22234344482422,2.799369297844706],[106.22200012207031,2.80108386188148],[106.22509002685547,2.8038271591181285],[106.22817993164062,2.8041700708205326],[106.22611999511719,2.805198805324565],[106.22474670410156,2.806913360819891],[106.2213134765625,2.805541716624802],[106.21719360351562,2.8075991823137514],[106.2103271484375,2.807256271617149],[106.20826721191406,2.8089708240936204],[106.20586395263672,2.8093137342868886],[106.2044906616211,2.8089708240936204],[106.20071411132812,2.811028283742303]],[[106.27349853515625,2.6100663443219503],[106.27384185791016,2.6073226086437415],[106.27555847167969,2.6066366737890547],[106.27933502197266,2.6110952436574593],[106.28070831298828,2.6148678673428094],[106.2820816040039,2.616239727689262],[106.28105163574219,2.6179545510115787],[106.2820816040039,2.6186404796835063],[106.28070831298828,2.6203552997200035],[106.27967834472656,2.6193264079798695],[106.28070831298828,2.6172686219641577],[106.27967834472656,2.6165826925413853],[106.27933502197266,2.6172686219641577],[106.27864837646484,2.6169256572996886],[106.27796173095703,2.6145249020217705],[106.2765884399414,2.613838971098488],[106.27349853515625,2.6141819366069967],[106.27349853515625,2.6100663443219503]],[[106.25083923339844,2.7126091154394203],[106.25221252441406,2.7115803008360047],[106.25289916992188,2.713294991355454],[106.25667572021484,2.7119232391343786],[106.26285552978516,2.715352616768527],[106.26422882080078,2.7139808668823804],[106.26663208007812,2.715352616768527],[106.26422882080078,2.721182536398217],[106.2652587890625,2.7222113428196053],[106.26663208007812,2.7225542780982295],[106.26697540283203,2.7242689530269644],[106.26834869384766,2.7232401483626347],[106.26834869384766,2.725297756812296],[106.26045227050781,2.7249548223148707],[106.25873565673828,2.721182536398217],[106.25598907470703,2.720496664962809],[106.25255584716797,2.720839600729292],[106.25221252441406,2.715009679443],[106.25049591064453,2.715352616768527],[106.25083923339844,2.7126091154394203]],[[106.1773681640625,2.744844861279873],[106.18045806884766,2.745187790090128],[106.1832046508789,2.7427872863523675],[106.18389129638672,2.7403867777964166],[106.18526458740234,2.740043847609627],[106.1886978149414,2.7445019323712216],[106.19281768798828,2.745873647415351],[106.19144439697266,2.748617072777634],[106.19178771972656,2.751703418771669],[106.1880111694336,2.7561614599872115],[106.18526458740234,2.757190236358852],[106.18045806884766,2.7565043855432663],[106.1777114868164,2.7589048616678298],[106.17427825927734,2.7589048616678298],[106.17359161376953,2.759933635666428],[106.171875,2.759933635666428],[106.16706848144531,2.761991180991828],[106.1663818359375,2.760619484504133],[106.16809844970703,2.7595907110991504],[106.1722183227539,2.752046345611248],[106.17565155029297,2.7482741449521058],[106.17565155029297,2.745187790090128],[106.1773681640625,2.744844861279873]],[[106.05033874511719,2.519862932881324],[106.04896545410156,2.5229498461906275],[106.04759216308594,2.520205923610618],[106.0451889038086,2.519862932881324],[106.04209899902344,2.5167760122528477],[106.04209899902344,2.5140320766680446],[106.04450225830078,2.5143750689317983],[106.04862213134766,2.512660106711607],[106.04999542236328,2.5133460918700763],[106.0506820678711,2.5140320766680446],[106.05033874511719,2.519862932881324]],[[106.01703643798828,2.790453524446022],[106.01463317871094,2.7901106087326895],[106.01325988769531,2.7877101959394963],[106.01566314697266,2.783252273477899],[106.0184097290039,2.781537683424318],[106.02046966552734,2.783252273477899],[106.02081298828125,2.7849668610370486],[106.01978302001953,2.7866814461002605],[106.02012634277344,2.7880531123526993],[106.0184097290039,2.7894247770059906],[106.01428985595703,2.7883960286659857],[106.01531982421875,2.7901106087326895],[106.01703643798828,2.790453524446022]],[[105.88142395019531,2.3548741450205313],[105.88451385498047,2.3565893080559164],[105.88623046875,2.358990532755328],[105.88211059570312,2.364136000288866],[105.87970733642578,2.3637929697130176],[105.87764739990234,2.360362659293955],[105.87902069091797,2.356246275617835],[105.88142395019531,2.3548741450205313]]]}}]}