{"type":"FeatureCollection","features":[{"type":"Feature","id":"pmtiles:10/885/542:water:1400:0","properties":{"class":"ocean","water":"ocean","kind":"waterway","verification":"verified","source":"OpenMapTiles/OpenStreetMap national PMTiles","sourceId":"10/885/542:water:1400:0","sourceLayer":"water","archive":"https://its.hanifahseptiani45.workers.dev/v1/map/archive/indonesia.pmtiles","updatedAt":"2026-07-26T09:47:23.280Z"},"geometry":{"type":"Polygon","coordinates":[[[131.1273193359375,-10.482410441586666],[131.4898681640625,-10.482410441586666],[131.4898681640625,-10.838701200796791],[131.1273193359375,-10.838701200796791],[131.1273193359375,-10.482410441586666]]]}}]}