{"type":"FeatureCollection","features":[{"type":"Feature","id":"pmtiles:10/883/493:water:2760:0","properties":{"class":"ocean","water":"ocean","kind":"waterway","verification":"verified","source":"OpenMapTiles/OpenStreetMap national PMTiles","sourceId":"10/883/493:water:2760:0","sourceLayer":"water","archive":"https://its.hanifahseptiani45.workers.dev/v1/map/archive/indonesia.pmtiles","updatedAt":"2026-07-26T09:37:51.972Z"},"geometry":{"type":"Polygon","coordinates":[[[130.4241943359375,6.670063575977281],[130.7867431640625,6.670063575977281],[130.7867431640625,6.309838680093364],[130.4241943359375,6.309838680093364],[130.4241943359375,6.670063575977281]]]}}]}