{"type":"FeatureCollection","features":[{"type":"Feature","id":"pmtiles:10/850/502:water:2310:0","properties":{"class":"ocean","water":"ocean","kind":"waterway","verification":"verified","source":"OpenMapTiles/OpenStreetMap national PMTiles","sourceId":"10/850/502:water:2310:0","sourceLayer":"water","archive":"https://its.hanifahseptiani45.workers.dev/v1/map/archive/indonesia.pmtiles","updatedAt":"2026-07-26T09:39:38.589Z"},"geometry":{"type":"Polygon","coordinates":[[[118.8226318359375,3.5189038690258627],[119.1851806640625,3.5189038690258627],[119.1851806640625,3.156970717063345],[118.8226318359375,3.156970717063345],[118.8226318359375,3.5189038690258627]]]}},{"type":"Feature","id":"pmtiles:8/212/125:water:1360:0","properties":{"class":"ocean","water":"ocean","kind":"waterway","verification":"verified","source":"OpenMapTiles/OpenStreetMap national PMTiles","sourceId":"8/212/125:water:1360:0","sourceLayer":"water","archive":"https://its.hanifahseptiani45.workers.dev/v1/map/archive/indonesia.pmtiles","updatedAt":"2026-07-26T09:35:21.570Z"},"geometry":{"type":"Polygon","coordinates":[[[118.10302734375,4.236856059768954],[119.55322265625,4.236856059768954],[119.55322265625,2.7894247770059906],[118.10302734375,2.7894247770059906],[118.10302734375,4.236856059768954]]]}}]}