{"type":"FeatureCollection","features":[{"type":"Feature","id":"pmtiles:10/824/519:water:310:0","properties":{"class":"ocean","water":"ocean","kind":"waterway","verification":"verified","source":"OpenMapTiles/OpenStreetMap national PMTiles","sourceId":"10/824/519:water:310:0","sourceLayer":"water","archive":"https://its.hanifahseptiani45.workers.dev/v1/map/archive/indonesia.pmtiles","updatedAt":"2026-07-26T09:42:54.635Z"},"geometry":{"type":"Polygon","coordinates":[[[109.6820068359375,-2.810942556329337],[109.6820068359375,-2.454693068753784],[109.68707084655762,-2.454693068753784],[109.68792915344238,-2.454693068753784],[110.0445556640625,-2.454693068753784],[110.0445556640625,-2.743644609669161],[110.04361152648926,-2.744073271097051],[110.04335403442383,-2.7445019323712216],[110.04352569580078,-2.7457879152712223],[110.04318237304688,-2.7469024326648395],[110.04404067993164,-2.7469024326648395],[110.04378318786621,-2.7475025569844576],[110.04395484924316,-2.7478454850316467],[110.0445556640625,-2.7483598769177178],[110.0445556640625,-2.810942556329337],[110.0445556640625,-2.8117998301754312],[110.0445556640625,-2.816857733037736],[109.68792915344238,-2.816857733037736],[109.68707084655762,-2.816857733037736],[109.6820068359375,-2.816857733037736],[109.6820068359375,-2.8117998301754312],[109.6820068359375,-2.810942556329337]]]}}]}