{"type":"FeatureCollection","features":[{"type":"Feature","id":"pmtiles:10/868/544:water:2130:0","properties":{"class":"ocean","water":"ocean","kind":"waterway","verification":"verified","source":"OpenMapTiles/OpenStreetMap national PMTiles","sourceId":"10/868/544:water:2130:0","sourceLayer":"water","archive":"https://its.hanifahseptiani45.workers.dev/v1/map/archive/indonesia.pmtiles","updatedAt":"2026-07-26T09:47:41.510Z"},"geometry":{"type":"Polygon","coordinates":[[[125.1507568359375,-11.173012874215061],[125.5133056640625,-11.173012874215061],[125.5133056640625,-11.52846990075463],[125.1507568359375,-11.52846990075463],[125.1507568359375,-11.173012874215061]]]}}]}