{"type":"FeatureCollection","features":[{"type":"Feature","id":"pmtiles:10/825/509:mountain_peak:10701830601:0","properties":{"name_int":"Gunung Sebawah","name_de":"Gunung Sebawah","name":"Gunung Sebawah","rank":1,"class":"peak","name:latin":"Gunung Sebawah","name_en":"Gunung Sebawah","kind":"poi","verification":"verified","source":"OpenMapTiles/OpenStreetMap national PMTiles","sourceId":"10/825/509:mountain_peak:10701830601:0","sourceLayer":"mountain_peak","archive":"https://its.hanifahseptiani45.workers.dev/v1/map/archive/indonesia.pmtiles","updatedAt":"2026-07-26T09:40:53.975Z"},"geometry":{"type":"Point","coordinates":[110.23329734802246,0.7000176792829507]}},{"type":"Feature","id":"pmtiles:10/824/510:waterway:741220422:0","properties":{"name":"Sungai Landak","name_int":"Sungai Landak","class":"river","name:latin":"Sungai Landak","name_de":"Sungai Landak","name_en":"Sungai Landak","waterway":"river","kind":"waterway","verification":"verified","source":"OpenMapTiles/OpenStreetMap national PMTiles","sourceId":"10/824/510:waterway:741220422:0","sourceLayer":"waterway","archive":"https://its.hanifahseptiani45.workers.dev/v1/map/archive/indonesia.pmtiles","updatedAt":"2026-07-26T09:41:04.133Z"},"geometry":{"type":"LineString","coordinates":[[110.0456714630127,0.66105329611689],[110.0430965423584,0.655045544183892],[110.04283905029297,0.6539298180299653],[110.04326820373535,0.653329042305856],[110.04627227783203,0.6538439929309021]]}},{"type":"Feature","id":"pmtiles:10/824/510:waterway:741220422:1","properties":{"name":"Sungai Landak","name_int":"Sungai Landak","class":"river","name:latin":"Sungai Landak","name_de":"Sungai Landak","name_en":"Sungai Landak","waterway":"river","kind":"waterway","verification":"verified","source":"OpenMapTiles/OpenStreetMap national PMTiles","sourceId":"10/824/510:waterway:741220422:1","sourceLayer":"waterway","archive":"https://its.hanifahseptiani45.workers.dev/v1/map/archive/indonesia.pmtiles","updatedAt":"2026-07-26T09:41:04.133Z"},"geometry":{"type":"LineString","coordinates":[[110.04464149475098,0.6689491875930855],[110.04378318786621,0.6701507351859277],[110.04301071166992,0.6706656840640903],[110.04249572753906,0.6704940344440615],[110.0419807434082,0.6694641365975116],[110.04060745239258,0.6654303679521547],[110.04112243652344,0.6643146441266339],[110.04223823547363,0.663456394858656],[110.04438400268555,0.6632847449871804],[110.04549980163574,0.6628556202824569]]}},{"type":"Feature","id":"pmtiles:10/825/510:landuse:5993907170:0","properties":{"class":"residential","kind":"green","verification":"verified","source":"OpenMapTiles/OpenStreetMap national PMTiles","sourceId":"10/825/510:landuse:5993907170:0","sourceLayer":"landuse","archive":"https://its.hanifahseptiani45.workers.dev/v1/map/archive/indonesia.pmtiles","updatedAt":"2026-07-26T09:41:04.197Z"},"geometry":{"type":"Polygon","coordinates":[[[110.05468368530273,0.3810854470361136],[110.05459785461426,0.3822012212335011],[110.05494117736816,0.3811712758256647],[110.05579948425293,0.38142876218917365],[110.05631446838379,0.38074213186936845],[110.05571365356445,0.37876806939566166],[110.0551986694336,0.37902555583082176],[110.05579948425293,0.37945469987241154],[110.05468368530273,0.3810854470361136]]]}},{"type":"Feature","id":"pmtiles:10/825/510:landuse:5993907170:1","properties":{"class":"residential","kind":"green","verification":"verified","source":"OpenMapTiles/OpenStreetMap national PMTiles","sourceId":"10/825/510:landuse:5993907170:1","sourceLayer":"landuse","archive":"https://its.hanifahseptiani45.workers.dev/v1/map/archive/indonesia.pmtiles","updatedAt":"2026-07-26T09:41:04.197Z"},"geometry":{"type":"Polygon","coordinates":[[[110.16617774963379,0.36100148718006153],[110.16746520996094,0.3620314349394391],[110.16737937927246,0.36065817123432],[110.1679801940918,0.36040068426652283],[110.16755104064941,0.3595423943213376],[110.1668643951416,0.3595423943213376],[110.16617774963379,0.36100148718006153]]]}},{"type":"Feature","id":"pmtiles:10/825/510:landuse:5993907170:2","properties":{"class":"residential","kind":"green","verification":"verified","source":"OpenMapTiles/OpenStreetMap national PMTiles","sourceId":"10/825/510:landuse:5993907170:2","sourceLayer":"landuse","archive":"https://its.hanifahseptiani45.workers.dev/v1/map/archive/indonesia.pmtiles","updatedAt":"2026-07-26T09:41:04.197Z"},"geometry":{"type":"Polygon","coordinates":[[[110.19038200378418,0.3705284994597662],[110.19166946411133,0.3707859861371503],[110.19235610961914,0.3717301038900871],[110.19330024719238,0.3710434728070453],[110.19330024719238,0.3705284994597662],[110.19209861755371,0.36975603938277857],[110.19063949584961,0.3700135260825874],[110.19038200378418,0.3705284994597662]]]}},{"type":"Feature","id":"pmtiles:10/825/510:landuse:5993907170:3","properties":{"class":"residential","kind":"green","verification":"verified","source":"OpenMapTiles/OpenStreetMap national PMTiles","sourceId":"10/825/510:landuse:5993907170:3","sourceLayer":"landuse","archive":"https://its.hanifahseptiani45.workers.dev/v1/map/archive/indonesia.pmtiles","updatedAt":"2026-07-26T09:41:04.197Z"},"geometry":{"type":"Polygon","coordinates":[[[110.26488304138184,0.4046883312764038],[110.26402473449707,0.407263187292628],[110.26608467102051,0.4088081005078692],[110.26788711547852,0.4070915302504119],[110.26488304138184,0.4046883312764038]]]}},{"type":"Feature","id":"pmtiles:10/825/510:mountain_peak:10701830601:0","properties":{"name_int":"Gunung Sebawah","name_de":"Gunung Sebawah","name":"Gunung Sebawah","rank":1,"class":"peak","name:latin":"Gunung Sebawah","name_en":"Gunung Sebawah","kind":"poi","verification":"verified","source":"OpenMapTiles/OpenStreetMap national PMTiles","sourceId":"10/825/510:mountain_peak:10701830601:0","sourceLayer":"mountain_peak","archive":"https://its.hanifahseptiani45.workers.dev/v1/map/archive/indonesia.pmtiles","updatedAt":"2026-07-26T09:41:04.197Z"},"geometry":{"type":"Point","coordinates":[110.23329734802246,0.7000176792829507]}},{"type":"Feature","id":"pmtiles:10/825/510:mountain_peak:10701734891:0","properties":{"name_int":"Gunung Keladan","name_de":"Gunung Keladan","name":"Gunung Keladan","rank":1,"class":"peak","name:latin":"Gunung Keladan","name_en":"Gunung Keladan","kind":"poi","verification":"verified","source":"OpenMapTiles/OpenStreetMap national PMTiles","sourceId":"10/825/510:mountain_peak:10701734891:0","sourceLayer":"mountain_peak","archive":"https://its.hanifahseptiani45.workers.dev/v1/map/archive/indonesia.pmtiles","updatedAt":"2026-07-26T09:41:04.197Z"},"geometry":{"type":"Point","coordinates":[110.21664619445801,0.5333441956241103]}},{"type":"Feature","id":"pmtiles:10/825/510:mountain_peak:10701569651:0","properties":{"name_int":"Gunung Semarong","name_de":"Gunung Semarong","name":"Gunung Semarong","rank":1,"class":"peak","name:latin":"Gunung Semarong","name_en":"Gunung Semarong","kind":"poi","verification":"verified","source":"OpenMapTiles/OpenStreetMap national PMTiles","sourceId":"10/825/510:mountain_peak:10701569651:0","sourceLayer":"mountain_peak","archive":"https://its.hanifahseptiani45.workers.dev/v1/map/archive/indonesia.pmtiles","updatedAt":"2026-07-26T09:41:04.197Z"},"geometry":{"type":"Point","coordinates":[110.19999504089355,0.36666619840407577]}},{"type":"Feature","id":"pmtiles:10/825/510:transportation:3040400310:0","properties":{"class":"secondary","highway":"secondary","kind":"road","verification":"verified","source":"OpenMapTiles/OpenStreetMap national PMTiles","sourceId":"10/825/510:transportation:3040400310:0","sourceLayer":"transportation","archive":"https://its.hanifahseptiani45.workers.dev/v1/map/archive/indonesia.pmtiles","updatedAt":"2026-07-26T09:41:04.197Z"},"geometry":{"type":"LineString","coordinates":[[110.11991500854492,0.708600099655115],[110.12017250061035,0.7082568031442236],[110.12025833129883,0.7074843859017648],[110.12197494506836,0.706111199375556],[110.12248992919922,0.7053387817762768],[110.12206077575684,0.7039655946166476],[110.12154579162598,0.7038797704057487],[110.12171745300293,0.7031931766615998],[110.12154579162598,0.701819988870497],[110.12085914611816,0.7008759220302068],[110.1203441619873,0.6993310849720871],[110.11922836303711,0.6982153690027388],[110.11940002441406,0.6970138284319773],[110.11991500854492,0.6958122875546593],[110.11879920959473,0.6921218386632404],[110.11982917785645,0.6910061209905365],[110.11982917785645,0.6885172113923659],[110.11914253234863,0.6875731418943047],[110.11837005615234,0.685513353250883],[110.11665344238281,0.6848267568393851],[110.11442184448242,0.6819087209945565],[110.11270523071289,0.6773600145350684],[110.11279106140137,0.6756435204204223],[110.11313438415527,0.6747852731355835],[110.11416435241699,0.6744419741792598],[110.11467933654785,0.6736695514389623],[110.11579513549805,0.6701507351859277],[110.11570930480957,0.6692066621020416],[110.11605262756348,0.6680909391323269],[110.11759757995605,0.6651728932455825],[110.11828422546387,0.664743768704767],[110.11871337890625,0.6635422197921628],[110.11871337890625,0.6627697953370699],[110.11948585510254,0.6618257208394738],[110.11974334716797,0.6607099962015894],[110.12120246887207,0.6587360212287763],[110.12231826782227,0.6562470951487853],[110.12351989746094,0.655045544183892],[110.12592315673828,0.6504968129258231],[110.12798309326172,0.6478362323631188],[110.12824058532715,0.6466346793926903],[110.12892723083496,0.6454331261378456],[110.12875556945801,0.6446606988955352],[110.12772560119629,0.644145747335557],[110.126953125,0.6428583682080529],[110.12489318847656,0.6371938961998893],[110.12480735778809,0.6359923407289187],[110.12600898742676,0.6342758324282016],[110.12643814086914,0.6328167999248961],[110.12635231018066,0.6323018471786384],[110.12523651123047,0.6306711631454078],[110.12454986572266,0.6300703846885227],[110.12412071228027,0.6290404786012971],[110.12248992919922,0.6285255254814359],[110.12051582336426,0.6265515380520128],[110.1200008392334,0.6244917242892711],[110.11922836303711,0.6234618171050528],[110.11879920959473,0.6208870482638531],[110.11922836303711,0.6183981038587518],[110.11991500854492,0.6179689753949731],[110.12008666992188,0.6173681954874297],[110.11982917785645,0.6159949840154013],[110.11982917785645,0.6140209919046384],[110.11905670166016,0.6131627342377044],[110.11871337890625,0.6123903022198078],[110.11819839477539,0.6081848370623106],[110.11871337890625,0.6058675385330332],[110.11828422546387,0.6034644130855327],[110.11948585510254,0.5993447669936671],[110.11905670166016,0.5952251178031815],[110.11656761169434,0.5892172905566753],[110.11433601379395,0.5862992006952936],[110.1119327545166,0.5848401551938025],[110.10995864868164,0.5846685027569123],[110.1093578338623,0.5844110240917217],[110.10807037353516,0.5832094568315966],[110.10764122009277,0.5817504105280733],[110.10635375976562,0.5794331009180382],[110.10472297668457,0.5783173589156547],[110.10437965393066,0.5777165746696653],[110.10326385498047,0.5730819512132825],[110.10369300842285,0.5710221173605419],[110.10360717773438,0.5691339356804264],[110.10403633117676,0.5666449679762167],[110.10377883911133,0.5646709583467526],[110.10403633117676,0.5632119073201238],[110.10498046875,0.5617528559282334],[110.10489463806152,0.5604654573387364],[110.10446548461914,0.5588347520525616],[110.10326385498047,0.5563457799539435],[110.10180473327637,0.5544575935233524],[110.10017395019531,0.5516253127490103],[110.09777069091797,0.5491363376221727],[110.09674072265625,0.5483638968546387],[110.09202003479004,0.5464757078924549],[110.09099006652832,0.5457890935771132],[110.09021759033203,0.544501691524701],[110.08935928344727,0.5408969643174402],[110.08893013000488,0.5383221578577206],[110.08910179138184,0.5371205811374864],[110.08893013000488,0.5364339657626829],[110.08841514587402,0.5359190041810109],[110.08695602416992,0.5351465617273448],[110.08618354797363,0.5343741191764053],[110.08584022521973,0.5336016765283489],[110.08455276489258,0.532657579826818],[110.08317947387695,0.5309410399990924],[110.0830078125,0.5300827699064286],[110.08240699768066,0.5289670186081707],[110.08232116699219,0.5282804023248815],[110.08275032043457,0.5272504777577467],[110.08223533630371,0.526735515410266],[110.0818920135498,0.525018973944924],[110.08206367492676,0.523559913328782],[110.08180618286133,0.5222725066208085],[110.08309364318848,0.5187535936088068],[110.08223533630371,0.5172087043504945],[110.08137702941895,0.5143764064010838],[110.08249282836914,0.5103425253351332],[110.08283615112305,0.5077677063095223],[110.08249282836914,0.5069952604016379],[110.08206367492676,0.5065661237463104],[110.08103370666504,0.5064802964118229],[110.07845878601074,0.5047637494838995],[110.07794380187988,0.5040771305857987],[110.07691383361816,0.5035621663647021],[110.07511138916016,0.499871588258884],[110.0745964050293,0.49944245113495356],[110.07262229919434,0.4989274865492348],[110.07124900817871,0.4974684200042958],[110.06850242614746,0.49635266301689285],[110.06738662719727,0.4955802157615068],[110.06592750549316,0.49369201098048165],[110.06300926208496,0.4924045983222243],[110.06206512451172,0.4908597028042152],[110.06180763244629,0.4893148069293147],[110.06017684936523,0.48785573827633755],[110.05837440490723,0.484765944791576],[110.05777359008789,0.4829635646071324],[110.05777359008789,0.48236277110602543],[110.0566577911377,0.4810753562823038],[110.05657196044922,0.479530458173258],[110.0558853149414,0.4784146982109405],[110.05434036254883,0.4771272826443891],[110.05185127258301,0.4757540391078976],[110.05022048950195,0.4740374843030395],[110.04910469055176,0.47180596242084505],[110.04901885986328,0.4708618567934906],[110.04996299743652,0.46725708867893445],[110.0497055053711,0.46502556463259737],[110.0503921508789,0.4643389417070267],[110.05064964294434,0.46253655621040934],[110.05030632019043,0.4596184072937888],[110.05056381225586,0.45876012797343435],[110.05022048950195,0.4573010528926744],[110.0489330291748,0.45618528939544944],[110.04884719848633,0.45515535370600446],[110.04755973815918,0.45403958987645865],[110.04627227783203,0.4532671378935902],[110.04318237304688,0.45000567305923767],[110.04120826721191,0.44846076815443325],[110.03949165344238,0.44803162784518236],[110.0376033782959,0.44811745590904195],[110.03605842590332,0.44760248751079246],[110.03511428833008,0.44648672252394306],[110.0335693359375,0.44580009783246055]]}},{"type":"Feature","id":"pmtiles:10/825/510:transportation:2049114570:0","properties":{"class":"trunk","highway":"trunk","kind":"road","verification":"verified","source":"OpenMapTiles/OpenStreetMap national PMTiles","sourceId":"10/825/510:transportation:2049114570:0","sourceLayer":"transportation","archive":"https://its.hanifahseptiani45.workers.dev/v1/map/archive/indonesia.pmtiles","updatedAt":"2026-07-26T09:41:04.198Z"},"geometry":{"type":"LineString","coordinates":[[110.39337158203125,0.708600099655115],[110.39337158203125,0.7080851548792424],[110.39156913757324,0.7067119685307404],[110.390625,0.7043088914445121],[110.39002418518066,0.7010475705607746],[110.39002418518066,0.7001035035647618],[110.39131164550781,0.6976145987557061],[110.39148330688477,0.6953831657385763],[110.39251327514648,0.6930659072582444],[110.39191246032715,0.6897187541194967],[110.39148330688477,0.6888605093453322],[110.38890838623047,0.6874873173852194],[110.38470268249512,0.684483458596759],[110.38281440734863,0.6836252128826885],[110.38161277770996,0.6826811424200514],[110.38015365600586,0.6819087209945565],[110.37903785705566,0.6806213516767059],[110.37654876708984,0.6786473847221828],[110.37242889404297,0.6743561494363775],[110.36951065063477,0.6728113038061707],[110.3660774230957,0.667919289422187],[110.36684989929199,0.663456394858656],[110.36796569824219,0.6622548456333988],[110.36942481994629,0.6621690206775952],[110.36993980407715,0.6618257208394738],[110.37071228027344,0.6605383462350716],[110.37199974060059,0.6594226213081242],[110.3726863861084,0.6582210711071639],[110.3741455078125,0.6571053456613214],[110.37620544433594,0.654444768593379],[110.37749290466309,0.6509259386917989],[110.37981033325195,0.6480937079625875],[110.38410186767578,0.6378804992003637],[110.38839340209961,0.6346191341339278],[110.3935432434082,0.6285255254814359],[110.3961181640625,0.6233759914972552]]}},{"type":"Feature","id":"pmtiles:10/825/510:transportation:2049114570:1","properties":{"class":"trunk","highway":"trunk","kind":"road","verification":"verified","source":"OpenMapTiles/OpenStreetMap national PMTiles","sourceId":"10/825/510:transportation:2049114570:1","sourceLayer":"transportation","archive":"https://its.hanifahseptiani45.workers.dev/v1/map/archive/indonesia.pmtiles","updatedAt":"2026-07-26T09:41:04.198Z"},"geometry":{"type":"LineString","coordinates":[[110.3961181640625,0.5493079911125136],[110.39534568786621,0.5482780700965293],[110.39242744445801,0.5457890935771132],[110.39131164550781,0.544415864711425],[110.38959503173828,0.5398670418643405],[110.38882255554199,0.5366056196135958],[110.38787841796875,0.5351465617273448],[110.38564682006836,0.5330867147090856],[110.3851318359375,0.5306835589837959],[110.38453102111816,0.5298252888554202],[110.38290023803711,0.5292244996948057],[110.37938117980957,0.5299969428906195],[110.37843704223633,0.5299969428906195],[110.37551879882812,0.5276796130147829],[110.37397384643555,0.5269071695308298],[110.37328720092773,0.526220553020238],[110.37208557128906,0.5232166048991473],[110.37071228027344,0.5214142353355982],[110.37036895751953,0.5206417910788872],[110.36959648132324,0.5148913697583026],[110.36693572998047,0.5112007981148992],[110.36513328552246,0.5075960516712996],[110.3631591796875,0.5045062674056027],[110.36212921142578,0.5016739638729604],[110.36032676696777,0.49969993341267127],[110.35861015319824,0.4947219409276471],[110.35852432250977,0.4925762533577114],[110.35921096801758,0.49000142736214514],[110.35843849182129,0.48716911762424786],[110.35835266113281,0.4851092552485454],[110.35861015319824,0.48304939224583165],[110.35843849182129,0.4801312519238081],[110.35972595214844,0.4745524507892469],[110.36032676696777,0.4728358956863872],[110.3605842590332,0.47060437341839645],[110.36187171936035,0.46777205566601765],[110.36307334899902,0.46665629381297435],[110.36436080932617,0.46476808104334566],[110.36470413208008,0.46373814659246193],[110.36418914794922,0.4564427732947962],[110.36178588867188,0.4440835358238644],[110.35826683044434,0.43318335783136774],[110.35715103149414,0.4305226820674477],[110.35577774047852,0.42460052946184135],[110.35560607910156,0.42133905217272627],[110.35594940185547,0.4190216859001765],[110.35526275634766,0.4150735788220885],[110.35569190979004,0.4122412399204478],[110.35552024841309,0.4088939290111284],[110.35569190979004,0.4039158743119202],[110.35517692565918,0.3955046715320236],[110.35560607910156,0.3925006684640664],[110.35569190979004,0.3893250069049401],[110.35466194152832,0.3844327691929692],[110.35466194152832,0.38331699528592367],[110.35560607910156,0.3797980150903726],[110.35534858703613,0.3785105829528419],[110.35431861877441,0.3769656641356107],[110.35414695739746,0.3759357181051399],[110.35697937011719,0.36975603938277857],[110.35706520080566,0.36855443468500937],[110.35637855529785,0.3657220801141534],[110.35440444946289,0.3631472115467034],[110.3510570526123,0.36065817123432],[110.35019874572754,0.35979988131336427],[110.34899711608887,0.35791164320333735],[110.34770965576172,0.3568816949793643],[110.34401893615723,0.35130280677044823],[110.34204483032227,0.34606723172845477]]}},{"type":"Feature","id":"pmtiles:10/825/510:transportation_name:2049114570:0","properties":{"name":"Jalan Lintas Malindo","name_int":"Jalan Lintas Malindo","class":"trunk","name:latin":"Jalan Lintas Malindo","name_de":"Jalan Lintas Malindo","name_en":"Jalan Lintas Malindo","highway":"trunk","kind":"road","verification":"verified","source":"OpenMapTiles/OpenStreetMap national PMTiles","sourceId":"10/825/510:transportation_name:2049114570:0","sourceLayer":"transportation_name","archive":"https://its.hanifahseptiani45.workers.dev/v1/map/archive/indonesia.pmtiles","updatedAt":"2026-07-26T09:41:04.198Z"},"geometry":{"type":"LineString","coordinates":[[110.39199829101562,0.7144361364378256],[110.39234161376953,0.7115181189692663],[110.39337158203125,0.7088575720215857],[110.39337158203125,0.7080851548792424],[110.39156913757324,0.7067119685307404],[110.390625,0.7043088914445121],[110.39002418518066,0.7010475705607746],[110.39002418518066,0.7001035035647618],[110.39131164550781,0.6976145987557061],[110.39148330688477,0.6953831657385763],[110.39251327514648,0.6930659072582444],[110.39191246032715,0.6897187541194967],[110.39148330688477,0.6888605093453322],[110.38890838623047,0.6874873173852194],[110.38470268249512,0.684483458596759],[110.38281440734863,0.6836252128826885],[110.38161277770996,0.6826811424200514],[110.38015365600586,0.6819087209945565],[110.37903785705566,0.6806213516767059],[110.37654876708984,0.6786473847221828],[110.37242889404297,0.6743561494363775],[110.36951065063477,0.6728113038061707],[110.3660774230957,0.667919289422187],[110.36684989929199,0.663456394858656],[110.36796569824219,0.6622548456333988],[110.36942481994629,0.6621690206775952],[110.36993980407715,0.6618257208394738],[110.37071228027344,0.6605383462350716],[110.37199974060059,0.6594226213081242],[110.3726863861084,0.6582210711071639],[110.3741455078125,0.6571053456613214],[110.37620544433594,0.654444768593379],[110.37749290466309,0.6509259386917989],[110.37981033325195,0.6480937079625875],[110.38410186767578,0.6378804992003637],[110.38839340209961,0.6346191341339278],[110.3935432434082,0.6285255254814359],[110.39766311645508,0.6202862686869679],[110.39800643920898,0.6190847093286607],[110.39783477783203,0.615909158286641],[110.39826393127441,0.6111887410819321],[110.3972339630127,0.6073265784635566],[110.3972339630127,0.6050092795667723],[110.39800643920898,0.6007179827029603],[110.39774894714355,0.5994305929855841],[110.39628982543945,0.5961692043485698],[110.39628982543945,0.5937660746425166],[110.39852142333984,0.5875865934691262],[110.39852142333984,0.5838960667259698],[110.39998054504395,0.5786606641705418],[110.40118217468262,0.5754850897717745],[110.40212631225586,0.5715370758930192]]}},{"type":"Feature","id":"pmtiles:10/825/510:transportation_name:2049114570:1","properties":{"name":"Jalan Lintas Malindo","name_int":"Jalan Lintas Malindo","class":"trunk","name:latin":"Jalan Lintas Malindo","name_de":"Jalan Lintas Malindo","name_en":"Jalan Lintas Malindo","highway":"trunk","kind":"road","verification":"verified","source":"OpenMapTiles/OpenStreetMap national PMTiles","sourceId":"10/825/510:transportation_name:2049114570:1","sourceLayer":"transportation_name","archive":"https://its.hanifahseptiani45.workers.dev/v1/map/archive/indonesia.pmtiles","updatedAt":"2026-07-26T09:41:04.198Z"},"geometry":{"type":"LineString","coordinates":[[110.40298461914062,0.5554875134693731],[110.40092468261719,0.5534276733981756],[110.3975772857666,0.5511103524631977],[110.39534568786621,0.5482780700965293],[110.39242744445801,0.5457890935771132],[110.39131164550781,0.544415864711425],[110.38959503173828,0.5398670418643405],[110.38882255554199,0.5366056196135958],[110.38787841796875,0.5351465617273448],[110.38564682006836,0.5330867147090856],[110.3851318359375,0.5306835589837959],[110.38453102111816,0.5298252888554202],[110.38290023803711,0.5292244996948057],[110.37938117980957,0.5299969428906195],[110.37843704223633,0.5299969428906195],[110.37551879882812,0.5276796130147829],[110.37397384643555,0.5269071695308298],[110.37328720092773,0.526220553020238],[110.37208557128906,0.5232166048991473],[110.37071228027344,0.5214142353355982],[110.37036895751953,0.5206417910788872],[110.36959648132324,0.5148913697583026],[110.36693572998047,0.5112007981148992],[110.36513328552246,0.5075960516712996],[110.3631591796875,0.5045062674056027],[110.36212921142578,0.5016739638729604],[110.36032676696777,0.49969993341267127],[110.35989761352539,0.49884165911434764],[110.35938262939453,0.4966959728792517],[110.35861015319824,0.4947219409276471],[110.35852432250977,0.4925762533577114],[110.35921096801758,0.49000142736214514],[110.35843849182129,0.48716911762424786],[110.35835266113281,0.4851092552485454],[110.35861015319824,0.48304939224583165],[110.35843849182129,0.4801312519238081],[110.35972595214844,0.4745524507892469],[110.36032676696777,0.4728358956863872],[110.3605842590332,0.47060437341839645],[110.36187171936035,0.46777205566601765],[110.36307334899902,0.46665629381297435],[110.36436080932617,0.46476808104334566],[110.36470413208008,0.46373814659246193],[110.36418914794922,0.4564427732947962],[110.36178588867188,0.4440835358238644],[110.35826683044434,0.43318335783136774],[110.35715103149414,0.4305226820674477],[110.35577774047852,0.42460052946184135],[110.35560607910156,0.42133905217272627],[110.35594940185547,0.4190216859001765],[110.35526275634766,0.4150735788220885],[110.35569190979004,0.4122412399204478],[110.35552024841309,0.4088939290111284],[110.35569190979004,0.4039158743119202],[110.35517692565918,0.3955046715320236],[110.35560607910156,0.3925006684640664],[110.35569190979004,0.3893250069049401],[110.35466194152832,0.3844327691929692],[110.35466194152832,0.38331699528592367],[110.35560607910156,0.3797980150903726],[110.35534858703613,0.3785105829528419],[110.35431861877441,0.3769656641356107],[110.35414695739746,0.3759357181051399],[110.35697937011719,0.36975603938277857],[110.35706520080566,0.36855443468500937],[110.35637855529785,0.3657220801141534],[110.35440444946289,0.3631472115467034],[110.35019874572754,0.35979988131336427],[110.34899711608887,0.35791164320333735],[110.34770965576172,0.3568816949793643],[110.34401893615723,0.35130280677044823],[110.33955574035645,0.3392867286154484]]}},{"type":"Feature","id":"pmtiles:10/825/510:waterway:741220422:0","properties":{"name":"Sungai Landak","name_int":"Sungai Landak","class":"river","name:latin":"Sungai Landak","name_de":"Sungai Landak","name_en":"Sungai Landak","waterway":"river","kind":"waterway","verification":"verified","source":"OpenMapTiles/OpenStreetMap national PMTiles","sourceId":"10/825/510:waterway:741220422:0","sourceLayer":"waterway","archive":"https://its.hanifahseptiani45.workers.dev/v1/map/archive/indonesia.pmtiles","updatedAt":"2026-07-26T09:41:04.198Z"},"geometry":{"type":"LineString","coordinates":[[110.0448989868164,0.7093725167115679],[110.04652976989746,0.7058537268567306],[110.04764556884766,0.704909660832385],[110.04944801330566,0.7048238366388659],[110.04987716674805,0.7040514188259976],[110.04979133605957,0.7002751521236377],[110.05056381225586,0.6982153690027388],[110.05133628845215,0.6977004230814146],[110.05167961120605,0.6961555849794365],[110.05099296569824,0.6935808536853187],[110.05125045776367,0.6923793119350705],[110.0529670715332,0.6898045785884079],[110.05279541015625,0.6893754562284045],[110.05090713500977,0.6886888603719399],[110.0503921508789,0.6879164399151989],[110.05090713500977,0.6868865457784352],[110.05193710327148,0.6860283004948968],[110.05511283874512,0.6859424759580861],[110.05537033081055,0.6849125813962189],[110.05382537841797,0.68422598489866],[110.05288124084473,0.682852791608866],[110.05236625671387,0.6807930009389622],[110.0526237487793,0.6787332093891507],[110.05236625671387,0.677188365150954],[110.05245208740234,0.6753002215246795],[110.05322456359863,0.6738412009473933],[110.05305290222168,0.6727254790345825],[110.05030632019043,0.6705798592548291],[110.04901885986328,0.6704940344440615],[110.04807472229004,0.6667177412833922],[110.04695892333984,0.6654303679521547],[110.04592895507812,0.6654303679521547],[110.04515647888184,0.6664602666440516],[110.04464149475098,0.6689491875930855],[110.04378318786621,0.6701507351859277],[110.04301071166992,0.6706656840640903],[110.04249572753906,0.6704940344440615],[110.0419807434082,0.6694641365975116],[110.04060745239258,0.6654303679521547],[110.04112243652344,0.6643146441266339],[110.04223823547363,0.663456394858656],[110.04438400268555,0.6632847449871804],[110.04549980163574,0.6628556202824569],[110.04592895507812,0.6621690206775952],[110.0456714630127,0.66105329611689],[110.0430965423584,0.655045544183892],[110.04283905029297,0.6539298180299653],[110.04326820373535,0.653329042305856],[110.04627227783203,0.6538439929309021],[110.04919052124023,0.6532432171965468],[110.05073547363281,0.653329042305856],[110.05373954772949,0.654702243855283],[110.05425453186035,0.654444768593379],[110.05562782287598,0.6528999167446585],[110.05794525146484,0.6509259386917989],[110.06000518798828,0.6500676871233395],[110.06052017211914,0.6493810857635225],[110.06034851074219,0.6485228339326312],[110.0595760345459,0.6474071063349243],[110.05871772766113,0.6473212811249454],[110.05751609802246,0.648007882764233],[110.05622863769531,0.6496385612843767],[110.05545616149902,0.6500676871233395],[110.05494117736816,0.6496385612843767],[110.0551986694336,0.6469779802704352],[110.05622863769531,0.6446606988955352],[110.05768775939941,0.6428583682080529],[110.06112098693848,0.6400261329859518],[110.06180763244629,0.6383954513905934],[110.06112098693848,0.6371080708183996],[110.05983352661133,0.6365931184994054],[110.05794525146484,0.6366789438894642],[110.05622863769531,0.6370222454354604],[110.05502700805664,0.6395111809591612],[110.05434036254883,0.6399403076517416],[110.05348205566406,0.6399403076517416],[110.05279541015625,0.6393395302720819],[110.05185127258301,0.6389962288806998],[110.05082130432129,0.6389104035292661],[110.0497055053711,0.6392537049263751],[110.04910469055176,0.6389104035292661],[110.04876136779785,0.6378804992003637],[110.04936218261719,0.6344474832839069],[110.04884719848633,0.6285255254814359],[110.04824638366699,0.6285255254814359],[110.04704475402832,0.6304136866723837],[110.04635810852051,0.6304995121648034],[110.04524230957031,0.6301562101866125],[110.04386901855469,0.6281822233733436],[110.04283905029297,0.6275814446298824],[110.03665924072266,0.6254358056975349],[110.03657341003418,0.6247492010538025],[110.03700256347656,0.6238051195221885],[110.03623008728027,0.6196854890418706],[110.0361442565918,0.6181406267846512],[110.0376033782959,0.6104163087798611],[110.03786087036133,0.6099871796752012],[110.03880500793457,0.6099013538501907],[110.03923416137695,0.6107596120389189],[110.03931999206543,0.6124761280050848],[110.04000663757324,0.6128194311323938],[110.04077911376953,0.6128194311323938],[110.04129409790039,0.612561953788969],[110.04189491271973,0.6115320442916357],[110.04180908203125,0.6108454378502728],[110.04086494445801,0.6094722247044615],[110.03897666931152,0.6081848370623106],[110.03743171691895,0.6063824938475477],[110.03743171691895,0.6061250161964153],[110.03966331481934,0.6038077167859797],[110.03992080688477,0.6031211093634141],[110.03992080688477,0.6018337202126958],[110.0394058227539,0.6004605047837259],[110.0387191772461,0.5994305929855841],[110.03768920898438,0.5985723330058335],[110.03726005554199,0.5985723330058335],[110.0361442565918,0.5990014630125131],[110.03434181213379,0.6003746788079525],[110.03365516662598,0.6006321567312227],[110.03279685974121,0.6003746788079525],[110.03271102905273,0.6000313748913868],[110.0339126586914,0.5950534656866324],[110.03382682800293,0.5935944224806207],[110.03331184387207,0.5919637266772213],[110.0335693359375,0.5899038997139883],[110.0321102142334,0.5873291149380577]]}},{"type":"Feature","id":"pmtiles:10/825/510:waterway:2049114852:0","properties":{"name_int":"Sekayam River","name_de":"Sungai Sekayam","name":"Sungai Sekayam","name:id":"Sungai Sekayam","name:en":"Sekayam River","class":"river","name:latin":"Sungai Sekayam","name_en":"Sekayam River","waterway":"river","kind":"waterway","verification":"verified","source":"OpenMapTiles/OpenStreetMap national PMTiles","sourceId":"10/825/510:waterway:2049114852:0","sourceLayer":"waterway","archive":"https://its.hanifahseptiani45.workers.dev/v1/map/archive/indonesia.pmtiles","updatedAt":"2026-07-26T09:41:04.198Z"},"geometry":{"type":"LineString","coordinates":[[110.3972339630127,0.7035364735463077],[110.39594650268555,0.7032790008851464],[110.39311408996582,0.7036222977635305],[110.39191246032715,0.7031931766615998],[110.39113998413086,0.7025924070526486],[110.39122581481934,0.7001893278449955],[110.39345741271973,0.6964130580315953],[110.39397239685059,0.6951256926301852],[110.39414405822754,0.6935808536853187],[110.39397239685059,0.6910061209905365],[110.39311408996582,0.6883455624066102],[110.39328575134277,0.6857708268798319],[110.38727760314941,0.6825953178233419],[110.38710594177246,0.6809646501950937],[110.3877067565918,0.6796772806251994],[110.3877067565918,0.6791623327011251],[110.38332939147949,0.675128572067706],[110.37920951843262,0.6746994483987692],[110.37517547607422,0.675214396796946],[110.37457466125488,0.675128572067706],[110.37354469299316,0.674270324692003],[110.37225723266602,0.6725538294868869],[110.36959648132324,0.6699790855478369],[110.3671932220459,0.6686058882267929],[110.36702156066895,0.6681767639851586],[110.36702156066895,0.6656878426452977],[110.36770820617676,0.6633705699236572],[110.3683090209961,0.6628556202824569],[110.37054061889648,0.6625123204919134],[110.37277221679688,0.6625123204919134],[110.37363052368164,0.6619973707614975],[110.3738021850586,0.661482420977606],[110.37345886230469,0.6592509712971548],[110.37371635437012,0.6587360212287763],[110.3741455078125,0.6584785461746208],[110.37577629089355,0.6588218462438675],[110.37723541259766,0.6587360212287763],[110.37920951843262,0.6582210711071639],[110.38092613220215,0.6574486458250703],[110.38264274597168,0.6558179698372868],[110.38418769836426,0.6554746695616132],[110.38693428039551,0.6558179698372868],[110.38933753967285,0.6546164187694501],[110.38985252380371,0.6539298180299653],[110.39011001586914,0.6531573920857738],[110.39002418518066,0.6518700152484058],[110.38865089416504,0.6475787567505762],[110.38727760314941,0.6436307957235385],[110.38564682006836,0.6416568140628556],[110.38564682006836,0.6404552596354449],[110.3862476348877,0.6388245781764113],[110.38753509521484,0.6383954513905934],[110.38925170898438,0.6388245781764113],[110.38976669311523,0.6401977836500521],[110.39234161376953,0.6407127356079059],[110.39380073547363,0.641313512826656],[110.39586067199707,0.6405410849610433],[110.39586067199707,0.6389962288806998],[110.39448738098145,0.6381379753019161],[110.39302825927734,0.6378804992003637],[110.39199829101562,0.6367647692781162],[110.39268493652344,0.6358206899245147],[110.39508819580078,0.6358206899245147],[110.39620399475098,0.6351340866498134]]}},{"type":"Feature","id":"pmtiles:10/825/510:waterway:5760085472:0","properties":{"name":"Sungai Tayan","name_int":"Sungai Tayan","class":"river","name:latin":"Sungai Tayan","name_de":"Sungai Tayan","name_en":"Sungai Tayan","waterway":"river","kind":"waterway","verification":"verified","source":"OpenMapTiles/OpenStreetMap national PMTiles","sourceId":"10/825/510:waterway:5760085472:0","sourceLayer":"waterway","archive":"https://its.hanifahseptiani45.workers.dev/v1/map/archive/indonesia.pmtiles","updatedAt":"2026-07-26T09:41:04.198Z"},"geometry":{"type":"LineString","coordinates":[[110.22128105163574,0.44065041061239185],[110.22128105163574,0.4400496135373828],[110.22016525268555,0.4396204727398896],[110.22093772888184,0.4392771600841314],[110.22102355957031,0.4379039093035004],[110.22162437438965,0.4377322529382184],[110.22205352783203,0.43867636289859036],[110.22265434265137,0.4391055037503264],[110.2232551574707,0.43756059656901414],[110.22316932678223,0.4371314556288155],[110.22231101989746,0.4367881428589726],[110.2217960357666,0.4354148916229974],[110.22222518920898,0.4344707812531112],[110.22342681884766,0.43386998368356444],[110.22394180297852,0.43386998368356444],[110.22411346435547,0.4354148916229974],[110.22531509399414,0.4347282659111613],[110.22677421569824,0.4328400448819423],[110.2272891998291,0.4310376516427681],[110.22763252258301,0.4306085103324193],[110.22823333740234,0.4309518233826424],[110.22883415222168,0.4322392471830625],[110.2302074432373,0.4330117013585948],[110.23080825805664,0.4318959341909334],[110.2316665649414,0.4312093081601631],[110.23226737976074,0.4292352579770551],[110.23218154907227,0.42769034878256207],[110.23269653320312,0.42605961096217015],[110.23338317871094,0.42597378264625263],[110.23449897766113,0.4264887525273764],[110.23527145385742,0.42614543927712134],[110.23527145385742,0.4247721861232492],[110.23364067077637,0.42425721612760015],[110.23346900939941,0.4239139027781249],[110.23398399353027,0.42339893272536244],[110.23415565490723,0.4222831641604614],[110.23561477661133,0.42211150744392967],[110.2357006072998,0.42185402236205505],[110.2338981628418,0.4205665968249406],[110.23406982421875,0.42022328331249525],[110.23484230041504,0.4197941414007147],[110.23484230041504,0.4192791710754875],[110.23398399353027,0.41739094626019835],[110.23406982421875,0.4165326621032932],[110.23475646972656,0.41558854942270784],[110.23475646972656,0.4150735788220885],[110.23458480834961,0.4142152944132391],[110.23364067077637,0.41490192194777364],[110.23329734802246,0.4146444366293025],[110.23355484008789,0.4131853529999461],[110.23312568664551,0.41215541145311363],[110.23355484008789,0.4100955279602658],[110.23329734802246,0.40983804248632794],[110.23226737976074,0.40992387097855953],[110.23364067077637,0.4074348443311777],[110.23295402526855,0.40640490204501134],[110.23415565490723,0.40640490204501134],[110.23501396179199,0.4056324452441942],[110.23527145385742,0.4058899308526662],[110.23509979248047,0.40640490204501134],[110.23544311523438,0.4065765591018362],[110.23578643798828,0.4059757593870046],[110.23561477661133,0.405460788167332],[110.23475646972656,0.4046025027284088],[110.23467063903809,0.40280010301142966],[110.2342414855957,0.4013410172342162],[110.23432731628418,0.40074021713259356],[110.23561477661133,0.40013941698691724],[110.23544311523438,0.3986803307357718],[110.2357006072998,0.3983370162861206],[110.23664474487305,0.39859450212470904],[110.23750305175781,0.39842284489989765],[110.23698806762695,0.3978220445848706],[110.23801803588867,0.3979078732039625],[110.24102210998535,0.39421724177839224],[110.24188041687012,0.39378809848292917],[110.24179458618164,0.39310146916423605],[110.2419662475586,0.39267232581138956],[110.2437686920166,0.3903549513259037],[110.24505615234375,0.389582493021976],[110.24548530578613,0.3881234049214868],[110.24608612060547,0.3882092336402536],[110.24642944335938,0.3880375762018389],[110.2463436126709,0.38726511768589944],[110.24660110473633,0.3866643165692807],[110.24703025817871,0.38649265909957364],[110.24720191955566,0.38726511768589944],[110.247802734375,0.38726511768589944],[110.24797439575195,0.3870076314982782],[110.24754524230957,0.38503357046718634],[110.2481460571289,0.3840036253997994],[110.24986267089844,0.3841752829196423],[110.25054931640625,0.3845185979490111],[110.25157928466797,0.3828878514367773],[110.2532958984375,0.38305950897903074],[110.25372505187988,0.3826303651169809],[110.25372505187988,0.38082796066234437],[110.25415420532227,0.37945469987241154],[110.2536392211914,0.37902555583082176],[110.25372505187988,0.37876806939566166],[110.25415420532227,0.37859641176797254],[110.25372505187988,0.3780814388645126],[110.25269508361816,0.37842475413688703],[110.25166511535645,0.37962635748310447],[110.25054931640625,0.3803988166889667],[110.24806022644043,0.3809137894544534],[110.24711608886719,0.380484645485339],[110.247802734375,0.37902555583082176],[110.24909019470215,0.37902555583082176],[110.25089263916016,0.37773812357856684],[110.25132179260254,0.3761932046241583],[110.25054931640625,0.3746482853962192],[110.25029182434082,0.372760050414513],[110.24943351745605,0.3724167349197245],[110.24857521057129,0.3725025637946686],[110.2481460571289,0.3723309060439419],[110.24848937988281,0.37130095946942276],[110.24788856506348,0.3707859861371503],[110.24806022644043,0.37027101277490715],[110.24909019470215,0.36975603938277857],[110.24883270263672,0.3694985526754948],[110.247802734375,0.3693268948665036],[110.2481460571289,0.3688977503295092],[110.24806022644043,0.3684686057718096],[110.24720191955566,0.36838277685779985],[110.2466869354248,0.36855443468500937],[110.24660110473633,0.3688119214196206],[110.24703025817871,0.3694127237714184],[110.2466869354248,0.37009935498085156],[110.24557113647461,0.36975603938277857],[110.24445533752441,0.3686402635973707],[110.24436950683594,0.36812529011078254],[110.24497032165527,0.3664087116075905],[110.2437686920166,0.36555042223257317],[110.24402618408203,0.3652929354040566],[110.24471282958984,0.36520710645957877],[110.24591445922852,0.3626322377450464],[110.24539947509766,0.3616881190326069],[110.24299621582031,0.3595423943213376],[110.24325370788574,0.3593707363226031],[110.24454116821289,0.35988571030911487],[110.24514198303223,0.35971405231683207],[110.24531364440918,0.3593707363226031],[110.24419784545898,0.3589415913116767],[110.24239540100098,0.35713918204616846],[110.2411937713623,0.35713918204616846],[110.24110794067383,0.35653837887905127],[110.2408504486084,0.35628089179542144],[110.2411937713623,0.35542260146469573],[110.24042129516602,0.3547359691426948],[110.24093627929688,0.3548217981857391],[110.2411937713623,0.35447848200880117],[110.24102210998535,0.3531052171739333],[110.24042129516602,0.35344853340170346],[110.24024963378906,0.3531052171739333],[110.2408504486084,0.352161097482238],[110.24273872375488,0.350530345062424],[110.24273872375488,0.3500153705550133],[110.24239540100098,0.3496720542010081],[110.23990631103516,0.34889959235864865],[110.23999214172363,0.3479554722429725],[110.24093627929688,0.3467538646864199],[110.2408504486084,0.3464105482136546],[110.23836135864258,0.3459814026052186]]}},{"type":"Feature","id":"pmtiles:10/826/510:transportation:2049114570:0","properties":{"class":"trunk","highway":"trunk","kind":"road","verification":"verified","source":"OpenMapTiles/OpenStreetMap national PMTiles","sourceId":"10/826/510:transportation:2049114570:0","sourceLayer":"transportation","archive":"https://its.hanifahseptiani45.workers.dev/v1/map/archive/indonesia.pmtiles","updatedAt":"2026-07-26T09:41:04.273Z"},"geometry":{"type":"LineString","coordinates":[[110.39337158203125,0.708600099655115],[110.39337158203125,0.7080851548792424],[110.39156913757324,0.7067119685307404],[110.390625,0.7043088914445121],[110.39002418518066,0.7010475705607746],[110.39002418518066,0.7001035035647618],[110.39131164550781,0.6976145987557061],[110.39148330688477,0.6953831657385763],[110.39251327514648,0.6930659072582444],[110.39191246032715,0.6897187541194967],[110.39148330688477,0.6888605093453322],[110.38890838623047,0.6874873173852194],[110.3851318359375,0.6847409322810449]]}},{"type":"Feature","id":"pmtiles:10/826/510:transportation_name:2049114570:0","properties":{"name":"Jalan Lintas Malindo","name_int":"Jalan Lintas Malindo","class":"trunk","name:latin":"Jalan Lintas Malindo","name_de":"Jalan Lintas Malindo","name_en":"Jalan Lintas Malindo","highway":"trunk","kind":"road","verification":"verified","source":"OpenMapTiles/OpenStreetMap national PMTiles","sourceId":"10/826/510:transportation_name:2049114570:0","sourceLayer":"transportation_name","archive":"https://its.hanifahseptiani45.workers.dev/v1/map/archive/indonesia.pmtiles","updatedAt":"2026-07-26T09:41:04.273Z"},"geometry":{"type":"LineString","coordinates":[[110.39199829101562,0.7144361364378256],[110.39234161376953,0.7115181189692663],[110.39337158203125,0.7088575720215857],[110.39337158203125,0.7080851548792424],[110.39156913757324,0.7067119685307404],[110.390625,0.7043088914445121],[110.39002418518066,0.7010475705607746],[110.39002418518066,0.7001035035647618],[110.39131164550781,0.6976145987557061],[110.39148330688477,0.6953831657385763],[110.39251327514648,0.6930659072582444],[110.39191246032715,0.6897187541194967],[110.39148330688477,0.6888605093453322],[110.38890838623047,0.6874873173852194],[110.38470268249512,0.684483458596759],[110.38281440734863,0.6836252128826885],[110.38161277770996,0.6826811424200514],[110.38015365600586,0.6819087209945565],[110.37903785705566,0.6806213516767059]]}},{"type":"Feature","id":"pmtiles:10/825/511:mountain_peak:10701569651:0","properties":{"name_int":"Gunung Semarong","name_de":"Gunung Semarong","name":"Gunung Semarong","rank":1,"class":"peak","name:latin":"Gunung Semarong","name_en":"Gunung Semarong","kind":"poi","verification":"verified","source":"OpenMapTiles/OpenStreetMap national PMTiles","sourceId":"10/825/511:mountain_peak:10701569651:0","sourceLayer":"mountain_peak","archive":"https://its.hanifahseptiani45.workers.dev/v1/map/archive/indonesia.pmtiles","updatedAt":"2026-07-26T09:41:13.640Z"},"geometry":{"type":"Point","coordinates":[110.19999504089355,0.36666619840407577]}},{"type":"Feature","id":"pmtiles:8/206/127:mountain_peak:10701734891:0","properties":{"name_int":"Gunung Keladan","name_de":"Gunung Keladan","name":"Gunung Keladan","rank":5,"class":"peak","name:latin":"Gunung Keladan","name_en":"Gunung Keladan","kind":"poi","verification":"verified","source":"OpenMapTiles/OpenStreetMap national PMTiles","sourceId":"8/206/127:mountain_peak:10701734891:0","sourceLayer":"mountain_peak","archive":"https://its.hanifahseptiani45.workers.dev/v1/map/archive/indonesia.pmtiles","updatedAt":"2026-07-26T09:35:29.823Z"},"geometry":{"type":"Point","coordinates":[110.21656036376953,0.5331725416819495]}},{"type":"Feature","id":"pmtiles:8/206/127:mountain_peak:10701569651:0","properties":{"name_int":"Gunung Semarong","name_de":"Gunung Semarong","name":"Gunung Semarong","rank":1,"class":"peak","name:latin":"Gunung Semarong","name_en":"Gunung Semarong","kind":"poi","verification":"verified","source":"OpenMapTiles/OpenStreetMap national PMTiles","sourceId":"8/206/127:mountain_peak:10701569651:0","sourceLayer":"mountain_peak","archive":"https://its.hanifahseptiani45.workers.dev/v1/map/archive/indonesia.pmtiles","updatedAt":"2026-07-26T09:35:29.823Z"},"geometry":{"type":"Point","coordinates":[110.20008087158203,0.36666619840407577]}},{"type":"Feature","id":"pmtiles:8/206/127:transportation_name:1693220990:0","properties":{"name":"Jalan Lintas Malindo","name_int":"Jalan Lintas Malindo","class":"trunk","name:latin":"Jalan Lintas Malindo","name_de":"Jalan Lintas Malindo","name_en":"Jalan Lintas Malindo","highway":"trunk","kind":"road","verification":"verified","source":"OpenMapTiles/OpenStreetMap national PMTiles","sourceId":"8/206/127:transportation_name:1693220990:0","sourceLayer":"transportation_name","archive":"https://its.hanifahseptiani45.workers.dev/v1/map/archive/indonesia.pmtiles","updatedAt":"2026-07-26T09:35:29.825Z"},"geometry":{"type":"LineString","coordinates":[[110.29277801513672,0.2736271947425877],[110.29415130615234,0.2774037013721369],[110.29827117919922,0.28186684401561024],[110.30445098876953,0.28495671099925346],[110.31440734863281,0.2931963522130019],[110.31784057617188,0.2973161705566554],[110.3243637084961,0.3069290740103412],[110.32642364501953,0.3124221578363944],[110.33123016357422,0.3179152387908033],[110.34393310546875,0.3512169776949321],[110.34770965576172,0.3570533530247104],[110.35629272460938,0.3656362511737683],[110.35697937011719,0.36975603938277857],[110.35423278808594,0.3759357181051399],[110.35560607910156,0.37971218628715064],[110.35457611083984,0.38314533774884296],[110.35560607910156,0.3893250069049401],[110.35594940185547,0.42468635779302133],[110.36178588867188,0.4442551920426894],[110.36453247070312,0.461764105143061],[110.36453247070312,0.4648539089074717],[110.36041259765625,0.47069020121115557],[110.35835266113281,0.48030290727143665],[110.35869598388672,0.4947219409276471],[110.35972595214844,0.49884165911434764],[110.36968231201172,0.5149771969804533],[110.37036895751953,0.5208134453663433],[110.37311553955078,0.5263063800881866],[110.37860870361328,0.5300827699064286],[110.38272857666016,0.5290528456382475],[110.38444519042969,0.5297394618360443],[110.38581848144531,0.5331725416819495],[110.38890838623047,0.5366056196135958],[110.39131164550781,0.544501691524701],[110.39749145507812,0.5510245257445803],[110.40641784667969,0.5572040463136858],[110.4071044921875,0.5592638850665566],[110.39989471435547,0.5788323167901837],[110.3961181640625,0.5959975522614371],[110.39783477783203,0.6008038086733336],[110.39714813232422,0.6049234536626926],[110.39817810058594,0.6111029152760636],[110.39749145507812,0.6203720943449866],[110.39371490478516,0.6286113510049489],[110.38410186767578,0.6378804992003637],[110.37620544433594,0.6543589435031549],[110.37002563476562,0.6619115458012459],[110.36796569824219,0.6622548456333988],[110.36659240722656,0.6639713444373285],[110.36590576171875,0.6680909391323269],[110.36933898925781,0.6728971285762384],[110.37242889404297,0.674270324692003],[110.38032531738281,0.6818228963840767],[110.39165496826172,0.6886888603719399],[110.39268493652344,0.69315173166666],[110.38993835449219,0.7000176792829507],[110.390625,0.7044805398489444],[110.39165496826172,0.7068836168465111],[110.39337158203125,0.7082568031442236],[110.39199829101562,0.7144361364378256],[110.39440155029297,0.7164959123591501],[110.39440155029297,0.720958757008276],[110.39268493652344,0.7233618253938516],[110.39199829101562,0.7285112533581781],[110.39268493652344,0.7305710228984879],[110.3902816772461,0.7405265623177257],[110.3902816772461,0.7453326768121684],[110.39199829101562,0.7515119591652564],[110.3909683227539,0.7532284249372623],[110.39131164550781,0.7559747687656682],[110.39508819580078,0.7611241587572266],[110.3961181640625,0.7686765862784455],[110.40332794189453,0.7751991265755009],[110.40435791015625,0.7796619115214725],[110.40847778320312,0.7841246917370341],[110.40916442871094,0.7978562932121065],[110.40985107421875,0.7992294508519677],[110.41431427001953,0.8023190538619502],[110.41500091552734,0.8102146953776099],[110.4180908203125,0.8153640185203699],[110.42255401611328,0.8170804581064033],[110.42770385742188,0.8225730598460927],[110.42804718017578,0.8263492191598658],[110.42976379394531,0.8294388013837022],[110.42736053466797,0.8318418081129835],[110.42598724365234,0.8349313860427117],[110.4184341430664,0.84214039175464],[110.41912078857422,0.8459165322899764],[110.41740417480469,0.8503792390929448],[110.41534423828125,0.8531255176397678],[110.40916442871094,0.8558717942264451],[110.40779113769531,0.8654837467526022],[110.40264129638672,0.8750956749192369],[110.40229797363281,0.8788717828324337],[110.39886474609375,0.8850508602661336],[110.39886474609375,0.8908866461689371],[110.3957748413086,0.9001552282867067],[110.39199829101562,0.9035880305130775],[110.38890838623047,0.9042745905695],[110.3854751586914,0.9077073889017839],[110.38444519042969,0.9111401839754762],[110.38444519042969,0.9176624855938655],[110.38272857666016,0.919378878783462],[110.379638671875,0.9200654358283344],[110.37757873535156,0.9286473877099866],[110.37483215332031,0.9313936079207679],[110.3744888305664,0.9348263801742434],[110.37036895751953,0.9386024257764944],[110.36796569824219,0.9396322556883945],[110.36590576171875,0.9423784673016655],[110.36590576171875,0.9454679527782446],[110.35938262939453,0.9492439868485434],[110.35972595214844,0.9516469154747256],[110.35869598388672,0.9540498424269543],[110.36041259765625,0.9612586131974155],[110.35938262939453,0.9633182591988145],[110.36075592041016,0.965721177960134],[110.35629272460938,0.9722433774513775],[110.3521728515625,0.9722433774513775],[110.3518295288086,0.9749895629463197],[110.34976959228516,0.9787655643429787],[110.35114288330078,0.9849444665413074],[110.34976959228516,0.9784222916641596],[110.3521728515625,0.9749895629463197],[110.3525161743164,0.9722433774513775],[110.35629272460938,0.9722433774513775]]}}]}