{"type":"FeatureCollection","features":[{"type":"Feature","id":"pmtiles:10/850/534:water:500:0","properties":{"class":"ocean","water":"ocean","kind":"waterway","verification":"verified","source":"OpenMapTiles/OpenStreetMap national PMTiles","sourceId":"10/850/534:water:500:0","sourceLayer":"water","archive":"https://its.hanifahseptiani45.workers.dev/v1/map/archive/indonesia.pmtiles","updatedAt":"2026-07-26T09:45:40.609Z"},"geometry":{"type":"Polygon","coordinates":[[[118.8226318359375,-7.705548128425903],[119.1851806640625,-7.705548128425903],[119.1851806640625,-8.064668502396387],[118.8226318359375,-8.064668502396387],[118.8226318359375,-7.705548128425903]]]}}]}