{"type":"FeatureCollection","features":[{"type":"Feature","id":"pmtiles:10/823/510:mountain_peak:10701552401:0","properties":{"name_int":"Gunung Semaung","name_de":"Gunung Semaung","name":"Gunung Semaung","rank":1,"class":"peak","name:latin":"Gunung Semaung","name_en":"Gunung Semaung","kind":"poi","verification":"verified","source":"OpenMapTiles/OpenStreetMap national PMTiles","sourceId":"10/823/510:mountain_peak:10701552401:0","sourceLayer":"mountain_peak","archive":"https://its.hanifahseptiani45.workers.dev/v1/map/archive/indonesia.pmtiles","updatedAt":"2026-07-26T09:41:04.062Z"},"geometry":{"type":"Point","coordinates":[109.6666431427002,0.2833259479717043]}},{"type":"Feature","id":"pmtiles:10/824/510:mountain_peak:10701552401:0","properties":{"name_int":"Gunung Semaung","name_de":"Gunung Semaung","name":"Gunung Semaung","rank":1,"class":"peak","name:latin":"Gunung Semaung","name_en":"Gunung Semaung","kind":"poi","verification":"verified","source":"OpenMapTiles/OpenStreetMap national PMTiles","sourceId":"10/824/510:mountain_peak:10701552401:0","sourceLayer":"mountain_peak","archive":"https://its.hanifahseptiani45.workers.dev/v1/map/archive/indonesia.pmtiles","updatedAt":"2026-07-26T09:41:04.133Z"},"geometry":{"type":"Point","coordinates":[109.6666431427002,0.2833259479717043]}},{"type":"Feature","id":"pmtiles:10/823/511:landcover:4547448372:0","properties":{"subclass":"orchard","class":"farmland","kind":"green","verification":"verified","source":"OpenMapTiles/OpenStreetMap national PMTiles","sourceId":"10/823/511:landcover:4547448372:0","sourceLayer":"landcover","archive":"https://its.hanifahseptiani45.workers.dev/v1/map/archive/indonesia.pmtiles","updatedAt":"2026-07-26T09:41:13.510Z"},"geometry":{"type":"Polygon","coordinates":[[[109.43532943725586,0.018796920439186238],[109.43541526794434,0.02780914197455786],[109.4388484954834,0.02780914197455786],[109.43867683410645,0.018796920439186238],[109.43532943725586,0.018796920439186238]]]}},{"type":"Feature","id":"pmtiles:10/823/511:landcover:4547449592:0","properties":{"subclass":"orchard","class":"farmland","kind":"green","verification":"verified","source":"OpenMapTiles/OpenStreetMap national PMTiles","sourceId":"10/823/511:landcover:4547449592:0","sourceLayer":"landcover","archive":"https://its.hanifahseptiani45.workers.dev/v1/map/archive/indonesia.pmtiles","updatedAt":"2026-07-26T09:41:13.510Z"},"geometry":{"type":"Polygon","coordinates":[[[109.43532943725586,0.018711089755313992],[109.43867683410645,0.018711089755313992],[109.43859100341797,0.009355545002378562],[109.4351577758789,0.009441375689704046],[109.43532943725586,0.018711089755313992]]]}},{"type":"Feature","id":"pmtiles:10/823/511:landcover:4549455582:0","properties":{"subclass":"orchard","class":"farmland","kind":"green","verification":"verified","source":"OpenMapTiles/OpenStreetMap national PMTiles","sourceId":"10/823/511:landcover:4549455582:0","sourceLayer":"landcover","archive":"https://its.hanifahseptiani45.workers.dev/v1/map/archive/indonesia.pmtiles","updatedAt":"2026-07-26T09:41:13.510Z"},"geometry":{"type":"Polygon","coordinates":[[[109.41816329956055,0.022573470485355074],[109.41850662231445,0.04162788024882502],[109.42048072814941,0.040855404252639005],[109.42013740539551,0.02343177730095647],[109.41816329956055,0.022573470485355074]]]}},{"type":"Feature","id":"pmtiles:10/823/511:landcover:4549456502:0","properties":{"subclass":"orchard","class":"farmland","kind":"green","verification":"verified","source":"OpenMapTiles/OpenStreetMap national PMTiles","sourceId":"10/823/511:landcover:4549456502:0","sourceLayer":"landcover","archive":"https://its.hanifahseptiani45.workers.dev/v1/map/archive/indonesia.pmtiles","updatedAt":"2026-07-26T09:41:13.510Z"},"geometry":{"type":"Polygon","coordinates":[[[109.42211151123047,0.024375914792017284],[109.4223690032959,0.04025458958382444],[109.42399978637695,0.03965377491057609],[109.42399978637695,0.03381728929630867],[109.4234848022461,0.03373145862275351],[109.42468643188477,0.028495787399478445],[109.42520141601562,0.02875327943277739],[109.42511558532715,0.0257492056762203],[109.42211151123047,0.024375914792017284]]]}},{"type":"Feature","id":"pmtiles:10/823/511:landuse:5994313160:0","properties":{"class":"residential","kind":"green","verification":"verified","source":"OpenMapTiles/OpenStreetMap national PMTiles","sourceId":"10/823/511:landuse:5994313160:0","sourceLayer":"landuse","archive":"https://its.hanifahseptiani45.workers.dev/v1/map/archive/indonesia.pmtiles","updatedAt":"2026-07-26T09:41:13.510Z"},"geometry":{"type":"Polygon","coordinates":[[[109.48493957519531,0.290535635392402],[109.48691368103027,0.28950568032557555],[109.48880195617676,0.28735994030294876],[109.4886302947998,0.2865874737959757],[109.48605537414551,0.28924819154424597],[109.48519706726074,0.28959150991805416],[109.48493957519531,0.290535635392402]]]}},{"type":"Feature","id":"pmtiles:10/823/511:landuse:5994313160:1","properties":{"class":"residential","kind":"green","verification":"verified","source":"OpenMapTiles/OpenStreetMap national PMTiles","sourceId":"10/823/511:landuse:5994313160:1","sourceLayer":"landuse","archive":"https://its.hanifahseptiani45.workers.dev/v1/map/archive/indonesia.pmtiles","updatedAt":"2026-07-26T09:41:13.510Z"},"geometry":{"type":"Polygon","coordinates":[[[109.58252906799316,0.24779242518322064],[109.5831298828125,0.24787825506874128],[109.58476066589355,0.24444505921620419],[109.58407402038574,0.24427339940044135],[109.58295822143555,0.246419146939445],[109.58227157592773,0.2466766366209754],[109.58252906799316,0.24779242518322064]]]}},{"type":"Feature","id":"pmtiles:10/823/511:landuse:5994313160:2","properties":{"class":"residential","kind":"green","verification":"verified","source":"OpenMapTiles/OpenStreetMap national PMTiles","sourceId":"10/823/511:landuse:5994313160:2","sourceLayer":"landuse","archive":"https://its.hanifahseptiani45.workers.dev/v1/map/archive/indonesia.pmtiles","updatedAt":"2026-07-26T09:41:13.510Z"},"geometry":{"type":"Polygon","coordinates":[[[109.5475959777832,0.26633166721990165],[109.5516300201416,0.26744745406483617],[109.55188751220703,0.2670183052902928],[109.55060005187988,0.266160007696314],[109.55111503601074,0.2655591993449633],[109.54999923706055,0.2632417954311279],[109.5498275756836,0.26452924210333606],[109.54914093017578,0.2647867314217649],[109.55008506774902,0.26487256119338554],[109.55042839050293,0.2655591993449633],[109.5498275756836,0.2662458374583849],[109.54776763916016,0.2658166886419764],[109.5475959777832,0.26633166721990165]]]}},{"type":"Feature","id":"pmtiles:10/823/511:mountain_peak:10701609631:0","properties":{"name_int":"Gunung Tegalong","name_de":"Gunung Tegalong","name":"Gunung Tegalong","rank":1,"class":"peak","name:latin":"Gunung Tegalong","name_en":"Gunung Tegalong","kind":"poi","verification":"verified","source":"OpenMapTiles/OpenStreetMap national PMTiles","sourceId":"10/823/511:mountain_peak:10701609631:0","sourceLayer":"mountain_peak","archive":"https://its.hanifahseptiani45.workers.dev/v1/map/archive/indonesia.pmtiles","updatedAt":"2026-07-26T09:41:13.510Z"},"geometry":{"type":"Point","coordinates":[109.61668968200684,0.15003187200019852]}},{"type":"Feature","id":"pmtiles:10/823/511:mountain_peak:10701552401:0","properties":{"name_int":"Gunung Semaung","name_de":"Gunung Semaung","name":"Gunung Semaung","rank":1,"class":"peak","name:latin":"Gunung Semaung","name_en":"Gunung Semaung","kind":"poi","verification":"verified","source":"OpenMapTiles/OpenStreetMap national PMTiles","sourceId":"10/823/511:mountain_peak:10701552401:0","sourceLayer":"mountain_peak","archive":"https://its.hanifahseptiani45.workers.dev/v1/map/archive/indonesia.pmtiles","updatedAt":"2026-07-26T09:41:13.510Z"},"geometry":{"type":"Point","coordinates":[109.6666431427002,0.2833259479717043]}},{"type":"Feature","id":"pmtiles:10/823/511:park:5428080012:0","properties":{"name":"Cagar Alam Mandor","name_int":"Mandor Nature Reserve","class":"nature_reserve","name:latin":"Cagar Alam Mandor","name_de":"Cagar Alam Mandor","name_en":"Mandor Nature Reserve","kind":"green","verification":"verified","source":"OpenMapTiles/OpenStreetMap national PMTiles","sourceId":"10/823/511:park:5428080012:0","sourceLayer":"park","archive":"https://its.hanifahseptiani45.workers.dev/v1/map/archive/indonesia.pmtiles","updatedAt":"2026-07-26T09:41:13.510Z"},"geometry":{"type":"Polygon","coordinates":[[[109.3304443359375,0.30967561627916496],[109.33164596557617,0.3104480811643242],[109.33456420898438,0.30744405073966163],[109.3355941772461,0.3072723918326403],[109.33688163757324,0.3075298801921207],[109.33696746826172,0.30984727514740484],[109.33748245239258,0.3110488871471375],[109.33842658996582,0.31190718134890005],[109.33859825134277,0.3131946225202853],[109.33971405029297,0.3132804519260759],[109.3403148651123,0.3139670871472475],[109.34091567993164,0.3140529165467285],[109.34134483337402,0.31353794013929814],[109.33911323547363,0.3099331045804945],[109.33876991271973,0.3083023452333009],[109.33919906616211,0.3078731979951215],[109.3414306640625,0.3070149034669498],[109.34151649475098,0.3058132910118019],[109.34211730957031,0.3045258489463265],[109.34426307678223,0.30478333737175944],[109.34675216674805,0.3025517708142047],[109.3483829498291,0.30238011182918],[109.35001373291016,0.3027234297965009],[109.35198783874512,0.30495499631859957],[109.35224533081055,0.30607077940638305],[109.35361862182617,0.3075298801921207],[109.35421943664551,0.3077015390949924],[109.35482025146484,0.3071007329228621],[109.35413360595703,0.305555802611039],[109.35421943664551,0.304096701556972],[109.35627937316895,0.3018651348578487],[109.35688018798828,0.3008351808420713],[109.35808181762695,0.29963356770079486],[109.35954093933105,0.29989105624218837],[109.36108589172363,0.2994619086698549],[109.36185836791992,0.2971445114895346],[109.36160087585449,0.29559957976572093],[109.36177253723145,0.2919947382429484],[109.36263084411621,0.28924819154424597],[109.36263084411621,0.2872741106936445],[109.3622875213623,0.2862441553317012],[109.36280250549316,0.28401258506399074],[109.36572074890137,0.27912029489722556],[109.36829566955566,0.2756871075980314],[109.36975479125977,0.2723397490281769],[109.37507629394531,0.2622118379976399],[109.37507629394531,0.2589503055674669],[109.37464714050293,0.2567187302627474],[109.37387466430664,0.2558604319647202],[109.37172889709473,0.2556887722982282],[109.36812400817871,0.25457298441011744],[109.36408996582031,0.25457298441011744],[109.3637466430664,0.2551737932849534],[109.36280250549316,0.2551737932849534],[109.36005592346191,0.25431549488374117],[109.3590259552002,0.25354302627383163],[109.35396194458008,0.2531997068768561],[109.3520736694336,0.25337136657647363],[109.34486389160156,0.2527705576178505],[109.34211730957031,0.2513114500312952],[109.33979988098145,0.24950902278767728],[109.33121681213379,0.24976651240908154],[109.3304443359375,0.25002400202541253],[109.3304443359375,0.30967561627916496]]]}},{"type":"Feature","id":"pmtiles:10/823/511:transportation:6440634840:0","properties":{"class":"trunk","highway":"trunk","kind":"road","verification":"verified","source":"OpenMapTiles/OpenStreetMap national PMTiles","sourceId":"10/823/511:transportation:6440634840:0","sourceLayer":"transportation","archive":"https://its.hanifahseptiani45.workers.dev/v1/map/archive/indonesia.pmtiles","updatedAt":"2026-07-26T09:41:13.510Z"},"geometry":{"type":"LineString","coordinates":[[109.4611644744873,0.3570533530247104],[109.45927619934082,0.3563667208240844],[109.45841789245605,0.3564525498519657],[109.45730209350586,0.35696752400242815],[109.45515632629395,0.3566242079053268],[109.45292472839355,0.3558517466400417],[109.45137977600098,0.3557659176065755],[109.45069313049316,0.35490762722798763],[109.44923400878906,0.3542209948677595],[109.44760322570801,0.3543926529625878],[109.4443416595459,0.3557659176065755],[109.43850517272949,0.3559375756727121],[109.43790435791016,0.35568008857229927],[109.43687438964844,0.3541351658191587],[109.43601608276367,0.3536201915108279],[109.43490028381348,0.35319104623205533],[109.43206787109375,0.352761900933487],[109.43052291870117,0.35173195213620545],[109.42829132080078,0.3515602939922644],[109.42623138427734,0.3519036102769917],[109.423828125,0.352761900933487],[109.42314147949219,0.35130280677044823],[109.4223690032959,0.3506161741442497],[109.42176818847656,0.3503586868964419],[109.42013740539551,0.3503586868964419],[109.41987991333008,0.34864210506376025],[109.41910743713379,0.34744049759459017],[109.41627502441406,0.34512311133012474],[109.4143009185791,0.34555225697735636],[109.41086769104004,0.34520894046112005],[109.4070053100586,0.34314904110381406],[109.40674781799316,0.34271989534845204],[109.40666198730469,0.34168994545719045],[109.40571784973145,0.340745824626552],[109.40528869628906,0.3399733620598937],[109.40400123596191,0.3363685359341133],[109.40382957458496,0.33508109770862404],[109.40340042114258,0.33422280546426464],[109.40254211425781,0.33336451314490034],[109.39962387084961,0.33276370847681846],[109.39842224121094,0.33121878201961863],[109.39722061157227,0.33087546499639586],[109.39464569091797,0.33113295276494625],[109.3923282623291,0.3318195867816627],[109.390869140625,0.3319054160303949],[109.3897533416748,0.3318195867816627],[109.38777923583984,0.330789635738725],[109.38511848449707,0.32735646482551317],[109.38400268554688,0.3253823910174134],[109.38031196594238,0.3201468020966587],[109.37902450561523,0.3195459966388796],[109.37747955322266,0.3194601672848876],[109.37576293945312,0.3198893140476571],[109.37310218811035,0.3193743379301992],[109.3718147277832,0.3198034846965214],[109.37026977539062,0.3191168498617998],[109.36906814575195,0.3196318259921469],[109.36469078063965,0.3184302149812339],[109.36271667480469,0.3217775595902026],[109.36100006103516,0.3224641942463933],[109.35962677001953,0.3237516341018818],[109.35868263244629,0.32426660999833246],[109.35722351074219,0.3243524393118804],[109.35507774353027,0.32383746341977826],[109.35456275939941,0.322893340883013],[109.35336112976074,0.3220350475916973],[109.35173034667969,0.32169173025492626],[109.35087203979492,0.3201468020966587],[109.35052871704102,0.31997514339803956],[109.3498420715332,0.31971765534470364],[109.34795379638672,0.31997514339803956],[109.3472671508789,0.3198034846965214],[109.34640884399414,0.3189451911459429],[109.34597969055176,0.31800106815764195],[109.34537887573242,0.31731443320281016],[109.34409141540527,0.3170569450830101],[109.3417739868164,0.31817272688923026],[109.34014320373535,0.3180868975237843],[109.33490753173828,0.319202679218634],[109.3330192565918,0.32091926620495315],[109.3304443359375,0.321949218258581]]}},{"type":"Feature","id":"pmtiles:10/823/511:transportation:6440634840:2","properties":{"class":"trunk","highway":"trunk","kind":"road","verification":"verified","source":"OpenMapTiles/OpenStreetMap national PMTiles","sourceId":"10/823/511:transportation:6440634840:2","sourceLayer":"transportation","archive":"https://its.hanifahseptiani45.workers.dev/v1/map/archive/indonesia.pmtiles","updatedAt":"2026-07-26T09:41:13.511Z"},"geometry":{"type":"LineString","coordinates":[[109.6929931640625,0.3464963773330254],[109.69239234924316,0.346238889972625],[109.69144821166992,0.3464105482136546],[109.69076156616211,0.3458955734812008],[109.68844413757324,0.3463247190935306],[109.68621253967285,0.34520894046112005],[109.68544006347656,0.3433206994005502],[109.68518257141113,0.3410033121349869],[109.68475341796875,0.3402308495889912],[109.6823501586914,0.33877175350014],[109.68149185180664,0.3374843155921923],[109.67986106872559,0.3370551695849855],[109.67728614807129,0.33499526848756034],[109.6753978729248,0.33284953771735104],[109.67514038085938,0.3322487330179058],[109.67522621154785,0.33121878201961863],[109.67479705810547,0.3291588797023053],[109.67290878295898,0.32495324448618135],[109.67187881469727,0.3235799754639004],[109.67084884643555,0.32280751155713006],[109.66999053955078,0.3217775595902026],[109.66896057128906,0.32160590091892516],[109.66818809509277,0.32100509554673806],[109.66732978820801,0.3188593617869486],[109.66672897338867,0.31860187370565995],[109.66372489929199,0.31928850857477187],[109.66200828552246,0.3200609727477115],[109.66072082519531,0.32134841290658755],[109.65926170349121,0.3214342422447629],[109.65806007385254,0.32212087692407465],[109.65608596801758,0.3226358529032183],[109.65411186218262,0.32383746341977826],[109.65368270874023,0.32392329273693576],[109.65256690979004,0.32332248750151393],[109.6516227722168,0.3237516341018818],[109.64990615844727,0.32529656171263355],[109.64784622192383,0.3265840012076211],[109.64741706848145,0.32795726982053],[109.64664459228516,0.3283864162234522],[109.64621543884277,0.32898722115660917],[109.64406967163086,0.3294163675152788],[109.64183807373047,0.33087546499639586],[109.64029312133789,0.3307038064803294],[109.63788986206055,0.32984551385547434],[109.6354866027832,0.330360489439272],[109.6340274810791,0.3301030016507127],[109.6329116821289,0.3301888309143095],[109.62982177734375,0.3322487330179058],[109.62621688842773,0.33276370847681846],[109.62492942810059,0.3326778792355469],[109.62364196777344,0.3336220008485782],[109.62252616882324,0.3339653177763182],[109.62098121643066,0.3340511470063774],[109.61952209472656,0.3346519515958306],[109.61849212646484,0.3344802931454467],[109.6172046661377,0.33508109770862404],[109.61660385131836,0.33508109770862404],[109.61686134338379,0.3360252190905726],[109.61668968200684,0.33662602355884985],[109.61540222167969,0.336797681971575],[109.61445808410645,0.3363685359341133],[109.61377143859863,0.33757014479137126],[109.61256980895996,0.3374843155921923],[109.6120548248291,0.3360252190905726],[109.61111068725586,0.3359393898777938],[109.61076736450195,0.3354244145853329],[109.60999488830566,0.3353385853672819],[109.60784912109375,0.336111048302584],[109.60741996765137,0.3365401943513575],[109.60664749145508,0.3364543651431262],[109.60518836975098,0.3370551695849855],[109.60536003112793,0.3386859243115907],[109.60501670837402,0.3390292410612119],[109.60415840148926,0.3390292410612119],[109.60312843322754,0.3380851199704864],[109.60278511047363,0.3382567783574473],[109.60261344909668,0.3386859243115907],[109.60175514221191,0.3388575826879219],[109.60149765014648,0.33834260754979084],[109.60124015808105,0.3382567783574473],[109.59918022155762,0.3388575826879219],[109.59617614746094,0.3389434118749648],[109.59497451782227,0.3392867286154484],[109.59394454956055,0.3388575826879219],[109.59111213684082,0.3389434118749648],[109.58913803100586,0.33782763238433233],[109.58810806274414,0.3374843155921923],[109.58639144897461,0.33757014479137126],[109.58227157592773,0.33696934038125903],[109.5790958404541,0.33782763238433233],[109.5779800415039,0.3393725577986828],[109.57669258117676,0.34194743294037266],[109.57549095153809,0.34804130134831723],[109.57188606262207,0.35130280677044823],[109.57042694091797,0.35327687528941],[109.56853866577148,0.3551651143499299],[109.56725120544434,0.3570533530247104]]}},{"type":"Feature","id":"pmtiles:10/823/511:transportation_name:6440634840:0","properties":{"name":"Anjungan - Sidas","name_int":"Anjungan - Sidas","class":"trunk","name:latin":"Anjungan - Sidas","name_de":"Anjungan - Sidas","name_en":"Anjungan - Sidas","highway":"trunk","kind":"road","verification":"verified","source":"OpenMapTiles/OpenStreetMap national PMTiles","sourceId":"10/823/511:transportation_name:6440634840:0","sourceLayer":"transportation_name","archive":"https://its.hanifahseptiani45.workers.dev/v1/map/archive/indonesia.pmtiles","updatedAt":"2026-07-26T09:41:13.511Z"},"geometry":{"type":"LineString","coordinates":[[109.46906089782715,0.3634905273981843],[109.46708679199219,0.3624605798046616],[109.46657180786133,0.35997153930402703],[109.4651985168457,0.35739666910578194],[109.46356773376465,0.3572250110668449],[109.46219444274902,0.35739666910578194],[109.45927619934082,0.3563667208240844],[109.45841789245605,0.3564525498519657],[109.45730209350586,0.35696752400242815],[109.45515632629395,0.3566242079053268],[109.45292472839355,0.3558517466400417],[109.45137977600098,0.3557659176065755],[109.45069313049316,0.35490762722798763],[109.44923400878906,0.3542209948677595],[109.44760322570801,0.3543926529625878],[109.4443416595459,0.3557659176065755],[109.43850517272949,0.3559375756727121],[109.43790435791016,0.35568008857229927],[109.43687438964844,0.3541351658191587],[109.43601608276367,0.3536201915108279],[109.43490028381348,0.35319104623205533],[109.43206787109375,0.352761900933487],[109.43052291870117,0.35173195213620545],[109.42829132080078,0.3515602939922644],[109.42623138427734,0.3519036102769917],[109.423828125,0.352761900933487],[109.42314147949219,0.35130280677044823],[109.4223690032959,0.3506161741442497],[109.42176818847656,0.3503586868964419],[109.42013740539551,0.3503586868964419],[109.41987991333008,0.34864210506376025],[109.41910743713379,0.34744049759459017],[109.41627502441406,0.34512311133012474],[109.4143009185791,0.34555225697735636],[109.41086769104004,0.34520894046112005],[109.4070053100586,0.34314904110381406],[109.40674781799316,0.34271989534845204],[109.40666198730469,0.34168994545719045],[109.40571784973145,0.340745824626552],[109.40528869628906,0.3399733620598937],[109.40400123596191,0.3363685359341133],[109.40382957458496,0.33508109770862404],[109.40340042114258,0.33422280546426464],[109.40254211425781,0.33336451314490034],[109.39962387084961,0.33276370847681846],[109.39842224121094,0.33121878201961863],[109.39722061157227,0.33087546499639586],[109.39464569091797,0.33113295276494625],[109.3923282623291,0.3318195867816627],[109.390869140625,0.3319054160303949],[109.3897533416748,0.3318195867816627],[109.38777923583984,0.330789635738725],[109.38511848449707,0.32735646482551317],[109.38400268554688,0.3253823910174134],[109.38031196594238,0.3201468020966587],[109.37902450561523,0.3195459966388796],[109.37747955322266,0.3194601672848876],[109.37576293945312,0.3198893140476571],[109.37310218811035,0.3193743379301992],[109.3718147277832,0.3198034846965214],[109.37026977539062,0.3191168498617998],[109.36906814575195,0.3196318259921469],[109.36469078063965,0.3184302149812339],[109.36271667480469,0.3217775595902026],[109.36100006103516,0.3224641942463933],[109.35962677001953,0.3237516341018818],[109.35868263244629,0.32426660999833246],[109.35722351074219,0.3243524393118804],[109.35507774353027,0.32383746341977826],[109.35456275939941,0.322893340883013],[109.35336112976074,0.3220350475916973],[109.35173034667969,0.32169173025492626],[109.35087203979492,0.3201468020966587],[109.35052871704102,0.31997514339803956],[109.3498420715332,0.31971765534470364],[109.34795379638672,0.31997514339803956],[109.3472671508789,0.3198034846965214],[109.34640884399414,0.3189451911459429],[109.34597969055176,0.31800106815764195],[109.34537887573242,0.31731443320281016],[109.34409141540527,0.3170569450830101],[109.3417739868164,0.31817272688923026],[109.34014320373535,0.3180868975237843],[109.33490753173828,0.319202679218634],[109.3330192565918,0.32091926620495315],[109.32992935180664,0.32220670625574144],[109.32658195495605,0.3244382686246752],[109.32512283325195,0.32503907379388863],[109.32392120361328,0.32512490310087117]]}},{"type":"Feature","id":"pmtiles:10/823/511:transportation_name:6440634840:2","properties":{"name":"Anjungan - Sidas","name_int":"Anjungan - Sidas","class":"trunk","name:latin":"Anjungan - Sidas","name_de":"Anjungan - Sidas","name_en":"Anjungan - Sidas","highway":"trunk","kind":"road","verification":"verified","source":"OpenMapTiles/OpenStreetMap national PMTiles","sourceId":"10/823/511:transportation_name:6440634840:2","sourceLayer":"transportation_name","archive":"https://its.hanifahseptiani45.workers.dev/v1/map/archive/indonesia.pmtiles","updatedAt":"2026-07-26T09:41:13.511Z"},"geometry":{"type":"LineString","coordinates":[[109.69934463500977,0.3558517466400417],[109.69788551330566,0.3542209948677595],[109.69616889953613,0.3515602939922644],[109.69539642333984,0.3496720542010081],[109.6933364868164,0.34666803556940806],[109.69239234924316,0.346238889972625],[109.69144821166992,0.3464105482136546],[109.69076156616211,0.3458955734812008],[109.68844413757324,0.3463247190935306],[109.68621253967285,0.34520894046112005],[109.68544006347656,0.3433206994005502],[109.68518257141113,0.3410033121349869],[109.68475341796875,0.3402308495889912],[109.6823501586914,0.33877175350014],[109.68149185180664,0.3374843155921923],[109.67986106872559,0.3370551695849855],[109.67728614807129,0.33499526848756034],[109.6753978729248,0.33284953771735104],[109.67514038085938,0.3322487330179058],[109.67522621154785,0.33121878201961863],[109.67479705810547,0.3291588797023053],[109.67290878295898,0.32495324448618135],[109.67187881469727,0.3235799754639004],[109.67084884643555,0.32280751155713006],[109.66999053955078,0.3217775595902026],[109.66896057128906,0.32160590091892516],[109.66818809509277,0.32100509554673806],[109.66732978820801,0.3188593617869486],[109.66672897338867,0.31860187370565995],[109.66372489929199,0.31928850857477187],[109.66200828552246,0.3200609727477115],[109.66072082519531,0.32134841290658755],[109.65926170349121,0.3214342422447629],[109.65806007385254,0.32212087692407465],[109.65608596801758,0.3226358529032183],[109.65411186218262,0.32383746341977826],[109.65368270874023,0.32392329273693576],[109.65256690979004,0.32332248750151393],[109.6516227722168,0.3237516341018818],[109.64990615844727,0.32529656171263355],[109.64784622192383,0.3265840012076211],[109.64741706848145,0.32795726982053],[109.64664459228516,0.3283864162234522],[109.64621543884277,0.32898722115660917],[109.64406967163086,0.3294163675152788],[109.64183807373047,0.33087546499639586],[109.64029312133789,0.3307038064803294],[109.63788986206055,0.32984551385547434],[109.6354866027832,0.330360489439272],[109.6340274810791,0.3301030016507127],[109.6329116821289,0.3301888309143095],[109.62982177734375,0.3322487330179058],[109.62621688842773,0.33276370847681846],[109.62492942810059,0.3326778792355469],[109.62364196777344,0.3336220008485782],[109.62252616882324,0.3339653177763182],[109.62098121643066,0.3340511470063774],[109.61952209472656,0.3346519515958306],[109.61849212646484,0.3344802931454467],[109.6172046661377,0.33508109770862404],[109.61660385131836,0.33508109770862404],[109.61686134338379,0.3360252190905726],[109.61668968200684,0.33662602355884985],[109.61540222167969,0.336797681971575],[109.61445808410645,0.3363685359341133],[109.61377143859863,0.33757014479137126],[109.61256980895996,0.3374843155921923],[109.6120548248291,0.3360252190905726],[109.61111068725586,0.3359393898777938],[109.61076736450195,0.3354244145853329],[109.60999488830566,0.3353385853672819],[109.60784912109375,0.336111048302584],[109.60741996765137,0.3365401943513575],[109.60664749145508,0.3364543651431262],[109.60518836975098,0.3370551695849855],[109.60536003112793,0.3386859243115907],[109.60501670837402,0.3390292410612119],[109.60415840148926,0.3390292410612119],[109.60312843322754,0.3380851199704864],[109.60278511047363,0.3382567783574473],[109.60261344909668,0.3386859243115907],[109.60175514221191,0.3388575826879219],[109.60149765014648,0.33834260754979084],[109.60124015808105,0.3382567783574473],[109.59918022155762,0.3388575826879219],[109.59617614746094,0.3389434118749648],[109.59497451782227,0.3392867286154484],[109.59394454956055,0.3388575826879219],[109.59111213684082,0.3389434118749648],[109.58913803100586,0.33782763238433233],[109.58810806274414,0.3374843155921923],[109.58639144897461,0.33757014479137126],[109.58227157592773,0.33696934038125903],[109.5790958404541,0.33782763238433233],[109.5779800415039,0.3393725577986828],[109.57669258117676,0.34194743294037266],[109.57549095153809,0.34804130134831723],[109.57188606262207,0.35130280677044823],[109.57042694091797,0.35327687528941],[109.56853866577148,0.3551651143499299],[109.56750869750977,0.35653837887905127],[109.5669937133789,0.35773998517403527],[109.56673622131348,0.35962822331948985],[109.5677661895752,0.3626322377450464]]}},{"type":"Feature","id":"pmtiles:10/823/511:water:741225492:0","properties":{"intermittent":0,"class":"river","id":74122549,"water":"river","kind":"waterway","verification":"verified","source":"OpenMapTiles/OpenStreetMap national PMTiles","sourceId":"10/823/511:water:741225492:0","sourceLayer":"water","archive":"https://its.hanifahseptiani45.workers.dev/v1/map/archive/indonesia.pmtiles","updatedAt":"2026-07-26T09:41:13.511Z"},"geometry":{"type":"Polygon","coordinates":[[[109.51146125793457,-0.005493164054087174],[109.50922966003418,0.000514984130859375],[109.50845718383789,0.004463195796276409],[109.50802803039551,0.005750656118266306],[109.50785636901855,0.008840560877999337],[109.50828552246094,0.010471343935847699],[109.51103210449219,0.016221999905340567],[109.51300621032715,0.024032592068735426],[109.51635360717773,0.028667448755072655],[109.51849937438965,0.030727385001682705],[109.52004432678223,0.03270149053413718],[109.52107429504395,0.03501891871817975],[109.5212459564209,0.0382804842125779],[109.52081680297852,0.03982543624621826],[109.52150344848633,0.0397396055784327],[109.52184677124023,0.03802299220423322],[109.52176094055176,0.03587722543865368],[109.52081680297852,0.03287315188298123],[109.51927185058594,0.030727385001682705],[109.51601028442383,0.027208327224457207],[109.51377868652344,0.024032592068735426],[109.51249122619629,0.02051353410764989],[109.51171875,0.016221999905340567],[109.50871467590332,0.010042190500357151],[109.50837135314941,0.008668899503049943],[109.50862884521484,0.006093978870353567],[109.5106029510498,-0.0012874603270347507],[109.5120620727539,-0.005493164054087174],[109.51146125793457,-0.005493164054087174]]]}},{"type":"Feature","id":"pmtiles:10/823/511:waterway:741218570:0","properties":{"name":"Sungai Landak","name_int":"Sungai Landak","class":"river","name:latin":"Sungai Landak","name_de":"Sungai Landak","name_en":"Sungai Landak","waterway":"river","kind":"waterway","verification":"verified","source":"OpenMapTiles/OpenStreetMap national PMTiles","sourceId":"10/823/511:waterway:741218570:0","sourceLayer":"waterway","archive":"https://its.hanifahseptiani45.workers.dev/v1/map/archive/indonesia.pmtiles","updatedAt":"2026-07-26T09:41:13.511Z"},"geometry":{"type":"LineString","coordinates":[[109.67737197875977,0.0664329379956996],[109.67702865600586,0.06686209114772623],[109.67548370361328,0.06531713978299081],[109.6739387512207,0.06171225308251849],[109.67428207397461,0.05759238226940511],[109.6735954284668,0.055360785453274275],[109.6713638305664,0.05707739839640169],[109.6706771850586,0.06085394668872368],[109.67205047607422,0.0673770749252185],[109.67119216918945,0.07115362245787082],[109.66930389404297,0.07115362245787082],[109.66793060302734,0.060510624127388724],[109.66604232788086,0.05965231771452295],[109.66398239135742,0.061540591804870814],[109.66346740722656,0.06463049471669535],[109.66140747070312,0.06583212357656976],[109.65917587280273,0.06480215598413963],[109.65866088867188,0.0630855432837194],[109.66020584106445,0.060682285408333314],[109.6651840209961,0.058107366137775784],[109.66741561889648,0.05639075322521592],[109.66672897338867,0.054674140262036985],[109.66226577758789,0.05621909193115471],[109.65831756591797,0.058279027426181074],[109.65642929077148,0.05793570484883048],[109.65591430664062,0.05639075322521592],[109.65548515319824,0.05433081766345538],[109.65548515319824,0.05175589811281611],[109.6560001373291,0.04926680911447079],[109.65763092041016,0.047636026616544314],[109.66243743896484,0.04540442945186385],[109.66501235961914,0.04334449354632852],[109.66484069824219,0.04094123491925927],[109.66243743896484,0.0393962829064094],[109.65883255004883,0.040426250918216056],[109.65617179870605,0.04308700155415579],[109.65333938598633,0.04849433319928664],[109.65213775634766,0.050382607642745825],[109.65093612670898,0.05106925288144737],[109.6501636505127,0.05115508353577525],[109.64921951293945,0.050725930262998986],[109.6487045288086,0.04943847042773086],[109.64836120605469,0.047464365298708344],[109.64896202087402,0.04446029216894942],[109.65007781982422,0.04214286424206648],[109.65110778808594,0.04111289625220138],[109.65248107910156,0.040426250918216056],[109.65651512145996,0.0393104522381833],[109.65728759765625,0.03673553215109848],[109.65660095214844,0.03570556409518133],[109.65522766113281,0.03501891871817975],[109.6534252166748,0.034933088045676186],[109.6516227722168,0.03536224140732713],[109.64844703674316,0.03707885483376572],[109.64492797851562,0.037679669525232384],[109.64303970336914,0.03879546822693669],[109.64235305786133,0.0397396055784327],[109.64183807373047,0.04111289625220138],[109.64192390441895,0.04248618690233741],[109.64278221130371,0.04488944548087659],[109.64475631713867,0.048065179909258404],[109.64552879333496,0.04986762370896258],[109.64535713195801,0.050725930262998986],[109.64458465576172,0.05141257549806255],[109.63497161865234,0.04986762370896258],[109.63231086730957,0.048837655829345294],[109.63025093078613,0.04772185727530598],[109.6285343170166,0.04617690540145247],[109.62844848632812,0.04506110680493691],[109.62913513183594,0.04420280018061362],[109.63334083557129,0.042829509561087775],[109.63497161865234,0.04162788024882502],[109.63531494140625,0.040855404252639005],[109.63574409484863,0.039052960232965006],[109.6351432800293,0.032272337160733855],[109.63454246520996,0.031671522434947974],[109.63376998901367,0.031843183785539964],[109.6329116821289,0.032529829184994696],[109.63068008422852,0.03613471745323693],[109.62947845458984,0.03682136282188253],[109.6285343170166,0.03656387080924617],[109.6274185180664,0.03570556409518133],[109.62656021118164,0.033903119969806994],[109.62630271911621,0.031414030408541294],[109.6274185180664,0.027723311296156794],[109.62733268737793,0.025920867035722495],[109.62690353393555,0.024547576153324258],[109.62467193603516,0.023002623893802365],[109.62244033813477,0.022745131848893152],[109.61986541748047,0.023002623893802365],[109.61677551269531,0.024461745472692087],[109.61540222167969,0.025920867035722495],[109.6146297454834,0.027294157903241967],[109.6146297454834,0.029268263497613134],[109.6149730682373,0.030555723649285937],[109.61651802062988,0.03278732120858763],[109.61694717407227,0.03398895064322005],[109.61694717407227,0.034933088045676186],[109.61634635925293,0.03536224140732713],[109.61531639099121,0.03544807207939016],[109.6135139465332,0.03433227333610489],[109.61153984069824,0.0315856917595454],[109.61222648620605,0.02703666586674558],[109.61454391479492,0.022916793212203856],[109.61505889892578,0.0203418727416107],[109.61454391479492,0.019140243174277316],[109.6135139465332,0.018711089755313992],[109.61222648620605,0.018968581806817042],[109.6062183380127,0.032615659859615675],[109.60493087768555,0.034675596027753386],[109.60441589355469,0.03510474939056962],[109.60372924804688,0.03501891871817975],[109.60158348083496,0.03149986108407177],[109.5992660522461,0.028495787399478445],[109.59609031677246,0.025148390916143626],[109.59428787231445,0.02343177730095647],[109.59325790405273,0.02343177730095647],[109.59257125854492,0.024719237514403858],[109.59222793579102,0.02669334315058336],[109.59368705749512,0.03287315188298123],[109.59385871887207,0.035190580062888444],[109.59334373474121,0.03742217751511134],[109.5926570892334,0.038452145551048034],[109.59085464477539,0.03956794424260579],[109.58905220031738,0.039911266913932764],[109.58587646484375,0.0397396055784327],[109.58493232727051,0.0393104522381833],[109.58450317382812,0.0382804842125779],[109.58484649658203,0.03630637879588505],[109.58450317382812,0.034933088045676186],[109.5827865600586,0.03398895064322005],[109.58081245422363,0.03407478131656205],[109.57454681396484,0.0375080081852559],[109.57308769226074,0.03793716153460025],[109.57257270812988,0.037679669525232384],[109.56742286682129,0.032958982557303784],[109.56742286682129,0.032272337160733855],[109.56819534301758,0.030813215677781614],[109.56974029541016,0.02995490891372299],[109.5750617980957,0.02875327943277739],[109.57677841186523,0.028152464687522638],[109.57806587219238,0.026865004508792367],[109.57840919494629,0.022830962530576926],[109.5790958404541,0.021371840935074715],[109.58038330078125,0.021114348887351753],[109.58124160766602,0.021886825029227452],[109.58398818969727,0.02677917382970918],[109.58484649658203,0.02703666586674558],[109.5857048034668,0.026865004508792367],[109.58793640136719,0.02497672955561825],[109.58888053894043,0.02248763980350077],[109.58939552307129,0.02017021137538677],[109.58965301513672,0.01673698401489787],[109.58939552307129,0.013990402082654896],[109.58879470825195,0.010385513248806433],[109.58759307861328,0.008239746065356712],[109.58690643310547,0.007896423314861067],[109.5860481262207,0.008497238128043705],[109.58467483520508,0.011243820118266967],[109.58390235900879,0.012273788358285742],[109.58175659179688,0.014333724826073535],[109.58081245422363,0.01459121688330356],[109.57849502563477,0.014076232768559294],[109.57265853881836,0.009527206377001107],[109.57042694091797,0.006866455061697252],[109.57034111022949,0.006351470934262693],[109.57077026367188,0.005578994742165833],[109.57283020019531,0.0036907196019484445],[109.58029747009277,-0.0004291534423828125],[109.58149909973145,-0.0021457672114166826],[109.58158493041992,-0.004119873043322286],[109.58124160766602,-0.004978179925373638],[109.58012580871582,-0.005321502677901435],[109.57154273986816,-0.003261566160347229],[109.56991195678711,-0.003175735472012775],[109.56879615783691,-0.00351905822533638],[109.56819534301758,-0.0038623809785178764],[109.56785202026367,-0.004463195796276409],[109.56647872924805,-0.011157989431424653]]}},{"type":"Feature","id":"pmtiles:10/823/511:waterway:8909664402:0","properties":{"name":"Sungai Mandor","name_int":"Sungai Mandor","class":"river","name:latin":"Sungai Mandor","name_de":"Sungai Mandor","name_en":"Sungai Mandor","waterway":"river","kind":"waterway","verification":"verified","source":"OpenMapTiles/OpenStreetMap national PMTiles","sourceId":"10/823/511:waterway:8909664402:0","sourceLayer":"waterway","archive":"https://its.hanifahseptiani45.workers.dev/v1/map/archive/indonesia.pmtiles","updatedAt":"2026-07-26T09:41:13.511Z"},"geometry":{"type":"LineString","coordinates":[[109.35979843139648,0.28950568032557555],[109.35894012451172,0.29010648745928336],[109.35868263244629,0.2908789537271588],[109.35748100280762,0.29079312414445724],[109.3567943572998,0.29139393120972557],[109.3564510345459,0.29122227205148477],[109.35627937316895,0.29079312414445724],[109.35602188110352,0.2908789537271588],[109.35507774353027,0.29190890866873076],[109.35473442077637,0.29285303394897255],[109.3538761138916,0.29345384090412097],[109.35404777526855,0.29508460247664914],[109.35301780700684,0.2959428979451957],[109.3524169921875,0.29602872748839104],[109.35215950012207,0.296543704733665],[109.35224533081055,0.2979169772705177],[109.35293197631836,0.298689442997329],[109.35293197631836,0.29937607915336173],[109.35233116149902,0.30014854477749964],[109.3513011932373,0.30014854477749964],[109.35070037841797,0.3020367938509878],[109.3480396270752,0.30366755415055025],[109.34761047363281,0.3044400194698369],[109.34752464294434,0.3056416320786468],[109.346923828125,0.3057274615455583],[109.34563636779785,0.3052983142041086],[109.34503555297852,0.30546997314274904],[109.34477806091309,0.3058132910118019],[109.34494972229004,0.3069290740103412],[109.34426307678223,0.3077015390949924],[109.34391975402832,0.30976144571363307],[109.34280395507812,0.3108772282983807],[109.34374809265137,0.312164669595802],[109.34366226196289,0.31310879311376993],[109.3440055847168,0.3143104047409224],[109.34366226196289,0.31508286928540485],[109.34366226196289,0.3160269925397614],[109.3428897857666,0.316885286332905],[109.34280395507812,0.3179152387908033],[109.34211730957031,0.32031846079243564],[109.34220314025879,0.32186338892474],[109.34271812438965,0.32229253558668347],[109.34306144714355,0.32383746341977826],[109.34391975402832,0.3244382686246752],[109.34409141540527,0.32503907379388863],[109.34357643127441,0.3258973668307732],[109.34383392333984,0.32709897695950474],[109.34357643127441,0.3276997819699261],[109.34357643127441,0.32890139188265266],[109.34503555297852,0.33001717238637696],[109.34597969055176,0.3314762697792446],[109.34623718261719,0.33216290377215785],[109.34589385986328,0.33293536695715886],[109.346923828125,0.3332786839088442],[109.34683799743652,0.33499526848756034],[109.3472671508789,0.3355102438026165],[109.34795379638672,0.3360252190905726],[109.34932708740234,0.33628270672436145],[109.35070037841797,0.3373984863922601],[109.35164451599121,0.33757014479137126],[109.35250282287598,0.33731265719157477],[109.35344696044922,0.33757014479137126],[109.35490608215332,0.33842843674138123],[109.35593605041504,0.3394583869811356],[109.35670852661133,0.33980170370335827],[109.35585021972656,0.3418616037800746],[109.35722351074219,0.3433206994005502],[109.35816764831543,0.3428915536529047],[109.35919761657715,0.34374984512895423],[109.36022758483887,0.34374984512895423],[109.36065673828125,0.34486562393247766],[109.36142921447754,0.34520894046112005],[109.36160087585449,0.34615306085092357],[109.36297416687012,0.3469255229181414],[109.36323165893555,0.34855627596390093],[109.36434745788574,0.34992954146768795],[109.36460494995117,0.35113114861862016],[109.36666488647461,0.3520752684146231],[109.3663215637207,0.3533627043459546],[109.36640739440918,0.3540493367697479],[109.3674373626709,0.35507928531008304],[109.36829566955566,0.3564525498519657],[109.3703556060791,0.3568816949793643],[109.37104225158691,0.35731084008672553]]}},{"type":"Feature","id":"pmtiles:10/824/511:mountain_peak:10701609631:0","properties":{"name_int":"Gunung Tegalong","name_de":"Gunung Tegalong","name":"Gunung Tegalong","rank":1,"class":"peak","name:latin":"Gunung Tegalong","name_en":"Gunung Tegalong","kind":"poi","verification":"verified","source":"OpenMapTiles/OpenStreetMap national PMTiles","sourceId":"10/824/511:mountain_peak:10701609631:0","sourceLayer":"mountain_peak","archive":"https://its.hanifahseptiani45.workers.dev/v1/map/archive/indonesia.pmtiles","updatedAt":"2026-07-26T09:41:13.574Z"},"geometry":{"type":"Point","coordinates":[109.61668968200684,0.15003187200019852]}},{"type":"Feature","id":"pmtiles:10/824/511:mountain_peak:10701552401:0","properties":{"name_int":"Gunung Semaung","name_de":"Gunung Semaung","name":"Gunung Semaung","rank":1,"class":"peak","name:latin":"Gunung Semaung","name_en":"Gunung Semaung","kind":"poi","verification":"verified","source":"OpenMapTiles/OpenStreetMap national PMTiles","sourceId":"10/824/511:mountain_peak:10701552401:0","sourceLayer":"mountain_peak","archive":"https://its.hanifahseptiani45.workers.dev/v1/map/archive/indonesia.pmtiles","updatedAt":"2026-07-26T09:41:13.574Z"},"geometry":{"type":"Point","coordinates":[109.6666431427002,0.2833259479717043]}},{"type":"Feature","id":"pmtiles:8/205/127:mountain_peak:10701552401:0","properties":{"name_int":"Gunung Semaung","name_de":"Gunung Semaung","name":"Gunung Semaung","rank":1,"class":"peak","name:latin":"Gunung Semaung","name_en":"Gunung Semaung","kind":"poi","verification":"verified","source":"OpenMapTiles/OpenStreetMap national PMTiles","sourceId":"8/205/127:mountain_peak:10701552401:0","sourceLayer":"mountain_peak","archive":"https://its.hanifahseptiani45.workers.dev/v1/map/archive/indonesia.pmtiles","updatedAt":"2026-07-26T09:35:29.755Z"},"geometry":{"type":"Point","coordinates":[109.66655731201172,0.28324011833230145]}},{"type":"Feature","id":"pmtiles:8/205/127:mountain_peak:10701609631:0","properties":{"name_int":"Gunung Tegalong","name_de":"Gunung Tegalong","name":"Gunung Tegalong","rank":2,"class":"peak","name:latin":"Gunung Tegalong","name_en":"Gunung Tegalong","kind":"poi","verification":"verified","source":"OpenMapTiles/OpenStreetMap national PMTiles","sourceId":"8/205/127:mountain_peak:10701609631:0","sourceLayer":"mountain_peak","archive":"https://its.hanifahseptiani45.workers.dev/v1/map/archive/indonesia.pmtiles","updatedAt":"2026-07-26T09:35:29.755Z"},"geometry":{"type":"Point","coordinates":[109.61677551269531,0.15003187200019852]}},{"type":"Feature","id":"pmtiles:8/205/127:park:5428080012:0","properties":{"name":"Cagar Alam Mandor","name_int":"Mandor Nature Reserve","class":"nature_reserve","name:latin":"Cagar Alam Mandor","name_de":"Cagar Alam Mandor","name_en":"Mandor Nature Reserve","kind":"green","verification":"verified","source":"OpenMapTiles/OpenStreetMap national PMTiles","sourceId":"8/205/127:park:5428080012:0","sourceLayer":"park","archive":"https://its.hanifahseptiani45.workers.dev/v1/map/archive/indonesia.pmtiles","updatedAt":"2026-07-26T09:35:29.755Z"},"geometry":{"type":"Polygon","coordinates":[[[109.32117462158203,0.25543128279416294],[109.32357788085938,0.2767170638922778],[109.3246078491211,0.3062424383326743],[109.33147430419922,0.31036225173542675],[109.33456420898438,0.3076157096438976],[109.33696746826172,0.3076157096438976],[109.33696746826172,0.3100189340128594],[109.33868408203125,0.31310879311376993],[109.34074401855469,0.31413874594548474],[109.3414306640625,0.31345211073561074],[109.33868408203125,0.3083023452333009],[109.3414306640625,0.3069290740103412],[109.34211730957031,0.3045258489463265],[109.34417724609375,0.30486916684550636],[109.346923828125,0.3024659413220405],[109.35001373291016,0.30280925928663294],[109.35413360595703,0.3076157096438976],[109.35482025146484,0.3072723918326403],[109.35413360595703,0.3041825310362185],[109.35688018798828,0.30074935133634995],[109.3582534790039,0.2997193972152701],[109.36100006103516,0.29937607915336173],[109.36271667480469,0.2839267554296896],[109.36820983886719,0.2756871075980314],[109.37507629394531,0.2622976677869957],[109.3747329711914,0.25680456008937824],[109.3740463256836,0.2557746021317655],[109.36820983886719,0.25474464409150244],[109.36271667480469,0.2550879634474086],[109.35894012451172,0.25337136657647363],[109.34486389160156,0.2526847277643469],[109.33971405029297,0.2495948526620424],[109.33113098144531,0.2495948526620424],[109.32701110839844,0.2526847277643469],[109.31877136230469,0.2516547694781224],[109.31842803955078,0.25199808891591147],[109.32083129882812,0.2537146859689017],[109.32117462158203,0.25543128279416294]]]}},{"type":"Feature","id":"pmtiles:8/205/127:transportation:460376520:11","properties":{"class":"trunk","highway":"trunk","kind":"road","verification":"verified","source":"OpenMapTiles/OpenStreetMap national PMTiles","sourceId":"8/205/127:transportation:460376520:11","sourceLayer":"transportation","archive":"https://its.hanifahseptiani45.workers.dev/v1/map/archive/indonesia.pmtiles","updatedAt":"2026-07-26T09:35:29.757Z"},"geometry":{"type":"LineString","coordinates":[[109.70947265625,0.366322882673785],[109.70226287841797,0.3591132493184688],[109.70157623291016,0.3567100369308065],[109.69779968261719,0.35430682391556445],[109.6933364868164,0.3467538646864199],[109.6875,0.34606723172845477],[109.68612670898438,0.34503728219834784],[109.68475341796875,0.3402308495889912],[109.67548370361328,0.3326778792355469],[109.67273712158203,0.3247815858685925],[109.66827392578125,0.32100509554673806],[109.66724395751953,0.31860187370565995],[109.66381072998047,0.31928850857477187],[109.66072082519531,0.32134841290658755],[109.6541976928711,0.3237516341018818],[109.65145111083984,0.3237516341018818],[109.64630126953125,0.32890139188265266],[109.64183807373047,0.33096129425331355],[109.6377182006836,0.329931343121288],[109.6329116821289,0.3302746601771531],[109.62982177734375,0.332334562262929],[109.62501525878906,0.3326778792355469],[109.62261199951172,0.3340511470063774],[109.6164321899414,0.33508109770862404],[109.61677551269531,0.3364543651431262],[109.61437225341797,0.3364543651431262],[109.61368560791016,0.3374843155921923],[109.60990905761719,0.3354244145853329],[109.6051025390625,0.33714099878794457],[109.6051025390625,0.3388575826879219],[109.60304260253906,0.3381709491643363],[109.59480285644531,0.339200899431475],[109.58106994628906,0.33714099878794457],[109.57901000976562,0.33782763238433233],[109.57660675048828,0.34194743294037266],[109.57557678222656,0.34812713045285193],[109.5718002319336,0.3512169776949321],[109.5669937133789,0.35773998517403527],[109.566650390625,0.35945656532236114],[109.57077026367188,0.36803946119346165],[109.57111358642578,0.3707859861371503],[109.57008361816406,0.3721592482898757],[109.5669937133789,0.37147261724018676],[109.5608139038086,0.3749057719531663],[109.55291748046875,0.3759357181051399],[109.54776763916016,0.37421914111786236],[109.5450210571289,0.36975603938277857],[109.54158782958984,0.3694127237714184],[109.53506469726562,0.3649496196212425],[109.53163146972656,0.3670095141212073],[109.52888488769531,0.366322882673785],[109.5278549194336,0.3622030928879525],[109.52442169189453,0.361173145148058],[109.5223617553711,0.3570533530247104],[109.51824188232422,0.35568008857229927],[109.51446533203125,0.35259024280850326],[109.51171875,0.3519036102769917],[109.50347900390625,0.35327687528941],[109.50313568115234,0.35499345626942613],[109.50450897216797,0.358083301229442],[109.50244903564453,0.36426298801627865],[109.50004577636719,0.36769614551589314],[109.49798583984375,0.36769614551589314],[109.49146270751953,0.37284587928611757],[109.48905944824219,0.3704426705656516],[109.48493957519531,0.3725025637946686],[109.48219299316406,0.3721592482898757],[109.48047637939453,0.37284587928611757],[109.47601318359375,0.36597956693033495],[109.47120666503906,0.3656362511737683],[109.46708679199219,0.362546408775259],[109.46537017822266,0.35739666910578194],[109.45919036865234,0.3563667208240844],[109.45507049560547,0.3567100369308065],[109.44923400878906,0.35430682391556445],[109.44442749023438,0.35568008857229927],[109.43859100341797,0.3560234047045867],[109.43618774414062,0.3536201915108279],[109.43069458007812,0.3515602939922644],[109.423828125,0.35259024280850326],[109.42245483398438,0.350530345062424],[109.42005157470703,0.350530345062424],[109.41902160644531,0.34744049759459017],[109.41627502441406,0.34503728219834784],[109.41078186035156,0.3453805987207801],[109.4070053100586,0.3433206994005502],[109.40254211425781,0.33336451314490034],[109.39704895019531,0.33096129425331355],[109.390869140625,0.3319912452784024],[109.38777923583984,0.33096129425331355],[109.37919616699219,0.3196318259921469],[109.37164306640625,0.3196318259921469],[109.37026977539062,0.3189451911459429],[109.368896484375,0.3196318259921469],[109.36477661132812,0.3182585562539373],[109.36271667480469,0.32169173025492626],[109.35722351074219,0.3244382686246752],[109.35173034667969,0.32169173025492626],[109.35070037841797,0.31997514339803956],[109.3472671508789,0.3196318259921469],[109.34555053710938,0.31722860383025875],[109.33490753173828,0.31928850857477187],[109.32014465332031,0.3278714405377343],[109.31636810302734,0.32718480624890844],[109.30744171142578,0.32890139188265266],[109.29817199707031,0.3258115375303561],[109.29267883300781,0.32958802605357107],[109.28890228271484,0.32821475766448316],[109.28306579589844,0.32272168223053654],[109.28031921386719,0.32237836491690075],[109.27654266357422,0.3151686986757056],[109.27310943603516,0.31207884018087384],[109.26177978515625,0.3165419688241684],[109.259033203125,0.3196318259921469],[109.25525665283203,0.32169173025492626],[109.24942016601562,0.32169173025492626],[109.24736022949219,0.3237516341018818],[109.24118041992188,0.32615485472759076],[109.23912048339844,0.3278714405377343],[109.23534393310547,0.3278714405377343],[109.22985076904297,0.32958802605357107],[109.22538757324219,0.32958802605357107],[109.22195434570312,0.3319912452784024],[109.2202377319336,0.3347377808198928],[109.20822143554688,0.34194743294037266],[109.2041015625,0.34229074957386274],[109.1982650756836,0.3457239152308347],[109.1927719116211,0.3457239152308347],[109.18830871582031,0.34435064911632196],[109.18556213378906,0.3453805987207801],[109.18212890625,0.3519036102769917],[109.17251586914062,0.3563667208240844],[109.1656494140625,0.361173145148058],[109.1653060913086,0.3628897246495484]]}},{"type":"Feature","id":"pmtiles:8/205/127:transportation_name:5604316130:0","properties":{"name":"Anjungan - Sidas","name_int":"Anjungan - Sidas","class":"trunk","name:latin":"Anjungan - Sidas","name_de":"Anjungan - Sidas","name_en":"Anjungan - Sidas","highway":"trunk","kind":"road","verification":"verified","source":"OpenMapTiles/OpenStreetMap national PMTiles","sourceId":"8/205/127:transportation_name:5604316130:0","sourceLayer":"transportation_name","archive":"https://its.hanifahseptiani45.workers.dev/v1/map/archive/indonesia.pmtiles","updatedAt":"2026-07-26T09:35:29.757Z"},"geometry":{"type":"LineString","coordinates":[[109.73350524902344,0.38314533774884296],[109.72698211669922,0.3786822405822363],[109.72389221191406,0.3745624565422361],[109.71221923828125,0.3704426705656516],[109.71187591552734,0.36872609250892197],[109.70226287841797,0.3591132493184688],[109.70157623291016,0.3567100369308065],[109.69779968261719,0.35430682391556445],[109.6933364868164,0.3467538646864199],[109.6875,0.34606723172845477],[109.68612670898438,0.34503728219834784],[109.68475341796875,0.3402308495889912],[109.67548370361328,0.3326778792355469],[109.67273712158203,0.3247815858685925],[109.66827392578125,0.32100509554673806],[109.66724395751953,0.31860187370565995],[109.66381072998047,0.31928850857477187],[109.66072082519531,0.32134841290658755],[109.6541976928711,0.3237516341018818],[109.65145111083984,0.3237516341018818],[109.64630126953125,0.32890139188265266],[109.64183807373047,0.33096129425331355],[109.6377182006836,0.329931343121288],[109.6329116821289,0.3302746601771531],[109.62982177734375,0.332334562262929],[109.62501525878906,0.3326778792355469],[109.62261199951172,0.3340511470063774],[109.6164321899414,0.33508109770862404],[109.61677551269531,0.3364543651431262],[109.61437225341797,0.3364543651431262],[109.61368560791016,0.3374843155921923],[109.60990905761719,0.3354244145853329],[109.6051025390625,0.33714099878794457],[109.6051025390625,0.3388575826879219],[109.60304260253906,0.3381709491643363],[109.59480285644531,0.339200899431475],[109.58106994628906,0.33714099878794457],[109.57901000976562,0.33782763238433233],[109.57660675048828,0.34194743294037266],[109.57557678222656,0.34812713045285193],[109.5718002319336,0.3512169776949321],[109.5669937133789,0.35773998517403527],[109.566650390625,0.35945656532236114],[109.57077026367188,0.36803946119346165],[109.57111358642578,0.3707859861371503],[109.57008361816406,0.3721592482898757],[109.5669937133789,0.37147261724018676],[109.5608139038086,0.3749057719531663],[109.55291748046875,0.3759357181051399],[109.54776763916016,0.37421914111786236],[109.5450210571289,0.36975603938277857],[109.54158782958984,0.3694127237714184],[109.53506469726562,0.3649496196212425],[109.53163146972656,0.3670095141212073],[109.52888488769531,0.366322882673785],[109.5278549194336,0.3622030928879525],[109.52442169189453,0.361173145148058],[109.5223617553711,0.3570533530247104],[109.51824188232422,0.35568008857229927],[109.51446533203125,0.35259024280850326],[109.51171875,0.3519036102769917],[109.50347900390625,0.35327687528941],[109.50313568115234,0.35499345626942613],[109.50450897216797,0.358083301229442],[109.50244903564453,0.36426298801627865],[109.50004577636719,0.36769614551589314],[109.49798583984375,0.36769614551589314],[109.49146270751953,0.37284587928611757],[109.48905944824219,0.3704426705656516],[109.48493957519531,0.3725025637946686],[109.48219299316406,0.3721592482898757],[109.48047637939453,0.37284587928611757],[109.47601318359375,0.36597956693033495],[109.47120666503906,0.3656362511737683],[109.46708679199219,0.362546408775259],[109.46537017822266,0.35739666910578194],[109.45919036865234,0.3563667208240844],[109.45507049560547,0.3567100369308065],[109.44923400878906,0.35430682391556445],[109.44442749023438,0.35568008857229927],[109.43859100341797,0.3560234047045867],[109.43618774414062,0.3536201915108279],[109.43069458007812,0.3515602939922644],[109.423828125,0.35259024280850326],[109.42245483398438,0.350530345062424],[109.42005157470703,0.350530345062424],[109.41902160644531,0.34744049759459017],[109.41627502441406,0.34503728219834784],[109.41078186035156,0.3453805987207801],[109.4070053100586,0.3433206994005502],[109.40254211425781,0.33336451314490034],[109.39704895019531,0.33096129425331355],[109.390869140625,0.3319912452784024],[109.38777923583984,0.33096129425331355],[109.37919616699219,0.3196318259921469],[109.37164306640625,0.3196318259921469],[109.37026977539062,0.3189451911459429],[109.368896484375,0.3196318259921469],[109.36477661132812,0.3182585562539373],[109.36271667480469,0.32169173025492626],[109.35722351074219,0.3244382686246752],[109.35173034667969,0.32169173025492626],[109.35070037841797,0.31997514339803956],[109.3472671508789,0.3196318259921469],[109.34555053710938,0.31722860383025875],[109.33490753173828,0.31928850857477187],[109.32014465332031,0.3278714405377343],[109.31636810302734,0.32718480624890844],[109.30744171142578,0.32890139188265266],[109.29817199707031,0.3258115375303561],[109.29267883300781,0.32958802605357107],[109.28890228271484,0.32821475766448316],[109.28306579589844,0.32272168223053654],[109.28031921386719,0.32237836491690075],[109.27654266357422,0.3151686986757056],[109.27310943603516,0.31207884018087384],[109.26177978515625,0.3165419688241684],[109.259033203125,0.3196318259921469],[109.25525665283203,0.32169173025492626],[109.24942016601562,0.32169173025492626],[109.24736022949219,0.3237516341018818],[109.24118041992188,0.32615485472759076],[109.23912048339844,0.3278714405377343],[109.23534393310547,0.3278714405377343],[109.22985076904297,0.32958802605357107],[109.22538757324219,0.32958802605357107],[109.22195434570312,0.3319912452784024],[109.2202377319336,0.3347377808198928],[109.20822143554688,0.34194743294037266],[109.2041015625,0.34229074957386274],[109.1982650756836,0.3457239152308347],[109.1927719116211,0.3457239152308347],[109.18830871582031,0.34435064911632196],[109.18556213378906,0.3453805987207801],[109.18212890625,0.3519036102769917],[109.17251586914062,0.3563667208240844],[109.1656494140625,0.361173145148058],[109.1653060913086,0.3628897246495484]]}},{"type":"Feature","id":"pmtiles:8/206/127:mountain_peak:10701552401:0","properties":{"name_int":"Gunung Semaung","name_de":"Gunung Semaung","name":"Gunung Semaung","rank":1,"class":"peak","name:latin":"Gunung Semaung","name_en":"Gunung Semaung","kind":"poi","verification":"verified","source":"OpenMapTiles/OpenStreetMap national PMTiles","sourceId":"8/206/127:mountain_peak:10701552401:0","sourceLayer":"mountain_peak","archive":"https://its.hanifahseptiani45.workers.dev/v1/map/archive/indonesia.pmtiles","updatedAt":"2026-07-26T09:35:29.823Z"},"geometry":{"type":"Point","coordinates":[109.66655731201172,0.28324011833230145]}},{"type":"Feature","id":"pmtiles:8/206/127:mountain_peak:10701609631:0","properties":{"name_int":"Gunung Tegalong","name_de":"Gunung Tegalong","name":"Gunung Tegalong","rank":2,"class":"peak","name:latin":"Gunung Tegalong","name_en":"Gunung Tegalong","kind":"poi","verification":"verified","source":"OpenMapTiles/OpenStreetMap national PMTiles","sourceId":"8/206/127:mountain_peak:10701609631:0","sourceLayer":"mountain_peak","archive":"https://its.hanifahseptiani45.workers.dev/v1/map/archive/indonesia.pmtiles","updatedAt":"2026-07-26T09:35:29.823Z"},"geometry":{"type":"Point","coordinates":[109.61677551269531,0.15003187200019852]}},{"type":"Feature","id":"pmtiles:8/205/128:mountain_peak:10701552401:0","properties":{"name_int":"Gunung Semaung","name_de":"Gunung Semaung","name":"Gunung Semaung","rank":1,"class":"peak","name:latin":"Gunung Semaung","name_en":"Gunung Semaung","kind":"poi","verification":"verified","source":"OpenMapTiles/OpenStreetMap national PMTiles","sourceId":"8/205/128:mountain_peak:10701552401:0","sourceLayer":"mountain_peak","archive":"https://its.hanifahseptiani45.workers.dev/v1/map/archive/indonesia.pmtiles","updatedAt":"2026-07-26T09:35:32.118Z"},"geometry":{"type":"Point","coordinates":[109.66655731201172,0.28324011833230145]}},{"type":"Feature","id":"pmtiles:8/205/128:mountain_peak:10701609631:0","properties":{"name_int":"Gunung Tegalong","name_de":"Gunung Tegalong","name":"Gunung Tegalong","rank":2,"class":"peak","name:latin":"Gunung Tegalong","name_en":"Gunung Tegalong","kind":"poi","verification":"verified","source":"OpenMapTiles/OpenStreetMap national PMTiles","sourceId":"8/205/128:mountain_peak:10701609631:0","sourceLayer":"mountain_peak","archive":"https://its.hanifahseptiani45.workers.dev/v1/map/archive/indonesia.pmtiles","updatedAt":"2026-07-26T09:35:32.118Z"},"geometry":{"type":"Point","coordinates":[109.61677551269531,0.15003187200019852]}},{"type":"Feature","id":"pmtiles:8/206/128:mountain_peak:10701552401:0","properties":{"name_int":"Gunung Semaung","name_de":"Gunung Semaung","name":"Gunung Semaung","rank":1,"class":"peak","name:latin":"Gunung Semaung","name_en":"Gunung Semaung","kind":"poi","verification":"verified","source":"OpenMapTiles/OpenStreetMap national PMTiles","sourceId":"8/206/128:mountain_peak:10701552401:0","sourceLayer":"mountain_peak","archive":"https://its.hanifahseptiani45.workers.dev/v1/map/archive/indonesia.pmtiles","updatedAt":"2026-07-26T09:35:32.415Z"},"geometry":{"type":"Point","coordinates":[109.66655731201172,0.28324011833230145]}},{"type":"Feature","id":"pmtiles:8/206/128:mountain_peak:10701609631:0","properties":{"name_int":"Gunung Tegalong","name_de":"Gunung Tegalong","name":"Gunung Tegalong","rank":2,"class":"peak","name:latin":"Gunung Tegalong","name_en":"Gunung Tegalong","kind":"poi","verification":"verified","source":"OpenMapTiles/OpenStreetMap national PMTiles","sourceId":"8/206/128:mountain_peak:10701609631:0","sourceLayer":"mountain_peak","archive":"https://its.hanifahseptiani45.workers.dev/v1/map/archive/indonesia.pmtiles","updatedAt":"2026-07-26T09:35:32.415Z"},"geometry":{"type":"Point","coordinates":[109.61677551269531,0.15003187200019852]}}]}