{"type":"FeatureCollection","features":[{"type":"Feature","id":"pmtiles:10/894/542:water:2260:0","properties":{"class":"ocean","water":"ocean","kind":"waterway","verification":"verified","source":"OpenMapTiles/OpenStreetMap national PMTiles","sourceId":"10/894/542:water:2260:0","sourceLayer":"water","archive":"https://its.hanifahseptiani45.workers.dev/v1/map/archive/indonesia.pmtiles","updatedAt":"2026-07-26T09:47:23.886Z"},"geometry":{"type":"Polygon","coordinates":[[[134.2913818359375,-10.482410441586666],[134.6539306640625,-10.482410441586666],[134.6539306640625,-10.838701200796791],[134.2913818359375,-10.838701200796791],[134.2913818359375,-10.482410441586666]]]}}]}