{"type":"FeatureCollection","features":[{"type":"Feature","id":"pmtiles:10/893/504:water:70:0","properties":{"class":"ocean","water":"ocean","kind":"waterway","verification":"verified","source":"OpenMapTiles/OpenStreetMap national PMTiles","sourceId":"10/893/504:water:70:0","sourceLayer":"water","archive":"https://its.hanifahseptiani45.workers.dev/v1/map/archive/indonesia.pmtiles","updatedAt":"2026-07-26T09:39:59.035Z"},"geometry":{"type":"Polygon","coordinates":[[[133.9398193359375,2.816857733037736],[134.3023681640625,2.816857733037736],[134.3023681640625,2.454693068753784],[133.9398193359375,2.454693068753784],[133.9398193359375,2.816857733037736]]]}}]}