{"type":"FeatureCollection","features":[{"type":"Feature","id":"pmtiles:10/824/523:transportation:12039930772:0","properties":{"class":"ferry","highway":"ferry","kind":"road","verification":"verified","source":"OpenMapTiles/OpenStreetMap national PMTiles","sourceId":"10/824/523:transportation:12039930772:0","sourceLayer":"transportation","archive":"https://its.hanifahseptiani45.workers.dev/v1/map/archive/indonesia.pmtiles","updatedAt":"2026-07-26T09:43:51.659Z"},"geometry":{"type":"LineString","coordinates":[[109.77015495300293,-4.2204214290145785],[109.76929664611816,-4.212974372343851],[109.76783752441406,-4.183613443923491],[109.7563362121582,-4.105454958944222],[109.74895477294922,-4.059994523262631],[109.73865509033203,-4.01110671652917],[109.73625183105469,-4.0017740345492285],[109.73633766174316,-3.9971504646176754],[109.73848342895508,-3.986533279485556],[109.73865509033203,-3.9824233645394287],[109.7208023071289,-3.8587739225726523]]}},{"type":"Feature","id":"pmtiles:10/824/523:water:940:0","properties":{"class":"ocean","water":"ocean","kind":"waterway","verification":"verified","source":"OpenMapTiles/OpenStreetMap national PMTiles","sourceId":"10/824/523:water:940:0","sourceLayer":"water","archive":"https://its.hanifahseptiani45.workers.dev/v1/map/archive/indonesia.pmtiles","updatedAt":"2026-07-26T09:43:51.659Z"},"geometry":{"type":"Polygon","coordinates":[[[109.6820068359375,-3.8587739225726523],[110.0445556640625,-3.8587739225726523],[110.0445556640625,-4.2204214290145785],[109.6820068359375,-4.2204214290145785],[109.6820068359375,-3.8587739225726523]]]}},{"type":"Feature","id":"pmtiles:8/206/130:transportation:10304328450:1","properties":{"class":"ferry","highway":"ferry","kind":"road","verification":"verified","source":"OpenMapTiles/OpenStreetMap national PMTiles","sourceId":"8/206/130:transportation:10304328450:1","sourceLayer":"transportation","archive":"https://its.hanifahseptiani45.workers.dev/v1/map/archive/indonesia.pmtiles","updatedAt":"2026-07-26T09:35:37.826Z"},"geometry":{"type":"LineString","coordinates":[[109.77298736572266,-4.236856059768954],[109.76921081542969,-4.212888773576594],[109.76783752441406,-4.183784647869828],[109.7647476196289,-4.160842986205097],[109.74895477294922,-4.06016575383056],[109.73625183105469,-4.001602791683709],[109.73865509033203,-3.9824233645394287],[109.71702575683594,-3.831027371891878],[109.66552734375,-3.5199318948203455]]}}]}