{"type":"FeatureCollection","features":[{"type":"Feature","id":"pmtiles:10/880/530:mountain_peak:5481921981:0","properties":{"name_int":"Mount Laworkawra","ele_ft":2562,"name_de":"Laworkawra","name":"Laworkawra","rank":1,"name:en":"Mount Laworkawra","class":"volcano","ele":781,"name:latin":"Laworkawra","name_en":"Mount Laworkawra","kind":"poi","verification":"verified","source":"OpenMapTiles/OpenStreetMap national PMTiles","sourceId":"10/880/530:mountain_peak:5481921981:0","sourceLayer":"mountain_peak","archive":"https://its.hanifahseptiani45.workers.dev/v1/map/archive/indonesia.pmtiles","updatedAt":"2026-07-26T09:45:02.766Z"},"geometry":{"type":"Point","coordinates":[129.51361656188965,-6.7409009714163375]}},{"type":"Feature","id":"pmtiles:10/880/531:landuse:1538356080:0","properties":{"class":"residential","kind":"green","verification":"verified","source":"OpenMapTiles/OpenStreetMap national PMTiles","sourceId":"10/880/531:landuse:1538356080:0","sourceLayer":"landuse","archive":"https://its.hanifahseptiani45.workers.dev/v1/map/archive/indonesia.pmtiles","updatedAt":"2026-07-26T09:45:12.683Z"},"geometry":{"type":"Polygon","coordinates":[[[129.4965362548828,-6.744395690183026],[129.4943904876709,-6.747719911470583],[129.49387550354004,-6.747719911470583],[129.49413299560547,-6.746015185455022],[129.49567794799805,-6.744480926911251],[129.4965362548828,-6.744395690183026]]]}},{"type":"Feature","id":"pmtiles:10/880/531:landuse:1538356080:1","properties":{"class":"residential","kind":"green","verification":"verified","source":"OpenMapTiles/OpenStreetMap national PMTiles","sourceId":"10/880/531:landuse:1538356080:1","sourceLayer":"landuse","archive":"https://its.hanifahseptiani45.workers.dev/v1/map/archive/indonesia.pmtiles","updatedAt":"2026-07-26T09:45:12.683Z"},"geometry":{"type":"Polygon","coordinates":[[[129.50666427612305,-6.717886341108297],[129.50889587402344,-6.718312547873396],[129.50872421264648,-6.719505924828795],[129.50675010681152,-6.718994477920759],[129.50666427612305,-6.717886341108297]]]}},{"type":"Feature","id":"pmtiles:10/880/531:landuse:1538356080:2","properties":{"class":"residential","kind":"green","verification":"verified","source":"OpenMapTiles/OpenStreetMap national PMTiles","sourceId":"10/880/531:landuse:1538356080:2","sourceLayer":"landuse","archive":"https://its.hanifahseptiani45.workers.dev/v1/map/archive/indonesia.pmtiles","updatedAt":"2026-07-26T09:45:12.683Z"},"geometry":{"type":"Polygon","coordinates":[[[129.49816703796387,-6.7522374063848645],[129.50125694274902,-6.753601170148727],[129.5005702972412,-6.754453520549134],[129.49713706970215,-6.754623990449019],[129.49670791625977,-6.754112580569171],[129.49713706970215,-6.752578347686168],[129.49816703796387,-6.7522374063848645]]]}},{"type":"Feature","id":"pmtiles:10/880/531:mountain_peak:5481921981:0","properties":{"name_int":"Mount Laworkawra","ele_ft":2562,"name_de":"Laworkawra","name":"Laworkawra","rank":1,"name:en":"Mount Laworkawra","class":"volcano","ele":781,"name:latin":"Laworkawra","name_en":"Mount Laworkawra","kind":"poi","verification":"verified","source":"OpenMapTiles/OpenStreetMap national PMTiles","sourceId":"10/880/531:mountain_peak:5481921981:0","sourceLayer":"mountain_peak","archive":"https://its.hanifahseptiani45.workers.dev/v1/map/archive/indonesia.pmtiles","updatedAt":"2026-07-26T09:45:12.683Z"},"geometry":{"type":"Point","coordinates":[129.51361656188965,-6.7409009714163375]}},{"type":"Feature","id":"pmtiles:10/880/531:water:700:0","properties":{"class":"ocean","water":"ocean","kind":"waterway","verification":"verified","source":"OpenMapTiles/OpenStreetMap national PMTiles","sourceId":"10/880/531:water:700:0","sourceLayer":"water","archive":"https://its.hanifahseptiani45.workers.dev/v1/map/archive/indonesia.pmtiles","updatedAt":"2026-07-26T09:45:12.683Z"},"geometry":{"type":"Polygon","coordinates":[[[129.3695068359375,-6.659151487659315],[129.7320556640625,-6.659151487659315],[129.7320556640625,-7.019119954643813],[129.3695068359375,-7.019119954643813],[129.3695068359375,-6.659151487659315]],[[129.53086853027344,-6.73365574250775],[129.5309543609619,-6.731865728108943],[129.5313835144043,-6.731354294211059],[129.5309543609619,-6.731013337979817],[129.53112602233887,-6.729819989284707],[129.53155517578125,-6.729052835003358],[129.5324993133545,-6.728541398142497],[129.53267097473145,-6.72828567951008],[129.5320701599121,-6.727689002177527],[129.5324993133545,-6.727007084328477],[129.53327178955078,-6.726239925604034],[129.5357608795166,-6.725046565180392],[129.53619003295898,-6.724620364318767],[129.53619003295898,-6.723938442162677],[129.53670501708984,-6.723682721107437],[129.53661918640137,-6.722915557134442],[129.53593254089355,-6.721807429258021],[129.53524589538574,-6.719335442585887],[129.5339584350586,-6.7183977891816085],[129.53413009643555,-6.717289651009764],[129.53370094299316,-6.7160962686171075],[129.53232765197754,-6.715243850830262],[129.53241348266602,-6.7133685264434035],[129.53292846679688,-6.71311279983081],[129.53335762023926,-6.712686588511275],[129.5331859588623,-6.712516103878983],[129.5321559906006,-6.712516103878983],[129.5320701599121,-6.712089892037028],[129.530611038208,-6.711493194831448],[129.53001022338867,-6.711493194831448],[129.52975273132324,-6.711834164752744],[129.52863693237305,-6.712089892037028],[129.52752113342285,-6.713879979265528],[129.52692031860352,-6.714220947515031],[129.52649116516113,-6.714220947515031],[129.52614784240723,-6.7149028832974125],[129.52571868896484,-6.715243850830262],[129.52528953552246,-6.715243850830262],[129.52391624450684,-6.7160962686171075],[129.52322959899902,-6.71720440950736],[129.5225429534912,-6.716863443348416],[129.52194213867188,-6.71720440950736],[129.52125549316406,-6.717119167990035],[129.5207405090332,-6.715414334507088],[129.52031135559082,-6.715243850830262],[129.51868057250977,-6.7160962686171075],[129.5174789428711,-6.715670059910352],[129.51756477355957,-6.715243850830262],[129.51722145080566,-6.715073367093709],[129.51619148254395,-6.717545375427335],[129.51464653015137,-6.716692960179344],[129.5137882232666,-6.718142065212163],[129.51241493225098,-6.717886341108297],[129.51215744018555,-6.718738754265047],[129.5105266571045,-6.718823995498553],[129.50932502746582,-6.718227306550261],[129.5089817047119,-6.718568271753213],[129.50881004333496,-6.718142065212163],[129.50820922851562,-6.7178010997104565],[129.50640678405762,-6.71771585829768],[129.50640678405762,-6.716351993661959],[129.5053768157959,-6.714732399441402],[129.50194358825684,-6.714220947515031],[129.50142860412598,-6.714476673545406],[129.5009994506836,-6.714306189540082],[129.5006561279297,-6.714561915525664],[129.50048446655273,-6.714988125203021],[129.49971199035645,-6.715243850830262],[129.49936866760254,-6.71618151031366],[129.49524879455566,-6.720358335146855],[129.49456214904785,-6.720528817031166],[129.49344635009766,-6.722148391950583],[129.4937038421631,-6.722489354404004],[129.49336051940918,-6.723000797635677],[129.49224472045898,-6.723256519049713],[129.4918155670166,-6.7241941630833395],[129.49121475219727,-6.7245351241015925],[129.49018478393555,-6.728200439936018],[129.4892406463623,-6.72828567951008],[129.48906898498535,-6.728967595563958],[129.4892406463623,-6.729223313837281],[129.4892406463623,-6.729649510660266],[129.48863983154297,-6.730160946354033],[129.48846817016602,-6.730757620649229],[129.48863983154297,-6.7322919226122195],[129.48915481567383,-6.73288859428807],[129.48915481567383,-6.733400026569257],[129.48863983154297,-6.733911458311468],[129.48872566223145,-6.73493432017878],[129.4877815246582,-6.736894799396765],[129.48786735534668,-6.7386847952406725],[129.4874382019043,-6.739707647042067],[129.486665725708,-6.7438842694987216],[129.48657989501953,-6.747975619855353],[129.4863224029541,-6.748572272228046],[129.48640823364258,-6.750191753533244],[129.48606491088867,-6.7518964648433695],[129.48615074157715,-6.752663582973952],[129.48863983154297,-6.755220634625502],[129.48941230773926,-6.757010562739097],[129.49061393737793,-6.757436735123036],[129.49121475219727,-6.758203844467602],[129.49396133422852,-6.760078995519152],[129.4950771331787,-6.760334697371704],[129.49559211730957,-6.760249463435883],[129.49567794799805,-6.759567591408256],[129.49499130249023,-6.758203844467602],[129.4947338104248,-6.757181031737744],[129.49413299560547,-6.756243451501575],[129.49275970458984,-6.755050164935895],[129.49207305908203,-6.75377164034893],[129.49198722839355,-6.752748818246744],[129.49224472045898,-6.751981700251264],[129.49207305908203,-6.748572272228046],[129.49267387390137,-6.745503766480354],[129.49344635009766,-6.746100421898305],[129.49344635009766,-6.7470380217844195],[129.4936180114746,-6.746952785506139],[129.4937038421631,-6.74780514761386],[129.49447631835938,-6.747719911470583],[129.49576377868652,-6.745759476035175],[129.4961929321289,-6.745333293368816],[129.49687957763672,-6.7451628201972795],[129.49713706970215,-6.745503766480354],[129.4969654083252,-6.745759476035175],[129.49645042419434,-6.74584471252345],[129.4965362548828,-6.746867549212851],[129.49627876281738,-6.7474642029507805],[129.49713706970215,-6.749168923865483],[129.49773788452148,-6.749765574767622],[129.49851036071777,-6.751129345496821],[129.497652053833,-6.751214581039818],[129.49756622314453,-6.751811229420468],[129.4973087310791,-6.7518964648433695],[129.49687957763672,-6.752578347686168],[129.4969654083252,-6.753260229568099],[129.49645042419434,-6.754112580569171],[129.4965362548828,-6.754623990449019],[129.49705123901367,-6.755050164935895],[129.49851036071777,-6.754623990449019],[129.49971199035645,-6.754964930068553],[129.50177192687988,-6.754794460288821],[129.50228691101074,-6.755135399788202],[129.50443267822266,-6.755476339047291],[129.50494766235352,-6.755902512783209],[129.5060634613037,-6.756243451501575],[129.50700759887695,-6.757010562739097],[129.50692176818848,-6.757948141487972],[129.50735092163086,-6.759311889149927],[129.50735092163086,-6.759908527542294],[129.50786590576172,-6.760419931292475],[129.50855255126953,-6.759908527542294],[129.50872421264648,-6.760164229485028],[129.5090675354004,-6.760931334501564],[129.50949668884277,-6.761016568317146],[129.51001167297363,-6.761442737169503],[129.5100975036621,-6.762465540881806],[129.51035499572754,-6.7619541392962645],[129.51061248779297,-6.76186890564604],[129.51104164123535,-6.761016568317146],[129.51181411743164,-6.760931334501564],[129.51172828674316,-6.760249463435883],[129.51207160949707,-6.759652825464315],[129.51172828674316,-6.758970952595064],[129.51215744018555,-6.758459547312],[129.51361656188965,-6.757095797245924],[129.51576232910156,-6.755817278066061],[129.51679229736328,-6.755817278066061],[129.51756477355957,-6.755305869447781],[129.5181655883789,-6.755391104255054],[129.51979637145996,-6.754794460288821],[129.5215129852295,-6.752663582973952],[129.52228546142578,-6.752578347686168],[129.52383041381836,-6.7514702875787265],[129.5247745513916,-6.749509867328186],[129.5254611968994,-6.748657508221257],[129.5273494720459,-6.747293730529236],[129.52743530273438,-6.746270894739865],[129.52795028686523,-6.745759476035175],[129.5281219482422,-6.744992346965745],[129.52940940856934,-6.744310453439795],[129.53121185302734,-6.742605715426407],[129.5313835144043,-6.742264767104089],[129.53146934509277,-6.740986208759239],[129.53121185302734,-6.740645259297722],[129.53086853027344,-6.738855270690749],[129.53155517578125,-6.737235751495433],[129.53155517578125,-6.735701465164155],[129.53198432922363,-6.73493432017878],[129.53086853027344,-6.73365574250775]],[[129.52786445617676,-6.702286916736142],[129.52752113342285,-6.702286916736142],[129.52726364135742,-6.703054113220247],[129.52752113342285,-6.703991796172318],[129.52863693237305,-6.70458850256631],[129.52966690063477,-6.704503258840475],[129.5302677154541,-6.704162283788008],[129.530611038208,-6.703224601163868],[129.53001022338867,-6.702372160849549],[129.52940940856934,-6.702286916736142],[129.52898025512695,-6.702542649031656],[129.52820777893066,-6.702542649031656],[129.52786445617676,-6.702286916736142]]]}},{"type":"Feature","id":"pmtiles:8/219/132:mountain_peak:5481921981:0","properties":{"name_int":"Mount Laworkawra","ele_ft":2562,"name_de":"Laworkawra","name":"Laworkawra","rank":1,"name:en":"Mount Laworkawra","class":"volcano","ele":781,"name:latin":"Laworkawra","name_en":"Mount Laworkawra","kind":"poi","verification":"verified","source":"OpenMapTiles/OpenStreetMap national PMTiles","sourceId":"8/219/132:mountain_peak:5481921981:0","sourceLayer":"mountain_peak","archive":"https://its.hanifahseptiani45.workers.dev/v1/map/archive/indonesia.pmtiles","updatedAt":"2026-07-26T09:35:43.607Z"},"geometry":{"type":"Point","coordinates":[129.51370239257812,-6.740986208759239]}},{"type":"Feature","id":"pmtiles:8/220/132:mountain_peak:5481921981:0","properties":{"name_int":"Mount Laworkawra","ele_ft":2562,"name_de":"Laworkawra","name":"Laworkawra","rank":1,"name:en":"Mount Laworkawra","class":"volcano","ele":781,"name:latin":"Laworkawra","name_en":"Mount Laworkawra","kind":"poi","verification":"verified","source":"OpenMapTiles/OpenStreetMap national PMTiles","sourceId":"8/220/132:mountain_peak:5481921981:0","sourceLayer":"mountain_peak","archive":"https://its.hanifahseptiani45.workers.dev/v1/map/archive/indonesia.pmtiles","updatedAt":"2026-07-26T09:35:43.666Z"},"geometry":{"type":"Point","coordinates":[129.51370239257812,-6.740986208759239]}},{"type":"Feature","id":"pmtiles:8/219/133:mountain_peak:5481921981:0","properties":{"name_int":"Mount Laworkawra","ele_ft":2562,"name_de":"Laworkawra","name":"Laworkawra","rank":1,"name:en":"Mount Laworkawra","class":"volcano","ele":781,"name:latin":"Laworkawra","name_en":"Mount Laworkawra","kind":"poi","verification":"verified","source":"OpenMapTiles/OpenStreetMap national PMTiles","sourceId":"8/219/133:mountain_peak:5481921981:0","sourceLayer":"mountain_peak","archive":"https://its.hanifahseptiani45.workers.dev/v1/map/archive/indonesia.pmtiles","updatedAt":"2026-07-26T09:35:46.464Z"},"geometry":{"type":"Point","coordinates":[129.51370239257812,-6.740986208759239]}},{"type":"Feature","id":"pmtiles:8/220/133:mountain_peak:5481921981:0","properties":{"name_int":"Mount Laworkawra","ele_ft":2562,"name_de":"Laworkawra","name":"Laworkawra","rank":1,"name:en":"Mount Laworkawra","class":"volcano","ele":781,"name:latin":"Laworkawra","name_en":"Mount Laworkawra","kind":"poi","verification":"verified","source":"OpenMapTiles/OpenStreetMap national PMTiles","sourceId":"8/220/133:mountain_peak:5481921981:0","sourceLayer":"mountain_peak","archive":"https://its.hanifahseptiani45.workers.dev/v1/map/archive/indonesia.pmtiles","updatedAt":"2026-07-26T09:35:46.526Z"},"geometry":{"type":"Point","coordinates":[129.51370239257812,-6.740986208759239]}}]}