{"type":"FeatureCollection","features":[{"type":"Feature","id":"pmtiles:10/883/508:water:470:0","properties":{"class":"ocean","water":"ocean","kind":"waterway","verification":"verified","source":"OpenMapTiles/OpenStreetMap national PMTiles","sourceId":"10/883/508:water:470:0","sourceLayer":"water","archive":"https://its.hanifahseptiani45.workers.dev/v1/map/archive/indonesia.pmtiles","updatedAt":"2026-07-26T09:40:48.986Z"},"geometry":{"type":"Polygon","coordinates":[[[130.4241943359375,1.4116003389233356],[130.7867431640625,1.4116003389233356],[130.7867431640625,1.0491357039128246],[130.4241943359375,1.0491357039128246],[130.4241943359375,1.4116003389233356]]]}}]}