{"type":"FeatureCollection","features":[{"type":"Feature","id":"pmtiles:10/828/529:transportation:4043847102:0","properties":{"class":"ferry","highway":"ferry","kind":"road","verification":"verified","source":"OpenMapTiles/OpenStreetMap national PMTiles","sourceId":"10/828/529:transportation:4043847102:0","sourceLayer":"transportation","archive":"https://its.hanifahseptiani45.workers.dev/v1/map/archive/indonesia.pmtiles","updatedAt":"2026-07-26T09:44:49.722Z"},"geometry":{"type":"LineString","coordinates":[[111.0882568359375,-6.287828043651473],[111.38514518737793,-6.320758338986849]]}},{"type":"Feature","id":"pmtiles:10/828/529:water:2320:0","properties":{"class":"ocean","water":"ocean","kind":"waterway","verification":"verified","source":"OpenMapTiles/OpenStreetMap national PMTiles","sourceId":"10/828/529:water:2320:0","sourceLayer":"water","archive":"https://its.hanifahseptiani45.workers.dev/v1/map/archive/indonesia.pmtiles","updatedAt":"2026-07-26T09:44:49.722Z"},"geometry":{"type":"Polygon","coordinates":[[[111.0882568359375,-5.960290229693385],[111.4508056640625,-5.960290229693385],[111.4508056640625,-6.320758338986849],[111.0882568359375,-6.320758338986849],[111.0882568359375,-5.960290229693385]]]}}]}