{"type":"FeatureCollection","features":[{"type":"Feature","id":"pmtiles:10/828/502:water:880:0","properties":{"class":"ocean","water":"ocean","kind":"waterway","verification":"verified","source":"OpenMapTiles/OpenStreetMap national PMTiles","sourceId":"10/828/502:water:880:0","sourceLayer":"water","archive":"https://its.hanifahseptiani45.workers.dev/v1/map/archive/indonesia.pmtiles","updatedAt":"2026-07-26T09:39:37.402Z"},"geometry":{"type":"Polygon","coordinates":[[[111.0882568359375,3.5189038690258627],[111.4508056640625,3.5189038690258627],[111.4508056640625,3.156970717063345],[111.0882568359375,3.156970717063345],[111.0882568359375,3.5189038690258627]]]}}]}