{"type":"FeatureCollection","features":[{"type":"Feature","id":"pmtiles:10/835/544:water:1710:0","properties":{"class":"ocean","water":"ocean","kind":"waterway","verification":"verified","source":"OpenMapTiles/OpenStreetMap national PMTiles","sourceId":"10/835/544:water:1710:0","sourceLayer":"water","archive":"https://its.hanifahseptiani45.workers.dev/v1/map/archive/indonesia.pmtiles","updatedAt":"2026-07-26T09:47:38.952Z"},"geometry":{"type":"Polygon","coordinates":[[[113.5491943359375,-11.173012874215061],[113.9117431640625,-11.173012874215061],[113.9117431640625,-11.52846990075463],[113.5491943359375,-11.52846990075463],[113.5491943359375,-11.173012874215061]]]}}]}