{"type":"FeatureCollection","features":[{"type":"Feature","id":"pmtiles:10/844/516:transportation:10327255140:0","properties":{"class":"ferry","highway":"ferry","kind":"road","verification":"verified","source":"OpenMapTiles/OpenStreetMap national PMTiles","sourceId":"10/844/516:transportation:10327255140:0","sourceLayer":"transportation","archive":"https://its.hanifahseptiani45.workers.dev/v1/map/archive/indonesia.pmtiles","updatedAt":"2026-07-26T09:42:17.808Z"},"geometry":{"type":"LineString","coordinates":[[116.84277534484863,-1.4006173190275177],[117.0758056640625,-1.6874448294274913]]}},{"type":"Feature","id":"pmtiles:10/844/516:transportation:10327255140:1","properties":{"class":"ferry","highway":"ferry","kind":"road","verification":"verified","source":"OpenMapTiles/OpenStreetMap national PMTiles","sourceId":"10/844/516:transportation:10327255140:1","sourceLayer":"transportation","archive":"https://its.hanifahseptiani45.workers.dev/v1/map/archive/indonesia.pmtiles","updatedAt":"2026-07-26T09:42:17.809Z"},"geometry":{"type":"LineString","coordinates":[[117.0758056640625,-1.4396582860524774],[117.01520919799805,-1.4006173190275177]]}},{"type":"Feature","id":"pmtiles:10/844/516:transportation:10327255140:2","properties":{"class":"ferry","highway":"ferry","kind":"road","verification":"verified","source":"OpenMapTiles/OpenStreetMap national PMTiles","sourceId":"10/844/516:transportation:10327255140:2","sourceLayer":"transportation","archive":"https://its.hanifahseptiani45.workers.dev/v1/map/archive/indonesia.pmtiles","updatedAt":"2026-07-26T09:42:17.809Z"},"geometry":{"type":"LineString","coordinates":[[117.0758056640625,-1.528634842040944],[116.9549560546875,-1.4541590473507284],[116.87933921813965,-1.4006173190275177]]}},{"type":"Feature","id":"pmtiles:10/844/516:transportation:10327255140:3","properties":{"class":"ferry","highway":"ferry","kind":"road","verification":"verified","source":"OpenMapTiles/OpenStreetMap national PMTiles","sourceId":"10/844/516:transportation:10327255140:3","sourceLayer":"transportation","archive":"https://its.hanifahseptiani45.workers.dev/v1/map/archive/indonesia.pmtiles","updatedAt":"2026-07-26T09:42:17.809Z"},"geometry":{"type":"LineString","coordinates":[[116.7630386352539,-1.7630273831138652],[116.79256439208984,-1.4006173190275177]]}},{"type":"Feature","id":"pmtiles:10/844/516:transportation:10327255140:4","properties":{"class":"ferry","highway":"ferry","kind":"road","verification":"verified","source":"OpenMapTiles/OpenStreetMap national PMTiles","sourceId":"10/844/516:transportation:10327255140:4","sourceLayer":"transportation","archive":"https://its.hanifahseptiani45.workers.dev/v1/map/archive/indonesia.pmtiles","updatedAt":"2026-07-26T09:42:17.809Z"},"geometry":{"type":"LineString","coordinates":[[116.75780296325684,-1.7630273831138652],[116.79136276245117,-1.4006173190275177]]}},{"type":"Feature","id":"pmtiles:10/844/516:water:1160:0","properties":{"class":"ocean","water":"ocean","kind":"waterway","verification":"verified","source":"OpenMapTiles/OpenStreetMap national PMTiles","sourceId":"10/844/516:water:1160:0","sourceLayer":"water","archive":"https://its.hanifahseptiani45.workers.dev/v1/map/archive/indonesia.pmtiles","updatedAt":"2026-07-26T09:42:17.809Z"},"geometry":{"type":"Polygon","coordinates":[[[116.7132568359375,-1.4006173190275177],[117.0758056640625,-1.4006173190275177],[117.0758056640625,-1.7630273831138652],[116.7132568359375,-1.7630273831138652],[116.7132568359375,-1.4006173190275177]]]}}]}