{"type":"FeatureCollection","features":[{"type":"Feature","id":"pmtiles:10/880/524:landcover:206820263:0","properties":{"subclass":"wood","class":"wood","kind":"green","verification":"verified","source":"OpenMapTiles/OpenStreetMap national PMTiles","sourceId":"10/880/524:landcover:206820263:0","sourceLayer":"landcover","archive":"https://its.hanifahseptiani45.workers.dev/v1/map/archive/indonesia.pmtiles","updatedAt":"2026-07-26T09:44:05.657Z"},"geometry":{"type":"Polygon","coordinates":[[[129.69403266906738,-4.549217280303637],[129.69463348388672,-4.549987322455451],[129.69480514526367,-4.5517840842732795],[129.69351768493652,-4.554436438757861],[129.68914031982422,-4.5581154949137215],[129.6859645843506,-4.562393443505201],[129.68356132507324,-4.563847940221336],[129.6712875366211,-4.565644667389634],[129.6669101715088,-4.561537855825179],[129.6669101715088,-4.560938943842672],[129.66811180114746,-4.560682267125841],[129.66914176940918,-4.559741118379463],[129.67025756835938,-4.558029935682086],[129.67154502868652,-4.559056645789525],[129.67248916625977,-4.559142204898919],[129.67557907104492,-4.55537759445005],[129.67617988586426,-4.5559765110674135],[129.67738151550293,-4.555634273061415],[129.67772483825684,-4.55623318946499],[129.68021392822266,-4.555463153997351],[129.6803855895996,-4.554179759718977],[129.6815013885498,-4.553238602459473],[129.6822738647461,-4.553580841605395],[129.68313217163086,-4.552468563785965],[129.6829605102539,-4.551099604109595],[129.6818447113037,-4.550671803676778],[129.68107223510742,-4.5514418442728015],[129.68124389648438,-4.549816202048433],[129.68502044677734,-4.546821588343747],[129.68785285949707,-4.5460515428075325],[129.68982696533203,-4.543142474467942],[129.6903419494629,-4.543228035468999],[129.6913719177246,-4.5416023747127525],[129.69223022460938,-4.54117456864158],[129.69351768493652,-4.541345691100503],[129.69411849975586,-4.542629108248306],[129.69368934631348,-4.547848314445076],[129.69403266906738,-4.549217280303637]]]}},{"type":"Feature","id":"pmtiles:10/880/524:landuse:206820273:0","properties":{"class":"residential","kind":"green","verification":"verified","source":"OpenMapTiles/OpenStreetMap national PMTiles","sourceId":"10/880/524:landuse:206820273:0","sourceLayer":"landuse","archive":"https://its.hanifahseptiani45.workers.dev/v1/map/archive/indonesia.pmtiles","updatedAt":"2026-07-26T09:44:05.657Z"},"geometry":{"type":"Polygon","coordinates":[[[129.68090057373047,-4.551185164165659],[129.68141555786133,-4.55152740428818],[129.6818447113037,-4.550671803676778],[129.6829605102539,-4.551099604109595],[129.68313217163086,-4.552468563785965],[129.6822738647461,-4.553580841605395],[129.6815013885498,-4.553238602459473],[129.6803855895996,-4.554179759718977],[129.68021392822266,-4.555463153997351],[129.67772483825684,-4.55623318946499],[129.67738151550293,-4.555634273061415],[129.67995643615723,-4.5533241622612195],[129.68090057373047,-4.551185164165659]]]}},{"type":"Feature","id":"pmtiles:10/880/524:mountain_peak:10701786431:0","properties":{"name_int":"Gandulang","name_de":"Gandulang","name":"Gandulang","rank":1,"class":"peak","name:latin":"Gandulang","name_en":"Gandulang","kind":"poi","verification":"verified","source":"OpenMapTiles/OpenStreetMap national PMTiles","sourceId":"10/880/524:mountain_peak:10701786431:0","sourceLayer":"mountain_peak","archive":"https://its.hanifahseptiani45.workers.dev/v1/map/archive/indonesia.pmtiles","updatedAt":"2026-07-26T09:44:05.657Z"},"geometry":{"type":"Point","coordinates":[129.67832565307617,-4.561281179322407]}},{"type":"Feature","id":"pmtiles:10/880/524:transportation:5166631430:0","properties":{"class":"ferry","highway":"ferry","kind":"road","verification":"verified","source":"OpenMapTiles/OpenStreetMap national PMTiles","sourceId":"10/880/524:transportation:5166631430:0","sourceLayer":"transportation","archive":"https://its.hanifahseptiani45.workers.dev/v1/map/archive/indonesia.pmtiles","updatedAt":"2026-07-26T09:44:05.657Z"},"geometry":{"type":"LineString","coordinates":[[129.38950538635254,-4.2094648151634715],[129.7320556640625,-4.405547382478289]]}},{"type":"Feature","id":"pmtiles:10/880/524:transportation:5166631430:1","properties":{"class":"ferry","highway":"ferry","kind":"road","verification":"verified","source":"OpenMapTiles/OpenStreetMap national PMTiles","sourceId":"10/880/524:transportation:5166631430:1","sourceLayer":"transportation","archive":"https://its.hanifahseptiani45.workers.dev/v1/map/archive/indonesia.pmtiles","updatedAt":"2026-07-26T09:44:05.657Z"},"geometry":{"type":"LineString","coordinates":[[129.3695068359375,-4.264160741222582],[129.6635627746582,-4.368919490100552],[129.7320556640625,-4.400755050214357]]}},{"type":"Feature","id":"pmtiles:10/880/524:transportation:5166631430:2","properties":{"class":"ferry","highway":"ferry","kind":"road","verification":"verified","source":"OpenMapTiles/OpenStreetMap national PMTiles","sourceId":"10/880/524:transportation:5166631430:2","sourceLayer":"transportation","archive":"https://its.hanifahseptiani45.workers.dev/v1/map/archive/indonesia.pmtiles","updatedAt":"2026-07-26T09:44:05.657Z"},"geometry":{"type":"LineString","coordinates":[[129.7320556640625,-4.394507856486982],[129.66442108154297,-4.367293443949961],[129.3695068359375,-4.262534470691648]]}},{"type":"Feature","id":"pmtiles:10/880/524:water:1080:0","properties":{"class":"ocean","water":"ocean","kind":"waterway","verification":"verified","source":"OpenMapTiles/OpenStreetMap national PMTiles","sourceId":"10/880/524:water:1080:0","sourceLayer":"water","archive":"https://its.hanifahseptiani45.workers.dev/v1/map/archive/indonesia.pmtiles","updatedAt":"2026-07-26T09:44:05.657Z"},"geometry":{"type":"Polygon","coordinates":[[[129.3695068359375,-4.2094648151634715],[129.7320556640625,-4.2094648151634715],[129.7320556640625,-4.570949264200536],[129.3695068359375,-4.570949264200536],[129.3695068359375,-4.2094648151634715]],[[129.70913887023926,-4.324073561264797],[129.70767974853516,-4.323303283497907],[129.70733642578125,-4.323474456402664],[129.70707893371582,-4.324587079341072],[129.7068214416504,-4.32501501080543],[129.70699310302734,-4.3256997006456],[129.7067356109619,-4.326127631481441],[129.70699310302734,-4.326127631481441],[129.7075080871582,-4.326812320315838],[129.70819473266602,-4.326384389866888],[129.70853805541992,-4.325870873008938],[129.70879554748535,-4.325870873008938],[129.70905303955078,-4.325271769568019],[129.70913887023926,-4.324073561264797]],[[129.69643592834473,-4.535527504733992],[129.69626426696777,-4.536040876005373],[129.69557762145996,-4.535955314152147],[129.69549179077148,-4.536383123316895],[129.6965217590332,-4.536383123316895],[129.69720840454102,-4.536040876005373],[129.69789505004883,-4.535014133097718],[129.69780921936035,-4.533901826634263],[129.69677925109863,-4.534244074959247],[129.69643592834473,-4.535527504733992]],[[129.68793869018555,-4.545623739376296],[129.68502044677734,-4.546821588343747],[129.68364715576172,-4.548190556153671],[129.68124389648438,-4.549816202048433],[129.67987060546875,-4.553409722052791],[129.6785831451416,-4.554778677333886],[129.67686653137207,-4.555634273061415],[129.67626571655273,-4.555719832578191],[129.67557907104492,-4.55537759445005],[129.67411994934082,-4.557345461462276],[129.67334747314453,-4.557687698653652],[129.67248916625977,-4.559142204898919],[129.67154502868652,-4.559056645789525],[129.67068672180176,-4.558029935682086],[129.6701717376709,-4.558029935682086],[129.66974258422852,-4.55837217254755],[129.66914176940918,-4.559741118379463],[129.66819763183594,-4.560682267125841],[129.6669101715088,-4.560938943842672],[129.66708183288574,-4.561965649792626],[129.6694850921631,-4.5637623816725466],[129.66974258422852,-4.564190174314476],[129.67034339904785,-4.564617966701405],[129.67042922973633,-4.565045758833364],[129.6712875366211,-4.565644667389634],[129.67334747314453,-4.56547355071028],[129.67841148376465,-4.564617966701405],[129.68235969543457,-4.564275732812263],[129.68381881713867,-4.5637623816725466],[129.68605041503906,-4.562564560918872],[129.6874237060547,-4.561024502727889],[129.68948364257812,-4.557858817188233],[129.69231605529785,-4.555719832578191],[129.69351768493652,-4.554436438757861],[129.69480514526367,-4.5517840842732795],[129.69463348388672,-4.549987322455451],[129.69403266906738,-4.549217280303637],[129.69377517700195,-4.548618358060708],[129.69411849975586,-4.5427146693103],[129.69351768493652,-4.541345691100503],[129.69231605529785,-4.54117456864158],[129.6921443939209,-4.541516813518811],[129.6914577484131,-4.541516813518811],[129.6903419494629,-4.543228035468999],[129.68982696533203,-4.543142474467942],[129.68793869018555,-4.545623739376296]]]}},{"type":"Feature","id":"pmtiles:10/881/524:mountain_peak:10701786431:0","properties":{"name_int":"Gandulang","name_de":"Gandulang","name":"Gandulang","rank":1,"class":"peak","name:latin":"Gandulang","name_en":"Gandulang","kind":"poi","verification":"verified","source":"OpenMapTiles/OpenStreetMap national PMTiles","sourceId":"10/881/524:mountain_peak:10701786431:0","sourceLayer":"mountain_peak","archive":"https://its.hanifahseptiani45.workers.dev/v1/map/archive/indonesia.pmtiles","updatedAt":"2026-07-26T09:44:05.712Z"},"geometry":{"type":"Point","coordinates":[129.67832565307617,-4.561281179322407]}},{"type":"Feature","id":"pmtiles:10/880/525:landcover:206820263:0","properties":{"subclass":"wood","class":"wood","kind":"green","verification":"verified","source":"OpenMapTiles/OpenStreetMap national PMTiles","sourceId":"10/880/525:landcover:206820263:0","sourceLayer":"landcover","archive":"https://its.hanifahseptiani45.workers.dev/v1/map/archive/indonesia.pmtiles","updatedAt":"2026-07-26T09:44:14.732Z"},"geometry":{"type":"Polygon","coordinates":[[[129.6877670288086,-4.559997795432579],[129.6859645843506,-4.562393443505201],[129.68356132507324,-4.563847940221336],[129.6712875366211,-4.565644667389634],[129.6669101715088,-4.561537855825179],[129.6669101715088,-4.560938943842672],[129.66811180114746,-4.560682267125841],[129.66888427734375,-4.559997795432579],[129.6877670288086,-4.559997795432579]]]}},{"type":"Feature","id":"pmtiles:10/880/525:mountain_peak:10701786431:0","properties":{"name_int":"Gandulang","name_de":"Gandulang","name":"Gandulang","rank":1,"class":"peak","name:latin":"Gandulang","name_en":"Gandulang","kind":"poi","verification":"verified","source":"OpenMapTiles/OpenStreetMap national PMTiles","sourceId":"10/880/525:mountain_peak:10701786431:0","sourceLayer":"mountain_peak","archive":"https://its.hanifahseptiani45.workers.dev/v1/map/archive/indonesia.pmtiles","updatedAt":"2026-07-26T09:44:14.732Z"},"geometry":{"type":"Point","coordinates":[129.67832565307617,-4.561281179322407]}},{"type":"Feature","id":"pmtiles:10/881/525:mountain_peak:10701786431:0","properties":{"name_int":"Gandulang","name_de":"Gandulang","name":"Gandulang","rank":1,"class":"peak","name:latin":"Gandulang","name_en":"Gandulang","kind":"poi","verification":"verified","source":"OpenMapTiles/OpenStreetMap national PMTiles","sourceId":"10/881/525:mountain_peak:10701786431:0","sourceLayer":"mountain_peak","archive":"https://its.hanifahseptiani45.workers.dev/v1/map/archive/indonesia.pmtiles","updatedAt":"2026-07-26T09:44:14.817Z"},"geometry":{"type":"Point","coordinates":[129.67832565307617,-4.561281179322407]}},{"type":"Feature","id":"pmtiles:8/219/130:mountain_peak:10701786431:0","properties":{"name_int":"Gandulang","name_de":"Gandulang","name":"Gandulang","rank":1,"class":"peak","name:latin":"Gandulang","name_en":"Gandulang","kind":"poi","verification":"verified","source":"OpenMapTiles/OpenStreetMap national PMTiles","sourceId":"8/219/130:mountain_peak:10701786431:0","sourceLayer":"mountain_peak","archive":"https://its.hanifahseptiani45.workers.dev/v1/map/archive/indonesia.pmtiles","updatedAt":"2026-07-26T09:35:38.734Z"},"geometry":{"type":"Point","coordinates":[129.67815399169922,-4.561366738166868]}},{"type":"Feature","id":"pmtiles:8/220/130:mountain_peak:10701786431:0","properties":{"name_int":"Gandulang","name_de":"Gandulang","name":"Gandulang","rank":1,"class":"peak","name:latin":"Gandulang","name_en":"Gandulang","kind":"poi","verification":"verified","source":"OpenMapTiles/OpenStreetMap national PMTiles","sourceId":"8/220/130:mountain_peak:10701786431:0","sourceLayer":"mountain_peak","archive":"https://its.hanifahseptiani45.workers.dev/v1/map/archive/indonesia.pmtiles","updatedAt":"2026-07-26T09:35:38.795Z"},"geometry":{"type":"Point","coordinates":[129.67815399169922,-4.561366738166868]}},{"type":"Feature","id":"pmtiles:8/219/131:mountain_peak:10701786431:0","properties":{"name_int":"Gandulang","name_de":"Gandulang","name":"Gandulang","rank":1,"class":"peak","name:latin":"Gandulang","name_en":"Gandulang","kind":"poi","verification":"verified","source":"OpenMapTiles/OpenStreetMap national PMTiles","sourceId":"8/219/131:mountain_peak:10701786431:0","sourceLayer":"mountain_peak","archive":"https://its.hanifahseptiani45.workers.dev/v1/map/archive/indonesia.pmtiles","updatedAt":"2026-07-26T09:35:41.167Z"},"geometry":{"type":"Point","coordinates":[129.67815399169922,-4.561366738166868]}},{"type":"Feature","id":"pmtiles:8/220/131:landcover:85165330:0","properties":{"subclass":"wood","class":"wood","kind":"green","verification":"verified","source":"OpenMapTiles/OpenStreetMap national PMTiles","sourceId":"8/220/131:landcover:85165330:0","sourceLayer":"landcover","archive":"https://its.hanifahseptiani45.workers.dev/v1/map/archive/indonesia.pmtiles","updatedAt":"2026-07-26T09:35:41.233Z"},"geometry":{"type":"Polygon","coordinates":[[[129.6939468383789,-4.549046159713612],[129.693603515625,-4.55452199841713],[129.68364715576172,-4.5637623816725466],[129.6712875366211,-4.56547355071028],[129.6668243408203,-4.561708973442734],[129.67540740966797,-4.555548713534478],[129.68021392822266,-4.555548713534478],[129.6829605102539,-4.552468563785965],[129.68124389648438,-4.549730641829669],[129.69223022460938,-4.54117456864158],[129.6939468383789,-4.542543547176166],[129.6939468383789,-4.549046159713612]]]}},{"type":"Feature","id":"pmtiles:8/220/131:mountain_peak:10701786431:0","properties":{"name_int":"Gandulang","name_de":"Gandulang","name":"Gandulang","rank":1,"class":"peak","name:latin":"Gandulang","name_en":"Gandulang","kind":"poi","verification":"verified","source":"OpenMapTiles/OpenStreetMap national PMTiles","sourceId":"8/220/131:mountain_peak:10701786431:0","sourceLayer":"mountain_peak","archive":"https://its.hanifahseptiani45.workers.dev/v1/map/archive/indonesia.pmtiles","updatedAt":"2026-07-26T09:35:41.233Z"},"geometry":{"type":"Point","coordinates":[129.67815399169922,-4.561366738166868]}},{"type":"Feature","id":"pmtiles:8/220/131:transportation:5166631430:0","properties":{"class":"ferry","highway":"ferry","kind":"road","verification":"verified","source":"OpenMapTiles/OpenStreetMap national PMTiles","sourceId":"8/220/131:transportation:5166631430:0","sourceLayer":"transportation","archive":"https://its.hanifahseptiani45.workers.dev/v1/map/archive/indonesia.pmtiles","updatedAt":"2026-07-26T09:35:41.233Z"},"geometry":{"type":"LineString","coordinates":[[129.36092376708984,-4.193029605360749],[129.8858642578125,-4.493600956270157],[129.88998413085938,-4.499761743620525],[129.89032745361328,-4.5038689062293855],[129.89444732666016,-4.512425420488881],[129.89582061767578,-4.523377611562765],[129.8968505859375,-4.5247466238098895],[129.89479064941406,-4.512083161853454],[129.8906707763672,-4.5038689062293855],[129.89032745361328,-4.499761743620525],[129.88689422607422,-4.492916421127376],[129.87316131591797,-4.477514210701187],[129.85942840576172,-4.466903610394127],[129.79385375976562,-4.42959415422078],[129.66373443603516,-4.3690050713792346],[129.35302734375,-4.258083607439033]]}}]}