{"type":"FeatureCollection","features":[{"type":"Feature","id":"pmtiles:10/821/502:transportation:13892236020:0","properties":{"class":"ferry","highway":"ferry","kind":"road","verification":"verified","source":"OpenMapTiles/OpenStreetMap national PMTiles","sourceId":"10/821/502:transportation:13892236020:0","sourceLayer":"transportation","archive":"https://its.hanifahseptiani45.workers.dev/v1/map/archive/indonesia.pmtiles","updatedAt":"2026-07-26T09:39:37.017Z"},"geometry":{"type":"LineString","coordinates":[[108.65650177001953,3.5189038690258627],[108.86052131652832,3.156970717063345]]}},{"type":"Feature","id":"pmtiles:10/821/502:transportation:13892236020:1","properties":{"class":"ferry","highway":"ferry","kind":"road","verification":"verified","source":"OpenMapTiles/OpenStreetMap national PMTiles","sourceId":"10/821/502:transportation:13892236020:1","sourceLayer":"transportation","archive":"https://its.hanifahseptiani45.workers.dev/v1/map/archive/indonesia.pmtiles","updatedAt":"2026-07-26T09:39:37.017Z"},"geometry":{"type":"LineString","coordinates":[[108.6273193359375,3.261091466489546],[108.77486228942871,3.1642552282421263],[108.78653526306152,3.156970717063345]]}},{"type":"Feature","id":"pmtiles:10/821/502:transportation:13892236020:2","properties":{"class":"ferry","highway":"ferry","kind":"road","verification":"verified","source":"OpenMapTiles/OpenStreetMap national PMTiles","sourceId":"10/821/502:transportation:13892236020:2","sourceLayer":"transportation","archive":"https://its.hanifahseptiani45.workers.dev/v1/map/archive/indonesia.pmtiles","updatedAt":"2026-07-26T09:39:37.017Z"},"geometry":{"type":"LineString","coordinates":[[108.85588645935059,3.156970717063345],[108.75675201416016,3.336582999279358],[108.65427017211914,3.5189038690258627]]}},{"type":"Feature","id":"pmtiles:10/821/502:water:2350:0","properties":{"class":"ocean","water":"ocean","kind":"waterway","verification":"verified","source":"OpenMapTiles/OpenStreetMap national PMTiles","sourceId":"10/821/502:water:2350:0","sourceLayer":"water","archive":"https://its.hanifahseptiani45.workers.dev/v1/map/archive/indonesia.pmtiles","updatedAt":"2026-07-26T09:39:37.017Z"},"geometry":{"type":"Polygon","coordinates":[[[108.6273193359375,3.5189038690258627],[108.9898681640625,3.5189038690258627],[108.9898681640625,3.156970717063345],[108.6273193359375,3.156970717063345],[108.6273193359375,3.5189038690258627]]]}}]}