{"type":"FeatureCollection","features":[{"type":"Feature","id":"pmtiles:10/877/524:water:1760:0","properties":{"class":"ocean","water":"ocean","kind":"waterway","verification":"verified","source":"OpenMapTiles/OpenStreetMap national PMTiles","sourceId":"10/877/524:water:1760:0","sourceLayer":"water","archive":"https://its.hanifahseptiani45.workers.dev/v1/map/archive/indonesia.pmtiles","updatedAt":"2026-07-26T09:44:05.433Z"},"geometry":{"type":"Polygon","coordinates":[[[128.3148193359375,-4.2094648151634715],[128.6773681640625,-4.2094648151634715],[128.6773681640625,-4.570949264200536],[128.3148193359375,-4.570949264200536],[128.3148193359375,-4.2094648151634715]]]}}]}