{"type":"FeatureCollection","features":[{"type":"Feature","id":"pmtiles:10/855/521:landcover:84269013:0","properties":{"subclass":"forest","class":"wood","kind":"green","verification":"verified","source":"OpenMapTiles/OpenStreetMap national PMTiles","sourceId":"10/855/521:landcover:84269013:0","sourceLayer":"landcover","archive":"https://its.hanifahseptiani45.workers.dev/v1/map/archive/indonesia.pmtiles","updatedAt":"2026-07-26T09:43:34.716Z"},"geometry":{"type":"Polygon","coordinates":[[[120.9429931640625,-3.5001421993675024],[120.9415340423584,-3.499199822470217],[120.94179153442383,-3.4950019502350074],[120.94076156616211,-3.492517486388678],[120.93295097351074,-3.4842073354284366],[120.92874526977539,-3.4809517923562225],[120.92711448669434,-3.477953255887371],[120.92565536499023,-3.4768395113408133],[120.9206771850586,-3.4701570164534985],[120.91741561889648,-3.468186528164921],[120.91561317443848,-3.46527362491139],[120.90634346008301,-3.4648452560293492],[120.9019660949707,-3.4621893646334456],[120.89690208435059,-3.4564491868241305],[120.89638710021973,-3.45302219843515],[120.8946704864502,-3.4477103419939965],[120.89595794677734,-3.44573980705745],[120.89784622192383,-3.4445403490110778],[120.90394020080566,-3.4423984558836622],[120.90771675109863,-3.4404279099523905],[120.91209411621094,-3.4398281777731796],[120.91329574584961,-3.4366581585590836],[120.91363906860352,-3.429204288113638],[120.91484069824219,-3.4268053289374762],[120.91707229614258,-3.424663396018971],[120.92968940734863,-3.41738078827089],[120.93578338623047,-3.4091556589390137],[120.93827247619629,-3.4084702283172987],[120.9429931640625,-3.4085559071717313],[120.9429931640625,-3.5001421993675024]]]}},{"type":"Feature","id":"pmtiles:10/855/521:landuse:6688113030:0","properties":{"class":"residential","kind":"green","verification":"verified","source":"OpenMapTiles/OpenStreetMap national PMTiles","sourceId":"10/855/521:landuse:6688113030:0","sourceLayer":"landuse","archive":"https://its.hanifahseptiani45.workers.dev/v1/map/archive/indonesia.pmtiles","updatedAt":"2026-07-26T09:43:34.716Z"},"geometry":{"type":"Polygon","coordinates":[[[120.8822250366211,-3.499199822470217],[120.88205337524414,-3.4984287861220054],[120.88411331176758,-3.497400736671011],[120.88471412658691,-3.497143724132087],[120.88574409484863,-3.496629698842895],[120.88608741760254,-3.4964583570172323],[120.88643074035645,-3.4970580532701376],[120.88685989379883,-3.49774341994663],[120.88625907897949,-3.4976577491394636],[120.88617324829102,-3.4978290907459524],[120.88531494140625,-3.497572078324467],[120.88522911071777,-3.498171773864982],[120.88479995727539,-3.49774341994663],[120.88600158691406,-3.501255916296529],[120.88582992553711,-3.5010845753167246],[120.8851432800293,-3.5003992110840443],[120.88428497314453,-3.500570552189245],[120.88454246520996,-3.4993711637947627],[120.88394165039062,-3.4984287861220054],[120.88231086730957,-3.4986001275875367],[120.8822250366211,-3.499199822470217]]]}},{"type":"Feature","id":"pmtiles:10/855/521:landuse:6688113030:1","properties":{"class":"residential","kind":"green","verification":"verified","source":"OpenMapTiles/OpenStreetMap national PMTiles","sourceId":"10/855/521:landuse:6688113030:1","sourceLayer":"landuse","archive":"https://its.hanifahseptiani45.workers.dev/v1/map/archive/indonesia.pmtiles","updatedAt":"2026-07-26T09:43:34.716Z"},"geometry":{"type":"Polygon","coordinates":[[[120.88582992553711,-3.5010845753167246],[120.88677406311035,-3.5045970591346673],[120.88488578796387,-3.506139121036128],[120.88445663452148,-3.505539430598759],[120.88385581970215,-3.5059677809504137],[120.88411331176758,-3.5045970591346673],[120.88488578796387,-3.504083037935942],[120.88582992553711,-3.5043400485705973],[120.8851432800293,-3.5033120056084073],[120.88582992553711,-3.5027979837038146],[120.88540077209473,-3.501512927707452],[120.88582992553711,-3.5010845753167246]]]}},{"type":"Feature","id":"pmtiles:10/855/521:landuse:6688113030:2","properties":{"class":"residential","kind":"green","verification":"verified","source":"OpenMapTiles/OpenStreetMap national PMTiles","sourceId":"10/855/521:landuse:6688113030:2","sourceLayer":"landuse","archive":"https://its.hanifahseptiani45.workers.dev/v1/map/archive/indonesia.pmtiles","updatedAt":"2026-07-26T09:43:34.716Z"},"geometry":{"type":"Polygon","coordinates":[[[120.92986106872559,-3.493459870001189],[120.92917442321777,-3.494059568171039],[120.92900276184082,-3.493631212374538],[120.93020439147949,-3.4923461438120427],[120.93071937561035,-3.4926888289340496],[120.93097686767578,-3.492517486388678],[120.93149185180664,-3.4932885275965475],[120.9308910369873,-3.493802554716595],[120.92986106872559,-3.493459870001189]]]}},{"type":"Feature","id":"pmtiles:10/855/521:landuse:6688113030:3","properties":{"class":"residential","kind":"green","verification":"verified","source":"OpenMapTiles/OpenStreetMap national PMTiles","sourceId":"10/855/521:landuse:6688113030:3","sourceLayer":"landuse","archive":"https://its.hanifahseptiani45.workers.dev/v1/map/archive/indonesia.pmtiles","updatedAt":"2026-07-26T09:43:34.716Z"},"geometry":{"type":"Polygon","coordinates":[[[120.90720176696777,-3.3951042336998682],[120.90651512145996,-3.394761513453716],[120.90909004211426,-3.395618313841055],[120.90994834899902,-3.394161752730355],[120.90977668762207,-3.3953612738046672],[120.90994834899902,-3.39544695382439],[120.91029167175293,-3.394333112975019],[120.9103775024414,-3.39501855364972],[120.91166496276855,-3.3953612738046672],[120.91183662414551,-3.3952755937773276],[120.91200828552246,-3.396046713749641],[120.91252326965332,-3.3965607933890567],[120.91072082519531,-3.3963037536035756],[120.91106414794922,-3.39664647330234],[120.91012001037598,-3.39664647330234],[120.9100341796875,-3.39664647330234],[120.90900421142578,-3.396046713749641],[120.90754508972168,-3.3963894335396674],[120.90788841247559,-3.395789673827295],[120.90720176696777,-3.3951042336998682]]]}},{"type":"Feature","id":"pmtiles:10/855/521:landuse:6688113030:4","properties":{"class":"residential","kind":"green","verification":"verified","source":"OpenMapTiles/OpenStreetMap national PMTiles","sourceId":"10/855/521:landuse:6688113030:4","sourceLayer":"landuse","archive":"https://its.hanifahseptiani45.workers.dev/v1/map/archive/indonesia.pmtiles","updatedAt":"2026-07-26T09:43:34.716Z"},"geometry":{"type":"Polygon","coordinates":[[[120.91183662414551,-3.390477500120369],[120.91226577758789,-3.390905902308063],[120.91226577758789,-3.390991582722819],[120.91252326965332,-3.391334304305971],[120.91303825378418,-3.3921911077322875],[120.91320991516113,-3.3921054274238287],[120.91278076171875,-3.3912486239215838],[120.91381072998047,-3.392876549926541],[120.91466903686523,-3.393219270841371],[120.91389656066895,-3.3934763114477136],[120.91415405273438,-3.3939047123063517],[120.9129524230957,-3.3933049510510784],[120.91329574584961,-3.392619509160653],[120.91278076171875,-3.3930479103991473],[120.91192245483398,-3.39253382889018],[120.91243743896484,-3.391934066784117],[120.91192245483398,-3.3916770257676205],[120.91200828552246,-3.39141998468277],[120.91183662414551,-3.390477500120369]]]}},{"type":"Feature","id":"pmtiles:10/855/521:landuse:6688113030:5","properties":{"class":"residential","kind":"green","verification":"verified","source":"OpenMapTiles/OpenStreetMap national PMTiles","sourceId":"10/855/521:landuse:6688113030:5","sourceLayer":"landuse","archive":"https://its.hanifahseptiani45.workers.dev/v1/map/archive/indonesia.pmtiles","updatedAt":"2026-07-26T09:43:34.716Z"},"geometry":{"type":"Polygon","coordinates":[[[120.89655876159668,-3.3851652972344937],[120.89664459228516,-3.3851652972344937],[120.8987045288086,-3.3829375905771712],[120.89853286743164,-3.3831946339143713],[120.8987045288086,-3.3840514445460457],[120.89767456054688,-3.3855937017736437],[120.90145111083984,-3.387221637293976],[120.90205192565918,-3.3870502757891643],[120.90239524841309,-3.3875643602126218],[120.90273857116699,-3.386536191092702],[120.9030818939209,-3.3867932334750463],[120.90273857116699,-3.387392998768462],[120.90368270874023,-3.3878214023219613],[120.90394020080566,-3.3873073180350133],[120.904541015625,-3.387478679494336],[120.90462684631348,-3.3873073180350133],[120.90531349182129,-3.386193467810088],[120.9056568145752,-3.386364829466558],[120.9048843383789,-3.3877357216264414],[120.90402603149414,-3.389192292418784],[120.89776039123535,-3.386022106123292],[120.89750289916992,-3.386536191092702],[120.89673042297363,-3.3861077869704843],[120.89655876159668,-3.3851652972344937]]]}},{"type":"Feature","id":"pmtiles:10/855/521:landuse:6688113030:6","properties":{"class":"residential","kind":"green","verification":"verified","source":"OpenMapTiles/OpenStreetMap national PMTiles","sourceId":"10/855/521:landuse:6688113030:6","sourceLayer":"landuse","archive":"https://its.hanifahseptiani45.workers.dev/v1/map/archive/indonesia.pmtiles","updatedAt":"2026-07-26T09:43:34.716Z"},"geometry":{"type":"Polygon","coordinates":[[[120.90333938598633,-3.379510339569407],[120.9030818939209,-3.3801101093700225],[120.90394020080566,-3.3814810103788773],[120.90394020080566,-3.381566691627569],[120.90471267700195,-3.3824235036982486],[120.90479850769043,-3.3824235036982486],[120.90479850769043,-3.3825091848636646],[120.90617179870605,-3.384137125567534],[120.90660095214844,-3.384137125567534],[120.90642929077148,-3.384308487587802],[120.90634346008301,-3.384308487587802],[120.90608596801758,-3.3846512115374168],[120.90522766113281,-3.386022106123292],[120.90591430664062,-3.384308487587802],[120.90248107910156,-3.380367153456774],[120.90333938598633,-3.379510339569407]]]}},{"type":"Feature","id":"pmtiles:10/855/521:mountain_peak:10701958841:0","properties":{"name_int":"Osu Bolosi","name_de":"Osu Bolosi","name":"Osu Bolosi","rank":3,"class":"peak","name:latin":"Osu Bolosi","name_en":"Osu Bolosi","kind":"poi","verification":"verified","source":"OpenMapTiles/OpenStreetMap national PMTiles","sourceId":"10/855/521:mountain_peak:10701958841:0","sourceLayer":"mountain_peak","archive":"https://its.hanifahseptiani45.workers.dev/v1/map/archive/indonesia.pmtiles","updatedAt":"2026-07-26T09:43:34.716Z"},"geometry":{"type":"Point","coordinates":[120.8987045288086,-3.4846356955207654]}},{"type":"Feature","id":"pmtiles:10/855/521:park:84269013:0","properties":{"name":"HL","name_int":"HL","class":"nature_reserve","name:latin":"HL","name_de":"HL","name_en":"HL","kind":"green","verification":"verified","source":"OpenMapTiles/OpenStreetMap national PMTiles","sourceId":"10/855/521:park:84269013:0","sourceLayer":"park","archive":"https://its.hanifahseptiani45.workers.dev/v1/map/archive/indonesia.pmtiles","updatedAt":"2026-07-26T09:43:34.716Z"},"geometry":{"type":"Polygon","coordinates":[[[120.9429931640625,-3.5003992110840443],[120.9426498413086,-3.5002278699475085],[120.9415340423584,-3.499199822470217],[120.94179153442383,-3.4950019502350074],[120.9415340423584,-3.493802554716595],[120.94076156616211,-3.492517486388678],[120.93792915344238,-3.4899473444562545],[120.9349250793457,-3.486863164856672],[120.93295097351074,-3.4842073354284366],[120.92874526977539,-3.4809517923562225],[120.92711448669434,-3.477953255887371],[120.92565536499023,-3.4768395113408133],[120.9206771850586,-3.4701570164534985],[120.91741561889648,-3.468186528164921],[120.91638565063477,-3.4663017094370048],[120.91561317443848,-3.46527362491139],[120.91312408447266,-3.4651879511504973],[120.91175079345703,-3.464759582229661],[120.90917587280273,-3.4651879511504973],[120.90634346008301,-3.4648452560293492],[120.9048843383789,-3.464159865414743],[120.9019660949707,-3.4621893646334456],[120.9001636505127,-3.4598761628326713],[120.89836120605469,-3.458162676376716],[120.89690208435059,-3.4564491868241305],[120.89664459228516,-3.455678115515596],[120.89638710021973,-3.45302219843515],[120.89475631713867,-3.4484814197708857],[120.8946704864502,-3.4477103419939965],[120.89492797851562,-3.4470249390007837],[120.89595794677734,-3.44573980705745],[120.89784622192383,-3.4445403490110778],[120.90394020080566,-3.4423984558836622],[120.90771675109863,-3.4404279099523905],[120.91046333312988,-3.440256557939705],[120.91209411621094,-3.4398281777731796],[120.91278076171875,-3.438800064588108],[120.91329574584961,-3.4366581585590836],[120.91329574584961,-3.4324600087962978],[120.91363906860352,-3.429204288113638],[120.91484069824219,-3.4268053289374762],[120.91707229614258,-3.424663396018971],[120.91870307922363,-3.423720944016594],[120.9199047088623,-3.4232925564361807],[120.92256546020508,-3.4213219710988625],[120.92968940734863,-3.41738078827089],[120.93217849731445,-3.4139536596083957],[120.93423843383789,-3.411640340847299],[120.93518257141113,-3.4096697315847706],[120.93578338623047,-3.4091556589390137],[120.9371566772461,-3.4085559071717313],[120.93827247619629,-3.4084702283172987],[120.94196319580078,-3.4087272648576885],[120.9429931640625,-3.4087272648576885],[120.9429931640625,-3.5003992110840443]]]}},{"type":"Feature","id":"pmtiles:10/855/521:transportation:9109118712:0","properties":{"class":"ferry","highway":"ferry","kind":"road","verification":"verified","source":"OpenMapTiles/OpenStreetMap national PMTiles","sourceId":"10/855/521:transportation:9109118712:0","sourceLayer":"transportation","archive":"https://its.hanifahseptiani45.workers.dev/v1/map/archive/indonesia.pmtiles","updatedAt":"2026-07-26T09:43:34.716Z"},"geometry":{"type":"LineString","coordinates":[[120.6961441040039,-3.5189038690258485],[120.70034980773926,-3.516248130474281],[120.74738502502441,-3.489176300505221],[120.76807022094727,-3.4768395113408133],[120.79339027404785,-3.4612469497668172],[120.82634925842285,-3.439742501716779],[120.84651947021484,-3.426205588203487],[120.86119651794434,-3.4196084153379616],[120.8719253540039,-3.4139536596083957],[120.87836265563965,-3.40941269529624],[120.88162422180176,-3.4088986225131066],[120.88531494140625,-3.4102694826574833],[120.88668823242188,-3.4113833050856215],[120.88737487792969,-3.412325769209019],[120.88737487792969,-3.4138679812351143]]}},{"type":"Feature","id":"pmtiles:10/855/521:transportation:7695258962:0","properties":{"class":"trunk","ramp":1,"highway":"trunk","kind":"road","verification":"verified","source":"OpenMapTiles/OpenStreetMap national PMTiles","sourceId":"10/855/521:transportation:7695258962:0","sourceLayer":"transportation","archive":"https://its.hanifahseptiani45.workers.dev/v1/map/archive/indonesia.pmtiles","updatedAt":"2026-07-26T09:43:34.716Z"},"geometry":{"type":"LineString","coordinates":[[120.87072372436523,-3.477781910658166],[120.87080955505371,-3.477781910658166]]}},{"type":"Feature","id":"pmtiles:10/855/521:transportation:5095178230:0","properties":{"class":"trunk","highway":"trunk","kind":"road","verification":"verified","source":"OpenMapTiles/OpenStreetMap national PMTiles","sourceId":"10/855/521:transportation:5095178230:0","sourceLayer":"transportation","archive":"https://its.hanifahseptiani45.workers.dev/v1/map/archive/indonesia.pmtiles","updatedAt":"2026-07-26T09:43:34.716Z"},"geometry":{"type":"LineString","coordinates":[[120.86565971374512,-3.4425698075111484],[120.86806297302246,-3.454564344741499],[120.8686637878418,-3.458676722638714],[120.87098121643066,-3.4794953615488],[120.87441444396973,-3.4976577491394636],[120.87501525878906,-3.4984287861220054],[120.87475776672363,-3.4995425050879874],[120.8770751953125,-3.5117933262438044],[120.87904930114746,-3.5125643515747953]]}},{"type":"Feature","id":"pmtiles:10/855/521:transportation:5095178230:1","properties":{"class":"trunk","highway":"trunk","kind":"road","verification":"verified","source":"OpenMapTiles/OpenStreetMap national PMTiles","sourceId":"10/855/521:transportation:5095178230:1","sourceLayer":"transportation","archive":"https://its.hanifahseptiani45.workers.dev/v1/map/archive/indonesia.pmtiles","updatedAt":"2026-07-26T09:43:34.716Z"},"geometry":{"type":"LineString","coordinates":[[120.86634635925293,-3.431517564476181],[120.86660385131836,-3.432802715591265],[120.86626052856445,-3.4334024521865985],[120.8664321899414,-3.434087864977201],[120.8675479888916,-3.434087864977201],[120.8690071105957,-3.4352873361767706],[120.8686637878418,-3.43614410039649],[120.8672046661377,-3.4369151875365134],[120.8675479888916,-3.437343569011688],[120.86711883544922,-3.4376862740533056],[120.8672046661377,-3.4380289789718006],[120.8675479888916,-3.438200331384863],[120.86814880371094,-3.4376862740533056],[120.86857795715332,-3.4380289789718006],[120.86883544921875,-3.437943302753723],[120.86909294128418,-3.4386287122828207],[120.86952209472656,-3.438800064588108],[120.86935043334961,-3.439399797414154],[120.86960792541504,-3.44008520589621],[120.87003707885742,-3.440256557939705],[120.87098121643066,-3.4399995298629022],[120.87141036987305,-3.4404279099523905],[120.8712387084961,-3.440941965805621],[120.8719253540039,-3.4415416972838955],[120.87106704711914,-3.4436835923382887],[120.87244033813477,-3.444197646434489],[120.87347030639648,-3.4439406194210846],[120.87407112121582,-3.444197646434489],[120.87432861328125,-3.4447117002531087],[120.87432861328125,-3.44573980705745],[120.87338447570801,-3.4462538600431003],[120.8730411529541,-3.446939263591915],[120.87347030639648,-3.4479673679890936],[120.87424278259277,-3.4487384455575807],[120.87329864501953,-3.449680872847537],[120.87458610534668,-3.450708974279948],[120.87510108947754,-3.450880324410548],[120.87570190429688,-3.450708974279948],[120.8759593963623,-3.4510516745102393],[120.87578773498535,-3.451822749576408],[120.8759593963623,-3.452936523566919],[120.87501525878906,-3.453193548148448],[120.87458610534668,-3.4531078732956786],[120.87424278259277,-3.4526794989158134],[120.87407112121582,-3.4528508486909573],[120.8741569519043,-3.4536219222964206],[120.87501525878906,-3.4546500194628322],[120.87484359741211,-3.4561064885421473],[120.87604522705078,-3.4573916064611723],[120.87630271911621,-3.458077001972626],[120.87630271911621,-3.458933745665206],[120.87510108947754,-3.458505373915685],[120.87467193603516,-3.4598761628326713],[120.87355613708496,-3.4594477915090778],[120.87295532226562,-3.4602188597521177],[120.8719253540039,-3.459533465789278],[120.87175369262695,-3.459619140061733],[120.87183952331543,-3.460904253219212],[120.87209701538086,-3.4615039720961676],[120.8726978302002,-3.461760994355785],[120.87278366088867,-3.4624463867070574],[120.87389945983887,-3.4627890826966876],[120.87424278259277,-3.4634744743038084],[120.87398529052734,-3.4651022773818454],[120.87475776672363,-3.4651879511504973],[120.87604522705078,-3.466558730393828],[120.87621688842773,-3.4683578751356947],[120.87518692016602,-3.4701570164534985],[120.87501525878906,-3.472298846888748],[120.87544441223145,-3.472984231602126],[120.87510108947754,-3.473412596795299],[120.87432861328125,-3.4736696158179257],[120.87398529052734,-3.474954709881075],[120.87467193603516,-3.475897111081693],[120.87553024291992,-3.4764968204464424],[120.87587356567383,-3.4785529639444093],[120.87647438049316,-3.4800093962085157],[120.87604522705078,-3.4805234305877804],[120.87613105773926,-3.4816371707805587],[120.87587356567383,-3.482836581822795],[120.87510108947754,-3.4835219588751585],[120.87458610534668,-3.4847213675158315],[120.87518692016602,-3.487291523739529],[120.88085174560547,-3.49320285638251]]}},{"type":"Feature","id":"pmtiles:10/855/521:transportation:5095178230:2","properties":{"class":"trunk","highway":"trunk","kind":"road","verification":"verified","source":"OpenMapTiles/OpenStreetMap national PMTiles","sourceId":"10/855/521:transportation:5095178230:2","sourceLayer":"transportation","archive":"https://its.hanifahseptiani45.workers.dev/v1/map/archive/indonesia.pmtiles","updatedAt":"2026-07-26T09:43:34.716Z"},"geometry":{"type":"LineString","coordinates":[[120.88231086730957,-3.4946592659576226],[120.8836841583252,-3.4964583570172323],[120.88582992553711,-3.5009132343055853],[120.88625907897949,-3.5030549946913965],[120.8869457244873,-3.5045113889544837],[120.88814735412598,-3.5070814909463763],[120.88874816894531,-3.5102512736717415],[120.89303970336914,-3.5098229252832027],[120.89724540710449,-3.510679621863858],[120.9001636505127,-3.5117076567232886],[120.90462684631348,-3.5158197848380865],[120.90668678283691,-3.5184755246100394],[120.9074592590332,-3.5189038690258485]]}},{"type":"Feature","id":"pmtiles:10/855/521:transportation:5095178230:3","properties":{"class":"trunk","highway":"trunk","kind":"road","verification":"verified","source":"OpenMapTiles/OpenStreetMap national PMTiles","sourceId":"10/855/521:transportation:5095178230:3","sourceLayer":"transportation","archive":"https://its.hanifahseptiani45.workers.dev/v1/map/archive/indonesia.pmtiles","updatedAt":"2026-07-26T09:43:34.716Z"},"geometry":{"type":"LineString","coordinates":[[120.88196754455566,-3.494916279177403],[120.8811092376709,-3.494830608111968],[120.88059425354004,-3.4942309104348936],[120.88068008422852,-3.493459870001189],[120.88128089904785,-3.492945842693473],[120.88205337524414,-3.4930315139309727],[120.882568359375,-3.493631212374538],[120.88248252868652,-3.4943165815550827],[120.88196754455566,-3.494916279177403]]}},{"type":"Feature","id":"pmtiles:10/855/521:transportation:5095178230:4","properties":{"class":"trunk","highway":"trunk","kind":"road","verification":"verified","source":"OpenMapTiles/OpenStreetMap national PMTiles","sourceId":"10/855/521:transportation:5095178230:4","sourceLayer":"transportation","archive":"https://its.hanifahseptiani45.workers.dev/v1/map/archive/indonesia.pmtiles","updatedAt":"2026-07-26T09:43:34.717Z"},"geometry":{"type":"LineString","coordinates":[[120.9429931640625,-3.3550908264451067],[120.94093322753906,-3.358261113584888],[120.93664169311523,-3.3622882202430304],[120.93621253967285,-3.3624595861150652],[120.93544006347656,-3.362202537295701],[120.93509674072266,-3.3623739031827995],[120.93449592590332,-3.3631450493020907],[120.93415260314941,-3.3642589259531093],[120.93149185180664,-3.3672578183006436],[120.9290885925293,-3.3684573726542197],[120.92522621154785,-3.371627616328823],[120.92342376708984,-3.374540804107866],[120.92325210571289,-3.3758260312342543],[120.9235954284668,-3.377368301541125],[120.92308044433594,-3.377625346354108],[120.92325210571289,-3.37839648038468],[120.92256546020508,-3.37839648038468],[120.92170715332031,-3.378996250873783],[120.92179298400879,-3.380367153456774],[120.92222213745117,-3.381566691627569],[120.92170715332031,-3.383023271697141],[120.92084884643555,-3.3831089528095504],[120.92041969299316,-3.3825948660215204],[120.92007637023926,-3.382851909449613],[120.91947555541992,-3.3839657635169687],[120.91913223266602,-3.386022106123292],[120.9184455871582,-3.3866218718943912],[120.91741561889648,-3.3869645950253755],[120.91595649719238,-3.386536191092702],[120.91509819030762,-3.3873073180350133],[120.91372489929199,-3.3873073180350133],[120.91320991516113,-3.3897920562253603],[120.91080665588379,-3.3933049510510784],[120.90977668762207,-3.395532633836538],[120.90883255004883,-3.3961323937085695],[120.90668678283691,-3.3964751134681563],[120.90497016906738,-3.3963894335396674],[120.90445518493652,-3.396732153208035],[120.90428352355957,-3.397588951846558],[120.90368270874023,-3.3977603114829975],[120.90333938598633,-3.398531429470367],[120.90222358703613,-3.398274390209707],[120.90170860290527,-3.398788468662559],[120.90102195739746,-3.398959828085964],[120.90093612670898,-3.400416381955779],[120.9001636505127,-3.4010161387921585],[120.89913368225098,-3.401187497819734],[120.89827537536621,-3.4023870101598845],[120.89810371398926,-3.402986765770123],[120.89741706848145,-3.403757879577583],[120.89570045471191,-3.4047860303606683],[120.89741706848145,-3.4064139335222308],[120.89827537536621,-3.40795615503049],[120.89776039123535,-3.408812943689213],[120.89621543884277,-3.4094983740667146],[120.89518547058105,-3.4106121973881898],[120.89346885681152,-3.4110405906297956],[120.89080810546875,-3.413439589253983],[120.89029312133789,-3.4146390863196103],[120.88909149169922,-3.415410190784897],[120.88883399963379,-3.416181294630846],[120.88454246520996,-3.4160956164563316],[120.88093757629395,-3.4182375685243045],[120.8785343170166,-3.419008670098094],[120.8759593963623,-3.4195227374695065],[120.87441444396973,-3.4202081602026766],[120.87329864501953,-3.421064937929998],[120.86746215820312,-3.4282618405834313],[120.86677551269531,-3.4286045488836976],[120.86634635925293,-3.431517564476181],[120.86454391479492,-3.4352873361767706],[120.86565971374512,-3.4425698075111484],[120.86857795715332,-3.4582483507730757],[120.87089538574219,-3.4794953615488],[120.87424278259277,-3.497315065832538],[120.87484359741211,-3.4984287861220054],[120.87467193603516,-3.4995425050879874],[120.87698936462402,-3.5117933262438044],[120.87716102600098,-3.512050334758243],[120.87904930114746,-3.5125643515747953],[120.87973594665527,-3.5125643515747953],[120.87922096252441,-3.5117933262438044],[120.87913513183594,-3.510593952241152],[120.8869457244873,-3.5045113889544837]]}},{"type":"Feature","id":"pmtiles:10/855/521:transportation_name:5107859240:0","properties":{"name":"Jalan Bypass Lasusua-Tobaku","name_int":"Jalan Bypass Lasusua-Tobaku","class":"trunk","name:latin":"Jalan Bypass Lasusua-Tobaku","name_de":"Jalan Bypass Lasusua-Tobaku","name_en":"Jalan Bypass Lasusua-Tobaku","highway":"trunk","kind":"road","verification":"verified","source":"OpenMapTiles/OpenStreetMap national PMTiles","sourceId":"10/855/521:transportation_name:5107859240:0","sourceLayer":"transportation_name","archive":"https://its.hanifahseptiani45.workers.dev/v1/map/archive/indonesia.pmtiles","updatedAt":"2026-07-26T09:43:34.717Z"},"geometry":{"type":"LineString","coordinates":[[120.86806297302246,-3.4546500194628322],[120.87098121643066,-3.4794953615488],[120.87441444396973,-3.4976577491394636],[120.87501525878906,-3.4984287861220054],[120.87475776672363,-3.4995425050879874],[120.8770751953125,-3.5117933262438044],[120.87904930114746,-3.5125643515747953],[120.87716102600098,-3.512050334758243],[120.87698936462402,-3.5117933262438044],[120.87467193603516,-3.4995425050879874],[120.87484359741211,-3.4984287861220054],[120.87424278259277,-3.497315065832538],[120.87089538574219,-3.4794953615488],[120.86857795715332,-3.4582483507730757],[120.86797714233398,-3.4546500194628322]]}},{"type":"Feature","id":"pmtiles:10/855/521:water:410:0","properties":{"class":"ocean","water":"ocean","kind":"waterway","verification":"verified","source":"OpenMapTiles/OpenStreetMap national PMTiles","sourceId":"10/855/521:water:410:0","sourceLayer":"water","archive":"https://its.hanifahseptiani45.workers.dev/v1/map/archive/indonesia.pmtiles","updatedAt":"2026-07-26T09:43:34.717Z"},"geometry":{"type":"Polygon","coordinates":[[[120.93707084655762,-3.156970717063345],[120.93792915344238,-3.156970717063345],[120.9429931640625,-3.156970717063345],[120.9429931640625,-3.3340981255317246],[120.94093322753906,-3.3347836085721383],[120.93818664550781,-3.3352120352297305],[120.93707084655762,-3.336668684468961],[120.93707084655762,-3.3365829992793437],[120.93552589416504,-3.3387251267778737],[120.93286514282227,-3.3409529344200593],[120.93132019042969,-3.3427523138242634],[120.93046188354492,-3.3452371656701416],[120.92926025390625,-3.3470365372127873],[120.92780113220215,-3.3484074847414576],[120.92574119567871,-3.3499497984170716],[120.92256546020508,-3.3517491613004324],[120.92084884643555,-3.3532057859726336],[120.92024803161621,-3.3539769393324974],[120.91921806335449,-3.3571472300866105],[120.91758728027344,-3.3586038467133363],[120.91604232788086,-3.363230732166585],[120.91423988342285,-3.3672578183006436],[120.91415405273438,-3.368628737441213],[120.91381072998047,-3.3693141962875046],[120.9126091003418,-3.370342383651689],[120.91106414794922,-3.372484437170016],[120.90994834899902,-3.3733412572561576],[120.90900421142578,-3.374712167822949],[120.90548515319824,-3.37753966475735],[120.90402603149414,-3.3782251173197153],[120.89861869812012,-3.3825091848636646],[120.89681625366211,-3.384565530561389],[120.89630126953125,-3.3855937017736437],[120.89509963989258,-3.3869645950253755],[120.89492797851562,-3.387392998768462],[120.89492797851562,-3.389192292418784],[120.89432716369629,-3.389963417244658],[120.89406967163086,-3.3908202218857184],[120.89518547058105,-3.392362468326411],[120.89544296264648,-3.3957039938379836],[120.89681625366211,-3.400245022791154],[120.89655876159668,-3.4023870101598845],[120.89630126953125,-3.402815407062434],[120.89595794677734,-3.402986765770123],[120.89415550231934,-3.405300105340615],[120.89158058166504,-3.407356402515404],[120.88977813720703,-3.4096697315847706],[120.88883399963379,-3.412497126223059],[120.8880615234375,-3.4139536596083957],[120.88728904724121,-3.4142106946824384],[120.88711738586426,-3.414553408007464],[120.88625907897949,-3.4151531560319484],[120.88454246520996,-3.4156672254690363],[120.8814525604248,-3.4178091784932576],[120.87810516357422,-3.418922992176064],[120.87492942810059,-3.4196940931987427],[120.87020874023438,-3.42303552379596],[120.86909294128418,-3.4244063637466695],[120.86840629577637,-3.425691524418056],[120.8672046661377,-3.427233714945899],[120.86591720581055,-3.4293756421102444],[120.8660888671875,-3.4318602716092528],[120.86557388305664,-3.4322029786193724],[120.86557388305664,-3.432802715591265],[120.86445808410645,-3.4352873361767706],[120.86523056030273,-3.4407706138853484],[120.86840629577637,-3.4578199787138715],[120.86917877197266,-3.4649309298212643],[120.86883544921875,-3.4651022773818454],[120.86917877197266,-3.4651022773818454],[120.86943626403809,-3.4667300776595766],[120.86917877197266,-3.4669014248942744],[120.86943626403809,-3.4669014248942744],[120.87072372436523,-3.4794096890782384],[120.8712387084961,-3.482065532042455],[120.8704662322998,-3.48215120427146],[120.87055206298828,-3.4824938931094778],[120.87063789367676,-3.4823225487060654],[120.8712387084961,-3.4823225487060654],[120.87132453918457,-3.4830935982759144],[120.87080955505371,-3.4831792704113553],[120.87072372436523,-3.48266523748174],[120.87055206298828,-3.4827509096561613],[120.87072372436523,-3.4832649425390088],[120.87149620056152,-3.4831792704113553],[120.87424278259277,-3.4978290907459524],[120.87355613708496,-3.4980004323211205],[120.87329864501953,-3.4986857983085713],[120.87347030639648,-3.499028481114337],[120.87424278259277,-3.4993711637947627],[120.87458610534668,-3.499885187580446],[120.87690353393555,-3.511964665261303],[120.87776184082031,-3.5123930126673883],[120.88025093078613,-3.5189038690258485],[120.5804443359375,-3.5189038690258485],[120.5804443359375,-3.156970717063345],[120.93707084655762,-3.156970717063345]]]}},{"type":"Feature","id":"pmtiles:10/855/521:water:11766199562:0","properties":{"intermittent":0,"class":"lake","id":1176619956,"water":"lake","kind":"waterway","verification":"verified","source":"OpenMapTiles/OpenStreetMap national PMTiles","sourceId":"10/855/521:water:11766199562:0","sourceLayer":"water","archive":"https://its.hanifahseptiani45.workers.dev/v1/map/archive/indonesia.pmtiles","updatedAt":"2026-07-26T09:43:34.717Z"},"geometry":{"type":"Polygon","coordinates":[[[120.87080955505371,-3.454307320531086],[120.8712387084961,-3.4574772809271934],[120.8686637878418,-3.457648629836015],[120.86814880371094,-3.454735694176435],[120.87080955505371,-3.454307320531086]]]}},{"type":"Feature","id":"pmtiles:10/855/521:water:11766199572:0","properties":{"intermittent":0,"class":"lake","id":1176619957,"water":"lake","kind":"waterway","verification":"verified","source":"OpenMapTiles/OpenStreetMap national PMTiles","sourceId":"10/855/521:water:11766199572:0","sourceLayer":"water","archive":"https://its.hanifahseptiani45.workers.dev/v1/map/archive/indonesia.pmtiles","updatedAt":"2026-07-26T09:43:34.717Z"},"geometry":{"type":"Polygon","coordinates":[[[120.87106704711914,-3.4578199787138715],[120.8704662322998,-3.4588480713307774],[120.87055206298828,-3.4602188597521177],[120.86986541748047,-3.460904253219212],[120.8701229095459,-3.461932342490101],[120.86995124816895,-3.462360712690284],[120.87055206298828,-3.463645822128086],[120.86995124816895,-3.4650166036054344],[120.87003707885742,-3.4653592986645236],[120.86977958679199,-3.4653592986645236],[120.86969375610352,-3.4657876673138475],[120.86952209472656,-3.465444972409898],[120.8686637878418,-3.4578199787138715],[120.87106704711914,-3.4578199787138715]]]}},{"type":"Feature","id":"pmtiles:10/855/521:water:11766199602:0","properties":{"intermittent":0,"class":"lake","id":1176619960,"water":"lake","kind":"waterway","verification":"verified","source":"OpenMapTiles/OpenStreetMap national PMTiles","sourceId":"10/855/521:water:11766199602:0","sourceLayer":"water","archive":"https://its.hanifahseptiani45.workers.dev/v1/map/archive/indonesia.pmtiles","updatedAt":"2026-07-26T09:43:34.717Z"},"geometry":{"type":"Polygon","coordinates":[[[120.87106704711914,-3.4791526716198717],[120.86986541748047,-3.468871915861669],[120.87098121643066,-3.46870056898409],[120.87166786193848,-3.47032836306704],[120.87158203125,-3.4707567294649095],[120.87106704711914,-3.4710137492103854],[120.87166786193848,-3.472555866214563],[120.87166786193848,-3.4731555777027125],[120.87209701538086,-3.4740979807000656],[120.87252616882324,-3.478724309033481],[120.87226867675781,-3.4790669991181744],[120.87106704711914,-3.4791526716198717]]]}},{"type":"Feature","id":"pmtiles:10/855/521:water:11766199672:0","properties":{"intermittent":0,"class":"lake","id":1176619967,"water":"lake","kind":"waterway","verification":"verified","source":"OpenMapTiles/OpenStreetMap national PMTiles","sourceId":"10/855/521:water:11766199672:0","sourceLayer":"water","archive":"https://its.hanifahseptiani45.workers.dev/v1/map/archive/indonesia.pmtiles","updatedAt":"2026-07-26T09:43:34.717Z"},"geometry":{"type":"Polygon","coordinates":[[[120.86677551269531,-3.4441119707710612],[120.86840629577637,-3.4474533159294225],[120.86806297302246,-3.4495095225006764],[120.86977958679199,-3.452165449404916],[120.87055206298828,-3.4540502962510686],[120.86814880371094,-3.454392995275626],[120.86617469787598,-3.4442833220902003],[120.86677551269531,-3.4441119707710612]]]}},{"type":"Feature","id":"pmtiles:10/856/521:mountain_peak:10701958841:0","properties":{"name_int":"Osu Bolosi","name_de":"Osu Bolosi","name":"Osu Bolosi","rank":3,"class":"peak","name:latin":"Osu Bolosi","name_en":"Osu Bolosi","kind":"poi","verification":"verified","source":"OpenMapTiles/OpenStreetMap national PMTiles","sourceId":"10/856/521:mountain_peak:10701958841:0","sourceLayer":"mountain_peak","archive":"https://its.hanifahseptiani45.workers.dev/v1/map/archive/indonesia.pmtiles","updatedAt":"2026-07-26T09:43:34.780Z"},"geometry":{"type":"Point","coordinates":[120.8987045288086,-3.4846356955207654]}},{"type":"Feature","id":"pmtiles:10/855/522:mountain_peak:10701958841:0","properties":{"name_int":"Osu Bolosi","name_de":"Osu Bolosi","name":"Osu Bolosi","rank":3,"class":"peak","name:latin":"Osu Bolosi","name_en":"Osu Bolosi","kind":"poi","verification":"verified","source":"OpenMapTiles/OpenStreetMap national PMTiles","sourceId":"10/855/522:mountain_peak:10701958841:0","sourceLayer":"mountain_peak","archive":"https://its.hanifahseptiani45.workers.dev/v1/map/archive/indonesia.pmtiles","updatedAt":"2026-07-26T09:43:43.959Z"},"geometry":{"type":"Point","coordinates":[120.8987045288086,-3.4846356955207654]}},{"type":"Feature","id":"pmtiles:10/855/522:transportation:5107859240:0","properties":{"class":"trunk","highway":"trunk","kind":"road","verification":"verified","source":"OpenMapTiles/OpenStreetMap national PMTiles","sourceId":"10/855/522:transportation:5107859240:0","sourceLayer":"transportation","archive":"https://its.hanifahseptiani45.workers.dev/v1/map/archive/indonesia.pmtiles","updatedAt":"2026-07-26T09:43:43.959Z"},"geometry":{"type":"LineString","coordinates":[[120.87638854980469,-3.507938190040491],[120.8770751953125,-3.5117933262438044],[120.87904930114746,-3.5125643515747953]]}},{"type":"Feature","id":"pmtiles:10/855/522:transportation:5107859240:1","properties":{"class":"trunk","highway":"trunk","kind":"road","verification":"verified","source":"OpenMapTiles/OpenStreetMap national PMTiles","sourceId":"10/855/522:transportation:5107859240:1","sourceLayer":"transportation","archive":"https://its.hanifahseptiani45.workers.dev/v1/map/archive/indonesia.pmtiles","updatedAt":"2026-07-26T09:43:43.959Z"},"geometry":{"type":"LineString","coordinates":[[120.882568359375,-3.507938190040491],[120.87913513183594,-3.510593952241152],[120.87922096252441,-3.5117933262438044],[120.87973594665527,-3.5125643515747953],[120.87904930114746,-3.5125643515747953],[120.87716102600098,-3.512050334758243],[120.87698936462402,-3.5117933262438044],[120.87621688842773,-3.507938190040491]]}},{"type":"Feature","id":"pmtiles:10/855/522:transportation_name:5107859240:0","properties":{"name":"Jalan Bypass Lasusua-Tobaku","name_int":"Jalan Bypass Lasusua-Tobaku","class":"trunk","name:latin":"Jalan Bypass Lasusua-Tobaku","name_de":"Jalan Bypass Lasusua-Tobaku","name_en":"Jalan Bypass Lasusua-Tobaku","highway":"trunk","kind":"road","verification":"verified","source":"OpenMapTiles/OpenStreetMap national PMTiles","sourceId":"10/855/522:transportation_name:5107859240:0","sourceLayer":"transportation_name","archive":"https://its.hanifahseptiani45.workers.dev/v1/map/archive/indonesia.pmtiles","updatedAt":"2026-07-26T09:43:43.959Z"},"geometry":{"type":"LineString","coordinates":[[120.87475776672363,-3.4995425050879874],[120.8770751953125,-3.5117933262438044],[120.87904930114746,-3.5125643515747953],[120.87716102600098,-3.512050334758243],[120.87698936462402,-3.5117933262438044],[120.87467193603516,-3.4995425050879874]]}},{"type":"Feature","id":"pmtiles:10/856/522:mountain_peak:10701958841:0","properties":{"name_int":"Osu Bolosi","name_de":"Osu Bolosi","name":"Osu Bolosi","rank":3,"class":"peak","name:latin":"Osu Bolosi","name_en":"Osu Bolosi","kind":"poi","verification":"verified","source":"OpenMapTiles/OpenStreetMap national PMTiles","sourceId":"10/856/522:mountain_peak:10701958841:0","sourceLayer":"mountain_peak","archive":"https://its.hanifahseptiani45.workers.dev/v1/map/archive/indonesia.pmtiles","updatedAt":"2026-07-26T09:43:44.036Z"},"geometry":{"type":"Point","coordinates":[120.8987045288086,-3.4846356955207654]}},{"type":"Feature","id":"pmtiles:8/213/130:landcover:83062680:4","properties":{"subclass":"forest","class":"wood","kind":"green","verification":"verified","source":"OpenMapTiles/OpenStreetMap national PMTiles","sourceId":"8/213/130:landcover:83062680:4","sourceLayer":"landcover","archive":"https://its.hanifahseptiani45.workers.dev/v1/map/archive/indonesia.pmtiles","updatedAt":"2026-07-26T09:35:38.285Z"},"geometry":{"type":"Polygon","coordinates":[[[120.95947265625,-3.5514574666895555],[120.95672607421875,-3.550429475839479],[120.95157623291016,-3.5439188405608917],[120.94779968261719,-3.5319254451683264],[120.95123291015625,-3.517190490181264],[120.95020294189453,-3.505539430598759],[120.94161987304688,-3.499028481114337],[120.94093322753906,-3.492517486388678],[120.91552734375,-3.4651022773818454],[120.90625762939453,-3.464759582229661],[120.90213775634766,-3.4620180165456276],[120.89698791503906,-3.456534861375289],[120.89458465576172,-3.4476246666468597],[120.89801788330078,-3.4445403490110778],[120.91209411621094,-3.439742501716779],[120.91484069824219,-3.426719651712773],[120.92960357666016,-3.4174664663306658],[120.93578338623047,-3.4092413377323965],[120.94642639160156,-3.4085559071717313],[120.95947265625,-3.4041005966272166],[120.95947265625,-3.5514574666895555]]]}},{"type":"Feature","id":"pmtiles:8/213/130:mountain_peak:10701958841:0","properties":{"name_int":"Osu Bolosi","name_de":"Osu Bolosi","name":"Osu Bolosi","rank":3,"class":"peak","name:latin":"Osu Bolosi","name_en":"Osu Bolosi","kind":"poi","verification":"verified","source":"OpenMapTiles/OpenStreetMap national PMTiles","sourceId":"8/213/130:mountain_peak:10701958841:0","sourceLayer":"mountain_peak","archive":"https://its.hanifahseptiani45.workers.dev/v1/map/archive/indonesia.pmtiles","updatedAt":"2026-07-26T09:35:38.317Z"},"geometry":{"type":"Point","coordinates":[120.8987045288086,-3.4846356955207654]}},{"type":"Feature","id":"pmtiles:8/213/130:park:84269013:0","properties":{"name":"HL","name_int":"HL","class":"nature_reserve","name:latin":"HL","name_de":"HL","name_en":"HL","kind":"green","verification":"verified","source":"OpenMapTiles/OpenStreetMap national PMTiles","sourceId":"8/213/130:park:84269013:0","sourceLayer":"park","archive":"https://its.hanifahseptiani45.workers.dev/v1/map/archive/indonesia.pmtiles","updatedAt":"2026-07-26T09:35:38.326Z"},"geometry":{"type":"Polygon","coordinates":[[[120.95947265625,-3.5514574666895555],[120.95672607421875,-3.550429475839479],[120.9543228149414,-3.548373490706524],[120.95157623291016,-3.5439188405608917],[120.948486328125,-3.5367228219493256],[120.94779968261719,-3.5319254451683264],[120.95123291015625,-3.517190490181264],[120.95088958740234,-3.507595510497069],[120.95020294189453,-3.505539430598759],[120.94161987304688,-3.499028481114337],[120.94161987304688,-3.494916279177403],[120.94093322753906,-3.492517486388678],[120.93303680419922,-3.4842930074624974],[120.92857360839844,-3.480866120018135],[120.9206771850586,-3.470242689764163],[120.91724395751953,-3.468186528164921],[120.91552734375,-3.4651022773818454],[120.90625762939453,-3.464759582229661],[120.90213775634766,-3.4620180165456276],[120.89698791503906,-3.456534861375289],[120.89458465576172,-3.4476246666468597],[120.89801788330078,-3.4445403490110778],[120.90763092041016,-3.4404279099523905],[120.91209411621094,-3.439742501716779],[120.91346740722656,-3.4366581585590836],[120.91381072998047,-3.429118611103817],[120.91484069824219,-3.426719651712773],[120.91690063476562,-3.424663396018971],[120.92960357666016,-3.4174664663306658],[120.93578338623047,-3.4092413377323965],[120.94642639160156,-3.4085559071717313],[120.95947265625,-3.4041005966272166],[120.95947265625,-3.5514574666895555]]]}},{"type":"Feature","id":"pmtiles:8/213/130:transportation:5856075740:15","properties":{"class":"trunk","highway":"trunk","kind":"road","verification":"verified","source":"OpenMapTiles/OpenStreetMap national PMTiles","sourceId":"8/213/130:transportation:5856075740:15","sourceLayer":"transportation","archive":"https://its.hanifahseptiani45.workers.dev/v1/map/archive/indonesia.pmtiles","updatedAt":"2026-07-26T09:35:38.348Z"},"geometry":{"type":"LineString","coordinates":[[120.8664321899414,-3.431517564476181],[120.86471557617188,-3.4352873361767706],[120.8657455444336,-3.4424841317012635],[120.86814880371094,-3.4544786700124206],[120.87089538574219,-3.4794953615488],[120.8770751953125,-3.5117076567232886],[120.87982177734375,-3.5123930126673883],[120.87913513183594,-3.510679621863858],[120.88703155517578,-3.5045113889544837]]}},{"type":"Feature","id":"pmtiles:8/213/130:transportation:5856075740:16","properties":{"class":"trunk","highway":"trunk","kind":"road","verification":"verified","source":"OpenMapTiles/OpenStreetMap national PMTiles","sourceId":"8/213/130:transportation:5856075740:16","sourceLayer":"transportation","archive":"https://its.hanifahseptiani45.workers.dev/v1/map/archive/indonesia.pmtiles","updatedAt":"2026-07-26T09:35:38.348Z"},"geometry":{"type":"LineString","coordinates":[[120.88188171386719,-3.494916279177403],[120.88050842285156,-3.4942309104348936],[120.88119506835938,-3.4928601714481573],[120.882568359375,-3.4935455411917644],[120.88188171386719,-3.494916279177403]]}},{"type":"Feature","id":"pmtiles:8/213/130:transportation:5856075740:18","properties":{"class":"trunk","highway":"trunk","kind":"road","verification":"verified","source":"OpenMapTiles/OpenStreetMap national PMTiles","sourceId":"8/213/130:transportation:5856075740:18","sourceLayer":"transportation","archive":"https://its.hanifahseptiani45.workers.dev/v1/map/archive/indonesia.pmtiles","updatedAt":"2026-07-26T09:35:38.349Z"},"geometry":{"type":"LineString","coordinates":[[120.95947265625,-3.337953961416474],[120.95775604248047,-3.3386394417676115],[120.9543228149414,-3.3430950523842284],[120.94539642333984,-3.3509780061841212],[120.94093322753906,-3.358175430283964],[120.93647003173828,-3.3622882202430304],[120.93509674072266,-3.3622882202430304],[120.9316635131836,-3.36708645327235],[120.92788696289062,-3.36948556092365],[120.92342376708984,-3.3746264859691735],[120.92308044433594,-3.37839648038468],[120.92170715332031,-3.3790819323419754],[120.92170715332031,-3.382851909449613],[120.91999053955078,-3.382851909449613],[120.91827392578125,-3.3866218718943912],[120.91381072998047,-3.3873073180350133],[120.90900421142578,-3.396218073659867],[120.9048843383789,-3.396218073659867],[120.90316772460938,-3.3986171092087005],[120.90110778808594,-3.398959828085964],[120.90076446533203,-3.400330702377275],[120.89561462402344,-3.4047860303606683],[120.89801788330078,-3.4085559071717313],[120.8935546875,-3.410954911996754],[120.88874816894531,-3.4160956164563316],[120.88462829589844,-3.4160956164563316],[120.87432861328125,-3.4202081602026766],[120.86677551269531,-3.4287759029877805],[120.8664321899414,-3.4332310989120742],[120.86917877197266,-3.4352873361767706],[120.86711883544922,-3.437000863846947],[120.86711883544922,-3.4380289789718006],[120.86883544921875,-3.4380289789718006],[120.86952209472656,-3.44008520589621],[120.87158203125,-3.4404279099523905],[120.8712387084961,-3.443854943734536],[120.87398529052734,-3.444197646434489],[120.87432861328125,-3.4459111580835327],[120.87295532226562,-3.446939263591915],[120.87432861328125,-3.4486527703030703],[120.87329864501953,-3.449680872847537],[120.87604522705078,-3.4510516745102393],[120.87604522705078,-3.4531078732956786],[120.87398529052734,-3.4527651738072507],[120.87638854980469,-3.458933745665206],[120.87501525878906,-3.458591048281079],[120.87467193603516,-3.4599618370741467],[120.87295532226562,-3.4603045339626277],[120.87158203125,-3.459619140061733],[120.8719253540039,-3.4613326238843456],[120.87432861328125,-3.4633888003800593],[120.87398529052734,-3.4651022773818454],[120.87604522705078,-3.466473056749308],[120.87638854980469,-3.468529222075418],[120.87501525878906,-3.470242689764163],[120.87535858154297,-3.472984231602126],[120.87398529052734,-3.4750403827564043],[120.87570190429688,-3.476411147703402],[120.87638854980469,-3.4798380513530986],[120.87467193603516,-3.485321071262831],[120.87535858154297,-3.4873771954926696],[120.88085174560547,-3.49320285638251]]}},{"type":"Feature","id":"pmtiles:8/214/130:mountain_peak:10701958841:0","properties":{"name_int":"Osu Bolosi","name_de":"Osu Bolosi","name":"Osu Bolosi","rank":3,"class":"peak","name:latin":"Osu Bolosi","name_en":"Osu Bolosi","kind":"poi","verification":"verified","source":"OpenMapTiles/OpenStreetMap national PMTiles","sourceId":"8/214/130:mountain_peak:10701958841:0","sourceLayer":"mountain_peak","archive":"https://its.hanifahseptiani45.workers.dev/v1/map/archive/indonesia.pmtiles","updatedAt":"2026-07-26T09:35:38.431Z"},"geometry":{"type":"Point","coordinates":[120.8987045288086,-3.4846356955207654]}}]}