{"type":"FeatureCollection","features":[{"type":"Feature","id":"pmtiles:10/878/535:landuse:1538356090:8","properties":{"class":"residential","kind":"green","verification":"verified","source":"OpenMapTiles/OpenStreetMap national PMTiles","sourceId":"10/878/535:landuse:1538356090:8","sourceLayer":"landuse","archive":"https://its.hanifahseptiani45.workers.dev/v1/map/archive/indonesia.pmtiles","updatedAt":"2026-07-26T09:45:52.326Z"},"geometry":{"type":"Polygon","coordinates":[[[129.02532577514648,-8.239692959157978],[129.0266990661621,-8.240712293933697],[129.02644157409668,-8.242326235290449],[129.02506828308105,-8.242326235290449],[129.02429580688477,-8.241137015981778],[129.02532577514648,-8.239692959157978]]]}},{"type":"Feature","id":"pmtiles:10/879/535:landuse:1538356990:0","properties":{"class":"residential","kind":"green","verification":"verified","source":"OpenMapTiles/OpenStreetMap national PMTiles","sourceId":"10/879/535:landuse:1538356990:0","sourceLayer":"landuse","archive":"https://its.hanifahseptiani45.workers.dev/v1/map/archive/indonesia.pmtiles","updatedAt":"2026-07-26T09:45:52.405Z"},"geometry":{"type":"Polygon","coordinates":[[[129.02532577514648,-8.239692959157978],[129.0266990661621,-8.240712293933697],[129.02644157409668,-8.242326235290449],[129.02506828308105,-8.242326235290449],[129.02429580688477,-8.241137015981778],[129.02532577514648,-8.239692959157978]]]}},{"type":"Feature","id":"pmtiles:10/879/535:transportation:10339236332:0","properties":{"class":"ferry","highway":"ferry","kind":"road","verification":"verified","source":"OpenMapTiles/OpenStreetMap national PMTiles","sourceId":"10/879/535:transportation:10339236332:0","sourceLayer":"transportation","archive":"https://its.hanifahseptiani45.workers.dev/v1/map/archive/indonesia.pmtiles","updatedAt":"2026-07-26T09:45:52.405Z"},"geometry":{"type":"LineString","coordinates":[[129.0179443359375,-8.381440078869545],[129.3804931640625,-8.369382106497284]]}},{"type":"Feature","id":"pmtiles:10/879/535:water:700:0","properties":{"class":"ocean","water":"ocean","kind":"waterway","verification":"verified","source":"OpenMapTiles/OpenStreetMap national PMTiles","sourceId":"10/879/535:water:700:0","sourceLayer":"water","archive":"https://its.hanifahseptiani45.workers.dev/v1/map/archive/indonesia.pmtiles","updatedAt":"2026-07-26T09:45:52.405Z"},"geometry":{"type":"Polygon","coordinates":[[[129.0179443359375,-8.406743621588078],[129.0179443359375,-8.256171882526345],[129.01811599731445,-8.256086941384496],[129.01854515075684,-8.254557997706996],[129.01880264282227,-8.253283873454208],[129.01888847351074,-8.251839860999397],[129.02137756347656,-8.248102392492171],[129.02369499206543,-8.24699813366911],[129.0267848968506,-8.247252962902067],[129.02772903442383,-8.246913190554949],[129.0296173095703,-8.244704663180755],[129.03099060058594,-8.242581067534275],[129.03133392333984,-8.240627349469364],[129.03090476989746,-8.238758566639945],[129.03176307678223,-8.236634939075557],[129.0321922302246,-8.231283347085778],[129.03244972229004,-8.230688721289184],[129.03253555297852,-8.229754307519627],[129.0333080291748,-8.227715578917739],[129.03270721435547,-8.226696210683087],[129.03270721435547,-8.224062830608176],[129.0321922302246,-8.222618711527005],[129.03047561645508,-8.220579946222927],[129.02918815612793,-8.217436829179675],[129.02807235717773,-8.21641743452038],[129.0266990661621,-8.21573783662592],[129.0260124206543,-8.216332484847229],[129.02515411376953,-8.21641743452038],[129.02257919311523,-8.216247535155873],[129.02094841003418,-8.215143187513519],[129.01837348937988,-8.214973287603456],[129.0179443359375,-8.214718437602016],[129.0179443359375,-8.053790678898523],[129.37457084655762,-8.053790678898523],[129.37542915344238,-8.053790678898523],[129.3804931640625,-8.053790678898523],[129.3804931640625,-8.406743621588078],[129.3804931640625,-8.407592705149156],[129.3804931640625,-8.412602260297831],[129.37542915344238,-8.412602260297831],[129.37457084655762,-8.412602260297831],[129.0179443359375,-8.412602260297831],[129.0179443359375,-8.407592705149156],[129.0179443359375,-8.406743621588078]]]}}]}