{"type":"FeatureCollection","features":[{"type":"Feature","id":"pmtiles:10/819/503:transportation:10402583402:0","properties":{"class":"ferry","highway":"ferry","kind":"road","verification":"verified","source":"OpenMapTiles/OpenStreetMap national PMTiles","sourceId":"10/819/503:transportation:10402583402:0","sourceLayer":"transportation","archive":"https://its.hanifahseptiani45.workers.dev/v1/map/archive/indonesia.pmtiles","updatedAt":"2026-07-26T09:39:44.800Z"},"geometry":{"type":"LineString","coordinates":[[108.0809211730957,2.8058846278244687],[107.9241943359375,2.8715502542411286]]}},{"type":"Feature","id":"pmtiles:10/819/503:water:790:0","properties":{"class":"ocean","water":"ocean","kind":"waterway","verification":"verified","source":"OpenMapTiles/OpenStreetMap national PMTiles","sourceId":"10/819/503:water:790:0","sourceLayer":"water","archive":"https://its.hanifahseptiani45.workers.dev/v1/map/archive/indonesia.pmtiles","updatedAt":"2026-07-26T09:39:44.800Z"},"geometry":{"type":"Polygon","coordinates":[[[107.9241943359375,3.167940314402756],[108.2867431640625,3.167940314402756],[108.2867431640625,2.8058846278244687],[107.9241943359375,2.8058846278244687],[107.9241943359375,3.167940314402756]]]}}]}