{"type":"FeatureCollection","features":[{"type":"Feature","id":"pmtiles:12/3452/1988:water:1420:0","properties":{"class":"ocean","water":"ocean","kind":"waterway","verification":"verified","source":"OpenMapTiles/OpenStreetMap national PMTiles","sourceId":"12/3452/1988:water:1420:0","sourceLayer":"water","archive":"https://its.hanifahseptiani45.workers.dev/v1/map/archive/indonesia.pmtiles","updatedAt":"2026-07-26T10:42:51.344Z"},"geometry":{"type":"Polygon","coordinates":[[[123.39706420898438,5.267375376100517],[123.48770141601562,5.267375376100517],[123.48770141601562,5.177114401298994],[123.39706420898438,5.177114401298994],[123.39706420898438,5.267375376100517]]]}},{"type":"Feature","id":"pmtiles:12/3453/1988:water:1420:0","properties":{"class":"ocean","water":"ocean","kind":"waterway","verification":"verified","source":"OpenMapTiles/OpenStreetMap national PMTiles","sourceId":"12/3453/1988:water:1420:0","sourceLayer":"water","archive":"https://its.hanifahseptiani45.workers.dev/v1/map/archive/indonesia.pmtiles","updatedAt":"2026-07-26T10:42:51.416Z"},"geometry":{"type":"Polygon","coordinates":[[[123.48495483398438,5.267375376100517],[123.57559204101562,5.267375376100517],[123.57559204101562,5.177114401298994],[123.48495483398438,5.177114401298994],[123.48495483398438,5.267375376100517]]]}},{"type":"Feature","id":"pmtiles:12/3454/1988:water:1420:0","properties":{"class":"ocean","water":"ocean","kind":"waterway","verification":"verified","source":"OpenMapTiles/OpenStreetMap national PMTiles","sourceId":"12/3454/1988:water:1420:0","sourceLayer":"water","archive":"https://its.hanifahseptiani45.workers.dev/v1/map/archive/indonesia.pmtiles","updatedAt":"2026-07-26T10:42:51.483Z"},"geometry":{"type":"Polygon","coordinates":[[[123.57284545898438,5.267375376100517],[123.66348266601562,5.267375376100517],[123.66348266601562,5.177114401298994],[123.57284545898438,5.177114401298994],[123.57284545898438,5.267375376100517]]]}},{"type":"Feature","id":"pmtiles:12/3455/1988:water:1420:0","properties":{"class":"ocean","water":"ocean","kind":"waterway","verification":"verified","source":"OpenMapTiles/OpenStreetMap national PMTiles","sourceId":"12/3455/1988:water:1420:0","sourceLayer":"water","archive":"https://its.hanifahseptiani45.workers.dev/v1/map/archive/indonesia.pmtiles","updatedAt":"2026-07-26T10:42:51.557Z"},"geometry":{"type":"Polygon","coordinates":[[[123.66073608398438,5.267375376100517],[123.75137329101562,5.267375376100517],[123.75137329101562,5.177114401298994],[123.66073608398438,5.177114401298994],[123.66073608398438,5.267375376100517]]]}},{"type":"Feature","id":"pmtiles:12/3452/1989:water:1420:0","properties":{"class":"ocean","water":"ocean","kind":"waterway","verification":"verified","source":"OpenMapTiles/OpenStreetMap national PMTiles","sourceId":"12/3452/1989:water:1420:0","sourceLayer":"water","archive":"https://its.hanifahseptiani45.workers.dev/v1/map/archive/indonesia.pmtiles","updatedAt":"2026-07-26T10:43:25.456Z"},"geometry":{"type":"Polygon","coordinates":[[[123.39706420898438,5.179849772787961],[123.48770141601562,5.179849772787961],[123.48770141601562,5.089576300054759],[123.39706420898438,5.089576300054759],[123.39706420898438,5.179849772787961]]]}},{"type":"Feature","id":"pmtiles:12/3453/1989:water:1420:0","properties":{"class":"ocean","water":"ocean","kind":"waterway","verification":"verified","source":"OpenMapTiles/OpenStreetMap national PMTiles","sourceId":"12/3453/1989:water:1420:0","sourceLayer":"water","archive":"https://its.hanifahseptiani45.workers.dev/v1/map/archive/indonesia.pmtiles","updatedAt":"2026-07-26T10:43:25.530Z"},"geometry":{"type":"Polygon","coordinates":[[[123.48495483398438,5.179849772787961],[123.57559204101562,5.179849772787961],[123.57559204101562,5.089576300054759],[123.48495483398438,5.089576300054759],[123.48495483398438,5.179849772787961]]]}},{"type":"Feature","id":"pmtiles:12/3454/1989:water:1420:0","properties":{"class":"ocean","water":"ocean","kind":"waterway","verification":"verified","source":"OpenMapTiles/OpenStreetMap national PMTiles","sourceId":"12/3454/1989:water:1420:0","sourceLayer":"water","archive":"https://its.hanifahseptiani45.workers.dev/v1/map/archive/indonesia.pmtiles","updatedAt":"2026-07-26T10:43:25.595Z"},"geometry":{"type":"Polygon","coordinates":[[[123.57284545898438,5.179849772787961],[123.66348266601562,5.179849772787961],[123.66348266601562,5.089576300054759],[123.57284545898438,5.089576300054759],[123.57284545898438,5.179849772787961]]]}},{"type":"Feature","id":"pmtiles:12/3455/1989:water:1420:0","properties":{"class":"ocean","water":"ocean","kind":"waterway","verification":"verified","source":"OpenMapTiles/OpenStreetMap national PMTiles","sourceId":"12/3455/1989:water:1420:0","sourceLayer":"water","archive":"https://its.hanifahseptiani45.workers.dev/v1/map/archive/indonesia.pmtiles","updatedAt":"2026-07-26T10:43:25.671Z"},"geometry":{"type":"Polygon","coordinates":[[[123.66073608398438,5.179849772787961],[123.75137329101562,5.179849772787961],[123.75137329101562,5.089576300054759],[123.66073608398438,5.089576300054759],[123.66073608398438,5.179849772787961]]]}},{"type":"Feature","id":"pmtiles:12/3452/1990:water:1420:0","properties":{"class":"ocean","water":"ocean","kind":"waterway","verification":"verified","source":"OpenMapTiles/OpenStreetMap national PMTiles","sourceId":"12/3452/1990:water:1420:0","sourceLayer":"water","archive":"https://its.hanifahseptiani45.workers.dev/v1/map/archive/indonesia.pmtiles","updatedAt":"2026-07-26T10:44:00.932Z"},"geometry":{"type":"Polygon","coordinates":[[[123.39706420898438,5.092312047102723],[123.48770141601562,5.092312047102723],[123.48770141601562,5.002026285456836],[123.39706420898438,5.002026285456836],[123.39706420898438,5.092312047102723]]]}},{"type":"Feature","id":"pmtiles:12/3453/1990:water:1420:0","properties":{"class":"ocean","water":"ocean","kind":"waterway","verification":"verified","source":"OpenMapTiles/OpenStreetMap national PMTiles","sourceId":"12/3453/1990:water:1420:0","sourceLayer":"water","archive":"https://its.hanifahseptiani45.workers.dev/v1/map/archive/indonesia.pmtiles","updatedAt":"2026-07-26T10:44:01.009Z"},"geometry":{"type":"Polygon","coordinates":[[[123.48495483398438,5.092312047102723],[123.57559204101562,5.092312047102723],[123.57559204101562,5.002026285456836],[123.48495483398438,5.002026285456836],[123.48495483398438,5.092312047102723]]]}},{"type":"Feature","id":"pmtiles:12/3454/1990:water:1420:0","properties":{"class":"ocean","water":"ocean","kind":"waterway","verification":"verified","source":"OpenMapTiles/OpenStreetMap national PMTiles","sourceId":"12/3454/1990:water:1420:0","sourceLayer":"water","archive":"https://its.hanifahseptiani45.workers.dev/v1/map/archive/indonesia.pmtiles","updatedAt":"2026-07-26T10:44:01.130Z"},"geometry":{"type":"Polygon","coordinates":[[[123.57284545898438,5.092312047102723],[123.66348266601562,5.092312047102723],[123.66348266601562,5.002026285456836],[123.57284545898438,5.002026285456836],[123.57284545898438,5.092312047102723]]]}},{"type":"Feature","id":"pmtiles:12/3455/1990:water:1420:0","properties":{"class":"ocean","water":"ocean","kind":"waterway","verification":"verified","source":"OpenMapTiles/OpenStreetMap national PMTiles","sourceId":"12/3455/1990:water:1420:0","sourceLayer":"water","archive":"https://its.hanifahseptiani45.workers.dev/v1/map/archive/indonesia.pmtiles","updatedAt":"2026-07-26T10:44:01.194Z"},"geometry":{"type":"Polygon","coordinates":[[[123.66073608398438,5.092312047102723],[123.75137329101562,5.092312047102723],[123.75137329101562,5.002026285456836],[123.66073608398438,5.002026285456836],[123.66073608398438,5.092312047102723]]]}},{"type":"Feature","id":"pmtiles:12/3452/1991:water:1420:0","properties":{"class":"ocean","water":"ocean","kind":"waterway","verification":"verified","source":"OpenMapTiles/OpenStreetMap national PMTiles","sourceId":"12/3452/1991:water:1420:0","sourceLayer":"water","archive":"https://its.hanifahseptiani45.workers.dev/v1/map/archive/indonesia.pmtiles","updatedAt":"2026-07-26T10:44:35.062Z"},"geometry":{"type":"Polygon","coordinates":[[[123.39706420898438,5.004762401727689],[123.48770141601562,5.004762401727689],[123.48770141601562,4.914464560331368],[123.39706420898438,4.914464560331368],[123.39706420898438,5.004762401727689]]]}},{"type":"Feature","id":"pmtiles:12/3453/1991:water:1420:0","properties":{"class":"ocean","water":"ocean","kind":"waterway","verification":"verified","source":"OpenMapTiles/OpenStreetMap national PMTiles","sourceId":"12/3453/1991:water:1420:0","sourceLayer":"water","archive":"https://its.hanifahseptiani45.workers.dev/v1/map/archive/indonesia.pmtiles","updatedAt":"2026-07-26T10:44:35.142Z"},"geometry":{"type":"Polygon","coordinates":[[[123.48495483398438,5.004762401727689],[123.57559204101562,5.004762401727689],[123.57559204101562,4.914464560331368],[123.48495483398438,4.914464560331368],[123.48495483398438,5.004762401727689]]]}},{"type":"Feature","id":"pmtiles:12/3454/1991:water:1420:0","properties":{"class":"ocean","water":"ocean","kind":"waterway","verification":"verified","source":"OpenMapTiles/OpenStreetMap national PMTiles","sourceId":"12/3454/1991:water:1420:0","sourceLayer":"water","archive":"https://its.hanifahseptiani45.workers.dev/v1/map/archive/indonesia.pmtiles","updatedAt":"2026-07-26T10:44:35.211Z"},"geometry":{"type":"Polygon","coordinates":[[[123.57284545898438,5.004762401727689],[123.66348266601562,5.004762401727689],[123.66348266601562,4.914464560331368],[123.57284545898438,4.914464560331368],[123.57284545898438,5.004762401727689]]]}},{"type":"Feature","id":"pmtiles:12/3455/1991:water:1420:0","properties":{"class":"ocean","water":"ocean","kind":"waterway","verification":"verified","source":"OpenMapTiles/OpenStreetMap national PMTiles","sourceId":"12/3455/1991:water:1420:0","sourceLayer":"water","archive":"https://its.hanifahseptiani45.workers.dev/v1/map/archive/indonesia.pmtiles","updatedAt":"2026-07-26T10:44:35.283Z"},"geometry":{"type":"Polygon","coordinates":[[[123.66073608398438,5.004762401727689],[123.75137329101562,5.004762401727689],[123.75137329101562,4.914464560331368],[123.66073608398438,4.914464560331368],[123.66073608398438,5.004762401727689]]]}},{"type":"Feature","id":"pmtiles:10/863/497:water:1420:0","properties":{"class":"ocean","water":"ocean","kind":"waterway","verification":"verified","source":"OpenMapTiles/OpenStreetMap national PMTiles","sourceId":"10/863/497:water:1420:0","sourceLayer":"water","archive":"https://its.hanifahseptiani45.workers.dev/v1/map/archive/indonesia.pmtiles","updatedAt":"2026-07-26T09:38:33.707Z"},"geometry":{"type":"Polygon","coordinates":[[[123.3929443359375,5.271477837928373],[123.7554931640625,5.271477837928373],[123.7554931640625,4.910359820532264],[123.3929443359375,4.910359820532264],[123.3929443359375,5.271477837928373]]]}}]}