{"type":"FeatureCollection","features":[{"type":"Feature","id":"pmtiles:10/842/493:water:760:0","properties":{"class":"ocean","water":"ocean","kind":"waterway","verification":"verified","source":"OpenMapTiles/OpenStreetMap national PMTiles","sourceId":"10/842/493:water:760:0","sourceLayer":"water","archive":"https://its.hanifahseptiani45.workers.dev/v1/map/archive/indonesia.pmtiles","updatedAt":"2026-07-26T09:37:49.236Z"},"geometry":{"type":"Polygon","coordinates":[[[116.3726806640625,6.403160177761535],[116.36916160583496,6.400771904984197],[116.3642692565918,6.397871844455324],[116.35869026184082,6.395312953849029],[116.35748863220215,6.393862910152507],[116.35714530944824,6.395227657274859],[116.35568618774414,6.3958247329951945],[116.35208129882812,6.394886470835814],[116.34916305541992,6.394630580857111],[116.34864807128906,6.393607019661502],[116.34873390197754,6.393095238295302],[116.35002136230469,6.392156971127008],[116.3507080078125,6.390792215809498],[116.3507080078125,6.389768646931884],[116.35139465332031,6.389427456850953],[116.35165214538574,6.388915671302939],[116.35148048400879,6.388318587516636],[116.35096549987793,6.387721503033703],[116.34881973266602,6.3861008416402],[116.34710311889648,6.385844947266918],[116.34675979614258,6.3861861397362105],[116.34478569030762,6.386783226010252],[116.34152412414551,6.388233289776025],[116.33877754211426,6.3876362051935445],[116.33809089660645,6.387721503033703],[116.3371467590332,6.38848918295524],[116.33654594421387,6.388233289776025],[116.33585929870605,6.3861861397362105],[116.33585929870605,6.385247859898513],[116.33500099182129,6.384053683072793],[116.33491516113281,6.383627190674403],[116.33637428283691,6.384224279932681],[116.33749008178711,6.383115399327508],[116.33791923522949,6.381665321067501],[116.33749008178711,6.380641733942014],[116.33757591247559,6.379703443947264],[116.33800506591797,6.379618144771641],[116.33903503417969,6.379874042255935],[116.33955001831055,6.379618144771641],[116.3400650024414,6.379703443947264],[116.34075164794922,6.379021050144715],[116.3422966003418,6.378594553556695],[116.34238243103027,6.378082757182597],[116.34203910827637,6.377826858803942],[116.3422966003418,6.377144462502912],[116.34075164794922,6.375694367347364],[116.3408374786377,6.375523767647692],[116.34169578552246,6.3762914658492775],[116.34195327758789,6.376035566576476],[116.34255409240723,6.376547364994394],[116.34289741516113,6.375950266790483],[116.34366989135742,6.3762914658492775],[116.34392738342285,6.375950266790483],[116.34469985961914,6.3758649669903065],[116.34572982788086,6.374756068296719],[116.3463306427002,6.373476566824749],[116.3463306427002,6.372794164734643],[116.34607315063477,6.372197062161149],[116.34538650512695,6.371855860378588],[116.34530067443848,6.370917554306587],[116.3455581665039,6.370491050979382],[116.3466739654541,6.369638043261645],[116.34701728820801,6.369040937015711],[116.34658813476562,6.367590818955392],[116.34538650512695,6.366567203740942],[116.3448715209961,6.366567203740942],[116.3437557220459,6.367334915343079],[116.34324073791504,6.366993710328273],[116.34298324584961,6.364861173849334],[116.34212493896484,6.363752251381058],[116.34092330932617,6.3634110439861615],[116.3393783569336,6.363581647711939],[116.33791923522949,6.36315513829129],[116.33791923522949,6.362472722481797],[116.33886337280273,6.361449097068288],[116.33783340454102,6.3604254696159614],[116.33697509765625,6.360169562434336],[116.33594512939453,6.360254864842361],[116.3338851928711,6.360766678993244],[116.33294105529785,6.361278492634483],[116.3331127166748,6.36255802450755],[116.33148193359375,6.36400815677851],[116.33156776428223,6.365799490991037],[116.33036613464355,6.367846722440149],[116.33028030395508,6.368699733134747],[116.33079528808594,6.36929683977759],[116.33053779602051,6.36972334409721],[116.33010864257812,6.36972334409721],[116.32890701293945,6.3687850341262475],[116.32830619812012,6.367761421292741],[116.32633209228516,6.367334915343079],[116.32521629333496,6.367676120131151],[116.32452964782715,6.368187926888069],[116.3247013092041,6.36895563606673],[116.32418632507324,6.369552742411884],[116.32427215576172,6.370576351673179],[116.32298469543457,6.371514658369108],[116.32255554199219,6.372197062161149],[116.3217830657959,6.3722823625713545],[116.32015228271484,6.370491050979382],[116.31998062133789,6.370149848062411],[116.3206672668457,6.368187926888069],[116.32049560546875,6.367505517765451],[116.31877899169922,6.365287681853516],[116.31860733032227,6.3643493637768245],[116.31792068481445,6.363496345856149],[116.31723403930664,6.363069836364673],[116.31654739379883,6.362899232468948],[116.31525993347168,6.3632404402037395],[116.31491661071777,6.363069836364673],[116.31508827209473,6.361278492634483],[116.31465911865234,6.360766678993244],[116.31174087524414,6.3588047219808175],[116.31105422973633,6.357013363387324],[116.31294250488281,6.357525180765094],[116.31388664245605,6.357269272139874],[116.3162899017334,6.355051392054193],[116.31731986999512,6.353857144970448],[116.31766319274902,6.353601234520426],[116.31834983825684,6.353686538017911],[116.31972312927246,6.352321680361342],[116.32126808166504,6.352065769147771],[116.32332801818848,6.349165433168906],[116.32521629333496,6.350189083027217],[116.32744789123535,6.350615603200836],[116.32787704467773,6.350189083027217],[116.32779121398926,6.3490801289222105],[116.32667541503906,6.348482998799483],[116.32590293884277,6.346776908919651],[116.32521629333496,6.346520994950296],[116.32452964782715,6.346691604277325],[116.3235855102539,6.345582642641574],[116.3221263885498,6.345412032947294],[116.32023811340332,6.344217763505512],[116.3180923461914,6.344388373595223],[116.31671905517578,6.344132458439461],[116.31508827209473,6.343620627746702],[116.31474494934082,6.3433647122096914],[116.31397247314453,6.341658605382548],[116.31294250488281,6.340720244220876],[116.312255859375,6.3405496329170745],[116.31208419799805,6.340037798667012],[116.31234169006348,6.339611269737219],[116.31311416625977,6.339867187137429],[116.31380081176758,6.339525963908926],[116.31474494934082,6.340037798667012],[116.31611824035645,6.341317383339543],[116.31697654724121,6.3412320777935065],[116.31852149963379,6.341829216319368],[116.32118225097656,6.3412320777935065],[116.32246971130371,6.340379021556842],[116.32349967956543,6.34020841014015],[116.3247013092041,6.33909943455582],[116.32504463195801,6.339184740454655],[116.32564544677734,6.340293715855566],[116.32667541503906,6.340293715855566],[116.32744789123535,6.339867187137429],[116.3283920288086,6.33875821081935],[116.32933616638184,6.336881476233955],[116.32950782775879,6.335687187034154],[116.32847785949707,6.334748815009505],[116.32607460021973,6.33372513449136],[116.32427215576172,6.3325308379877185],[116.3232421875,6.330739388052393],[116.3206672668457,6.329289162124567],[116.3177490234375,6.328521393808515],[116.31697654724121,6.328009547630586],[116.3162899017334,6.327924239884965],[116.31543159484863,6.32715646954054],[116.31448745727539,6.327241777412922],[116.31354331970215,6.326218082014876],[116.31234169006348,6.3260474659180375],[116.31182670593262,6.325365000967494],[116.31062507629395,6.324341301852158],[116.3093376159668,6.323744143098708],[116.30916595458984,6.3219526627002836],[116.30959510803223,6.32161142763502],[116.31019592285156,6.3219526627002836],[116.31096839904785,6.323488217707521],[116.31234169006348,6.324597226821055],[116.3137149810791,6.324170685135854],[116.31577491760254,6.324682535115841],[116.31800651550293,6.323658834649066],[116.3192081451416,6.323658834649066],[116.3206672668457,6.321696736422425],[116.32083892822266,6.320843647914984],[116.32161140441895,6.32041710313365],[116.3217830657959,6.319564012515826],[116.32118225097656,6.318796229757041],[116.32126808166504,6.317687208205314],[116.32109642028809,6.317004732222941],[116.31903648376465,6.315213228487778],[116.31852149963379,6.313848269099907],[116.31980895996094,6.31427481929515],[116.32058143615723,6.313848269099907],[116.32161140441895,6.3141041992592335],[116.32186889648438,6.314018889220165],[116.32229804992676,6.313421718553315],[116.32281303405762,6.313251098236293],[116.3235855102539,6.3141041992592335],[116.32410049438477,6.3141041992592335],[116.32495880126953,6.313677648923445],[116.32641792297363,6.31427481929515],[116.32719039916992,6.314189509284219],[116.32830619812012,6.314445439274863],[116.32864952087402,6.314360129292027],[116.32950782775879,6.313080477863068],[116.3298511505127,6.312909857433624],[116.33010864257812,6.313080477863068],[116.32959365844727,6.31427481929515],[116.3298511505127,6.314616059198357],[116.33010864257812,6.31453074924363],[116.33088111877441,6.313336408401824],[116.33036613464355,6.312568616406125],[116.33028030395508,6.311544891974705],[116.33062362670898,6.311203650047972],[116.33216857910156,6.3106064761353196],[116.33225440979004,6.310094612233769],[116.33208274841309,6.309838680093364],[116.29749298095703,6.309838680093364],[116.29775047302246,6.310265233590471],[116.29680633544922,6.311374271039426],[116.29646301269531,6.312653926684078],[116.29680633544922,6.313677648923445],[116.29646301269531,6.314616059198357],[116.2954330444336,6.3141041992592335],[116.2946605682373,6.31453074924363],[116.2928581237793,6.316236945667072],[116.29242897033691,6.316919422661854],[116.2917423248291,6.317431279817384],[116.29148483276367,6.317943136466653],[116.29157066345215,6.319052157469898],[116.29036903381348,6.319649321640895],[116.28976821899414,6.319649321640895],[116.28865242004395,6.317943136466653],[116.28865242004395,6.316748803497532],[116.28942489624023,6.3157250873304775],[116.28822326660156,6.313762959018703],[116.28899574279785,6.313507028690736],[116.28908157348633,6.312909857433624],[116.28873825073242,6.311886133676651],[116.28719329833984,6.309838680093364],[116.0101318359375,6.309838680093364],[116.0101318359375,6.670063575977281],[116.3726806640625,6.670063575977281],[116.3726806640625,6.403160177761535]],[[116.32993698120117,6.394545284169084],[116.33088111877441,6.393948206954377],[116.33259773254395,6.391559891123677],[116.3338851928711,6.391474593923434],[116.33577346801758,6.390451026411185],[116.33560180664062,6.390792215809498],[116.3356876373291,6.391645188309681],[116.33688926696777,6.39232756528564],[116.33757591247559,6.393351129042429],[116.33783340454102,6.394374690750311],[116.33774757385254,6.395995325930059],[116.33800506591797,6.3966776971001025],[116.33877754211426,6.397445363577361],[116.34075164794922,6.397445363577361],[116.3408374786377,6.397871844455324],[116.34109497070312,6.398127732811233],[116.34023666381836,6.398724805143331],[116.33997917175293,6.3995777644073115],[116.33997917175293,6.400601313644117],[116.34032249450684,6.401113087493371],[116.34160995483398,6.401624860829756],[116.3411808013916,6.40188074730564],[116.33894920349121,6.401624860829756],[116.33809089660645,6.401624860829756],[116.33757591247559,6.40188074730564],[116.33723258972168,6.401710156335966],[116.33654594421387,6.400857200632856],[116.33440017700195,6.399663060255392],[116.334228515625,6.398980693072062],[116.33337020874023,6.398127732811233],[116.33302688598633,6.398042436706845],[116.3327693939209,6.398298324977318],[116.33225440979004,6.398213028901381],[116.33294105529785,6.397871844455324],[116.3331127166748,6.3972747711265185],[116.33268356323242,6.396421808018104],[116.33191108703613,6.395910029469746],[116.33113861083984,6.3958247329951945],[116.32916450500488,6.3966776971001025],[116.32864952087402,6.3965071043930095],[116.32641792297363,6.396848289750267],[116.32598876953125,6.396592400753676],[116.32607460021973,6.396080622376147],[116.32650375366211,6.395398250408974],[116.3287353515625,6.3951423606864495],[116.32899284362793,6.3948011741904764],[116.32993698120117,6.394545284169084]]]}}]}