{"type":"FeatureCollection","features":[{"type":"Feature","id":"pmtiles:10/804/525:water:1950:0","properties":{"class":"ocean","water":"ocean","kind":"waterway","verification":"verified","source":"OpenMapTiles/OpenStreetMap national PMTiles","sourceId":"10/804/525:water:1950:0","sourceLayer":"water","archive":"https://its.hanifahseptiani45.workers.dev/v1/map/archive/indonesia.pmtiles","updatedAt":"2026-07-26T09:44:09.524Z"},"geometry":{"type":"Polygon","coordinates":[[[102.6507568359375,-4.559997795432579],[103.0133056640625,-4.559997795432579],[103.0133056640625,-4.921305737130197],[102.6507568359375,-4.921305737130197],[102.6507568359375,-4.559997795432579]]]}}]}