{"type":"FeatureCollection","features":[{"type":"Feature","id":"pmtiles:10/842/511:landcover:5209327122:0","properties":{"subclass":"orchard","class":"farmland","kind":"green","verification":"verified","source":"OpenMapTiles/OpenStreetMap national PMTiles","sourceId":"10/842/511:landcover:5209327122:0","sourceLayer":"landcover","archive":"https://its.hanifahseptiani45.workers.dev/v1/map/archive/indonesia.pmtiles","updatedAt":"2026-07-26T09:41:14.763Z"},"geometry":{"type":"Polygon","coordinates":[[[116.10274314880371,0.20324664405208637],[116.10523223876953,0.20281749330413845],[116.10686302185059,0.19861181537574168],[116.10969543457031,0.19783934380252788],[116.11098289489746,0.19655189110063986],[116.11132621765137,0.1951786081092166],[116.1130428314209,0.19423447598755672],[116.1130428314209,0.19303285321099395],[116.11124038696289,0.19097292825395584],[116.10574722290039,0.18796887058316258],[116.10257148742676,0.18839802171083875],[116.1031723022461,0.19131624909734057],[116.10291481018066,0.19234621158625487],[116.10119819641113,0.19414864579206892],[116.10128402709961,0.19595107980575222],[116.09905242919922,0.19766768344801733],[116.10274314880371,0.20324664405208637]]]}},{"type":"Feature","id":"pmtiles:10/842/511:landcover:5209327132:0","properties":{"subclass":"orchard","class":"farmland","kind":"green","verification":"verified","source":"OpenMapTiles/OpenStreetMap national PMTiles","sourceId":"10/842/511:landcover:5209327132:0","sourceLayer":"landcover","archive":"https://its.hanifahseptiani45.workers.dev/v1/map/archive/indonesia.pmtiles","updatedAt":"2026-07-26T09:41:14.763Z"},"geometry":{"type":"Polygon","coordinates":[[[116.09930992126465,0.21826691287509448],[116.10179901123047,0.21388957889242022],[116.10231399536133,0.20985556411611128],[116.10136985778809,0.20831062201031614],[116.10025405883789,0.20779564127465733],[116.10016822814941,0.20710900026770673],[116.10119819641113,0.2072806605222297],[116.10162734985352,0.2067656797530475],[116.1009407043457,0.20573571816461822],[116.10214233398438,0.2044482660856346],[116.10179901123047,0.20256000284989284],[116.10033988952637,0.20221668223787503],[116.10051155090332,0.20110089019877364],[116.09870910644531,0.19809683433092573],[116.09750747680664,0.19346200421240667],[116.09682083129883,0.1927753626049764],[116.09484672546387,0.19354783441137613],[116.09278678894043,0.18736805898674902],[116.0914134979248,0.1905437771900722],[116.0936450958252,0.19423447598755672],[116.09441757202148,0.19698104201231104],[116.09338760375977,0.19938428691288834],[116.09433174133301,0.20616486883457696],[116.09244346618652,0.2120871468881802],[116.09330177307129,0.21449038951355703],[116.09476089477539,0.21526286027749109],[116.09579086303711,0.21740861219379326],[116.09776496887207,0.21835274294053875],[116.09930992126465,0.21826691287509448]]]}},{"type":"Feature","id":"pmtiles:10/842/511:landcover:5209327142:0","properties":{"subclass":"orchard","class":"farmland","kind":"green","verification":"verified","source":"OpenMapTiles/OpenStreetMap national PMTiles","sourceId":"10/842/511:landcover:5209327142:0","sourceLayer":"landcover","archive":"https://its.hanifahseptiani45.workers.dev/v1/map/archive/indonesia.pmtiles","updatedAt":"2026-07-26T09:41:14.763Z"},"geometry":{"type":"Polygon","coordinates":[[[116.09905242919922,0.2192110435679524],[116.09579086303711,0.21783776254055454],[116.0939884185791,0.21577784076504258],[116.09330177307129,0.21560618060446757],[116.09227180480957,0.21303127796430488],[116.09227180480957,0.2092547533152498],[116.09029769897461,0.20848228225180776],[116.08609199523926,0.19972760758443542],[116.08428955078125,0.19826849468098828],[116.08463287353516,0.1970668721933322],[116.08471870422363,0.19835432485534454],[116.08626365661621,0.19929845674387536],[116.08729362487793,0.20075756955597512],[116.09012603759766,0.20710900026770673],[116.092529296875,0.20848228225180776],[116.09321594238281,0.20831062201031614],[116.0939884185791,0.20590737843397733],[116.09330177307129,0.20496324692965118],[116.0936450958252,0.2023025123915687],[116.0928726196289,0.19929845674387536],[116.09184265136719,0.19792517397910103],[116.08780860900879,0.1958652496190041],[116.08677864074707,0.19483528734382105],[116.08712196350098,0.19440613637725335],[116.08969688415527,0.19552192886762043],[116.09261512756348,0.19809683433092573],[116.09347343444824,0.19792517397910103],[116.09390258789062,0.19741019291295459],[116.09321594238281,0.19526443829948903],[116.09072685241699,0.19114458867650796],[116.09278678894043,0.18736805898674902],[116.09167098999023,0.1851364728773035],[116.08892440795898,0.18505064263669624],[116.08772277832031,0.18376318897783506],[116.08832359313965,0.18341986798644427],[116.08798027038574,0.18230407471899923],[116.0870361328125,0.18221824446477797],[116.08523368835449,0.18393484947105776],[116.08514785766602,0.1855656240741297],[116.08343124389648,0.1876255496734558],[116.0841178894043,0.1892563239344156],[116.08317375183105,0.19114458867650796],[116.08351707458496,0.1920028907635043],[116.0844612121582,0.1914020793071245],[116.08652114868164,0.18711056829624795],[116.08712196350098,0.18711056829624795],[116.08343124389648,0.19440613637725335],[116.07613563537598,0.19818266450619149],[116.06986999511719,0.19972760758443542],[116.06377601623535,0.20539239762034356],[116.06128692626953,0.20625069896716752],[116.06523513793945,0.2099413942286361],[116.0621452331543,0.21054220500312226],[116.06205940246582,0.21225880708811928],[116.06008529663086,0.2126021274823131],[116.05999946594238,0.21526286027749109],[116.06557846069336,0.21818108280916704],[116.0690975189209,0.2227300756239856],[116.06935501098633,0.2234167159276268],[116.06738090515137,0.2258199567369843],[116.06686592102051,0.22779404710479412],[116.06738090515137,0.22873817718526368],[116.06815338134766,0.2288240071895018],[116.06995582580566,0.2333729966745608],[116.070556640625,0.2326863568458606],[116.07132911682129,0.23294384678555957],[116.07261657714844,0.23517542606521147],[116.0731315612793,0.23500376613324647],[116.07381820678711,0.2331155067427204],[116.07484817504883,0.2326863568458606],[116.0771656036377,0.23225720693592677],[116.07956886291504,0.23320133672052634],[116.08068466186523,0.2302831171828359],[116.08051300048828,0.2295964772045096],[116.07913970947266,0.22899566719644326],[116.07888221740723,0.2283090271563708],[116.07501983642578,0.2271074070074235],[116.07390403747559,0.22427501626202684],[116.07150077819824,0.21637865131184242],[116.07107162475586,0.2131171080592793],[116.07098579406738,0.21062803511188122],[116.07270240783691,0.20908309308222783],[116.07253074645996,0.20762398102571922],[116.07321739196777,0.2071948303952098],[116.07295989990234,0.20959807377572304],[116.0716724395752,0.210713865220157],[116.07210159301758,0.21646448138800167],[116.07553482055664,0.22642076687742474],[116.07922554016113,0.2276223870835139],[116.08016967773438,0.22727906703482859],[116.07905387878418,0.22530497659684556],[116.0786247253418,0.22195760524417096],[116.07742309570312,0.21955436380515891],[116.07793807983398,0.21818108280916704],[116.07682228088379,0.21603533100228844],[116.07725143432617,0.21431872933848695],[116.07656478881836,0.21243046728616832],[116.07484817504883,0.21105718564854214],[116.07510566711426,0.2103705447842117],[116.07562065124512,0.2103705447842117],[116.07707977294922,0.21225880708811928],[116.07776641845703,0.21457621960036022],[116.07725143432617,0.21594950092369913],[116.07853889465332,0.21749444226411185],[116.07974052429199,0.21620699115803177],[116.08068466186523,0.21105718564854214],[116.07913970947266,0.20831062201031614],[116.08231544494629,0.2044482660856346],[116.08222961425781,0.20513490720730942],[116.07965469360352,0.2082247918888669],[116.08128547668457,0.21054220500312226],[116.08137130737305,0.21148633617335122],[116.0800838470459,0.21663614153888489],[116.07819557189941,0.2192110435679524],[116.07810974121094,0.22015517420129527],[116.07922554016113,0.22152845501572926],[116.08137130737305,0.2283090271563708],[116.08240127563477,0.22813736714121546],[116.08652114868164,0.2252191465717317],[116.0873794555664,0.22393169613430075],[116.08772277832031,0.22418918623084494],[116.0866928100586,0.22590578675857387],[116.08137130737305,0.23019728718736587],[116.0804271697998,0.23294384678555957],[116.08051300048828,0.23414546644180234],[116.08111381530762,0.23466044626299265],[116.08523368835449,0.23551874592281763],[116.08634948730469,0.23697785522311676],[116.08866691589355,0.23663453540154933],[116.09021186828613,0.23569040584844458],[116.09029769897461,0.23371631657636271],[116.09098434448242,0.2340596364697518],[116.09278678894043,0.23217137695239387],[116.09390258789062,0.23174222702682812],[116.09450340270996,0.23045477717225538],[116.09862327575684,0.22933898720414447],[116.09982490539551,0.22307339577980656],[116.09905242919922,0.2192110435679524]]]}},{"type":"Feature","id":"pmtiles:10/842/511:landcover:10496403712:0","properties":{"subclass":"orchard","class":"farmland","kind":"green","verification":"verified","source":"OpenMapTiles/OpenStreetMap national PMTiles","sourceId":"10/842/511:landcover:10496403712:0","sourceLayer":"landcover","archive":"https://its.hanifahseptiani45.workers.dev/v1/map/archive/indonesia.pmtiles","updatedAt":"2026-07-26T09:41:14.763Z"},"geometry":{"type":"Polygon","coordinates":[[[116.35997772216797,0.10025019298899451],[116.36289596557617,0.10153765132000103],[116.36341094970703,0.10299677069976099],[116.36263847351074,0.10565751763144249],[116.36298179626465,0.11106484133281924],[116.35929107666016,0.1128672823491712],[116.35937690734863,0.11346809599655217],[116.36289596557617,0.11252396025936662],[116.36409759521484,0.12342443457237096],[116.36238098144531,0.1336382607876203],[116.36650085449219,0.1362990047478121],[116.36727333068848,0.13518320892899283],[116.36667251586914,0.13346659987699638],[116.3712215423584,0.13277995622256356],[116.37250900268555,0.1330374475952283],[116.37113571166992,0.1361273438559607],[116.37001991271973,0.13681398741599082],[116.37044906616211,0.13827310491572575],[116.3726806640625,0.13681398741599082],[116.3726806640625,0.1285742634267848],[116.36487007141113,0.1280592805873937],[116.36469841003418,0.12694348439995906],[116.3657283782959,0.12445440042435507],[116.36821746826172,0.12402524799090031],[116.36898994445801,0.12325277359316544],[116.36916160583496,0.12162199423563891],[116.36898994445801,0.11724463863457402],[116.36675834655762,0.11818877421512752],[116.36632919311523,0.1156996894341944],[116.3675308227539,0.11355392651657326],[116.36529922485352,0.10745995897217142],[116.36529922485352,0.10591500925798414],[116.36693000793457,0.10102266799370341],[116.36813163757324,0.09887690404683269],[116.37113571166992,0.09879107348605487],[116.37113571166992,0.09776110673945482],[116.36306762695312,0.09655947882852445],[116.36126518249512,0.09750361504785587],[116.35997772216797,0.10025019298899451]]]}},{"type":"Feature","id":"pmtiles:10/842/511:landcover:10496403722:0","properties":{"subclass":"orchard","class":"farmland","kind":"green","verification":"verified","source":"OpenMapTiles/OpenStreetMap national PMTiles","sourceId":"10/842/511:landcover:10496403722:0","sourceLayer":"landcover","archive":"https://its.hanifahseptiani45.workers.dev/v1/map/archive/indonesia.pmtiles","updatedAt":"2026-07-26T09:41:14.763Z"},"geometry":{"type":"Polygon","coordinates":[[[116.34495735168457,0.09939188740683846],[116.3440990447998,0.10153765132000103],[116.34272575378418,0.1017093124269337],[116.34126663208008,0.10308260124945434],[116.34281158447266,0.10548585654588294],[116.33852005004883,0.10497087328356258],[116.33440017700195,0.10771745058363535],[116.33551597595215,0.10900490860822742],[116.33663177490234,0.10866158647370128],[116.33774757385254,0.10943406127088906],[116.33774757385254,0.11115067185991734],[116.33706092834473,0.11278145182710375],[116.33723258972168,0.11406890963144178],[116.33663177490234,0.11398307911294125],[116.33628845214844,0.11518470634865707],[116.33620262145996,0.11707297761650182],[116.33302688598633,0.11655799455596139],[116.33302688598633,0.1174162996515804],[116.33345603942871,0.11947623177320565],[116.33671760559082,0.11981955377854092],[116.33749008178711,0.12110701126010781],[116.3371467590332,0.1221369772013503],[116.34075164794922,0.12248029917302006],[116.34135246276855,0.12024870627915618],[116.34796142578125,0.1193045707689464],[116.34873390197754,0.117759621682481],[116.34444236755371,0.11535636737819743],[116.34040832519531,0.11432640118543702],[116.34092330932617,0.11183731606767822],[116.34306907653809,0.11226646868936996],[116.3440990447998,0.11115067185991734],[116.35122299194336,0.11097901080547956],[116.35019302368164,0.10840409487022384],[116.35156631469727,0.10703080628158546],[116.35199546813965,0.10308260124945434],[116.35345458984375,0.10059351521557858],[116.35645866394043,0.09870524292503546],[116.35594367980957,0.09716029278932581],[116.35808944702148,0.09673113996127825],[116.35860443115234,0.09570117315182358],[116.35645866394043,0.09372707001423919],[116.35439872741699,0.09544368144462112],[116.3507080078125,0.09432788402452275],[116.34495735168457,0.09939188740683846]]]}},{"type":"Feature","id":"pmtiles:10/842/511:landcover:10496403732:0","properties":{"subclass":"orchard","class":"farmland","kind":"green","verification":"verified","source":"OpenMapTiles/OpenStreetMap national PMTiles","sourceId":"10/842/511:landcover:10496403732:0","sourceLayer":"landcover","archive":"https://its.hanifahseptiani45.workers.dev/v1/map/archive/indonesia.pmtiles","updatedAt":"2026-07-26T09:41:14.763Z"},"geometry":{"type":"Polygon","coordinates":[[[116.3726806640625,0.18968547503028788],[116.36898994445801,0.18891300305006098],[116.3558578491211,0.1875397194449704],[116.35311126708984,0.19028628654662327],[116.35208129882812,0.19620857036332495],[116.35311126708984,0.19886930589214558],[116.35568618774414,0.200070928248806],[116.35268211364746,0.2068515098824122],[116.34821891784668,0.2081389617669629],[116.34444236755371,0.21217297698838422],[116.34212493896484,0.21217297698838422],[116.34246826171875,0.21620699115803177],[116.33877754211426,0.21706529190758772],[116.33946418762207,0.22084181462436447],[116.34512901306152,0.22092764467504367],[116.34212493896484,0.22719323702138183],[116.33517265319824,0.22170011510860377],[116.33259773254395,0.22221509537527595],[116.32719039916992,0.22693574697797203],[116.3221263885498,0.2256482966922988],[116.3180923461914,0.22616327682028725],[116.31551742553711,0.23217137695239387],[116.32315635681152,0.23680619531340596],[116.31972312927246,0.24023939310197306],[116.31843566894531,0.246419146939445],[116.32101058959961,0.25525962312192974],[116.3232421875,0.25594626179712066],[116.32375717163086,0.2584353266857562],[116.32161140441895,0.2589503055674669],[116.3188648223877,0.25869281612922634],[116.31963729858398,0.26264098693856397],[116.31877899169922,0.2683915813159672],[116.31937980651855,0.2700223463961322],[116.32152557373047,0.27242557874674844],[116.3298511505127,0.2680482623239868],[116.3386058807373,0.2600660930727514],[116.34727478027344,0.24865072401335908],[116.36272430419922,0.23363048660169738],[116.36495590209961,0.2356045758858869],[116.3726806640625,0.25534545295833766],[116.3726806640625,0.18968547503028788]]]}},{"type":"Feature","id":"pmtiles:10/842/511:landuse:5209304770:0","properties":{"class":"residential","kind":"green","verification":"verified","source":"OpenMapTiles/OpenStreetMap national PMTiles","sourceId":"10/842/511:landuse:5209304770:0","sourceLayer":"landuse","archive":"https://its.hanifahseptiani45.workers.dev/v1/map/archive/indonesia.pmtiles","updatedAt":"2026-07-26T09:41:14.763Z"},"geometry":{"type":"Polygon","coordinates":[[[116.04592323303223,0.0638580190060054],[116.04403495788574,0.06411551091085244],[116.04394912719727,0.06583212357656976],[116.04257583618164,0.0664329379956996],[116.04351997375488,0.0673770749252185],[116.04300498962402,0.06780622806898862],[116.04334831237793,0.0684928730910741],[116.04360580444336,0.0679778893254337],[116.04635238647461,0.067205413666656],[116.04686737060547,0.06531713978299081],[116.04592323303223,0.0638580190060054]]]}},{"type":"Feature","id":"pmtiles:10/842/511:landuse:5209304770:1","properties":{"class":"residential","kind":"green","verification":"verified","source":"OpenMapTiles/OpenStreetMap national PMTiles","sourceId":"10/842/511:landuse:5209304770:1","sourceLayer":"landuse","archive":"https://its.hanifahseptiani45.workers.dev/v1/map/archive/indonesia.pmtiles","updatedAt":"2026-07-26T09:41:14.763Z"},"geometry":{"type":"Polygon","coordinates":[[[116.2547492980957,0.018968581806817042],[116.25517845153809,0.01888275112301585],[116.2562084197998,0.020427703424644506],[116.25741004943848,0.02094268752193784],[116.25706672668457,0.022830962530576926],[116.25826835632324,0.022401809121618044],[116.25741004943848,0.017423629492199666],[116.25466346740723,0.018196105651171024],[116.2547492980957,0.018968581806817042]]]}},{"type":"Feature","id":"pmtiles:10/842/511:landuse:5209304770:3","properties":{"class":"residential","kind":"green","verification":"verified","source":"OpenMapTiles/OpenStreetMap national PMTiles","sourceId":"10/842/511:landuse:5209304770:3","sourceLayer":"landuse","archive":"https://its.hanifahseptiani45.workers.dev/v1/map/archive/indonesia.pmtiles","updatedAt":"2026-07-26T09:41:14.763Z"},"geometry":{"type":"Polygon","coordinates":[[[116.22342109680176,0.3220350475916973],[116.2287425994873,0.321949218258581],[116.22882843017578,0.3191168498617998],[116.22393608093262,0.3194601672848876],[116.22342109680176,0.3220350475916973]]]}},{"type":"Feature","id":"pmtiles:10/842/511:landuse:5209304770:4","properties":{"class":"residential","kind":"green","verification":"verified","source":"OpenMapTiles/OpenStreetMap national PMTiles","sourceId":"10/842/511:landuse:5209304770:4","sourceLayer":"landuse","archive":"https://its.hanifahseptiani45.workers.dev/v1/map/archive/indonesia.pmtiles","updatedAt":"2026-07-26T09:41:14.763Z"},"geometry":{"type":"Polygon","coordinates":[[[116.21020317077637,0.33954421616284947],[116.21260643005371,0.3415182871312368],[116.21466636657715,0.3399733620598937],[116.21440887451172,0.33954421616284947],[116.21552467346191,0.33842843674138123],[116.21500968933105,0.3379134615804702],[116.21389389038086,0.33877175350014],[116.21286392211914,0.33731265719157477],[116.21020317077637,0.33954421616284947]]]}},{"type":"Feature","id":"pmtiles:10/842/511:transportation:5815388860:2","properties":{"class":"secondary","highway":"secondary","kind":"road","verification":"verified","source":"OpenMapTiles/OpenStreetMap national PMTiles","sourceId":"10/842/511:transportation:5815388860:2","sourceLayer":"transportation","archive":"https://its.hanifahseptiani45.workers.dev/v1/map/archive/indonesia.pmtiles","updatedAt":"2026-07-26T09:41:14.763Z"},"geometry":{"type":"LineString","coordinates":[[116.23775482177734,0.24916570328466037],[116.23766899108887,0.25045315137477075],[116.23723983764648,0.2510539604402453],[116.23603820800781,0.2518264291981467],[116.23380661010742,0.2525988979102749],[116.23208999633789,0.25199808891591147],[116.22908592224121,0.24985234228175557],[116.22797012329102,0.24942319291277215],[116.2232494354248,0.24933736303728438],[116.22153282165527,0.25071064097762985],[116.2203311920166,0.25242723820042556],[116.21990203857422,0.25431549488374117],[116.22007369995117,0.25637541095042593],[116.21912956237793,0.25809200741964844],[116.21870040893555,0.2583494968700961],[116.2162971496582,0.25809200741964844],[116.21569633483887,0.2608385612878834],[116.21071815490723,0.2600660930727514],[116.20960235595703,0.26032358248305343],[116.20882987976074,0.26143936986687777],[116.20556831359863,0.26186851883427664],[116.20067596435547,0.26358511455674716],[116.19741439819336,0.26298430608071044],[116.19518280029297,0.261611029455608],[116.19441032409668,0.2613535400716529],[116.19166374206543,0.2616968592490849],[116.1910629272461,0.26066690168860873],[116.19011878967285,0.2598944334629749],[116.18951797485352,0.2582636670538676],[116.19003295898438,0.25637541095042593],[116.1899471282959,0.25603209162892426],[116.18934631347656,0.2556029424641224],[116.1884880065918,0.25543128279416294],[116.1859130859375,0.25543128279416294],[116.18471145629883,0.25611792146017365],[116.18428230285645,0.2577486881442894],[116.18273735046387,0.2585211565008194],[116.1815357208252,0.2604094122853269],[116.18033409118652,0.2613535400716529],[116.17870330810547,0.261611029455608],[116.17621421813965,0.2613535400716529],[116.1734676361084,0.26066690168860873],[116.17312431335449,0.2610102208848275],[116.17192268371582,0.26392843367287355],[116.16668701171875,0.26530171004259273],[116.16531372070312,0.26684664577629746],[116.16265296936035,0.2683057515688887],[116.16170883178711,0.2697648571874538],[116.16145133972168,0.2708806437189679],[116.16076469421387,0.27199643014773756],[116.1587905883789,0.2729405570453878],[116.15724563598633,0.2741421729897269],[116.1581039428711,0.27517212941747005],[116.158447265625,0.2762020857563243],[116.15836143493652,0.27706038263717403],[116.15690231323242,0.27826199816590247],[116.15673065185547,0.28049356953697213],[116.15750312805176,0.28186684401561024],[116.1595630645752,0.2831542886922733],[116.16239547729492,0.28324011833230145],[116.1642837524414,0.28384092579473474],[116.16642951965332,0.28504254062590917],[116.1665153503418,0.2858150072369199],[116.16600036621094,0.2863299849487504],[116.1639404296875,0.2875315995196246],[116.1624813079834,0.29139393120972557],[116.16205215454102,0.2919947382429484],[116.15999221801758,0.29225222696163655],[116.15578651428223,0.2941404773847438],[116.15467071533203,0.2943121364983199],[116.1526107788086,0.2953420911241551],[116.15097999572754,0.2971445114895346],[116.15046501159668,0.2991185905998748],[116.14883422851562,0.3014359873631065],[116.14574432373047,0.3027234297965009],[116.14368438720703,0.30298091826486484],[116.14256858825684,0.30401087207704336],[116.14145278930664,0.305555802611039],[116.14068031311035,0.3076157096438976],[116.14007949829102,0.31061974002004433],[116.1368179321289,0.31473955171713897],[116.13441467285156,0.32091926620495315],[116.1353588104248,0.32237836491690075],[116.13733291625977,0.323150828856285],[116.13810539245605,0.3253823910174134],[116.13853454589844,0.3258973668307732],[116.14042282104492,0.3265840012076211],[116.14102363586426,0.32718480624890844],[116.14205360412598,0.32761395268492777],[116.1423110961914,0.32804309910258667],[116.1423110961914,0.3285580747794796],[116.14119529724121,0.33001717238637696],[116.13853454589844,0.33156209903097533],[116.1379337310791,0.3334503423802033],[116.13784790039062,0.33422280546426464],[116.13879203796387,0.3381709491643363],[116.13947868347168,0.3428915536529047],[116.13913536071777,0.34580974435640144],[116.13724708557129,0.34761215581383453],[116.13149642944336,0.3512169776949321],[116.13020896911621,0.3524185846803789],[116.1298656463623,0.3530193881150012],[116.12917900085449,0.3570533530247104]]}},{"type":"Feature","id":"pmtiles:10/842/511:transportation:5815388860:3","properties":{"class":"secondary","highway":"secondary","kind":"road","verification":"verified","source":"OpenMapTiles/OpenStreetMap national PMTiles","sourceId":"10/842/511:transportation:5815388860:3","sourceLayer":"transportation","archive":"https://its.hanifahseptiani45.workers.dev/v1/map/archive/indonesia.pmtiles","updatedAt":"2026-07-26T09:41:14.764Z"},"geometry":{"type":"LineString","coordinates":[[116.3726806640625,0.13844476579218679],[116.37027740478516,0.13964639189239847],[116.36916160583496,0.14084801793121926],[116.36778831481934,0.14144883092741622],[116.36529922485352,0.14316543940208248],[116.36478424072266,0.14419540442527534],[116.36512756347656,0.14762862083091477],[116.36641502380371,0.1474569600231206],[116.36710166931152,0.15003187200019852],[116.36650085449219,0.1502035327879554],[116.3668441772461,0.15192014059110193],[116.36598587036133,0.15423756090874008],[116.36444091796875,0.15578250764723123],[116.36298179626465,0.15612582912933703],[116.36100769042969,0.15732745427246186],[116.36032104492188,0.15741328463717252],[116.36006355285645,0.1572416239073675],[116.35963439941406,0.15612582912933703],[116.35869026184082,0.15501003429208993],[116.35800361633301,0.15449505203963554],[116.35671615600586,0.15406590015308552],[116.3550853729248,0.15449505203963554],[116.35302543640137,0.15449505203963554],[116.35199546813965,0.15509586466626502],[116.3507080078125,0.15698413281002388],[116.35053634643555,0.15870074006555512],[116.3507080078125,0.1605031775304866],[116.35019302368164,0.1622197844923079],[116.3503646850586,0.16385056097119843],[116.34916305541992,0.1667687922328156],[116.34899139404297,0.16805624706410072],[116.34427070617676,0.1715752898347489],[116.34100914001465,0.1715752898347489],[116.33912086486816,0.17226193225151576],[116.33628845214844,0.17217610195078237],[116.33525848388672,0.1718327807439266],[116.33251190185547,0.16968702306181171],[116.33122444152832,0.16951536243693965],[116.32899284362793,0.16977285337370063],[116.32719039916992,0.17054532616339202],[116.32633209228516,0.17337772612599167],[116.32701873779297,0.17689676791273712],[116.32633209228516,0.17724008902715127],[116.32375717163086,0.18007248797709963],[116.32375717163086,0.18238990497279417],[116.32461547851562,0.1858231147872118],[116.32384300231934,0.18616643573216152],[116.32298469543457,0.18745388921607287],[116.32246971130371,0.1875397194449704],[116.32126808166504,0.18711056829624795],[116.32075309753418,0.1876255496734558],[116.3174057006836,0.18942798437402075],[116.31594657897949,0.18968547503028788],[116.31525993347168,0.19045794697602503],[116.31397247314453,0.19088709804202608],[116.31354331970215,0.1914020793071245],[116.31319999694824,0.19268953240208475],[116.31328582763672,0.19363366460993348],[116.31422996520996,0.1956077590561307],[116.31431579589844,0.1970668721933322],[116.3133716583252,0.1991267964045278],[116.3133716583252,0.19972760758443542],[116.31345748901367,0.20032841874235885],[116.31431579589844,0.20170170130626275],[116.31422996520996,0.20264583300176753],[116.3125991821289,0.2039332852250908],[116.30959510803223,0.20436243594335224],[116.30916595458984,0.20470575650971057],[116.30805015563965,0.2067656797530475],[116.30684852600098,0.20710900026770673],[116.30358695983887,0.20625069896716752],[116.30109786987305,0.20590737843397733],[116.29551887512207,0.20427660580061513]]}},{"type":"Feature","id":"pmtiles:10/842/511:transportation:9938169452:0","properties":{"class":"secondary","layer":1,"highway":"secondary","kind":"road","verification":"verified","source":"OpenMapTiles/OpenStreetMap national PMTiles","sourceId":"10/842/511:transportation:9938169452:0","sourceLayer":"transportation","archive":"https://its.hanifahseptiani45.workers.dev/v1/map/archive/indonesia.pmtiles","updatedAt":"2026-07-26T09:41:14.764Z"},"geometry":{"type":"LineString","coordinates":[[116.29551887512207,0.20427660580061513],[116.2943172454834,0.2039332852250908],[116.29294395446777,0.20384745508005153],[116.29088401794434,0.20530656748314868],[116.28959655761719,0.2070231701397347],[116.28745079040527,0.20891143284730163],[116.279296875,0.2147478797725313],[116.27800941467285,0.21526286027749109],[116.27371788024902,0.21603533100228844],[116.27294540405273,0.21637865131184242],[116.27217292785645,0.21723695205166393],[116.27045631408691,0.22092764467504367],[116.26479148864746,0.22745072706018732],[116.2628173828125,0.2288240071895018],[116.25732421875,0.2310555871189166],[116.25526428222656,0.23294384678555957],[116.25483512878418,0.23380214655050224],[116.25517845153809,0.23706368517719056],[116.25466346740723,0.238522794314747],[116.2503719329834,0.2416985019016522],[116.24977111816406,0.24247097120277772],[116.24942779541016,0.24513169845732818],[116.25002861022949,0.2495948526620424],[116.24985694885254,0.2501956617668526],[116.24848365783691,0.25088230071007445],[116.24685287475586,0.25079647084413637],[116.24530792236328,0.24968068253582487],[116.24436378479004,0.24770659529716],[116.24402046203613,0.24727744585845812],[116.24333381652832,0.24701995618858064],[116.24110221862793,0.24701995618858064],[116.23801231384277,0.24865072401335908],[116.23775482177734,0.24916570328466037]]}},{"type":"Feature","id":"pmtiles:10/842/511:water:123228123:0","properties":{"intermittent":0,"class":"river","id":12322812,"water":"river","kind":"waterway","verification":"verified","source":"OpenMapTiles/OpenStreetMap national PMTiles","sourceId":"10/842/511:water:123228123:0","sourceLayer":"water","archive":"https://its.hanifahseptiani45.workers.dev/v1/map/archive/indonesia.pmtiles","updatedAt":"2026-07-26T09:41:14.764Z"},"geometry":{"type":"Polygon","coordinates":[[[116.24350547790527,0.2604094122853269],[116.24273300170898,0.2600660930727514],[116.24238967895508,0.2592936248103541],[116.24256134033203,0.2585211565008194],[116.24350547790527,0.2567187302627474],[116.24333381652832,0.25534545295833766],[116.24393463134766,0.2506248111105691],[116.24367713928223,0.2492515331612566],[116.24290466308594,0.24813574472196365],[116.24178886413574,0.2480499148381199],[116.2408447265625,0.2492515331612566],[116.2405014038086,0.25088230071007445],[116.2405014038086,0.25380051581559826],[116.24015808105469,0.2549163037705995],[116.23904228210449,0.25594626179712066],[116.2379264831543,0.25646124077937316],[116.2364673614502,0.2562895811209245],[116.23234748840332,0.25354302627383163],[116.22900009155273,0.2522555784883167],[116.2272834777832,0.2513114500312952],[116.22539520263672,0.24976651240908154],[116.22410774230957,0.24985234228175557],[116.2229061126709,0.2506248111105691],[116.22273445129395,0.2520839187739483],[116.22307777404785,0.2532855367269633],[116.22316360473633,0.2551737932849534],[116.22367858886719,0.25714787939013206],[116.2247085571289,0.25869281612922634],[116.22659683227539,0.2600660930727514],[116.22719764709473,0.2590361353790769],[116.22633934020996,0.2585211565008194],[116.22556686401367,0.25740536885967913],[116.22427940368652,0.25345719642544395],[116.22410774230957,0.2516547694781224],[116.2247085571289,0.25088230071007445],[116.22522354125977,0.2509681305754441],[116.22616767883301,0.2519122590573062],[116.22762680053711,0.2527705576178505],[116.23166084289551,0.2544013247264161],[116.23466491699219,0.2566329004355197],[116.2364673614502,0.2576628583239966],[116.23801231384277,0.258006177601672],[116.23921394348145,0.2578345179639996],[116.2405014038086,0.25723370921390654],[116.24153137207031,0.25611792146017365],[116.2411880493164,0.2583494968700961],[116.24170303344727,0.26058107188811164],[116.24238967895508,0.26143936986687777],[116.24350547790527,0.261611029455608],[116.24350547790527,0.2604094122853269]]]}},{"type":"Feature","id":"pmtiles:10/842/511:water:4323024322:0","properties":{"intermittent":0,"class":"lake","id":432302432,"water":"lake","kind":"waterway","verification":"verified","source":"OpenMapTiles/OpenStreetMap national PMTiles","sourceId":"10/842/511:water:4323024322:0","sourceLayer":"water","archive":"https://its.hanifahseptiani45.workers.dev/v1/map/archive/indonesia.pmtiles","updatedAt":"2026-07-26T09:41:14.764Z"},"geometry":{"type":"Polygon","coordinates":[[[116.32822036743164,0.17801256151129508],[116.32804870605469,0.17569514396235775],[116.3276195526123,0.1737210473049089],[116.32796287536621,0.17166112013818235],[116.3287353515625,0.17097447769984342],[116.33079528808594,0.17054532616339202],[116.33173942565918,0.170631156471444],[116.33362770080566,0.17209027164963686],[116.33431434631348,0.17209027164963686],[116.33431434631348,0.17166112013818235],[116.33216857910156,0.17011617461737671],[116.33036613464355,0.16977285337370063],[116.32787704467773,0.17045949585495634],[116.32736206054688,0.17131779892208954],[116.32676124572754,0.17320606553417406],[116.32693290710449,0.17475101080422917],[116.32736206054688,0.17621012566488048],[116.32744789123535,0.17724008902715127],[116.32813453674316,0.17844171287741517],[116.32822036743164,0.17801256151129508]]]}},{"type":"Feature","id":"pmtiles:10/842/511:water:9075993162:0","properties":{"intermittent":0,"class":"river","id":907599316,"water":"river","kind":"waterway","verification":"verified","source":"OpenMapTiles/OpenStreetMap national PMTiles","sourceId":"10/842/511:water:9075993162:0","sourceLayer":"water","archive":"https://its.hanifahseptiani45.workers.dev/v1/map/archive/indonesia.pmtiles","updatedAt":"2026-07-26T09:41:14.764Z"},"geometry":{"type":"Polygon","coordinates":[[[116.2686538696289,0.23285801680616203],[116.26822471618652,0.23414546644180234],[116.2694263458252,0.23448878632470382],[116.27114295959473,0.23380214655050224],[116.27182960510254,0.2331155067427204],[116.2723445892334,0.23182805701297582],[116.2726879119873,0.2302831171828359],[116.27251625061035,0.22496165649332056],[116.27294540405273,0.2240175261669748],[116.2734603881836,0.2238458661011009],[116.27397537231445,0.22410335619916566],[116.2741470336914,0.22461833638169537],[116.27363204956055,0.22590578675857387],[116.2734603881836,0.2276223870835139],[116.2734603881836,0.23174222702682812],[116.27311706542969,0.23371631657636271],[116.27337455749512,0.23517542606521147],[116.27474784851074,0.23663453540154933],[116.27663612365723,0.2373211750361861],[116.27809524536133,0.23714951513072435],[116.27989768981934,0.23620538561263515],[116.28135681152344,0.23508959609949898],[116.28212928771973,0.23414546644180234],[116.28281593322754,0.23285801680616203],[116.28315925598145,0.23174222702682812],[116.2833309173584,0.23011145719135584],[116.28307342529297,0.2288240071895018],[116.28135681152344,0.22444667632287008],[116.28127098083496,0.2237600360674037],[116.28178596496582,0.22230092541798285],[116.28273010253906,0.22144262496853173],[116.2836742401123,0.22127096487268716],[116.2833309173584,0.2193827036875433],[116.2822151184082,0.21972602392081342],[116.28127098083496,0.2203268343100433],[116.28049850463867,0.22109930477485307],[116.27998352050781,0.2224725855018903],[116.28006935119629,0.22470416641036195],[116.28144264221191,0.22856651717525267],[116.28170013427734,0.23036894717779433],[116.28127098083496,0.23260052686491406],[116.28049850463867,0.23380214655050224],[116.2796401977539,0.23466044626299265],[116.27869606018066,0.23534708599507326],[116.27706527709961,0.23586206577195412],[116.27569198608398,0.23569040584844458],[116.27474784851074,0.23517542606521147],[116.27466201782227,0.22719323702138183],[116.27543449401855,0.22410335619916566],[116.27440452575684,0.22290173570290506],[116.2734603881836,0.22238675546017816],[116.27217292785645,0.2224725855018903],[116.27165794372559,0.22307339577980656],[116.27105712890625,0.22659242691295844],[116.27114295959473,0.23036894717779433],[116.2708854675293,0.23148473706525863],[116.26985549926758,0.2327721868262813],[116.26934051513672,0.23294384678555957],[116.2686538696289,0.23285801680616203]]]}},{"type":"Feature","id":"pmtiles:10/842/511:water:9076039022:0","properties":{"intermittent":0,"class":"river","id":907603902,"water":"river","kind":"waterway","verification":"verified","source":"OpenMapTiles/OpenStreetMap national PMTiles","sourceId":"10/842/511:water:9076039022:0","sourceLayer":"water","archive":"https://its.hanifahseptiani45.workers.dev/v1/map/archive/indonesia.pmtiles","updatedAt":"2026-07-26T09:41:14.764Z"},"geometry":{"type":"Polygon","coordinates":[[[116.2686538696289,0.23285801680616203],[116.26564979553223,0.23114141710921388],[116.2639331817627,0.23088392713673045],[116.2617015838623,0.23122724709899956],[116.26032829284668,0.23182805701297582],[116.25912666320801,0.2327721868262813],[116.25852584838867,0.2340596364697518],[116.2584400177002,0.23526125603039816],[116.25938415527344,0.23646287548757527],[116.25998497009277,0.23783615473981],[116.2602424621582,0.23929526379559718],[116.26015663146973,0.2405827128336142],[116.25929832458496,0.2416985019016522],[116.2562084197998,0.242127651518814],[116.25406265258789,0.24324344045983537],[116.25354766845703,0.24358676011544844],[116.25268936157227,0.24496003865034766],[116.25251770019531,0.24684829640587225],[116.25389099121094,0.25199808891591147],[116.25346183776855,0.2544013247264161],[116.25286102294922,0.2557746021317655],[116.25174522399902,0.2570620495658176],[116.24959945678711,0.2582636670538676],[116.24350547790527,0.2604094122853269],[116.24350547790527,0.261611029455608],[116.24728202819824,0.2600660930727514],[116.24908447265625,0.2598086036572056],[116.25114440917969,0.25869281612922634],[116.25303268432617,0.25714787939013206],[116.25389099121094,0.25594626179712066],[116.25466346740723,0.2540580053522348],[116.25509262084961,0.25122562016817085],[116.25457763671875,0.24847906425179644],[116.25397682189941,0.2465908067276814],[116.25406265258789,0.24538918816367072],[116.25535011291504,0.24410173958247583],[116.25655174255371,0.24367259002798392],[116.25861167907715,0.24341510028874325],[116.25972747802734,0.24290012079548262],[116.26067161560059,0.24221348144061494],[116.26195907592773,0.23989607336173435],[116.26178741455078,0.23800781463675946],[116.26092910766602,0.23586206577195412],[116.25981330871582,0.23423129641331286],[116.2598991394043,0.23363048660169738],[116.26049995422363,0.23302967676438868],[116.26127243041992,0.2327721868262813],[116.26367568969727,0.2327721868262813],[116.26607894897461,0.23328716669780647],[116.26822471618652,0.23414546644180234],[116.2686538696289,0.23285801680616203]]]}},{"type":"Feature","id":"pmtiles:10/842/511:water:9076319782:0","properties":{"intermittent":0,"class":"river","id":907631978,"water":"river","kind":"waterway","verification":"verified","source":"OpenMapTiles/OpenStreetMap national PMTiles","sourceId":"10/842/511:water:9076319782:0","sourceLayer":"water","archive":"https://its.hanifahseptiani45.workers.dev/v1/map/archive/indonesia.pmtiles","updatedAt":"2026-07-26T09:41:14.764Z"},"geometry":{"type":"Polygon","coordinates":[[[116.22719764709473,0.2590361353790769],[116.22659683227539,0.2600660930727514],[116.23088836669922,0.2625551571515672],[116.23191833496094,0.26358511455674716],[116.23260498046875,0.26495839096442353],[116.23329162597656,0.2677907730736706],[116.23329162597656,0.26933570849422495],[116.2324333190918,0.27165311125754954],[116.23140335083008,0.2730263867596818],[116.23028755187988,0.273713024451979],[116.22925758361816,0.2732838758989118],[116.22900009155273,0.272683067898825],[116.23011589050293,0.2691640490127156],[116.23028755187988,0.26684664577629746],[116.22977256774902,0.2654733695781033],[116.22865676879883,0.2644434123293422],[116.22711181640625,0.26401426345044854],[116.22591018676758,0.26401426345044854],[116.2217903137207,0.2659883481703247],[116.21973037719727,0.2662458374583849],[116.21818542480469,0.2659025184064632],[116.21586799621582,0.26410009322739825],[116.21458053588867,0.26289847629607266],[116.21329307556152,0.26204017841712357],[116.21140480041504,0.26212600820767307],[116.20994567871094,0.2630701358647656],[116.21063232421875,0.2641859230037795],[116.2122631072998,0.2630701358647656],[116.21337890625,0.2630701358647656],[116.2148380279541,0.2647009016495616],[116.21612548828125,0.2658166886419764],[116.21818542480469,0.2670183052902928],[116.22015953063965,0.26753328381794006],[116.22264862060547,0.2671041350464094],[116.22591018676758,0.2654733695781033],[116.22668266296387,0.26538753981064644],[116.22736930847168,0.2655591993449633],[116.2283992767334,0.26650332674107347],[116.22891426086426,0.26847741106246303],[116.2287425994873,0.2701081761311457],[116.22779846191406,0.27216808958917227],[116.22788429260254,0.27345553532197187],[116.22908592224121,0.2745713215120702],[116.2302017211914,0.2747429809166988],[116.23148918151855,0.2743996621049689],[116.23303413391113,0.27276889761495227],[116.23440742492676,0.2701081761311457],[116.23457908630371,0.26933570849422495],[116.23440742492676,0.2683057515688887],[116.23346328735352,0.2644434123293422],[116.23286247253418,0.2632417954311279],[116.23011589050293,0.26066690168860873],[116.22719764709473,0.2590361353790769]]]}},{"type":"Feature","id":"pmtiles:10/842/511:water:9076426012:0","properties":{"intermittent":0,"class":"river","id":907642601,"water":"river","kind":"waterway","verification":"verified","source":"OpenMapTiles/OpenStreetMap national PMTiles","sourceId":"10/842/511:water:9076426012:0","sourceLayer":"water","archive":"https://its.hanifahseptiani45.workers.dev/v1/map/archive/indonesia.pmtiles","updatedAt":"2026-07-26T09:41:14.764Z"},"geometry":{"type":"Polygon","coordinates":[[[116.21063232421875,0.2641859230037795],[116.20994567871094,0.2630701358647656],[116.2082290649414,0.26452924210333606],[116.20702743530273,0.26487256119338554],[116.20513916015625,0.2659883481703247],[116.20419502258301,0.26684664577629746],[116.20290756225586,0.26847741106246303],[116.20136260986328,0.2712239626310975],[116.20076179504395,0.2715672815334784],[116.19990348815918,0.27105230317624773],[116.19715690612793,0.2676191135704471],[116.19509696960449,0.266074177933632],[116.19269371032715,0.26521588027392795],[116.19020462036133,0.26495839096442353],[116.18874549865723,0.2662458374583849],[116.18857383728027,0.2677049433223573],[116.18900299072266,0.26933570849422495],[116.19020462036133,0.27070898425925805],[116.19123458862305,0.27242557874674844],[116.1910629272461,0.2730263867596818],[116.19063377380371,0.2732838758989118],[116.18874549865723,0.2725114084647231],[116.18728637695312,0.27148145180879624],[116.17973327636719,0.2681340920728843],[116.17947578430176,0.2680482623239868],[116.17921829223633,0.2691640490127156],[116.18531227111816,0.27165311125754954],[116.18874549865723,0.2741421729897269],[116.19097709655762,0.2748288106180752],[116.19183540344238,0.2743996621049689],[116.19235038757324,0.2731122164733648],[116.19183540344238,0.27045149506514576],[116.19054794311523,0.2691640490127156],[116.19003295898438,0.26890655978588995],[116.18977546691895,0.2683057515688887],[116.18986129760742,0.2672757945568094],[116.19071960449219,0.266074177933632],[116.19226455688477,0.266160007696314],[116.19475364685059,0.2672757945568094],[116.19638442993164,0.26864907055364995],[116.19913101196289,0.27216808958917227],[116.20041847229004,0.2725972381820867],[116.20136260986328,0.27225391930898013],[116.20247840881348,0.27130979235759867],[116.20359420776367,0.26933570849422495],[116.20488166809082,0.2677049433223573],[116.21063232421875,0.2641859230037795]]]}},{"type":"Feature","id":"pmtiles:10/842/511:water:9076786372:0","properties":{"intermittent":0,"class":"river","id":907678637,"water":"river","kind":"waterway","verification":"verified","source":"OpenMapTiles/OpenStreetMap national PMTiles","sourceId":"10/842/511:water:9076786372:0","sourceLayer":"water","archive":"https://its.hanifahseptiani45.workers.dev/v1/map/archive/indonesia.pmtiles","updatedAt":"2026-07-26T09:41:14.764Z"},"geometry":{"type":"Polygon","coordinates":[[[116.17921829223633,0.2691640490127156],[116.17947578430176,0.2680482623239868],[116.17286682128906,0.2673616243111354],[116.17115020751953,0.2670183052902928],[116.16694450378418,0.26796243257447827],[116.16582870483398,0.26847741106246303],[116.16497039794922,0.2692498787537829],[116.1628246307373,0.272683067898825],[116.15947723388672,0.2748288106180752],[116.15896224975586,0.2756012779028083],[116.15870475769043,0.27697455295188433],[116.15896224975586,0.27826199816590247],[116.1595630645752,0.2784336575171551],[116.16145133972168,0.2798069322372072],[116.16419792175293,0.2808368881717769],[116.16857528686523,0.2844417332259468],[116.17183685302734,0.2862441553317012],[116.17449760437012,0.28924819154424597],[116.1752700805664,0.2898489986916104],[116.17724418640137,0.29062146497706465],[116.17844581604004,0.2914797607878512],[116.17913246154785,0.29242388610417436],[116.18016242980957,0.2919947382429484],[116.17964744567871,0.2907072945610878],[116.17853164672852,0.2898489986916104],[116.17544174194336,0.2885615547654652],[116.17226600646973,0.284785051744052],[116.16806030273438,0.2827251404825688],[116.16488456726074,0.2799785915659214],[116.16059303283691,0.2778328497768001],[116.16016387939453,0.277232042005906],[116.15999221801758,0.2764595748271006],[116.16016387939453,0.2758587669866017],[116.16076469421387,0.27534378881347266],[116.16368293762207,0.2736271947425877],[116.16488456726074,0.27199643014773756],[116.16600036621094,0.2697648571874538],[116.1668586730957,0.26907821927103726],[116.16857528686523,0.268563240808362],[116.17063522338867,0.2683915813159672],[116.17733001708984,0.26864907055364995],[116.17921829223633,0.2691640490127156]]]}},{"type":"Feature","id":"pmtiles:10/842/511:water:9076915342:0","properties":{"intermittent":0,"class":"river","id":907691534,"water":"river","kind":"waterway","verification":"verified","source":"OpenMapTiles/OpenStreetMap national PMTiles","sourceId":"10/842/511:water:9076915342:0","sourceLayer":"water","archive":"https://its.hanifahseptiani45.workers.dev/v1/map/archive/indonesia.pmtiles","updatedAt":"2026-07-26T09:41:14.764Z"},"geometry":{"type":"Polygon","coordinates":[[[116.18016242980957,0.2919947382429484],[116.17913246154785,0.29242388610417436],[116.17904663085938,0.2937113295892857],[116.17861747741699,0.29448379560923854],[116.17801666259766,0.2948271138231462],[116.17681503295898,0.29491294337498175],[116.17312431335449,0.2941404773847438],[116.17020606994629,0.2941404773847438],[116.16874694824219,0.2945696251637173],[116.16745948791504,0.2952562615756449],[116.16634368896484,0.2962862161140265],[116.16565704345703,0.2973161705566554],[116.16522789001465,0.2997193972152701],[116.16557121276855,0.301779305360256],[116.1668586730957,0.30598494994221426],[116.1679744720459,0.30847400412373815],[116.17072105407715,0.3126796460706771],[116.17115020751953,0.3138812577470702],[116.17106437683105,0.3161986513040631],[116.17046356201172,0.31731443320281016],[116.16926193237305,0.3184302149812339],[116.16874694824219,0.3185160443438093],[116.16806030273438,0.3176577506859388],[116.16806030273438,0.31448206353353214],[116.16780281066895,0.31259381665995534],[116.16745948791504,0.3110488871471375],[116.16617202758789,0.3083881746788677],[116.16454124450684,0.30538414367376276],[116.16333961486816,0.30375338363319315],[116.16239547729492,0.30280925928663294],[116.16153717041016,0.3025517708142047],[116.16145133972168,0.3042683605147687],[116.16239547729492,0.3046975078972878],[116.16342544555664,0.3058132910118019],[116.16436958312988,0.3078731979951215],[116.16557121276855,0.30967561627916496],[116.16625785827637,0.31122054599306637],[116.16668701171875,0.31310879311376993],[116.16703033447266,0.3182585562539373],[116.16806030273438,0.319202679218634],[116.17003440856934,0.3195459966388796],[116.17080688476562,0.31928850857477187],[116.17140769958496,0.31868770306681427],[116.17218017578125,0.3157695043879727],[116.1723518371582,0.31413874594548474],[116.17183685302734,0.312164669595802],[116.16994857788086,0.30984727514740484],[116.1683177947998,0.30658575617700023],[116.16754531860352,0.3044400194698369],[116.16642951965332,0.3008351808420713],[116.16660118103027,0.2992044201183859],[116.16694450378418,0.29826029537801446],[116.16814613342285,0.296543704733665],[116.17046356201172,0.29559957976572093],[116.17312431335449,0.29559957976572093],[116.17664337158203,0.2962862161140265],[116.17904663085938,0.2958570684013324],[116.17973327636719,0.2953420911241551],[116.180419921875,0.2942263069418658],[116.18050575256348,0.2931963522130019],[116.18016242980957,0.2919947382429484]]]}},{"type":"Feature","id":"pmtiles:10/842/511:water:9079479352:0","properties":{"intermittent":0,"class":"river","id":907947935,"water":"river","kind":"waterway","verification":"verified","source":"OpenMapTiles/OpenStreetMap national PMTiles","sourceId":"10/842/511:water:9079479352:0","sourceLayer":"water","archive":"https://its.hanifahseptiani45.workers.dev/v1/map/archive/indonesia.pmtiles","updatedAt":"2026-07-26T09:41:14.764Z"},"geometry":{"type":"Polygon","coordinates":[[[116.30393028259277,0.21028471467403165],[116.3041877746582,0.2091689231989733],[116.29714965820312,0.2067656797530475],[116.29397392272949,0.20616486883457696],[116.29096984863281,0.20667984962324226],[116.29019737243652,0.20736649064879487],[116.28968238830566,0.20831062201031614],[116.2899398803711,0.20934058343107154],[116.29131317138672,0.21028471467403165],[116.29508972167969,0.21054220500312226],[116.29680633544922,0.21122884585989254],[116.30084037780762,0.21526286027749109],[116.30118370056152,0.21577784076504258],[116.30152702331543,0.21749444226411185],[116.30058288574219,0.21878189326038466],[116.29800796508789,0.2206701545215708],[116.2946605682373,0.22453250635254562],[116.29294395446777,0.2258199567369843],[116.29165649414062,0.22616327682028725],[116.29011154174805,0.22624910683983046],[116.28933906555176,0.22590578675857387],[116.28856658935547,0.22513331654609203],[116.28805160522461,0.22418918623084494],[116.28727912902832,0.22195760524417096],[116.28521919250488,0.2198118539778875],[116.28410339355469,0.2193827036875433],[116.2833309173584,0.2193827036875433],[116.2836742401123,0.22127096487268716],[116.28504753112793,0.22178594515428074],[116.28556251525879,0.22230092541798285],[116.28684997558594,0.22487582646616033],[116.28779411315918,0.22624910683983046],[116.28873825073242,0.2271074070074235],[116.29054069519043,0.22745072706018732],[116.29260063171387,0.22745072706018732],[116.29474639892578,0.22676408694648842],[116.2961196899414,0.22573412671488313],[116.29886627197266,0.22187177519948875],[116.30126953125,0.2204984944168018],[116.3023853302002,0.2194685337465927],[116.30281448364258,0.21818108280916704],[116.30290031433105,0.21603533100228844],[116.30229949951172,0.21423289925023425],[116.29757881164551,0.20968390388966895],[116.2957763671875,0.20882560272913508],[116.29354476928711,0.20873977261049959],[116.29165649414062,0.20891143284730163],[116.29131317138672,0.20856811237183592],[116.2913990020752,0.2081389617669629],[116.29302978515625,0.20762398102571922],[116.2957763671875,0.20779564127465733],[116.30393028259277,0.21028471467403165]]]}},{"type":"Feature","id":"pmtiles:10/842/511:water:9079495892:0","properties":{"intermittent":0,"class":"river","id":907949589,"water":"river","kind":"waterway","verification":"verified","source":"OpenMapTiles/OpenStreetMap national PMTiles","sourceId":"10/842/511:water:9079495892:0","sourceLayer":"water","archive":"https://its.hanifahseptiani45.workers.dev/v1/map/archive/indonesia.pmtiles","updatedAt":"2026-07-26T09:41:14.764Z"},"geometry":{"type":"Polygon","coordinates":[[[116.3041877746582,0.2091689231989733],[116.30393028259277,0.21028471467403165],[116.30650520324707,0.2114005060693387],[116.30865097045898,0.21354625852693232],[116.30959510803223,0.2155203505234482],[116.31028175354004,0.21792359260842886],[116.31096839904785,0.21912521350741088],[116.31156921386719,0.21964019386322775],[116.31217002868652,0.21972602392081342],[116.31311416625977,0.21955436380515891],[116.31397247314453,0.21912521350741088],[116.31422996520996,0.21869606319738466],[116.31474494934082,0.21637865131184242],[116.31508827209473,0.21277378767653943],[116.31543159484863,0.212001316787493],[116.31594657897949,0.21148633617335122],[116.3180923461914,0.21079969532796383],[116.32092475891113,0.21054220500312226],[116.3235855102539,0.20959807377572304],[116.32495880126953,0.20882560272913508],[116.32667541503906,0.20693734001130792],[116.32753372192383,0.20504907706870767],[116.32796287536621,0.2017875314626707],[116.3287353515625,0.19921262657442185],[116.32890701293945,0.19775351362549998],[116.32744789123535,0.19766768344801733],[116.32719039916992,0.19947011708143236],[116.32555961608887,0.20470575650971057],[116.32461547851562,0.20710900026770673],[116.32410049438477,0.20762398102571922],[116.32341384887695,0.2082247918888669],[116.32135391235352,0.2089972629649992],[116.3180923461914,0.20891143284730163],[116.31637573242188,0.2092547533152498],[116.31508827209473,0.2099413942286361],[116.31457328796387,0.21054220500312226],[116.31345748901367,0.21303127796430488],[116.31319999694824,0.21431872933848695],[116.31328582763672,0.21766610240331374],[116.31294250488281,0.21809525274275643],[116.3119125366211,0.21758027233394728],[116.31071090698242,0.21423289925023425],[116.30959510803223,0.2125162973844823],[116.30684852600098,0.2101130544522789],[116.3041877746582,0.2091689231989733]]]}},{"type":"Feature","id":"pmtiles:10/842/511:water:9079518032:0","properties":{"intermittent":0,"class":"river","id":907951803,"water":"river","kind":"waterway","verification":"verified","source":"OpenMapTiles/OpenStreetMap national PMTiles","sourceId":"10/842/511:water:9079518032:0","sourceLayer":"water","archive":"https://its.hanifahseptiani45.workers.dev/v1/map/archive/indonesia.pmtiles","updatedAt":"2026-07-26T09:41:14.764Z"},"geometry":{"type":"Polygon","coordinates":[[[116.32744789123535,0.19766768344801733],[116.32890701293945,0.19775351362549998],[116.3287353515625,0.19577941943180122],[116.32787704467773,0.19406281559612637],[116.32736206054688,0.19346200421240667],[116.32555961608887,0.19234621158625487],[116.3247013092041,0.19114458867650796],[116.3247013092041,0.190028795899309],[116.32547378540039,0.18788304035638248],[116.32633209228516,0.1867672473697155],[116.32693290710449,0.18642392643647554],[116.32796287536621,0.18616643573216152],[116.32933616638184,0.18650975667041791],[116.33045196533203,0.18719639852683656],[116.33088111877441,0.18796887058316258],[116.33122444152832,0.18874134260535413],[116.33139610290527,0.19131624909734057],[116.33191108703613,0.19243204179085183],[116.33242607116699,0.19311868341215188],[116.33448600769043,0.19406281559612637],[116.3356876373291,0.19380532500571235],[116.33646011352539,0.19337617401298246],[116.33757591247559,0.19226038138120316],[116.3382625579834,0.1908012678296842],[116.33843421936035,0.18959964481196323],[116.33783340454102,0.18633809620210684],[116.33603096008301,0.18187492344385703],[116.33603096008301,0.1808449603419291],[116.33637428283691,0.18007248797709963],[116.33697509765625,0.17921418531116728],[116.33791923522949,0.17861337342104378],[116.33920669555664,0.17818422205893114],[116.34178161621094,0.17827005233216653],[116.34195327758789,0.17663927707275207],[116.33929252624512,0.1763817862292143],[116.33706092834473,0.17681093763313527],[116.3356876373291,0.1776692404112339],[116.33465766906738,0.17912835504233726],[116.33440017700195,0.18118828138241838],[116.33465766906738,0.18238990497279417],[116.3371467590332,0.188054700809559],[116.33723258972168,0.18899883327178202],[116.33706092834473,0.19062960740372148],[116.33646011352539,0.19148790951646788],[116.33560180664062,0.19208872096983498],[116.33500099182129,0.19234621158625487],[116.334228515625,0.19226038138120316],[116.33294105529785,0.19148790951646788],[116.33259773254395,0.18771137990151487],[116.33191108703613,0.18659558690393396],[116.33036613464355,0.18530813335726748],[116.32882118225098,0.1847073216701034],[116.3272762298584,0.1847073216701034],[116.32590293884277,0.1853939635966384],[116.32530212402344,0.18616643573216152],[116.32375717163086,0.18865551238235412],[116.3232421875,0.1905437771900722],[116.32332801818848,0.19131624909734057],[116.32410049438477,0.19303285321099395],[116.32590293884277,0.19474945715138858],[116.32701873779297,0.19620857036332495],[116.32744789123535,0.19766768344801733]]]}},{"type":"Feature","id":"pmtiles:10/842/511:water:9079566512:0","properties":{"intermittent":0,"class":"river","id":907956651,"water":"river","kind":"waterway","verification":"verified","source":"OpenMapTiles/OpenStreetMap national PMTiles","sourceId":"10/842/511:water:9079566512:0","sourceLayer":"water","archive":"https://its.hanifahseptiani45.workers.dev/v1/map/archive/indonesia.pmtiles","updatedAt":"2026-07-26T09:41:14.764Z"},"geometry":{"type":"Polygon","coordinates":[[[116.34195327758789,0.17663927707275207],[116.34178161621094,0.17827005233216653],[116.34246826171875,0.1783558826049756],[116.34306907653809,0.17818422205893114],[116.34495735168457,0.17603846509894083],[116.34572982788086,0.17303440494083588],[116.34624481201172,0.17260525345064082],[116.34658813476562,0.17260525345064082],[116.34710311889648,0.17294857464356994],[116.34856224060059,0.17595263481538836],[116.3503646850586,0.17741174958197803],[116.35208129882812,0.17801256151129508],[116.3532829284668,0.17749757985878034],[116.3536262512207,0.1770684284707471],[116.35405540466309,0.17595263481538836],[116.35405540466309,0.17475101080422917],[116.35173797607422,0.16865705928969987],[116.35165214538574,0.1677987561046166],[116.35199546813965,0.16591048896513882],[116.35457038879395,0.15990236505973598],[116.35517120361328,0.1572416239073675],[116.35594367980957,0.15621165949899307],[116.35671615600586,0.15603999875933994],[116.35800361633301,0.15741328463717252],[116.35869026184082,0.1588724007832809],[116.3591194152832,0.16076066858398974],[116.35972023010254,0.16153314172495925],[116.36049270629883,0.1605031775304866],[116.36006355285645,0.1596448739954468],[116.35929107666016,0.1568124720767088],[116.35826110839844,0.155267525413592],[116.35705947875977,0.15475254316743303],[116.356201171875,0.1548383735426455],[116.35457038879395,0.15518169504011325],[116.35422706604004,0.15552501653198192],[116.35354042053223,0.1577566060925335],[116.35302543640137,0.1605031775304866],[116.35113716125488,0.16410805198206901],[116.35045051574707,0.16608214962167267],[116.35027885437012,0.16745543482002745],[116.35062217712402,0.16925787149675386],[116.35285377502441,0.17518016224563837],[116.35293960571289,0.17578097424708972],[116.35233879089355,0.17621012566488048],[116.35165214538574,0.17629595594723924],[116.35062217712402,0.17595263481538836],[116.35002136230469,0.17543765310577442],[116.34907722473145,0.17337772612599167],[116.34804725646973,0.1719186110462232],[116.34701728820801,0.17131779892208954],[116.34624481201172,0.17114613831172676],[116.34504318237305,0.1715752898347489],[116.34427070617676,0.17217610195078237],[116.34384155273438,0.17500850167026272],[116.34349822998047,0.17578097424708972],[116.34281158447266,0.17655344679197071],[116.34195327758789,0.17663927707275207]]]}},{"type":"Feature","id":"pmtiles:10/842/511:water:9079650302:0","properties":{"intermittent":0,"class":"river","id":907965030,"water":"river","kind":"waterway","verification":"verified","source":"OpenMapTiles/OpenStreetMap national PMTiles","sourceId":"10/842/511:water:9079650302:0","sourceLayer":"water","archive":"https://its.hanifahseptiani45.workers.dev/v1/map/archive/indonesia.pmtiles","updatedAt":"2026-07-26T09:41:14.764Z"},"geometry":{"type":"Polygon","coordinates":[[[116.14316940307617,0.3570533530247104],[116.14265441894531,0.3560234047045867],[116.1419677734375,0.3543926529625878],[116.1419677734375,0.35319104623205533],[116.14248275756836,0.35173195213620545],[116.14359855651855,0.3507878323055138],[116.14514350891113,0.3503586868964419],[116.14677429199219,0.3506161741442497],[116.14943504333496,0.3519894393461982],[116.15046501159668,0.3520752684146231],[116.15158081054688,0.35173195213620545],[116.15269660949707,0.3512169776949321],[116.15338325500488,0.35070200322527967],[116.15364074707031,0.34992954146768795],[116.15364074707031,0.3488137632611341],[116.15338325500488,0.34786964313687463],[116.15192413330078,0.3467538646864199],[116.1463451385498,0.34392150341491856],[116.1448860168457,0.34203326209988916],[116.14471435546875,0.3404883371111964],[116.14505767822266,0.3390292410612119],[116.14591598510742,0.3377418031874271],[116.14797592163086,0.33568190223493843],[116.14686012268066,0.3347377808198928],[116.14462852478027,0.3373984863922601],[116.14351272583008,0.339200899431475],[116.1434268951416,0.34108914130294465],[116.14385604858398,0.34297738280397994],[116.1445426940918,0.3440931616977849],[116.14565849304199,0.34512311133012474],[116.1518383026123,0.3477838140299667],[116.15243911743164,0.34864210506376025],[116.15243911743164,0.34958622511054216],[116.15175247192383,0.350530345062424],[116.15046501159668,0.35087366138498055],[116.14668846130371,0.34915707964648846],[116.14540100097656,0.34889959235864865],[116.1445426940918,0.3489854214553816],[116.14222526550293,0.349843712379581],[116.14136695861816,0.3507878323055138],[116.14076614379883,0.3519036102769917],[116.14042282104492,0.3533627043459546],[116.14119529724121,0.35628089179542144],[116.1416244506836,0.3570533530247104],[116.14316940307617,0.3570533530247104]]]}},{"type":"Feature","id":"pmtiles:10/842/511:water:9079853472:0","properties":{"intermittent":0,"class":"river","id":907985347,"water":"river","kind":"waterway","verification":"verified","source":"OpenMapTiles/OpenStreetMap national PMTiles","sourceId":"10/842/511:water:9079853472:0","sourceLayer":"water","archive":"https://its.hanifahseptiani45.workers.dev/v1/map/archive/indonesia.pmtiles","updatedAt":"2026-07-26T09:41:14.764Z"},"geometry":{"type":"Polygon","coordinates":[[[116.14797592163086,0.33568190223493843],[116.14917755126953,0.33456612237101524],[116.14977836608887,0.33353617161475313],[116.1500358581543,0.3319912452784024],[116.14952087402344,0.3304463187006519],[116.14789009094238,0.3283864162234522],[116.14754676818848,0.3278714405377343],[116.1474609375,0.3272706355375874],[116.15132331848145,0.3207476075192659],[116.15269660949707,0.31971765534470364],[116.15793228149414,0.3174860919458098],[116.15930557250977,0.31637031006553684],[116.16024971008301,0.31508286928540485],[116.16085052490234,0.31302296370654403],[116.16076469421387,0.3111347165704501],[116.15999221801758,0.3088173218962851],[116.15870475769043,0.3064999267169668],[116.15861892700195,0.30589912047734913],[116.15887641906738,0.30521248473375806],[116.1595630645752,0.3046116784221482],[116.16059303283691,0.3041825310362185],[116.16145133972168,0.3042683605147687],[116.16153717041016,0.3025517708142047],[116.16016387939453,0.30263760030568676],[116.15861892700195,0.3034100656985288],[116.15776062011719,0.3046116784221482],[116.15724563598633,0.30598494994221426],[116.1573314666748,0.3070149034669498],[116.15896224975586,0.31019059287554285],[116.15930557250977,0.31190718134890005],[116.15921974182129,0.3138812577470702],[116.15853309631348,0.31534035745418976],[116.15741729736328,0.3164561394452079],[116.15338325500488,0.3177435800549375],[116.15166664123535,0.3187735324272296],[116.15012168884277,0.3204901194853136],[116.14660263061523,0.3260690254293763],[116.1463451385498,0.32821475766448316],[116.14668846130371,0.3290730504298267],[116.14814758300781,0.3307038064803294],[116.14866256713867,0.3319054160303949],[116.14849090576172,0.33293536695715886],[116.14806175231934,0.3336220008485782],[116.14686012268066,0.3347377808198928],[116.14797592163086,0.33568190223493843]]]}},{"type":"Feature","id":"pmtiles:10/842/511:water:9080143622:0","properties":{"intermittent":0,"class":"river","id":908014362,"water":"river","kind":"waterway","verification":"verified","source":"OpenMapTiles/OpenStreetMap national PMTiles","sourceId":"10/842/511:water:9080143622:0","sourceLayer":"water","archive":"https://its.hanifahseptiani45.workers.dev/v1/map/archive/indonesia.pmtiles","updatedAt":"2026-07-26T09:41:14.764Z"},"geometry":{"type":"Polygon","coordinates":[[[116.35972023010254,0.16153314172495925],[116.36100769042969,0.16247727552405422],[116.36246681213379,0.16273476655253205],[116.36487007141113,0.16204812380266276],[116.36632919311523,0.1610181596342386],[116.3671875,0.15912989185723347],[116.3675308227539,0.15629748986827963],[116.36890411376953,0.15166264942928365],[116.36856079101562,0.1479719424425383],[116.3675308227539,0.14539703022677486],[116.3675308227539,0.14428123484178457],[116.3683032989502,0.1435945915007153],[116.3726806640625,0.141191339645232],[116.3726806640625,0.1399897136240611],[116.37259483337402,0.1399897136240611],[116.36847496032715,0.14222130475681638],[116.36693000793457,0.14325126982244285],[116.36632919311523,0.14428123484178457],[116.36615753173828,0.1450537085757162],[116.3671875,0.1475427904271811],[116.36778831481934,0.15123349748610337],[116.36761665344238,0.15243512290551564],[116.36667251586914,0.15569667727582726],[116.3660717010498,0.15938738292794596],[116.36547088623047,0.1603315168263606],[116.36409759521484,0.16110398998360154],[116.3631534576416,0.16136148102951609],[116.36212348937988,0.16127565068123317],[116.36049270629883,0.1605031775304866],[116.35972023010254,0.16153314172495925]]]}},{"type":"Feature","id":"pmtiles:10/842/511:waterway:566724500:0","properties":{"name":"Sungai Belayan","name_int":"Sungai Belayan","class":"river","name:latin":"Sungai Belayan","name_de":"Sungai Belayan","name_en":"Sungai Belayan","waterway":"river","kind":"waterway","verification":"verified","source":"OpenMapTiles/OpenStreetMap national PMTiles","sourceId":"10/842/511:waterway:566724500:0","sourceLayer":"waterway","archive":"https://its.hanifahseptiani45.workers.dev/v1/map/archive/indonesia.pmtiles","updatedAt":"2026-07-26T09:41:14.764Z"},"geometry":{"type":"LineString","coordinates":[[116.14394187927246,0.359284907322035],[116.14171028137207,0.3555084305013594],[116.14110946655273,0.35327687528941],[116.14128112792969,0.352161097482238],[116.14248275756836,0.3501870287272908],[116.14351272583008,0.34958622511054216],[116.14522933959961,0.3492429087408766],[116.14677429199219,0.3496720542010081],[116.14952087402344,0.35113114861862016],[116.15046501159668,0.351388635845197],[116.1518383026123,0.35113114861862016],[116.15278244018555,0.3506161741442497],[116.1532974243164,0.349843712379581],[116.1532974243164,0.3488137632611341],[116.15278244018555,0.34786964313687463],[116.14583015441895,0.34435064911632196],[116.14437103271484,0.3423765787303239],[116.14394187927246,0.3399733620598937],[116.14505767822266,0.3377418031874271],[116.14625930786133,0.3361968775138564],[116.14874839782715,0.33379365931395455],[116.14943504333496,0.3320770745256425],[116.14917755126953,0.33087546499639586],[116.1471176147461,0.32821475766448316],[116.14686012268066,0.32761395268492777],[116.14728927612305,0.32632651332180274],[116.14952087402344,0.32229253558668347],[116.15209579467773,0.3190310205042266],[116.15750312805176,0.316885286332905],[116.15870475769043,0.3161986513040631],[116.15982055664062,0.3145678929287641],[116.16007804870605,0.3126796460706771],[116.15973472595215,0.31027642230583297],[116.15836143493652,0.3076157096438976],[116.15784645080566,0.30589912047734913],[116.158447265625,0.3042683605147687],[116.15964889526367,0.3032384067270897],[116.1610221862793,0.30298091826486484],[116.16213798522949,0.3032384067270897],[116.16291046142578,0.303925042596461],[116.1668586730957,0.31122054599306637],[116.16728782653809,0.31345211073561074],[116.16745948791504,0.31757192131621537],[116.16771697998047,0.3184302149812339],[116.16814613342285,0.3188593617869486],[116.16891860961914,0.3190310205042266],[116.17046356201172,0.3187735324272296],[116.17106437683105,0.3182585562539373],[116.17132186889648,0.3174860919458098],[116.17166519165039,0.31353794013929814],[116.17123603820801,0.3123363284235552],[116.16951942443848,0.3100189340128594],[116.16745948791504,0.30615660886986973],[116.16591453552246,0.3006635218299749],[116.16591453552246,0.29894693156087726],[116.16617202758789,0.29765948868286785],[116.16677284240723,0.29645787519446287],[116.16788864135742,0.29559957976572093],[116.16960525512695,0.29491294337498175],[116.17252349853516,0.29474128427065693],[116.17595672607422,0.29551375021920023],[116.1778450012207,0.29559957976572093],[116.17913246154785,0.29508460247664914],[116.17999076843262,0.2938829887094556],[116.17981910705566,0.2921663973894084],[116.17947578430176,0.29122227205148477],[116.17887496948242,0.290535635392402],[116.1749267578125,0.28890487316003544],[116.17166519165039,0.2852141998772879],[116.16754531860352,0.2829826294102844],[116.1642837524414,0.2803219102158181],[116.16059303283691,0.2785194871918577],[116.15921974182129,0.277232042005906],[116.15913391113281,0.27637374513744817],[116.1595630645752,0.2756012779028083],[116.16050720214844,0.2747429809166988],[116.16256713867188,0.273713024451979],[116.16376876831055,0.272683067898825],[116.16608619689941,0.26899238952877624],[116.1683177947998,0.2681340920728843],[116.17106437683105,0.26787660282437287],[116.17733001708984,0.2682199218211707],[116.17887496948242,0.26847741106246303],[116.18462562561035,0.2707948139894114],[116.18651390075684,0.2718247707038586],[116.18908882141113,0.273713024451979],[116.19089126586914,0.2741421729897269],[116.19140625,0.2738846838689142],[116.1917495727539,0.27336970561074736],[116.19157791137695,0.27199643014773756],[116.19046211242676,0.2701081761311457],[116.18934631347656,0.2687349002983268],[116.18900299072266,0.2672757945568094],[116.18908882141113,0.26650332674107347],[116.18986129760742,0.26573085887690695],[116.19063377380371,0.2654733695781033],[116.19209289550781,0.2655591993449633],[116.19475364685059,0.2666749862598863],[116.19664192199707,0.2681340920728843],[116.19956016540527,0.27165311125754954],[116.20016098022461,0.27199643014773756],[116.20084762573242,0.27199643014773756],[116.20162010192871,0.27165311125754954],[116.20393753051758,0.2680482623239868],[116.20539665222168,0.2665891565007854],[116.2090015411377,0.2647009016495616],[116.21114730834961,0.26298430608071044],[116.21217727661133,0.2625551571515672],[116.2130355834961,0.2625551571515672],[116.21389389038086,0.26289847629607266],[116.21543884277344,0.26452924210333606],[116.21724128723145,0.2659025184064632],[116.2185287475586,0.2665891565007854],[116.21981620788574,0.26693247553359356],[116.22127532958984,0.26693247553359356],[116.22273445129395,0.26650332674107347],[116.22530937194824,0.26504422073485046],[116.22659683227539,0.26461507187674727],[116.22745513916016,0.26461507187674727],[116.22848510742188,0.26504422073485046],[116.22960090637207,0.2662458374583849],[116.2298583984375,0.2677907730736706],[116.22968673706055,0.2692498787537829],[116.22848510742188,0.27242557874674844],[116.22848510742188,0.27336970561074736],[116.2287425994873,0.2738846838689142],[116.2295150756836,0.27431383240049456],[116.2309741973877,0.2741421729897269],[116.23251914978027,0.27242557874674844],[116.23380661010742,0.2696790274500245],[116.23380661010742,0.2683057515688887],[116.23303413391113,0.26487256119338554],[116.23191833496094,0.2628126465108238],[116.22934341430664,0.26092439108663257],[116.22608184814453,0.2590361353790769],[116.22505187988281,0.258006177601672],[116.2240219116211,0.2558604319647202],[116.22350692749023,0.2527705576178505],[116.22350692749023,0.25139727989383687],[116.22410774230957,0.2503673215060189],[116.22530937194824,0.2503673215060189],[116.22848510742188,0.2526847277643469],[116.23183250427246,0.2538863456617122],[116.2364673614502,0.25689038991544066],[116.23844146728516,0.25740536885967913],[116.23998641967773,0.25689038991544066],[116.24101638793945,0.2555171126294198],[116.24135971069336,0.254487154568551],[116.24110221862793,0.25088230071007445],[116.24127388000488,0.24985234228175557],[116.2419605255127,0.24890821365153215],[116.24273300170898,0.24882238377269061],[116.24316215515137,0.2492515331612566],[116.2434196472168,0.25045315137477075],[116.24324798583984,0.2538863456617122],[116.24204635620117,0.2586069863153],[116.24204635620117,0.25946528442830186],[116.24238967895508,0.26058107188811164],[116.24299049377441,0.26092439108663257],[116.2437629699707,0.26092439108663257],[116.25088691711426,0.2582636670538676],[116.25286102294922,0.25654707060773774],[116.25371932983398,0.2550879634474086],[116.25414848327637,0.2536288561216651],[116.2544059753418,0.25156893961725757],[116.2532901763916,0.24676246651370093],[116.2532901763916,0.2452175283599871],[116.25389099121094,0.2441875694917428],[116.25449180603027,0.24367259002798392],[116.25569343566895,0.2431576105445714],[116.25929832458496,0.2423851412825968],[116.26041412353516,0.2415268420509875],[116.26084327697754,0.24084020262665717],[116.26110076904297,0.23929526379559718],[116.26075744628906,0.23749283493953044],[116.25912666320801,0.23423129641331286],[116.25921249389648,0.23363048660169738],[116.25964164733887,0.23302967676438868],[116.2613582611084,0.23217137695239387],[116.2631607055664,0.23191388699861193],[116.2653923034668,0.23225720693592677],[116.26891136169434,0.23363048660169738],[116.2697696685791,0.23371631657636271],[116.27045631408691,0.23345882665080353],[116.27140045166016,0.23225720693592677],[116.27174377441406,0.23114141710921388],[116.27174377441406,0.22607744680021824],[116.27208709716797,0.22393169613430075],[116.27260208129883,0.22324505585471854],[116.27337455749512,0.22315922581751124],[116.2741470336914,0.22350254596332775],[116.27457618713379,0.22461833638169537],[116.27397537231445,0.22745072706018732],[116.27397537231445,0.23466044626299265],[116.27440452575684,0.23551874592281763],[116.27569198608398,0.23646287548757527],[116.27629280090332,0.23663453540154933],[116.2778377532959,0.23646287548757527],[116.27946853637695,0.23569040584844458],[116.28092765808105,0.23448878632470382],[116.28178596496582,0.2331155067427204],[116.28238677978516,0.2315705670529553],[116.28230094909668,0.2292531572029759],[116.28058433532715,0.2238458661011009],[116.28058433532715,0.22238675546017816],[116.28092765808105,0.2216142850624152],[116.28170013427734,0.22075598457323053],[116.28341674804688,0.2200693441461823],[116.2847900390625,0.2203268343100433],[116.28547668457031,0.22075598457323053],[116.28650665283203,0.22178594515428074],[116.28779411315918,0.22478999643851694],[116.28865242004395,0.22616327682028725],[116.28951072692871,0.22667825692998633],[116.29131317138672,0.22693574697797203],[116.29328727722168,0.2265065968954474],[116.2954330444336,0.2252191465717317],[116.29672050476074,0.2237600360674037],[116.29809379577637,0.2216142850624152],[116.3016128540039,0.21895355338487832],[116.30229949951172,0.21749444226411185],[116.30221366882324,0.21543452044194566],[116.30187034606934,0.21457621960036022],[116.29955291748047,0.21277378767653943],[116.29663467407227,0.20985556411611128],[116.29508972167969,0.20951224366130816],[116.29208564758301,0.20959807377572304],[116.29071235656738,0.2092547533152498],[116.29036903381348,0.20831062201031614],[116.2906265258789,0.20779564127465733],[116.29148483276367,0.2072806605222297],[116.29371643066406,0.20693734001130792],[116.29749298095703,0.20753815090053251],[116.30264282226562,0.2091689231989733],[116.30633354187012,0.210713865220157],[116.30813598632812,0.21191548668632265],[116.30916595458984,0.2131171080592793],[116.30985260009766,0.21423289925023425],[116.3111400604248,0.21809525274275643],[116.31165504455566,0.2186102331339157],[116.3133716583252,0.21852440306993515],[116.31405830383301,0.21706529190758772],[116.31405830383301,0.21509120011110383],[116.31448745727539,0.21225880708811928],[116.3151741027832,0.21114301575444472],[116.31611824035645,0.21028471467403165],[116.31749153137207,0.2099413942286361],[116.32186889648438,0.20951224366130816],[116.32307052612305,0.2091689231989733],[116.3247013092041,0.20788147139843716],[116.32607460021973,0.20530656748314868],[116.32787704467773,0.19972760758443542],[116.32813453674316,0.19698104201231104],[116.32753372192383,0.1951786081092166],[116.32418632507324,0.19165956993386146],[116.32401466369629,0.190028795899309],[116.32444381713867,0.18856968215892778],[116.32521629333496,0.18702473806524722],[116.32667541503906,0.1855656240741297],[116.32864952087402,0.18522230311748444],[116.3298511505127,0.18565145431223584],[116.3313102722168,0.18693890783382017],[116.33251190185547,0.1919170605567473],[116.33302688598633,0.19251787199503667],[116.334228515625,0.1929470230094239],[116.33525848388672,0.1929470230094239],[116.33620262145996,0.19260370219878098],[116.33688926696777,0.1920028907635043],[116.33757591247559,0.19097292825395584],[116.33783340454102,0.18951381459319805],[116.33731842041016,0.1866814171370379],[116.33517265319824,0.18196075369969833],[116.33500099182129,0.18075913008078714],[116.33525848388672,0.17955750638238044],[116.33585929870605,0.17878503396309497],[116.33697509765625,0.17801256151129508],[116.33834838867188,0.17749757985878034],[116.3393783569336,0.1773259193047636],[116.34246826171875,0.17749757985878034],[116.34298324584961,0.1773259193047636],[116.34435653686523,0.17552348339168589],[116.34478569030762,0.17303440494083588],[116.34572982788086,0.1719186110462232],[116.34736061096191,0.17234776255187967],[116.34796142578125,0.17303440494083588],[116.34942054748535,0.17578097424708972],[116.3503646850586,0.17655344679197071],[116.35165214538574,0.1770684284707471],[116.35276794433594,0.17681093763313527],[116.3532829284668,0.17629595594723924],[116.35354042053223,0.17552348339168589],[116.35345458984375,0.1746651805147792],[116.35156631469727,0.16994451399631316],[116.3510513305664,0.16805624706410072],[116.35113716125488,0.1659963192935976],[116.35165214538574,0.16445137332475213],[116.35345458984375,0.16110398998360154],[116.35431289672852,0.15758494536555645],[116.35482788085938,0.15638332023722512],[116.35525703430176,0.15561084690408222],[116.35611534118652,0.155267525413592],[116.35705947875977,0.15543918615952634],[116.35808944702148,0.15595416838898757],[116.35869026184082,0.1568124720767088],[116.35972023010254,0.16041734717859413],[116.36160850524902,0.16204812380266276],[116.36255264282227,0.1622197844923079],[116.36401176452637,0.16179063276544525],[116.36598587036133,0.16041734717859413],[116.36641502380371,0.1596448739954468],[116.36693000793457,0.1566408113419584],[116.3683032989502,0.15131932787542723],[116.36813163757324,0.14917356804124893],[116.36693000793457,0.1450537085757162],[116.36701583862305,0.14410957400845348],[116.36787414550781,0.1429937785603812],[116.37396812438965,0.14016137448801658]]}},{"type":"Feature","id":"pmtiles:10/842/511:waterway:4325273672:0","properties":{"name":"Sungai Berambai","name_int":"Sungai Berambai","class":"river","name:latin":"Sungai Berambai","name_de":"Sungai Berambai","name_en":"Sungai Berambai","waterway":"river","kind":"waterway","verification":"verified","source":"OpenMapTiles/OpenStreetMap national PMTiles","sourceId":"10/842/511:waterway:4325273672:0","sourceLayer":"waterway","archive":"https://its.hanifahseptiani45.workers.dev/v1/map/archive/indonesia.pmtiles","updatedAt":"2026-07-26T09:41:14.764Z"},"geometry":{"type":"LineString","coordinates":[[116.06815338134766,0.05913733386036313],[116.06849670410156,0.05965231771452295],[116.06866836547852,0.05905150321753183],[116.06892585754395,0.05930899514561361],[116.06918334960938,0.05896567257458685],[116.06961250305176,0.05939482578803279],[116.06986999511719,0.05913733386036313],[116.0702133178711,0.05930899514561361],[116.07038497924805,0.058879841931485544],[116.07115745544434,0.05922316450306653],[116.0716724395752,0.058708180644927666],[116.07287406921387,0.058879841931485544],[116.07321739196777,0.05930899514561361],[116.0734748840332,0.05879401128827055],[116.07407569885254,0.05939482578803279],[116.07536315917969,0.05956648707250167],[116.07562065124512,0.05939482578803279],[116.07579231262207,0.059995640281286455],[116.0760498046875,0.05956648707250167],[116.07630729675293,0.060510624127388724],[116.07802391052246,0.0612830998873477],[116.07879638671875,0.061883914359626147],[116.07931137084961,0.061454761165833816],[116.07965469360352,0.061969744997966814],[116.08051300048828,0.06171225308251849],[116.08154296875,0.06171225308251849],[116.08257293701172,0.060510624127388724],[116.08283042907715,0.060682285408333314],[116.08334541320801,0.060510624127388724],[116.08420372009277,0.06111143860830737],[116.08549118041992,0.061540591804870814],[116.08583450317383,0.06136893052666892],[116.08600616455078,0.06085394668872368],[116.08677864074707,0.06059645476791786],[116.08695030212402,0.06179808372114337],[116.08755111694336,0.062141406274250244],[116.08823776245117,0.06171225308251849],[116.08901023864746,0.06171225308251849],[116.0896110534668,0.06111143860830737],[116.09064102172852,0.06102560796858825],[116.09124183654785,0.0603389628458757],[116.09158515930176,0.05939482578803279],[116.09184265136719,0.05922316450306653],[116.09270095825195,0.05930899514561361],[116.09347343444824,0.058708180644927666],[116.09441757202148,0.05742072097891082],[116.09553337097168,0.05724905968791916],[116.09647750854492,0.05750655162422902],[116.0969066619873,0.05690573710435842],[116.0976791381836,0.056476583872054675],[116.09853744506836,0.05681990645815915],[116.09991073608398,0.05527495480481548],[116.10102653503418,0.055704108045929956],[116.10162734985352,0.05510329350748577],[116.10214233398438,0.05510329350748577],[116.1023998260498,0.055875769341497517],[116.10300064086914,0.056133261283932256],[116.1046314239502,0.055875769341497517],[116.10506057739258,0.056476583872054675],[116.10574722290039,0.05690573710435842],[116.10651969909668,0.056133261283932256],[116.10729217529297,0.05639075322521592],[116.10772132873535,0.05630492257823505],[116.10857963562012,0.055360785453274275],[116.10986709594727,0.0549316322096729],[116.11072540283203,0.05433081766345538],[116.11124038696289,0.05424498701350444],[116.11227035522461,0.05458830961258343],[116.1133861541748,0.05364417246046571],[116.114501953125,0.05355834180954844],[116.11501693725586,0.05364417246046571],[116.11536026000977,0.05433081766345538],[116.11664772033691,0.05510329350748577],[116.11673355102539,0.05621909193115471],[116.11621856689453,0.05716322904223148],[116.11690521240234,0.05793570484883048],[116.11681938171387,0.05930899514561361],[116.11759185791016,0.059480656430338286],[116.11862182617188,0.06093977732872702],[116.12016677856445,0.06093977732872702],[116.12051010131836,0.06179808372114337],[116.12076759338379,0.061883914359626147],[116.12188339233398,0.061540591804870814],[116.12351417541504,0.061883914359626147],[116.12480163574219,0.0624847288251118],[116.12540245056152,0.06171225308251849],[116.12643241882324,0.0611972692479128],[116.1266040802002,0.06085394668872368],[116.12634658813477,0.05990980963979098],[116.12651824951172,0.05965231771452295],[116.1280632019043,0.05939482578803279],[116.12892150878906,0.057849874204180196],[116.12960815429688,0.05716322904223148],[116.13038063049316,0.05793570484883048],[116.13080978393555,0.05733489033347894],[116.1306381225586,0.056734075811817775],[116.1309814453125,0.056562414518765536],[116.1313247680664,0.056734075811817775],[116.13201141357422,0.05621909193115471],[116.13261222839355,0.05621909193115471],[116.13338470458984,0.056991567750444005],[116.13381385803223,0.05639075322521592],[116.13364219665527,0.055875769341497517],[116.13398551940918,0.055360785453274275],[116.13450050354004,0.05561827739795433],[116.13484382629395,0.056562414518765536],[116.1353588104248,0.05639075322521592],[116.13561630249023,0.055532446749850806],[116.13733291625977,0.054502478962987766],[116.1375904083252,0.05407332571323309],[116.13750457763672,0.05321501920468563],[116.13862037658691,0.05295752724978797],[116.13896369934082,0.052356712684172635],[116.13896369934082,0.051841728766220285],[116.1393928527832,0.05175589811281611],[116.14025115966797,0.05244254333676679],[116.14128112792969,0.052614204641571405],[116.14248275756836,0.05167006745931246],[116.14325523376465,0.05270003529379608],[116.1445426940918,0.05278586594590706],[116.14540100097656,0.05124091418998944],[116.14660263061523,0.050554268953106885],[116.14728927612305,0.050382607642745825],[116.1474609375,0.05124091418998944],[116.14797592163086,0.05175589811281611],[116.14977836608887,0.050039285020673674],[116.15012168884277,0.050039285020673674],[116.14969253540039,0.05132674484407573],[116.14986419677734,0.05167006745931246],[116.15020751953125,0.05192755941949656],[116.1514949798584,0.05141257549806255],[116.15235328674316,0.05209922072572226],[116.15415573120117,0.050382607642745825],[116.15578651428223,0.05081176091779582],[116.15681648254395,0.050125115676351584],[116.15827560424805,0.0497817930529294],[116.15861892700195,0.04840850254150553],[116.15999221801758,0.047979349250937275],[116.16033554077148,0.046691889363174255],[116.16033554077148,0.045661921435979025],[116.16085052490234,0.04523276812861354],[116.16316795349121,0.04179954158027499],[116.1635971069336,0.040426250918216056],[116.16411209106445,0.04016875891649363],[116.16462707519531,0.040855404252639005],[116.16565704345703,0.03999709758153358],[116.16608619689941,0.039911266913932764],[116.16625785827637,0.0397396055784327],[116.16617202758789,0.03870963755809953],[116.16642951965332,0.0383663148818556],[116.16754531860352,0.03733634684490994],[116.16857528686523,0.036993024163223254],[116.17012023925781,0.035190580062888444],[116.1697769165039,0.03416061198981879],[116.17063522338867,0.030298231620164984],[116.17106437683105,0.02969741688316674],[116.17140769958496,0.02995490891372299],[116.17166519165039,0.02969741688316674],[116.17106437683105,0.02909660214292842],[116.17080688476562,0.02737998858194146],[116.17097854614258,0.027122496545629815],[116.17140769958496,0.027637480617698884],[116.17166519165039,0.027637480617698884],[116.17192268371582,0.027294157903241967],[116.17192268371582,0.02677917382970918],[116.17226600646973,0.026607512471386485],[116.17260932922363,0.02583503635599982],[116.17192268371582,0.02497672955561825],[116.17321014404297,0.024719237514403858],[116.17449760437012,0.02343177730095647],[116.1752700805664,0.023603438663428733],[116.17733001708984,0.023174285256814642],[116.1775016784668,0.022230147757696272],[116.17853164672852,0.021028518204659008],[116.17870330810547,0.0203418727416107],[116.17827415466309,0.019140243174277316],[116.17861747741699,0.018796920439186238],[116.17913246154785,0.018796920439186238],[116.17964744567871,0.01922607385795061],[116.1807632446289,0.019140243174277316],[116.18213653564453,0.018024444282787044],[116.18282318115234,0.018281936335299065],[116.1829948425293,0.018968581806817042],[116.18411064147949,0.019655227275620746],[116.18453979492188,0.019655227275620746],[116.18462562561035,0.019397735225140877],[116.18428230285645,0.018539428387427392],[116.18574142456055,0.017852782914232534],[116.18617057800293,0.018024444282787044],[116.18668556213379,0.018968581806817042],[116.18711471557617,0.018968581806817042],[116.18728637695312,0.018367767019384473],[116.18754386901855,0.018367767019384473],[116.18857383728027,0.019741057959024033],[116.18891716003418,0.0198268886423989],[116.18926048278809,0.019741057959024033],[116.18943214416504,0.01905441249056139],[116.18968963623047,0.018968581806817042],[116.19071960449219,0.019483565908686273],[116.1917495727539,0.01931190454156706],[116.19217872619629,0.018796920439186238],[116.19363784790039,0.017852782914232534],[116.19423866271973,0.018024444282787044],[116.19518280029297,0.01750946017669719],[116.19638442993164,0.01811027496698614],[116.19758605957031,0.017938613598531106],[116.1983585357666,0.017423629492199666],[116.19870185852051,0.01750946017669719],[116.19895935058594,0.018539428387427392],[116.19990348815918,0.018711089755313992],[116.20024681091309,0.019397735225140877],[116.20084762573242,0.019741057959024033],[116.2020492553711,0.019483565908686273],[116.202392578125,0.0198268886423989],[116.20265007019043,0.02094268752193784],[116.20333671569824,0.02128601025253829],[116.20410919189453,0.02128601025253829],[116.20522499084473,0.01991271932570271],[116.20556831359863,0.0199985500089781],[116.20573997497559,0.020256042058520052],[116.20556831359863,0.021114348887351753],[116.20608329772949,0.02205848639357555],[116.20651245117188,0.02205848639357555],[116.20651245117188,0.021028518204659008],[116.20668411254883,0.02094268752193784],[116.20702743530273,0.02094268752193784],[116.20779991149902,0.021800994346989455],[116.20840072631836,0.021886825029227452],[116.2090015411377,0.021629332982371352],[116.21054649353027,0.019655227275620746],[116.21114730834961,0.019483565908686273],[116.21320724487305,0.020084380692210857],[116.21346473693848,0.021200179569973443],[116.21466636657715,0.021457671617554297],[116.2148380279541,0.02205848639357555],[116.21646881103516,0.02248763980350077],[116.21715545654297,0.023345946619613756],[116.21895790100098,0.022230147757696272],[116.21930122375488,0.022401809121618044],[116.21938705444336,0.023174285256814642],[116.22058868408203,0.02343177730095647],[116.22118949890137,0.024204253430482936],[116.22196197509766,0.024547576153324258],[116.2232494354248,0.024633406833899585],[116.22385025024414,0.02497672955561825],[116.22410774230957,0.025663374996383936],[116.22488021850586,0.02532005227647005],[116.22513771057129,0.02497672955561825],[116.22676849365234,0.024890898875270295],[116.22788429260254,0.024118422749637602],[116.22822761535645,0.024461745472692087],[116.22865676879883,0.024461745472692087],[116.22934341430664,0.023946761387790616],[116.22977256774902,0.023946761387790616],[116.23088836669922,0.024547576153324258],[116.23123168945312,0.023946761387790616],[116.2309741973877,0.023002623893802365],[116.23140335083008,0.022659301167152535],[116.23217582702637,0.02386093070676054],[116.23251914978027,0.024032592068735426],[116.23363494873047,0.023174285256814642],[116.23492240905762,0.023689269344600916],[116.23629570007324,0.023603438663428733],[116.23655319213867,0.023946761387790616],[116.23638153076172,0.024547576153324258],[116.23715400695801,0.02549171363652647],[116.23741149902344,0.02617835907453525],[116.2379264831543,0.026006697715388327],[116.23844146728516,0.024890898875270295],[116.23887062072754,0.024890898875270295],[116.23964309692383,0.0257492056762203],[116.23955726623535,0.02669334315058336],[116.24015808105469,0.026865004508792367],[116.24058723449707,0.026264189754030554],[116.24032974243164,0.02549171363652647],[116.2405014038086,0.02523422159633526],[116.24127388000488,0.025148390916143626],[116.24213218688965,0.024375914792017284],[116.2437629699707,0.024290084111271426],[116.2448787689209,0.023689269344600916],[116.24608039855957,0.023517607982213917],[116.246337890625,0.02326011593824262],[116.246337890625,0.02248763980350077],[116.24788284301758,0.022830962530576926],[116.24839782714844,0.022401809121618044],[116.2489128112793,0.020856856839174043],[116.24882698059082,0.019483565908686273],[116.24917030334473,0.01931190454156706],[116.25123023986816,0.0198268886423989],[116.25191688537598,0.01888275112301585],[116.2529468536377,0.018968581806817042],[116.25337600708008,0.017681121545550127],[116.25577926635742,0.017681121545550127],[116.25535011291504,0.015792846479712352],[116.25543594360352,0.013647079338738877],[116.25577926635742,0.012617111104077594],[116.25612258911133,0.012359619044772785],[116.25612258911133,0.011243820118266967],[116.25646591186523,0.011157989431438864],[116.25715255737305,0.01141548149186633],[116.25964164733887,0.011243820118266967],[116.26058578491211,0.01210212698519797],[116.26178741455078,0.01150131217862338],[116.26264572143555,0.011930465612039143],[116.26333236694336,0.011844634925409991],[116.26367568969727,0.011672973552066424],[116.26384735107422,0.010557174622888965],[116.26470565795898,0.010385513248806433],[116.26564979553223,0.009527206377001107],[116.26676559448242,0.009355545002378562],[116.26693725585938,0.008068084690137312],[116.26753807067871,0.008153915377747012],[116.2686538696289,0.009098052940288426],[116.26899719238281,0.009012222252877677],[116.2694263458252,0.008068084690137312],[116.27019882202148,0.008068084690137312],[116.27071380615234,0.007638931251790382],[116.27054214477539,0.005922317494338358],[116.27071380615234,0.005836486806302332],[116.27140045166016,0.006523132310121582],[116.27182960510254,0.006523132310121582],[116.27174377441406,0.0054073333660085154],[116.27397537231445,0.004377365108055642],[116.27509117126465,0.003519058225322169],[116.27586364746094,0.0019741058345630336],[116.27612113952637,0.0020599365229969635],[116.27629280090332,0.002918243406938359],[116.27663612365723,0.0030040740953012346],[116.27697944641113,0.0007724761962606408],[116.27732276916504,0.00034332275390625],[116.27809524536133,0.00034332275390625],[116.27869606018066,0.00008583068849077335],[116.28049850463867,0.0006866455077982891],[116.28127098083496,0.00042915344239702335],[116.2818717956543,0],[116.28135681152344,-0.0004291534423828125],[116.28161430358887,-0.0018024444577093846],[116.28393173217773,-0.0016307830808273138],[116.28599166870117,-0.002918243406938359],[116.2859058380127,-0.00351905822533638],[116.28607749938965,-0.003776550290226055],[116.28951072692871,-0.003433227537001926],[116.29054069519043,-0.002317428588227699],[116.29071235656738,-0.003175735472012775],[116.29131317138672,-0.003776550290226055],[116.29148483276367,-0.004634857172675311],[116.2946605682373,-0.005922317494338358]]}},{"type":"Feature","id":"pmtiles:8/210/127:landcover:5209327132:0","properties":{"subclass":"orchard","class":"farmland","kind":"green","verification":"verified","source":"OpenMapTiles/OpenStreetMap national PMTiles","sourceId":"8/210/127:landcover:5209327132:0","sourceLayer":"landcover","archive":"https://its.hanifahseptiani45.workers.dev/v1/map/archive/indonesia.pmtiles","updatedAt":"2026-07-26T09:35:30.172Z"},"geometry":{"type":"Polygon","coordinates":[[[116.09939575195312,0.21835274294053875],[116.10179901123047,0.21388957889242022],[116.10248565673828,0.2097697340031175],[116.10008239746094,0.2070231701397347],[116.10179901123047,0.20256000284989284],[116.0928726196289,0.18745388921607287],[116.09149932861328,0.1905437771900722],[116.09424591064453,0.1970668721933322],[116.09424591064453,0.20633652909930333],[116.092529296875,0.21217297698838422],[116.09596252441406,0.21732278212296308],[116.09939575195312,0.21835274294053875]]]}},{"type":"Feature","id":"pmtiles:8/210/127:landcover:5209327142:0","properties":{"subclass":"orchard","class":"farmland","kind":"green","verification":"verified","source":"OpenMapTiles/OpenStreetMap national PMTiles","sourceId":"8/210/127:landcover:5209327142:0","sourceLayer":"landcover","archive":"https://its.hanifahseptiani45.workers.dev/v1/map/archive/indonesia.pmtiles","updatedAt":"2026-07-26T09:35:30.172Z"},"geometry":{"type":"Polygon","coordinates":[[[116.07913970947266,0.2276223870835139],[116.07810974121094,0.2200693441461823],[116.08154296875,0.2283090271563708],[116.08772277832031,0.22418918623084494],[116.0811996459961,0.23002562719484843],[116.0811996459961,0.23448878632470382],[116.08875274658203,0.2365487054448323],[116.09458923339844,0.23036894717779433],[116.09870910644531,0.22933898720414447],[116.09905242919922,0.2193827036875433],[116.09321594238281,0.21560618060446757],[116.0921859741211,0.20908309308222783],[116.09115600585938,0.20736649064879487],[116.09321594238281,0.20839645213128222],[116.0928726196289,0.19947011708143236],[116.0866928100586,0.19466362695851558],[116.09355926513672,0.19809683433092573],[116.09081268310547,0.19123041888713033],[116.0928726196289,0.18745388921607287],[116.08806610107422,0.18230407471899923],[116.08360290527344,0.18745388921607287],[116.08360290527344,0.1919170605567473],[116.0870361328125,0.18711056829624795],[116.08360290527344,0.1943203061826182],[116.06986999511719,0.19981343775118887],[116.06128692626953,0.20633652909930333],[116.0654067993164,0.2101130544522789],[116.0599136352539,0.2125162973844823],[116.0599136352539,0.21526286027749109],[116.06918334960938,0.22281590566370824],[116.06678009033203,0.22796570712404218],[116.07261657714844,0.23517542606521147],[116.07467651367188,0.2327721868262813],[116.07948303222656,0.2331155067427204],[116.08085632324219,0.23036894717779433],[116.07501983642578,0.22727906703482859],[116.07398986816406,0.22418918623084494],[116.07192993164062,0.21663614153888489],[116.07536315917969,0.22624910683983046],[116.07913970947266,0.2276223870835139]],[[116.07330322265625,0.2070231701397347],[116.07192993164062,0.21663614153888489],[116.0708999633789,0.21320293815375635],[116.07330322265625,0.2070231701397347]],[[116.0811996459961,0.21148633617335122],[116.07810974121094,0.2200693441461823],[116.07707977294922,0.21423289925023425],[116.07467651367188,0.21114301575444472],[116.07707977294922,0.21217297698838422],[116.07845306396484,0.21766610240331374],[116.08051300048828,0.21114301575444472],[116.07913970947266,0.20839645213128222],[116.08222961425781,0.20427660580061513],[116.07948303222656,0.20839645213128222],[116.0811996459961,0.21148633617335122]]]}},{"type":"Feature","id":"pmtiles:8/210/127:landcover:10496403722:0","properties":{"subclass":"orchard","class":"farmland","kind":"green","verification":"verified","source":"OpenMapTiles/OpenStreetMap national PMTiles","sourceId":"8/210/127:landcover:10496403722:0","sourceLayer":"landcover","archive":"https://its.hanifahseptiani45.workers.dev/v1/map/archive/indonesia.pmtiles","updatedAt":"2026-07-26T09:35:30.172Z"},"geometry":{"type":"Polygon","coordinates":[[[116.3448715209961,0.09956354852505456],[116.34109497070312,0.10299677069976099],[116.34281158447266,0.105400026002755],[116.33834838867188,0.10505670382788423],[116.334228515625,0.10780328112031157],[116.33766174316406,0.11123650238675964],[116.33628845214844,0.11707297761650182],[116.33319854736328,0.1174162996515804],[116.33731842041016,0.12222280769468341],[116.34796142578125,0.11913290976359292],[116.34864807128906,0.117759621682481],[116.34040832519531,0.11432640118543702],[116.34109497070312,0.11192314659250258],[116.3510513305664,0.11089318027788408],[116.35208129882812,0.10299677069976099],[116.35860443115234,0.09578700372046],[116.3565444946289,0.09372707001423919],[116.35448455810547,0.09544368144462112],[116.3507080078125,0.09441371459656978],[116.3448715209961,0.09956354852505456]]]}},{"type":"Feature","id":"pmtiles:8/210/127:landcover:10496403732:0","properties":{"subclass":"orchard","class":"farmland","kind":"green","verification":"verified","source":"OpenMapTiles/OpenStreetMap national PMTiles","sourceId":"8/210/127:landcover:10496403732:0","sourceLayer":"landcover","archive":"https://its.hanifahseptiani45.workers.dev/v1/map/archive/indonesia.pmtiles","updatedAt":"2026-07-26T09:35:30.172Z"},"geometry":{"type":"Polygon","coordinates":[[[116.38263702392578,0.20839645213128222],[116.3836669921875,0.2018733616186097],[116.37680053710938,0.1905437771900722],[116.3558578491211,0.18745388921607287],[116.35311126708984,0.1902004563312829],[116.35208129882812,0.1960369099920456],[116.3558578491211,0.2001567584137831],[116.35276794433594,0.20667984962324226],[116.34212493896484,0.21217297698838422],[116.34246826171875,0.21629282123517157],[116.33869171142578,0.21697946183482486],[116.3393783569336,0.22075598457323053],[116.34521484375,0.22075598457323053],[116.34212493896484,0.22727906703482859],[116.33525848388672,0.22178594515428074],[116.32736206054688,0.22693574697797203],[116.3180923461914,0.22624910683983046],[116.31534576416016,0.23208554696832095],[116.3232421875,0.23689202526853137],[116.31980895996094,0.24032522303571113],[116.31843566894531,0.2465049768338332],[116.3235855102539,0.2585211565008194],[116.31877899169922,0.2585211565008194],[116.31877899169922,0.26847741106246303],[116.32152557373047,0.2725972381820867],[116.32976531982422,0.2681340920728843],[116.36272430419922,0.23345882665080353],[116.37508392333984,0.26195434862599143],[116.39774322509766,0.32615485472759076],[116.40426635742188,0.3302746601771531],[116.41284942626953,0.31173552251414094],[116.41181945800781,0.3000627152664066],[116.40632629394531,0.2945696251637173],[116.4107894897461,0.28255348119424184],[116.400146484375,0.23139890707702193],[116.39396667480469,0.2238458661011009],[116.39293670654297,0.21697946183482486],[116.3895034790039,0.21594950092369913],[116.38710021972656,0.21045637489389435],[116.38263702392578,0.20839645213128222]]]}}]}