{"type":"FeatureCollection","features":[{"type":"Feature","id":"pmtiles:10/807/495:water:800:0","properties":{"class":"ocean","water":"ocean","kind":"waterway","verification":"verified","source":"OpenMapTiles/OpenStreetMap national PMTiles","sourceId":"10/807/495:water:800:0","sourceLayer":"water","archive":"https://its.hanifahseptiani45.workers.dev/v1/map/archive/indonesia.pmtiles","updatedAt":"2026-07-26T09:38:11.109Z"},"geometry":{"type":"Polygon","coordinates":[[[103.7054443359375,5.971217057997222],[104.0679931640625,5.971217057997222],[104.0679931640625,5.61051899590089],[103.7054443359375,5.61051899590089],[103.7054443359375,5.971217057997222]]]}}]}