{"type":"FeatureCollection","features":[{"type":"Feature","id":"pmtiles:10/821/501:transportation:13892236020:0","properties":{"class":"ferry","highway":"ferry","kind":"road","verification":"verified","source":"OpenMapTiles/OpenStreetMap national PMTiles","sourceId":"10/821/501:transportation:13892236020:0","sourceLayer":"transportation","archive":"https://its.hanifahseptiani45.workers.dev/v1/map/archive/indonesia.pmtiles","updatedAt":"2026-07-26T09:39:28.662Z"},"geometry":{"type":"LineString","coordinates":[[108.6273193359375,3.570646418749746],[108.66268157958984,3.5079381900405053]]}},{"type":"Feature","id":"pmtiles:10/821/501:transportation:13892236020:1","properties":{"class":"ferry","highway":"ferry","kind":"road","verification":"verified","source":"OpenMapTiles/OpenStreetMap national PMTiles","sourceId":"10/821/501:transportation:13892236020:1","sourceLayer":"transportation","archive":"https://its.hanifahseptiani45.workers.dev/v1/map/archive/indonesia.pmtiles","updatedAt":"2026-07-26T09:39:28.662Z"},"geometry":{"type":"LineString","coordinates":[[108.66036415100098,3.5079381900405053],[108.6273193359375,3.5667915274641615]]}},{"type":"Feature","id":"pmtiles:10/821/501:water:2350:0","properties":{"class":"ocean","water":"ocean","kind":"waterway","verification":"verified","source":"OpenMapTiles/OpenStreetMap national PMTiles","sourceId":"10/821/501:water:2350:0","sourceLayer":"water","archive":"https://its.hanifahseptiani45.workers.dev/v1/map/archive/indonesia.pmtiles","updatedAt":"2026-07-26T09:39:28.662Z"},"geometry":{"type":"Polygon","coordinates":[[[108.6273193359375,3.8697352734583603],[108.9898681640625,3.8697352734583603],[108.9898681640625,3.5079381900405053],[108.6273193359375,3.5079381900405053],[108.6273193359375,3.8697352734583603]]]}}]}