{"type":"FeatureCollection","features":[{"type":"Feature","id":"pmtiles:12/3472/1980:water:20:0","properties":{"class":"ocean","water":"ocean","kind":"waterway","verification":"verified","source":"OpenMapTiles/OpenStreetMap national PMTiles","sourceId":"12/3472/1980:water:20:0","sourceLayer":"water","archive":"https://its.hanifahseptiani45.workers.dev/v1/map/archive/indonesia.pmtiles","updatedAt":"2026-07-26T10:37:56.225Z"},"geometry":{"type":"Polygon","coordinates":[[[125.24551391601562,5.967119522904156],[125.24551391601562,5.9111381592098695],[125.24450540542603,5.9107326310845565],[125.24188756942749,5.91030575905269],[125.24126529693604,5.9100496356755485],[125.2396559715271,5.908576923957028],[125.2389907836914,5.908150050262776],[125.23804664611816,5.9076804888189685],[125.23731708526611,5.907232270705677],[125.23624420166016,5.906442552194818],[125.23605108261108,5.9061864270305335],[125.23600816726685,5.905844926627253],[125.23624420166016,5.9044789229086945],[125.23635149002075,5.90317694747948],[125.23678064346313,5.9018749689912084],[125.23748874664307,5.900274171576157],[125.23766040802002,5.899548475225302],[125.23770332336426,5.898993530316147],[125.2375316619873,5.897542133312854],[125.23736000061035,5.896901809898097],[125.23660898208618,5.89547175160331],[125.23635149002075,5.895194277178845],[125.23592233657837,5.894831425799026],[125.23542881011963,5.894617983700073],[125.23497819900513,5.8945966394856555],[125.23429155349731,5.894105722327637],[125.23364782333374,5.8937855587297605],[125.23330450057983,5.893721525988028],[125.23261785507202,5.893849591464104],[125.232253074646,5.893721525988028],[125.2314805984497,5.893251952322899],[125.23038625717163,5.892739689689719],[125.2296781539917,5.892312803800976],[125.22806882858276,5.891651130024698],[125.22774696350098,5.8916297856962245],[125.2265453338623,5.891864573264499],[125.22583723068237,5.891779195978444],[125.22493600845337,5.891544408374045],[125.22388458251953,5.891117521566272],[125.22367000579834,5.891074832867446],[125.22345542907715,5.891138865914456],[125.22300481796265,5.891544408374045],[125.2227258682251,5.891651130024698],[125.22201776504517,5.891821884623113],[125.22173881530762,5.891757851654859],[125.22152423858643,5.8916084413669125],[125.22096633911133,5.891032144165337],[125.21982908248901,5.890199713818262],[125.21661043167114,5.8877024152915],[125.2161169052124,5.88704073602284],[125.2155590057373,5.886507123135459],[125.21497964859009,5.8861229215392825],[125.21452903747559,5.885717375121828],[125.21379947662354,5.8847782138611535],[125.21367073059082,5.884394011069887],[125.21324157714844,5.883924429519993],[125.21287679672241,5.8838390510137515],[125.21281242370605,5.883775017125473],[125.21281242370605,5.883625604690806],[125.21405696868896,5.883284090403663],[125.2146577835083,5.8828358525834545],[125.21635293960571,5.881469792236317],[125.2170181274414,5.8808081055494625],[125.21776914596558,5.879847591216404],[125.2186918258667,5.879057833744696],[125.21952867507935,5.878566902859504],[125.21993637084961,5.877990592137252],[125.22012948989868,5.87696603826862],[125.15487670898438,5.87696603826862],[125.15487670898438,5.967119522904156],[125.24551391601562,5.967119522904156]]]}},{"type":"Feature","id":"pmtiles:12/3473/1980:water:20:0","properties":{"class":"ocean","water":"ocean","kind":"waterway","verification":"verified","source":"OpenMapTiles/OpenStreetMap national PMTiles","sourceId":"12/3473/1980:water:20:0","sourceLayer":"water","archive":"https://its.hanifahseptiani45.workers.dev/v1/map/archive/indonesia.pmtiles","updatedAt":"2026-07-26T10:37:56.288Z"},"geometry":{"type":"Polygon","coordinates":[[[125.24450540542603,5.9107326310845565],[125.24276733398438,5.910455164301297],[125.24276733398438,5.967119522904156],[125.28353691101074,5.967119522904156],[125.28357982635498,5.966991474438856],[125.283043384552,5.965070743870214],[125.28310775756836,5.964601230930057],[125.2836012840271,5.9643451327932695],[125.28373003005981,5.964131717587918],[125.28338670730591,5.963747570009019],[125.28297901153564,5.963704886928085],[125.28233528137207,5.963427446821058],[125.28220653533936,5.962829883037003],[125.28212070465088,5.962061585786728],[125.28239965438843,5.961122554353054],[125.28197050094604,5.960802429633347],[125.28188467025757,5.960140837954185],[125.28216361999512,5.960119496273833],[125.28145551681519,5.95922314494976],[125.28094053268433,5.958412159157177],[125.27993202209473,5.957152994631414],[125.27832269668579,5.954122451224109],[125.27858018875122,5.953802322422973],[125.27791500091553,5.953631586986106],[125.27686357498169,5.952479121399492],[125.27624130249023,5.951966913696239],[125.27568340301514,5.951219943273287],[125.27501821517944,5.950622366203987],[125.27394533157349,5.949768683549536],[125.2727222442627,5.947997287812655],[125.27231454849243,5.94763447111427],[125.27040481567383,5.946183201927411],[125.26896715164185,5.944411794643017],[125.26843070983887,5.943451390719247],[125.26727199554443,5.940783593249236],[125.267014503479,5.939908552863599],[125.26679992675781,5.939310963508532],[125.26641368865967,5.938499948346646],[125.26570558547974,5.936408377418715],[125.26553392410278,5.9356613858773954],[125.26540517807007,5.934210085131156],[125.26559829711914,5.933100264335124],[125.26592016220093,5.9317983563230285],[125.26594161987305,5.931222100975674],[125.26630640029907,5.9304110739111735],[125.26643514633179,5.929706759966635],[125.26641368865967,5.929600045654155],[125.26624202728271,5.929407959839679],[125.26602745056152,5.929279902592896],[125.26594161987305,5.929386616967278],[125.26587724685669,5.929343931220004],[125.26585578918457,5.929173188197851],[125.26596307754517,5.929002445122848],[125.26598453521729,5.928724987513263],[125.26611328125,5.928682301714787],[125.26615619659424,5.9288103591002965],[125.2662205696106,5.9288103591002965],[125.26643514633179,5.928276786464593],[125.26641368865967,5.92810604311218],[125.26615619659424,5.927849927984511],[125.26619911193848,5.927615155679732],[125.26604890823364,5.927401726225057],[125.26596307754517,5.927102924849862],[125.26637077331543,5.926996210033792],[125.2671217918396,5.926612036525114],[125.26737928390503,5.9263772636937375],[125.26759386062622,5.926313234722386],[125.26892423629761,5.926142490762487],[125.2690315246582,5.925950403744466],[125.26907444000244,5.925587572528045],[125.26954650878906,5.925288770170752],[125.2699327468872,5.925288770170752],[125.26995420455933,5.925224741073137],[125.27031898498535,5.92507533981653],[125.27044773101807,5.925160711968118],[125.27055501937866,5.924968624608468],[125.27072668075562,5.925032653735784],[125.27074813842773,5.924968624608468],[125.27089834213257,5.924968624608468],[125.27085542678833,5.92507533981653],[125.27089834213257,5.925096682855667],[125.27113437652588,5.925053996776569],[125.27111291885376,5.924968624608468],[125.27085542678833,5.92481922328254],[125.27085542678833,5.924648478860561],[125.27076959609985,5.924541763569991],[125.27081251144409,5.9245204205093955],[125.27100563049316,5.924627135804087],[125.27111291885376,5.924541763569991],[125.27113437652588,5.924306989858152],[125.27098417282104,5.92426430371799],[125.27098417282104,5.9242216175745455],[125.27134895324707,5.9240295298881875],[125.27190685272217,5.923944157561692],[125.27188539505005,5.9238801283081415],[125.27154207229614,5.92373072668768],[125.27152061462402,5.923645354314985],[125.27154207229614,5.9234532664281545],[125.27137041091919,5.923495952631001],[125.2712631225586,5.923431923325495],[125.27119874954224,5.923239835364441],[125.27134895324707,5.923069090454064],[125.27128458023071,5.922941031736627],[125.27132749557495,5.922834316116109],[125.27137041091919,5.922727600474957],[125.2714991569519,5.9226635710803635],[125.27154207229614,5.92247148285206],[125.27158498764038,5.92240745342778],[125.27175664901733,5.92240745342778],[125.27182102203369,5.922343423996068],[125.27177810668945,5.921959247249973],[125.2716064453125,5.922001933568282],[125.27156352996826,5.9219379040895745],[125.27158498764038,5.921895217766306],[125.27179956436157,5.92185253143974],[125.27182102203369,5.92148969753076],[125.27177810668945,5.92134029526369],[125.27173519134521,5.921468354352228],[125.27169227600098,5.921468354352228],[125.27156352996826,5.92110552019092],[125.27158498764038,5.92093477462079],[125.2717137336731,5.920913431420814],[125.27169227600098,5.920849401815929],[125.2717137336731,5.920785372203639],[125.27188539505005,5.920892088220015],[125.27190685272217,5.92099880421577],[125.27207851409912,5.920956117819941],[125.27201414108276,5.920849401815929],[125.27209997177124,5.920742685791311],[125.27188539505005,5.920678656166643],[125.27188539505005,5.920614626534558],[125.27192831039429,5.920379851153413],[125.27218580245972,5.920358507932008],[125.27201414108276,5.92016641890217],[125.27190685272217,5.919291345810166],[125.27175664901733,5.919184629484619],[125.27173519134521,5.9190565698667825],[125.27184247970581,5.9188644803843715],[125.2722716331482,5.918736420692355],[125.27235746383667,5.9188644803843715],[125.27235746383667,5.919205972751371],[125.2726149559021,5.919184629484619],[125.27265787124634,5.919035226594261],[125.2725076675415,5.918885823663487],[125.27246475219727,5.9184589579245],[125.27237892150879,5.9184589579245],[125.27233600616455,5.918522987806369],[125.27220726013184,5.918480301219276],[125.27209997177124,5.918224181627522],[125.27177810668945,5.917840002017357],[125.271155834198,5.917370448797882],[125.27021169662476,5.916794178392507],[125.26976108551025,5.916730148310393],[125.2690315246582,5.916794178392507],[125.26881694793701,5.916879551823797],[125.2686882019043,5.917050298646842],[125.2684736251831,5.917114328691881],[125.26705741882324,5.916815521751559],[125.26660680770874,5.916794178392507],[125.26641368865967,5.916836865109801],[125.26652097702026,5.917007611946019],[125.26649951934814,5.917050298646842],[125.26630640029907,5.917114328691881],[125.2656626701355,5.916922238534511],[125.26516914367676,5.916538058019526],[125.26480436325073,5.9164099977885485],[125.26416063308716,5.916708804948016],[125.26349544525146,5.916879551823797],[125.26336669921875,5.916986268594371],[125.26328086853027,5.917327762121801],[125.26317358016968,5.917477165473699],[125.26289463043213,5.917562538799501],[125.26280879974365,5.917754628734386],[125.26259422302246,5.917861345336036],[125.26240110397339,5.918074778477518],[125.26158571243286,5.9183735847371395],[125.26122093200684,5.918693734121746],[125.26098489761353,5.918843137104432],[125.26023387908936,5.9190565698667825],[125.25924682617188,5.919141942948642],[125.25832414627075,5.91907791313848],[125.25671482086182,5.918501644513242],[125.25551319122314,5.917861345336036],[125.25465488433838,5.917135672038569],[125.25398969650269,5.916495371279154],[125.25216579437256,5.915321484627668],[125.2512001991272,5.914510434212829],[125.24841070175171,5.912632207633408],[125.2480673789978,5.91246145944632],[125.24740219116211,5.912312054739402],[125.24684429168701,5.911863840376583],[125.24592161178589,5.911287564233746],[125.24450540542603,5.9107326310845565]]]}},{"type":"Feature","id":"pmtiles:12/3472/1981:water:20:0","properties":{"class":"ocean","water":"ocean","kind":"waterway","verification":"verified","source":"OpenMapTiles/OpenStreetMap national PMTiles","sourceId":"12/3472/1981:water:20:0","sourceLayer":"water","archive":"https://its.hanifahseptiani45.workers.dev/v1/map/archive/indonesia.pmtiles","updatedAt":"2026-07-26T10:38:31.376Z"},"geometry":{"type":"Polygon","coordinates":[[[125.21796226501465,5.879698177726667],[125.2186918258667,5.879057833744696],[125.21952867507935,5.878566902859504],[125.21993637084961,5.877990592137252],[125.2204942703247,5.875023649716283],[125.22113800048828,5.8726543534079525],[125.22141695022583,5.870840020592624],[125.22176027297974,5.8691964434130455],[125.22186756134033,5.8672540277705565],[125.2218246459961,5.866378871258689],[125.2216100692749,5.865012770543714],[125.2216100692749,5.864201646661073],[125.22135257720947,5.861384049274193],[125.22118091583252,5.860402155933187],[125.2208161354065,5.859462951990849],[125.22012948989868,5.858203562406672],[125.21922826766968,5.856922824323448],[125.21849870681763,5.856431873946207],[125.21783351898193,5.856261108496454],[125.217125415802,5.856325145546236],[125.21688938140869,5.856261108496454],[125.21663188934326,5.856090342994506],[125.21641731262207,5.855578046175452],[125.21581649780273,5.854638834120422],[125.21512985229492,5.853742312049775],[125.21489381790161,5.853336742069118],[125.21487236022949,5.853016555034415],[125.21502256393433,5.852610984527104],[125.21508693695068,5.851735805061381],[125.21528005599976,5.850881970115907],[125.21525859832764,5.8486406471809005],[125.21512985229492,5.848064305545861],[125.21472215652466,5.847082388800004],[125.21440029144287,5.846527391616135],[125.2140998840332,5.846143162474064],[125.21276950836182,5.845951047804093],[125.21182537078857,5.84531066509453],[125.2110743522644,5.8452039345716855],[125.21015167236328,5.844883742881066],[125.20985126495361,5.844286051235144],[125.20970106124878,5.8436243204541825],[125.2090573310852,5.8424502800469185],[125.20884275436401,5.841297583433956],[125.20843505859375,5.840337001110839],[125.2075982093811,5.839098914797887],[125.20734071731567,5.838842758667383],[125.20637512207031,5.838159675080206],[125.20594596862793,5.837967557671263],[125.20577430725098,5.8377967865858125],[125.20555973052979,5.837391205049286],[125.20528078079224,5.835982340589254],[125.20528078079224,5.8357475295016314],[125.20547389984131,5.835064442142084],[125.20551681518555,5.834573472588318],[125.20536661148071,5.832588243487692],[125.20566701889038,5.831648992862284],[125.20577430725098,5.831136673676511],[125.20575284957886,5.8309018605600045],[125.20560264587402,5.830453580701061],[125.20560264587402,5.830133380582538],[125.20506620407104,5.829087392255431],[125.20470142364502,5.828575070730892],[125.20425081253052,5.827742547256136],[125.20416498184204,5.827507732719511],[125.20405769348145,5.826611167221699],[125.20395040512085,5.826525779956754],[125.20382165908813,5.8265471267742015],[125.20328521728516,5.826803288520324],[125.20285606384277,5.826910022546713],[125.2027702331543,5.8267819417126105],[125.20319938659668,5.826525779956754],[125.20328521728516,5.826376352211867],[125.20328521728516,5.826098843437279],[125.20324230194092,5.825949415578805],[125.20281314849854,5.825842681369792],[125.20264148712158,5.82571460029223],[125.20178318023682,5.825629212890959],[125.20124673843384,5.82571460029223],[125.20079612731934,5.825842681369792],[125.20021677017212,5.825821334525571],[125.19959449768066,5.8259280687386195],[125.1987361907959,5.825650559742485],[125.19837141036987,5.825735947140515],[125.19822120666504,5.825842681369792],[125.1971697807312,5.827080796946731],[125.19676208496094,5.827422345590918],[125.19641876220703,5.827635813388028],[125.19532442092896,5.827934668167586],[125.19328594207764,5.828212176034711],[125.19199848175049,5.828639110947023],[125.19023895263672,5.829663753411538],[125.18858671188354,5.830795127292745],[125.18817901611328,5.831286100154031],[125.18787860870361,5.831734379347765],[125.1876425743103,5.832396124169534],[125.18747091293335,5.832716322996575],[125.18723487854004,5.832908442205039],[125.18676280975342,5.833121907915057],[125.1866340637207,5.8332286407396055],[125.18656969070435,5.833356720102245],[125.18656969070435,5.8337623045576095],[125.18641948699951,5.834018463009855],[125.18616199493408,5.8342532748216485],[125.18553972244263,5.834573472588318],[125.18489599227905,5.835726183034254],[125.1843810081482,5.836217151578509],[125.18356561660767,5.837113701723609],[125.18302917480469,5.837497937061045],[125.1826000213623,5.8376900546309685],[125.18107652664185,5.838223714201874],[125.18088340759277,5.8382664069455785],[125.18062591552734,5.838245060574138],[125.18043279647827,5.838138328704673],[125.18030405044556,5.837882172135039],[125.17976760864258,5.835726183034254],[125.17948865890503,5.835256560546071],[125.1792311668396,5.834573472588318],[125.17875909805298,5.83331402698461],[125.17863035202026,5.832823055898302],[125.17813682556152,5.8320972717660595],[125.17781496047974,5.831819765820256],[125.17740726470947,5.831584952989658],[125.17637729644775,5.83120071360031],[125.17579793930054,5.830709740664318],[125.1753044128418,5.830261460651883],[125.17498254776001,5.829557019908762],[125.17481088638306,5.827379652021762],[125.17459630966187,5.826675207661879],[125.17453193664551,5.825949415578805],[125.17457485198975,5.8250528475927865],[125.1747465133667,5.823964155971325],[125.1747465133667,5.823750686778496],[125.17487525939941,5.823537217504551],[125.17506837844849,5.823515870572706],[125.17603397369385,5.82168003139887],[125.1763129234314,5.820932885831837],[125.17639875411987,5.820185739271537],[125.17637729644775,5.819225120806209],[125.17545461654663,5.818093723619768],[125.17496109008789,5.817346573286301],[125.17401695251465,5.816428644374881],[125.17393112182617,5.816407297173058],[125.17330884933472,5.816514033174016],[125.17341613769531,5.815830922417902],[125.17315864562988,5.8156387973682655],[125.17292261123657,5.815339936049526],[125.1723861694336,5.814059100028189],[125.17236471176147,5.8132052077275205],[125.17240762710571,5.813013081781307],[125.172278881073,5.811860324726794],[125.17230033874512,5.811710893083912],[125.17236471176147,5.811646850939113],[125.1727294921875,5.811646850939113],[125.17296552658081,5.81183897735167],[125.17320156097412,5.811668198321513],[125.1732873916626,5.811540114014917],[125.17356634140015,5.809682888294418],[125.1738452911377,5.808850336845012],[125.1742959022522,5.806800974188192],[125.17427444458008,5.8062459371856505],[125.17436027526855,5.805626856807038],[125.1741886138916,5.804602170547994],[125.1744031906128,5.803364005499446],[125.17436027526855,5.803171876196458],[125.17401695251465,5.802723574234818],[125.17393112182617,5.802446053794213],[125.17388820648193,5.801997751255456],[125.17399549484253,5.801613491652844],[125.17423152923584,5.801165188452174],[125.17455339431763,5.799798928880833],[125.17448902130127,5.799457363470893],[125.1742959022522,5.799201189277724],[125.17427444458008,5.798816927769863],[125.17459630966187,5.797728185409696],[125.17472505569458,5.797557402103777],[125.17502546310425,5.797365270822809],[125.17571210861206,5.796703484798854],[125.17611980438232,5.796383265476422],[125.17719268798828,5.795401258421478],[125.17719268798828,5.795251822415523],[125.17672061920166,5.794483293760123],[125.17674207687378,5.79439790162273],[125.17697811126709,5.794355205549195],[125.17723560333252,5.79386420047139],[125.17745018005371,5.793757460180586],[125.17794370651245,5.793842852414841],[125.1786732673645,5.794227117309177],[125.17886638641357,5.794269813392418],[125.17935991287231,5.794227117309177],[125.17951011657715,5.794269813392418],[125.1795744895935,5.79439790162273],[125.17991781234741,5.794590033913707],[125.1801323890686,5.794974298299536],[125.18028259277344,5.794974298299536],[125.18086194992065,5.794782166139328],[125.18242835998535,5.7940136368446105],[125.18290042877197,5.79371476405862],[125.18433809280396,5.7926473599602275],[125.1853895187378,5.792156353397516],[125.18714904785156,5.7904271529741465],[125.1875352859497,5.789893448070927],[125.1877498626709,5.789530528448793],[125.15487670898438,5.789530528448793],[125.15487670898438,5.879698177726667],[125.21796226501465,5.879698177726667]]]}},{"type":"Feature","id":"pmtiles:12/3472/1982:water:20:0","properties":{"class":"ocean","water":"ocean","kind":"waterway","verification":"verified","source":"OpenMapTiles/OpenStreetMap national PMTiles","sourceId":"12/3472/1982:water:20:0","sourceLayer":"water","archive":"https://its.hanifahseptiani45.workers.dev/v1/map/archive/indonesia.pmtiles","updatedAt":"2026-07-26T10:39:03.464Z"},"geometry":{"type":"Polygon","coordinates":[[[125.1851749420166,5.792263093990954],[125.1853895187378,5.792156353397516],[125.18714904785156,5.7904271529741465],[125.1875352859497,5.789893448070927],[125.18843650817871,5.788399071660265],[125.18888711929321,5.787246264300933],[125.18916606903076,5.785175474807247],[125.18940210342407,5.784065357729645],[125.18938064575195,5.783275465405438],[125.18933773040771,5.782720405274546],[125.18908023834229,5.782229390089427],[125.18884420394897,5.782272087078965],[125.18873691558838,5.782186693096662],[125.18869400024414,5.781951859578925],[125.18873691558838,5.781652980415373],[125.18893003463745,5.781396798149558],[125.18897294998169,5.781247358440922],[125.18890857696533,5.780649599211813],[125.18897294998169,5.780286673657528],[125.18912315368652,5.780137233655793],[125.18996000289917,5.7797956563607755],[125.19004583358765,5.779667564822006],[125.18996000289917,5.779304638638067],[125.18946647644043,5.778215858690331],[125.18912315368652,5.777895628895479],[125.1888656616211,5.777810234252911],[125.18798589706421,5.778173161394818],[125.18768548965454,5.778386647840193],[125.18759965896606,5.778407996480311],[125.18755674362183,5.7783652991992795],[125.18759965896606,5.777874280236034],[125.18742799758911,5.776892241032215],[125.18747091293335,5.7767214514316265],[125.1878571510315,5.776358523359363],[125.18790006637573,5.776187733597837],[125.1877498626709,5.775846153920284],[125.18742799758911,5.77535513277293],[125.18712759017944,5.775077598892665],[125.18689155578613,5.774970855056381],[125.1843810081482,5.776529313069403],[125.18386602401733,5.7767214514316265],[125.18341541290283,5.776742800134528],[125.1831579208374,5.776657405318119],[125.18272876739502,5.776294477204829],[125.18262147903442,5.7761450361494155],[125.18255710601807,5.775974246323514],[125.18253564834595,5.775504574036745],[125.1822566986084,5.775205691469679],[125.18240690231323,5.774629274645079],[125.18264293670654,5.774138252443009],[125.1828145980835,5.774052857233997],[125.18448829650879,5.773988810818793],[125.18521785736084,5.773839369155155],[125.18592596054077,5.77358318335439],[125.18637657165527,5.773348346268591],[125.18717050552368,5.7727932764062615],[125.1872992515564,5.7727932764062615],[125.18755674362183,5.77290002065277],[125.18790006637573,5.7727932764062615],[125.18880128860474,5.772110112752458],[125.18901586532593,5.772003368357147],[125.18927335739136,5.7719393217103345],[125.18983125686646,5.7721955082542],[125.19017457962036,5.771811228394995],[125.19068956375122,5.771490994979956],[125.19101142883301,5.771384250468088],[125.1921272277832,5.771213459207274],[125.19283533096313,5.770935923298708],[125.19330739974976,5.770850527607209],[125.19416570663452,5.770572991520979],[125.19592523574829,5.769526892744139],[125.19639730453491,5.769398798883728],[125.19674062728882,5.769569590691177],[125.19689083099365,5.769740382447168],[125.19704103469849,5.769953872069834],[125.19708395004272,5.7703381531880495],[125.19695520401001,5.771042667895003],[125.19650459289551,5.771597739471744],[125.19652605056763,5.771811228394995],[125.19659042358398,5.771982019475686],[125.19740581512451,5.772729229848693],[125.19766330718994,5.77290002065277],[125.19809246063232,5.773049462564117],[125.19856452941895,5.773092160245838],[125.19882202148438,5.773305648606183],[125.19888639450073,5.773839369155155],[125.19968032836914,5.774052857233997],[125.20023822784424,5.7741169036419535],[125.20096778869629,5.774052857233997],[125.20212650299072,5.773732625085586],[125.20304918289185,5.773711276269253],[125.20358562469482,5.773882066777361],[125.20375728607178,5.774244996436181],[125.20384311676025,5.774330391616232],[125.20397186279297,5.774351740409244],[125.20472288131714,5.774095554840116],[125.2051305770874,5.774074206037469],[125.20706176757812,5.774394437992825],[125.20813465118408,5.774266345232405],[125.20839214324951,5.774394437992825],[125.2092719078064,5.774373089201447],[125.20942211151123,5.774351740409244],[125.20976543426514,5.774095554840116],[125.21064519882202,5.773348346268591],[125.21176099777222,5.772537090132573],[125.21259784698486,5.771725832835344],[125.21328449249268,5.771320203751316],[125.21433591842651,5.770380851074009],[125.21470069885254,5.769953872069834],[125.21628856658936,5.768459443023389],[125.21781206130981,5.76651667937638],[125.21873474121094,5.765064939560929],[125.22053718566895,5.761755812867577],[125.22141695022583,5.759919772963997],[125.22154569625854,5.759193895086],[125.22244691848755,5.757315148036312],[125.2228331565857,5.756952207549446],[125.22281169891357,5.756333073242786],[125.22371292114258,5.7534081882626396],[125.22424936294556,5.751871016402461],[125.22450685501099,5.751273226223802],[125.22491455078125,5.750568686992509],[125.2260947227478,5.7468111296936115],[125.22618055343628,5.746213334199965],[125.22663116455078,5.744676142905931],[125.22686719894409,5.743694046295886],[125.22753238677979,5.741516347773285],[125.22768259048462,5.741196097288551],[125.22791862487793,5.740939896771209],[125.228111743927,5.740854496573164],[125.2283263206482,5.740854496573164],[125.22841215133667,5.740790446416227],[125.22843360900879,5.740705046195785],[125.22828340530396,5.740491545588711],[125.2283263206482,5.74019264460442],[125.22841215133667,5.739979143805385],[125.22869110107422,5.739552141967451],[125.22871255874634,5.7394026912486],[125.2286696434021,5.739039739339702],[125.22944211959839,5.7365204197220265],[125.22959232330322,5.735538309059578],[125.2293348312378,5.73421459201316],[125.2292275428772,5.732378463284135],[125.22914171218872,5.731567148708194],[125.22903442382812,5.731332294273642],[125.22894859313965,5.731310943865708],[125.22834777832031,5.7315457983090425],[125.22809028625488,5.7315457983090425],[125.22783279418945,5.7314603967044775],[125.22761821746826,5.731268243047438],[125.22748947143555,5.7310760893257395],[125.22748947143555,5.730264772898892],[125.22727489471436,5.729987217014511],[125.22727489471436,5.729731011463031],[125.22744655609131,5.729154548551932],[125.22763967514038,5.728983744614652],[125.22824048995972,5.728770239621241],[125.22847652435303,5.728599435569038],[125.22914171218872,5.7277667650831035],[125.2302360534668,5.726571133544738],[125.23098707199097,5.726101420470101],[125.2324891090393,5.7249484867408],[125.23274660110474,5.724692278929524],[125.23308992385864,5.7242012136368885],[125.23435592651367,5.723261783205899],[125.23442029953003,5.722920171757323],[125.23454904556274,5.7227493659564885],[125.23465633392334,5.722493157159562],[125.2352786064148,5.721703179312996],[125.23575067520142,5.721425619269979],[125.23680210113525,5.720592938332629],[125.23693084716797,5.720358079387523],[125.23705959320068,5.719931062876654],[125.23705959320068,5.71969620365978],[125.23723125457764,5.7193118883696314],[125.23744583129883,5.718970274561656],[125.23772478103638,5.718799467581178],[125.23796081542969,5.718500555242628],[125.2380895614624,5.7179881337275305],[125.23847579956055,5.717667870047578],[125.23877620697021,5.717582466369308],[125.2395486831665,5.7177959755410654],[125.23963451385498,5.717753273713086],[125.24023532867432,5.716984640264613],[125.24049282073975,5.716920587430636],[125.2405571937561,5.716856534589496],[125.2406644821167,5.7166003231532585],[125.24096488952637,5.716237356755556],[125.24117946624756,5.716130601888906],[125.24143695831299,5.716151952863825],[125.24171590805054,5.715810337169501],[125.24214506149292,5.715490072270896],[125.2437973022461,5.713589830187516],[125.24429082870483,5.712949297727093],[125.24478435516357,5.712458222355622],[125.245041847229,5.712372817900217],[125.24551391601562,5.711903093167848],[125.24551391601562,5.702081487858422],[125.15487670898438,5.702081487858422],[125.15487670898438,5.792263093990954],[125.1851749420166,5.792263093990954]]]}},{"type":"Feature","id":"pmtiles:12/3473/1982:water:20:0","properties":{"class":"ocean","water":"ocean","kind":"waterway","verification":"verified","source":"OpenMapTiles/OpenStreetMap national PMTiles","sourceId":"12/3473/1982:water:20:0","sourceLayer":"water","archive":"https://its.hanifahseptiani45.workers.dev/v1/map/archive/indonesia.pmtiles","updatedAt":"2026-07-26T10:39:03.527Z"},"geometry":{"type":"Polygon","coordinates":[[[125.24276733398438,5.702081487858422],[125.24276733398438,5.71476413783742],[125.2437973022461,5.713589830187516],[125.24429082870483,5.712949297727093],[125.24478435516357,5.712458222355622],[125.245041847229,5.712372817900217],[125.24572849273682,5.71168958179851],[125.24587869644165,5.711390665747771],[125.24607181549072,5.711262558821147],[125.24673700332642,5.711198505347099],[125.24776697158813,5.711540123792645],[125.24808883666992,5.711540123792645],[125.24826049804688,5.711476070349619],[125.24866819381714,5.711582826084012],[125.2490758895874,5.711753635217676],[125.24935483932495,5.712031199951241],[125.24956941604614,5.712073902206001],[125.24982690811157,5.712372817900217],[125.25010585784912,5.712394169015269],[125.25156497955322,5.712073902206001],[125.25285243988037,5.71168958179851],[125.25418281555176,5.711476070349619],[125.25544881820679,5.711113100703869],[125.25628566741943,5.710686077296785],[125.25716543197632,5.710045541589437],[125.25729417800903,5.710002839183488],[125.25808811187744,5.709874731946542],[125.2584958076477,5.710002839183488],[125.2586030960083,5.710130946391786],[125.25907516479492,5.710216351181401],[125.25980472564697,5.710130946391786],[125.26182174682617,5.709618517386744],[125.26240110397339,5.709255546564279],[125.2630877494812,5.709042034208366],[125.26360273361206,5.7087644680267715],[125.26467561721802,5.7084869017107565],[125.2649974822998,5.708550955487922],[125.26568412780762,5.709106087923502],[125.2657699584961,5.70934095148435],[125.26561975479126,5.709832029527874],[125.26570558547974,5.70998148797932],[125.26641368865967,5.710216351181401],[125.26697158813477,5.7105152678448405],[125.26864528656006,5.711070398377487],[125.27021169662476,5.711177154187467],[125.27096271514893,5.711070398377487],[125.27137041091919,5.71081418435233],[125.27240037918091,5.710344458341979],[125.27287244796753,5.710237702376816],[125.27370929718018,5.709639868604441],[125.27495384216309,5.7086363605129975],[125.27671337127686,5.706949608911515],[125.27812957763672,5.705348257862411],[125.27935266494751,5.703853659515616],[125.28031826019287,5.702081487858422],[125.24276733398438,5.702081487858422]]]}},{"type":"Feature","id":"pmtiles:12/3475/1982:water:10:0","properties":{"class":"ocean","water":"ocean","kind":"waterway","verification":"verified","source":"OpenMapTiles/OpenStreetMap national PMTiles","sourceId":"12/3475/1982:water:10:0","sourceLayer":"water","archive":"https://its.hanifahseptiani45.workers.dev/v1/map/archive/indonesia.pmtiles","updatedAt":"2026-07-26T10:39:03.606Z"},"geometry":{"type":"Polygon","coordinates":[[[125.50918579101562,5.702081487858422],[125.49285650253296,5.702081487858422],[125.4936933517456,5.702551220638071],[125.49407958984375,5.702679329511227],[125.49493789672852,5.702828789827109],[125.49560308456421,5.702850141297631],[125.49674034118652,5.70274338393709],[125.4971694946289,5.70274338393709],[125.49802780151367,5.702978250104039],[125.49832820892334,5.703127710342045],[125.49852132797241,5.703383927802321],[125.49858570098877,5.703746902341834],[125.4982852935791,5.704899878767321],[125.49824237823486,5.706031501523668],[125.49798488616943,5.707291229889833],[125.4979419708252,5.707889066112045],[125.4981780052185,5.7086363605129975],[125.49880027770996,5.709383653939625],[125.49888610839844,5.709832029527874],[125.49867153167725,5.713525776973697],[125.49869298934937,5.714529276500102],[125.49886465072632,5.716493568354281],[125.49998044967651,5.720123220345997],[125.50017356872559,5.720955901967187],[125.50032377243042,5.721340216152697],[125.500967502594,5.721873985426342],[125.50191164016724,5.722258298994859],[125.50216913223267,5.722578560104623],[125.50240516662598,5.723176380362887],[125.50238370895386,5.723859602749712],[125.50225496292114,5.724436071003382],[125.50227642059326,5.7256530576295575],[125.5024266242981,5.726741938203418],[125.50253391265869,5.727126248498749],[125.50279140472412,5.727660012368915],[125.50309181213379,5.730264772898892],[125.50328493118286,5.730841234689166],[125.50364971160889,5.7314390463013325],[125.50410032272339,5.732058207668246],[125.50510883331299,5.732976273286354],[125.5054521560669,5.73338192971697],[125.50553798675537,5.73355273233831],[125.50553798675537,5.734321343501719],[125.5057954788208,5.735815862244294],[125.50594568252563,5.736413668644985],[125.50633192062378,5.737139575574901],[125.50755500793457,5.739061089458389],[125.50873517990112,5.741494997746571],[125.50903558731079,5.741986048158637],[125.50918579101562,5.742199548205818],[125.50918579101562,5.702081487858422]]]}},{"type":"Feature","id":"pmtiles:12/3472/1983:water:20:0","properties":{"class":"ocean","water":"ocean","kind":"waterway","verification":"verified","source":"OpenMapTiles/OpenStreetMap national PMTiles","sourceId":"12/3472/1983:water:20:0","sourceLayer":"water","archive":"https://its.hanifahseptiani45.workers.dev/v1/map/archive/indonesia.pmtiles","updatedAt":"2026-07-26T10:39:39.218Z"},"geometry":{"type":"Polygon","coordinates":[[[125.15487670898438,5.70481447318565],[125.24551391601562,5.70481447318565],[125.24551391601562,5.61461911814834],[125.15487670898438,5.61461911814834],[125.15487670898438,5.70481447318565]]]}},{"type":"Feature","id":"pmtiles:12/3473/1983:water:20:0","properties":{"class":"ocean","water":"ocean","kind":"waterway","verification":"verified","source":"OpenMapTiles/OpenStreetMap national PMTiles","sourceId":"12/3473/1983:water:20:0","sourceLayer":"water","archive":"https://its.hanifahseptiani45.workers.dev/v1/map/archive/indonesia.pmtiles","updatedAt":"2026-07-26T10:39:39.303Z"},"geometry":{"type":"Polygon","coordinates":[[[125.24276733398438,5.616434267224804],[125.24276733398438,5.70481447318565],[125.27858018875122,5.70481447318565],[125.27935266494751,5.703853659515616],[125.2804684638977,5.701825269816553],[125.28076887130737,5.701035263467247],[125.28126239776611,5.700010388745071],[125.28151988983154,5.699156325078775],[125.2816915512085,5.698771996014415],[125.28229236602783,5.697725765591471],[125.28254985809326,5.6974268422633685],[125.28295755386353,5.696636829861561],[125.28347253799438,5.6961884439609065],[125.28334379196167,5.695932223289134],[125.28366565704346,5.695889519832718],[125.28475999832153,5.695483836838477],[125.28544664382935,5.695014098276758],[125.28619766235352,5.69413867538691],[125.28643369674683,5.6937543429651924],[125.28714179992676,5.6921743069755735],[125.28769969940186,5.690743730103534],[125.28845071792603,5.6891209818802935],[125.28900861740112,5.687903917708098],[125.28941631317139,5.687220652482807],[125.28978109359741,5.686281161473119],[125.29033899307251,5.685256260440411],[125.29063940048218,5.684423527007439],[125.29115438461304,5.683569440183703],[125.2916693687439,5.6823737165018],[125.2921199798584,5.680879058407768],[125.29280662536621,5.6792989870623956],[125.2929139137268,5.678871940008904],[125.29293537139893,5.6785730068831555],[125.29282808303833,5.677975140166382],[125.29272079467773,5.675882601773466],[125.29269933700562,5.674516041988227],[125.29284954071045,5.673277594385382],[125.29325723648071,5.672039144123218],[125.29325723648071,5.671291802161463],[125.29340744018555,5.670886101833958],[125.29379367828369,5.670523106562285],[125.2942442893982,5.669562235623303],[125.29441595077515,5.669113828637634],[125.29445886611938,5.6685800103433195],[125.29471635818481,5.667918074972761],[125.29488801956177,5.667128022085336],[125.29512405395508,5.66653014350598],[125.29555320739746,5.665740088719488],[125.29568195343018,5.665206267305976],[125.2959394454956,5.664950032852218],[125.29630422592163,5.664416210708481],[125.29669046401978,5.663455329606691],[125.29688358306885,5.66322044731649],[125.29733419418335,5.662836094272038],[125.29784917831421,5.66097838428675],[125.29836416244507,5.659803966847733],[125.29838562011719,5.659270139950394],[125.29827833175659,5.658736312560194],[125.2985143661499,5.658266544049155],[125.29855728149414,5.657647303156068],[125.29890060424805,5.657305652724361],[125.2996301651001,5.657177533760432],[125.2997374534607,5.657113474267831],[125.29986619949341,5.656729117163209],[125.30046701431274,5.655939048979505],[125.30072450637817,5.655874989349741],[125.30070304870605,5.655768223284397],[125.30057430267334,5.6556187507598],[125.30106782913208,5.655362512056357],[125.30162572860718,5.654764621307052],[125.30237674713135,5.653761017589105],[125.303213596344,5.652800118781528],[125.30413627624512,5.651412151021262],[125.3046727180481,5.649362223320466],[125.30482292175293,5.648187782306081],[125.30514478683472,5.646757096399142],[125.30535936355591,5.64528369975821],[125.3055739402771,5.644813920331586],[125.30561685562134,5.644579030475498],[125.305917263031,5.64363947009943],[125.3061318397522,5.643041567249185],[125.30636787414551,5.642614493407265],[125.30653953552246,5.6420165895002015],[125.30709743499756,5.6396890291350985],[125.30776262283325,5.637361459432739],[125.30802011489868,5.6362083480492515],[125.30832052230835,5.635311482056437],[125.30866384506226,5.632407335051752],[125.30872821807861,5.630250569425883],[125.30864238739014,5.629887548682035],[125.3085994720459,5.6290547355305875],[125.30844926834106,5.628264629642956],[125.30802011489868,5.62706879166258],[125.30774116516113,5.62602243141248],[125.30726909637451,5.625445864755974],[125.30699014663696,5.624912006231099],[125.30651807785034,5.624420855955549],[125.30621767044067,5.624185957851097],[125.30572414398193,5.62405783157233],[125.30540227890015,5.623886996490086],[125.30510187149048,5.623225010072645],[125.30458688735962,5.622605731774584],[125.30439376831055,5.621879680516969],[125.30387878417969,5.620897374432815],[125.3035569190979,5.6204702843139955],[125.30304193496704,5.620192675568745],[125.30284881591797,5.6196161031364795],[125.30267715454102,5.6192744303146185],[125.30239820480347,5.618932757292285],[125.30179738998413,5.618527020317913],[125.3016471862793,5.6174592900873535],[125.30111074447632,5.61709626136313],[125.30035972595215,5.616434267224804],[125.30038118362427,5.616434267224804],[125.30005931854248,5.6160285285101565],[125.29980182647705,5.615537370740739],[125.29978036880493,5.615537370740739],[125.29971599578857,5.615409242558883],[125.29947996139526,5.614683182329628],[125.29947996139526,5.61461911814834],[125.24276733398438,5.61461911814834],[125.24276733398438,5.615537370740739],[125.24276733398438,5.616434267224804]]]}},{"type":"Feature","id":"pmtiles:12/3475/1983:water:10:0","properties":{"class":"ocean","water":"ocean","kind":"waterway","verification":"verified","source":"OpenMapTiles/OpenStreetMap national PMTiles","sourceId":"12/3475/1983:water:10:0","sourceLayer":"water","archive":"https://its.hanifahseptiani45.workers.dev/v1/map/archive/indonesia.pmtiles","updatedAt":"2026-07-26T10:39:39.400Z"},"geometry":{"type":"Polygon","coordinates":[[[125.44090747833252,5.61461911814834],[125.44118642807007,5.615067567269563],[125.44140100479126,5.615259759644459],[125.44146537780762,5.615451951955961],[125.44174432754517,5.615900400436303],[125.44210910797119,5.6160925925365035],[125.44251680374146,5.616434267224804],[125.44262409210205,5.616519685865555],[125.44328927993774,5.616904069594014],[125.4433536529541,5.617074906725236],[125.44350385665894,5.617117616000229],[125.4439115524292,5.6175874178183705],[125.44416904449463,5.617736900135597],[125.44434070587158,5.618035864654956],[125.44442653656006,5.618655147814039],[125.4443621635437,5.618804629857237],[125.4442548751831,5.6188686935782926],[125.44406175613403,5.619146302954746],[125.44404029846191,5.619381203092999],[125.44386863708496,5.619530684949808],[125.44371843338013,5.619765584933006],[125.4435682296753,5.620448929799835],[125.4435682296753,5.620790601932484],[125.44333219528198,5.621986452817538],[125.44337511062622,5.622221351809856],[125.44333219528198,5.622392187381067],[125.44320344924927,5.622413541823946],[125.44313907623291,5.622520314026573],[125.44305324554443,5.622712503941955],[125.44309616088867,5.622990111485436],[125.44294595718384,5.623032820326543],[125.44238805770874,5.622776567232975],[125.44225931167603,5.622797921661743],[125.44142246246338,5.623523971773778],[125.44105768203735,5.624250020979886],[125.44073581695557,5.625830242590482],[125.44082164764404,5.626257328775353],[125.44082164764404,5.626577643208208],[125.44135808944702,5.628456817660407],[125.44193744659424,5.62935369423505],[125.44238805770874,5.629759423659465],[125.44283866882324,5.630015673676354],[125.44386863708496,5.630314631886577],[125.44449090957642,5.630143798642422],[125.44496297836304,5.629844840344333],[125.44515609741211,5.629652652785779],[125.44560670852661,5.629396402608862],[125.44601440429688,5.6294391109795185],[125.44663667678833,5.629716715312341],[125.44678688049316,5.629695361137607],[125.44713020324707,5.629503173529642],[125.44725894927979,5.629503173529642],[125.44796705245972,5.629716715312341],[125.44833183288574,5.629759423659465],[125.4485034942627,5.629887548682035],[125.44861078262329,5.6299943195125906],[125.44865369796753,5.630143798642422],[125.4488468170166,5.630250569425883],[125.4489541053772,5.630763068913566],[125.44910430908203,5.630976610233361],[125.44938325881958,5.631083380863842],[125.44953346252441,5.631232859713535],[125.4498553276062,5.631788066532948],[125.44983386993408,5.631980253385279],[125.45002698898315,5.63204431565525],[125.45011281967163,5.632151086089536],[125.45013427734375,5.632364626899232],[125.4504132270813,5.6325568135608535],[125.45045614242554,5.6326849379666015],[125.45058488845825,5.6327917082831505],[125.45073509216309,5.632834416404279],[125.45056343078613,5.633218789353094],[125.45058488845825,5.63334691361284],[125.45062780380249,5.633368267653381],[125.4509711265564,5.6332828514864985],[125.45109987258911,5.633539099949488],[125.45122861862183,5.633603162047564],[125.45129299163818,5.63385941036924],[125.4512071609497,5.634008888504653],[125.45129299163818,5.634307844660128],[125.4515290260315,5.634329198665327],[125.4515290260315,5.6344146146783345],[125.45163631439209,5.634457322680134],[125.45165777206421,5.6346281546559],[125.4517650604248,5.634820340568567],[125.451979637146,5.635055234375457],[125.45212984085083,5.635503667742938],[125.45223712921143,5.635653145455137],[125.45225858688354,5.635802623128868],[125.45240879058838,5.636080224420809],[125.45251607894897,5.636421887367149],[125.45273065567017,5.63680625794143],[125.45356750488281,5.638664045462377],[125.45363187789917,5.638749460837602],[125.45367479324341,5.639283306647812],[125.45382499694824,5.639731736748843],[125.45440435409546,5.6404150581410875],[125.4550051689148,5.640649949683791],[125.45513391494751,5.640543180812543],[125.45554161071777,5.640628595911124],[125.45569181442261,5.640799426070544],[125.45599222183228,5.640970256179656],[125.45667886734009,5.6415895149034725],[125.45682907104492,5.64167492984798],[125.45764446258545,5.642593139706918],[125.45790195465088,5.643105628298343],[125.45798778533936,5.643511348112],[125.4584813117981,5.6442373723330945],[125.45925378799438,5.6451342245274105],[125.45985460281372,5.64553994292136],[125.46032667160034,5.646116489624234],[125.46099185943604,5.646757096399142],[125.46122789382935,5.6472055207202345],[125.46137809753418,5.647846126291199],[125.46161413192749,5.648486731153852],[125.46176433563232,5.6487856798473075],[125.46221494674683,5.649298162962893],[125.4625153541565,5.6500028265064515],[125.46290159225464,5.650622075579349],[125.46328783035278,5.651561624632251],[125.46358823776245,5.652074105291234],[125.46448945999146,5.654145376665454],[125.464768409729,5.654657855036817],[125.46547651290894,5.656899942574569],[125.46571254730225,5.657327005882252],[125.4658842086792,5.657455124813055],[125.46624898910522,5.657369712195674],[125.46639919281006,5.657412418505942],[125.46676397323608,5.658458722122518],[125.46687126159668,5.659035255959424],[125.46684980392456,5.659633142294211],[125.46665668487549,5.659718554577282],[125.46657085418701,5.659889379105579],[125.46654939651489,5.660465911515857],[125.46661376953125,5.660764854020755],[125.46695709228516,5.661512209606599],[125.4674506187439,5.662174152318428],[125.468008518219,5.662729329492109],[125.46903848648071,5.663156388493505],[125.46914577484131,5.663177741435291],[125.4693603515625,5.66304962377275],[125.46959638595581,5.663177741435291],[125.46978950500488,5.663156388493505],[125.46978950500488,5.663433976675151],[125.46987533569336,5.663583447179263],[125.47015428543091,5.663775623484867],[125.47030448913574,5.663967799726535],[125.47157049179077,5.665078150093294],[125.47264337539673,5.6662739096395995],[125.47309398651123,5.666679613208856],[125.47354459762573,5.666999905299022],[125.47401666641235,5.667533725054454],[125.47423124313354,5.667875369438917],[125.4745101928711,5.668644068564703],[125.47470331192017,5.668943006837154],[125.47470331192017,5.669263297671563],[125.47476768493652,5.669562235623303],[125.47545433044434,5.670587164568005],[125.47549724578857,5.670886101833958],[125.4754114151001,5.671227744233974],[125.47547578811646,5.671441270631263],[125.47669887542725,5.673192184107833],[125.47693490982056,5.673469767463587],[125.47719240188599,5.673939523607416],[125.47764301300049,5.6743879268423],[125.47796487808228,5.6748576822381835],[125.47805070877075,5.675028502287262],[125.47809362411499,5.67534878974287],[125.47920942306519,5.678252721219167],[125.4796814918518,5.679170872979597],[125.48021793365479,5.679491158133189],[125.48084020614624,5.679790090782589],[125.48099040985107,5.680131727906215],[125.48118352890015,5.680686887799993],[125.48159122467041,5.683121044093994],[125.4819130897522,5.683612144554971],[125.4823637008667,5.684039188093564],[125.4824709892273,5.684423527007439],[125.48234224319458,5.686323865643203],[125.48221349716187,5.686857667501826],[125.48206329345703,5.688395014087476],[125.4820203781128,5.6898042448482045],[125.48210620880127,5.69132023165929],[125.4822564125061,5.691982140140055],[125.48272848129272,5.693348658463407],[125.48405885696411,5.69578276117781],[125.48442363739014,5.696167092242632],[125.48474550247192,5.696401961100108],[125.48508882522583,5.696508719639951],[125.48669815063477,5.697469545605472],[125.48772811889648,5.698280908502255],[125.48822164535522,5.69851577649527],[125.48910140991211,5.6990709186422635],[125.48980951309204,5.699754169778586],[125.49092531204224,5.701035263467247],[125.49150466918945,5.701504997103314],[125.49277067184448,5.702038784859397],[125.4936933517456,5.702551220638071],[125.49407958984375,5.702679329511227],[125.49493789672852,5.702828789827109],[125.49560308456421,5.702850141297631],[125.49674034118652,5.70274338393709],[125.4971694946289,5.70274338393709],[125.49802780151367,5.702978250104039],[125.49832820892334,5.703127710342045],[125.49852132797241,5.703383927802321],[125.49858570098877,5.703746902341834],[125.49832820892334,5.70481447318565],[125.50918579101562,5.70481447318565],[125.50918579101562,5.616434267224804],[125.50918579101562,5.615537370740739],[125.50918579101562,5.61461911814834],[125.44090747833252,5.61461911814834]]]}},{"type":"Feature","id":"pmtiles:10/868/495:water:10:0","properties":{"class":"ocean","water":"ocean","kind":"waterway","verification":"verified","source":"OpenMapTiles/OpenStreetMap national PMTiles","sourceId":"10/868/495:water:10:0","sourceLayer":"water","archive":"https://its.hanifahseptiani45.workers.dev/v1/map/archive/indonesia.pmtiles","updatedAt":"2026-07-26T09:38:15.864Z"},"geometry":{"type":"Polygon","coordinates":[[[125.1507568359375,5.616412912562637],[125.1507568359375,5.971217057997222],[125.28602600097656,5.971217057997222],[125.28594017028809,5.970960962951665],[125.28396606445312,5.969851216370785],[125.28353691101074,5.969765851156069],[125.28319358825684,5.969339024883013],[125.28310775756836,5.968826832916477],[125.28327941894531,5.967546350905835],[125.28353691101074,5.9669487916104345],[125.28302192687988,5.965070743870214],[125.28310775756836,5.9645585479155585],[125.2837085723877,5.964131717587918],[125.28336524963379,5.963704886928085],[125.28233528137207,5.96344878837273],[125.28207778930664,5.962082927391549],[125.28242111206055,5.961143895994397],[125.28199195861816,5.960802429633347],[125.28190612792969,5.960119496273833],[125.28216361999512,5.960119496273833],[125.27993202209473,5.957131652834903],[125.27830123901367,5.954143793137547],[125.2785587310791,5.953802322422973],[125.27795791625977,5.953631586986106],[125.2756404876709,5.951241285299446],[125.27392387390137,5.949790025632041],[125.2727222442627,5.947997287812655],[125.27040481567383,5.946204544149083],[125.26894569396973,5.944411794643017],[125.2672290802002,5.94074090838464],[125.26568412780762,5.936387034817301],[125.26542663574219,5.934167399757229],[125.26594161987305,5.9312647865776],[125.2664566040039,5.929728102826658],[125.26619911193848,5.929386616967278],[125.26585578918457,5.929386616967278],[125.26602745056152,5.928703644614444],[125.26619911193848,5.9287890162047745],[125.2664566040039,5.928276786464593],[125.26594161987305,5.927081581888302],[125.2675724029541,5.926313234722386],[125.26894569396973,5.926142490762487],[125.2690315246582,5.925544886486918],[125.26954650878906,5.925288770170752],[125.2704906463623,5.92511802589398],[125.27057647705078,5.9249472815643855],[125.27109146118164,5.925032653735784],[125.27074813842773,5.9245204205093955],[125.27109146118164,5.9245204205093955],[125.27100563049316,5.9241789314277895],[125.27186393737793,5.92392281447799],[125.27117729187012,5.923239835364441],[125.27152061462402,5.92247148285206],[125.27186393737793,5.922300737704148],[125.27177810668945,5.921959247249973],[125.27152061462402,5.921959247249973],[125.27177810668945,5.921873874603435],[125.27186393737793,5.9215323838853635],[125.2716064453125,5.92093477462079],[125.27169227600098,5.92076402899788],[125.27203559875488,5.92093477462079],[125.27212142944336,5.92076402899788],[125.27186393737793,5.920593283322219],[125.2719497680664,5.920422537593765],[125.27220726013184,5.920337164709764],[125.27177810668945,5.9190565698667825],[125.27229309082031,5.918715077407455],[125.27237892150879,5.919227316017313],[125.27263641357422,5.9190565698667825],[125.27246475219727,5.9184589579245],[125.27220726013184,5.9184589579245],[125.27177810668945,5.917861345336036],[125.27023315429688,5.916751491671917],[125.2690315246582,5.916751491671917],[125.26851654052734,5.917092985344354],[125.26662826538086,5.916751491671917],[125.26628494262695,5.917092985344354],[125.26482582092285,5.9164099977885485],[125.26345252990723,5.916922238534511],[125.2631950378418,5.917434478805831],[125.26242256164551,5.918117465095932],[125.2609634399414,5.918800450542079],[125.25924682617188,5.919141942948642],[125.25830268859863,5.9190565698667825],[125.25555610656738,5.917861345336036],[125.2540111541748,5.916495371279154],[125.25117874145508,5.914531777660031],[125.24843215942383,5.9126535511530705],[125.24740219116211,5.912312054739402],[125.24594306945801,5.911287564233746],[125.2444839477539,5.910775318269643],[125.24130821228027,5.910006948434486],[125.23967742919922,5.908555580280137],[125.23736000061035,5.907274958160684],[125.2360725402832,5.9061650832614845],[125.23633003234863,5.90317694747948],[125.2375316619873,5.900274171576157],[125.23770332336426,5.898993530316147],[125.23736000061035,5.8968591216441695],[125.23633003234863,5.895236965560869],[125.23366928100586,5.8937855587297605],[125.23229598999023,5.893700181739135],[125.22809028625488,5.891651130024698],[125.22585868835449,5.891736507330478],[125.2236270904541,5.891053488516789],[125.22268295288086,5.891651130024698],[125.22173881530762,5.891736507330478],[125.21658897399902,5.887723759770907],[125.21615982055664,5.88704073602284],[125.21452903747559,5.885760064232343],[125.21367073059082,5.884394011069887],[125.21281242370605,5.883625604690806],[125.21401405334473,5.883284090403663],[125.21470069885254,5.8828571972497485],[125.21993637084961,5.877990592137252],[125.22173881530762,5.8691964434130455],[125.2218246459961,5.866378871258689],[125.22139549255371,5.86142674024984],[125.22079467773438,5.859462951990849],[125.2192497253418,5.856901478663858],[125.21847724914551,5.856389182588671],[125.21710395812988,5.856303799863795],[125.2166748046875,5.856047651610851],[125.21487236022949,5.853315396272507],[125.21530151367188,5.850839278334419],[125.21530151367188,5.848619301205019],[125.21444320678711,5.8464846995022555],[125.2140998840332,5.846143162474064],[125.21272659301758,5.84597239388178],[125.21186828613281,5.84528931899159],[125.21015167236328,5.84486239676184],[125.20903587341309,5.842471626258117],[125.20843505859375,5.840337001110839],[125.20757675170898,5.839056222117605],[125.20594596862793,5.8379462112884255],[125.20551681518555,5.837348512238904],[125.20525932312012,5.835982340589254],[125.20551681518555,5.834616165610058],[125.2053451538086,5.832566896900033],[125.20577430725098,5.830859167255539],[125.20560264587402,5.830176073942241],[125.2042293548584,5.827785240797695],[125.20405769348145,5.8265898204066815],[125.20285606384277,5.826931369349552],[125.20328521728516,5.826077496602807],[125.20268440246582,5.825735947140515],[125.19959449768066,5.825906721897624],[125.1987361907959,5.825650559742485],[125.19822120666504,5.825821334525571],[125.19641876220703,5.827614466611962],[125.1932430267334,5.828212176034711],[125.19204139709473,5.828639110947023],[125.18860816955566,5.830773780636861],[125.18749237060547,5.832737669578535],[125.1866340637207,5.833249987302082],[125.18646240234375,5.834018463009855],[125.18551826477051,5.834616165610058],[125.18491744995117,5.835726183034254],[125.18354415893555,5.837092355308243],[125.1826000213623,5.8376900546309685],[125.18062591552734,5.838287753316223],[125.18028259277344,5.837860825748962],[125.17976760864258,5.835726183034254],[125.17865180969238,5.832823055898302],[125.17779350280762,5.831798419203352],[125.17642021179199,5.83120071360031],[125.17581939697266,5.830688394005179],[125.1753044128418,5.830261460651883],[125.17496109008789,5.829578366610946],[125.17453193664551,5.825992109256688],[125.17470359802246,5.823772033701431],[125.17504692077637,5.823515870572706],[125.17633438110352,5.820954232861823],[125.17633438110352,5.819246467901053],[125.17496109008789,5.817367920452483],[125.17401695251465,5.816428644374881],[125.17333030700684,5.816514033174016],[125.17341613769531,5.815830922417902],[125.17290115356445,5.815318588806392],[125.1723861694336,5.8140377527364535],[125.17230033874512,5.811817629975735],[125.1723861694336,5.811646850939113],[125.17298698425293,5.811817629975735],[125.17333030700684,5.811561461401354],[125.17427444458008,5.806779626621278],[125.1741886138916,5.804559475246776],[125.17444610595703,5.803364005499446],[125.1738452911377,5.801997751255456],[125.17453193664551,5.799777581048772],[125.17427444458008,5.798838275638289],[125.17470359802246,5.797557402103777],[125.17719268798828,5.795422606419095],[125.1767635345459,5.79439790162273],[125.17745018005371,5.793800156299326],[125.17865180969238,5.794227117309177],[125.17951011657715,5.794227117309177],[125.18028259277344,5.7949956463133105],[125.18242835998535,5.793970940742014],[125.18431663513184,5.792604663754318],[125.18543243408203,5.792177701517829],[125.18714904785156,5.790469849344632],[125.18843650817871,5.788420419922517],[125.1888656616211,5.787224915994329],[125.18938064575195,5.783296813861128],[125.18912315368652,5.782186693096662],[125.18877983093262,5.782186693096662],[125.18869400024414,5.781674328932297],[125.18895149230957,5.781247358440922],[125.18895149230957,5.780308022225995],[125.19006729125977,5.77962486763596],[125.18946647644043,5.778173161394818],[125.1888656616211,5.777831582914757],[125.18757820129395,5.778343950557556],[125.18740653991699,5.776892241032215],[125.18792152404785,5.776209082320847],[125.18740653991699,5.77535513277293],[125.18689155578613,5.774928157516229],[125.18440246582031,5.776550661779538],[125.18320083618164,5.77663605661202],[125.1826000213623,5.77612368742399],[125.18251419067383,5.775525922785505],[125.1822566986084,5.775184342708869],[125.18268585205078,5.774159601243255],[125.18526077270508,5.773818020342858],[125.18714904785156,5.7727932764062615],[125.18792152404785,5.7727932764062615],[125.18903732299805,5.7720247172378265],[125.18980979919434,5.7721955082542],[125.1906681060791,5.77151234387992],[125.19418716430664,5.770572991520979],[125.19641876220703,5.769377449904184],[125.19684791564941,5.769719033480484],[125.19710540771484,5.77031680424389],[125.19693374633789,5.771085365727899],[125.19650459289551,5.771597739471744],[125.19659042358398,5.7719393217103345],[125.19770622253418,5.772878671805074],[125.19856452941895,5.773049462564117],[125.19882202148438,5.773305648606183],[125.19890785217285,5.773818020342858],[125.20028114318848,5.774074206037469],[125.20302772521973,5.773732625085586],[125.20354270935059,5.77390341558727],[125.20397186279297,5.774330391616232],[125.20517349243164,5.774074206037469],[125.20706176757812,5.774415786783422],[125.20929336547852,5.774415786783422],[125.21332740783691,5.771341552657702],[125.2163314819336,5.768438094008474],[125.21873474121094,5.765107637843798],[125.22053718566895,5.761777162133882],[125.22242546081543,5.757336497469495],[125.22285461425781,5.7569095086533935],[125.22285461425781,5.756311723771901],[125.22371292114258,5.7534081882626396],[125.22491455078125,5.750590036679014],[125.22748947143555,5.7415376977992025],[125.22791862487793,5.740939896771209],[125.22843360900879,5.740769096362314],[125.22834777832031,5.7401712945281105],[125.22869110107422,5.7395734920669526],[125.22954940795898,5.735559659309345],[125.2291202545166,5.7315457983090425],[125.22894859313965,5.731289593456964],[125.22809028625488,5.7315457983090425],[125.2276611328125,5.731289593456964],[125.2273178100586,5.730008567471955],[125.22740364074707,5.729154548551932],[125.22843360900879,5.7286421365868705],[125.2302360534668,5.726592484129867],[125.23246765136719,5.7249698373865385],[125.23306846618652,5.7242012136368885],[125.23435592651367,5.723261783205899],[125.23530006408691,5.721724530079939],[125.23675918579102,5.720614289141039],[125.2371883392334,5.719333239225861],[125.23796081542969,5.718479204355333],[125.23804664611816,5.717966782821122],[125.23873329162598,5.717625168210034],[125.23959159851074,5.7177959755410654],[125.24096488952637,5.71625870772651],[125.24147987365723,5.716173303837962],[125.24216651916504,5.715490072270896],[125.24431228637695,5.712927946632732],[125.24602890014648,5.711305261133205],[125.2467155456543,5.711219856505892],[125.24868965148926,5.711561474938733],[125.25006294250488,5.712415520129497],[125.2554702758789,5.71113445186586],[125.25727272033691,5.7100241903868465],[125.2580451965332,5.709853380737599],[125.25907516479492,5.710194999985205],[125.25984764099121,5.710109595192392],[125.26182174682617,5.709597166168251],[125.2646541595459,5.7084869017107565],[125.26568412780762,5.709084736685909],[125.26568412780762,5.7100241903868465],[125.26697158813477,5.710536619029114],[125.2686882019043,5.711049047213081],[125.27091979980469,5.711049047213081],[125.27289390563965,5.710194999985205],[125.27495384216309,5.708657711767287],[125.27667045593262,5.706949608911515],[125.27933120727539,5.703875010947982],[125.28044700622559,5.701825269816553],[125.28173446655273,5.698750644392192],[125.2829360961914,5.696615478159941],[125.28345108032227,5.6961884439609065],[125.28336524963379,5.695932223289134],[125.28473854064941,5.695505188582175],[125.28542518615723,5.694992746514814],[125.28645515441895,5.693711639346901],[125.29169082641602,5.682352364270628],[125.29289245605469,5.678850587647929],[125.29272079467773,5.674494689465874],[125.2932357788086,5.671334507442495],[125.29426574707031,5.669540882917602],[125.29486656188965,5.66714937488031],[125.29572486877441,5.665184914439152],[125.29632568359375,5.664416210708481],[125.29666900634766,5.663476682537407],[125.29735565185547,5.662878800178504],[125.29838562011719,5.659803966847733],[125.29829978942871,5.658693606347683],[125.29855728149414,5.657668656301354],[125.29890060424805,5.657327005882252],[125.29975891113281,5.65707076793548],[125.30044555664062,5.655960402187844],[125.30070304870605,5.655874989349741],[125.30061721801758,5.6556187507598],[125.3016471862793,5.654764621307052],[125.30413627624512,5.6514335043966355],[125.30533790588379,5.64528369975821],[125.30653953552246,5.64203794322178],[125.30834197998047,5.635290128087334],[125.30868530273438,5.630250569425883],[125.30842781066895,5.628285983870256],[125.30774116516113,5.625979722790859],[125.30653953552246,5.624442210323963],[125.30542373657227,5.623844287711677],[125.3045654296875,5.622563022902142],[125.30387878417969,5.620854665435033],[125.30302047729492,5.62017132104441],[125.30241966247559,5.618890048150405],[125.30181884765625,5.618548374902559],[125.3016471862793,5.617437935462789],[125.30035972595215,5.616412912562637],[125.29950141906738,5.614704537055161],[125.29967308044434,5.611714867868059],[125.29924392700195,5.610775254385999],[125.29924392700195,5.61051899590089],[125.1507568359375,5.61051899590089],[125.1507568359375,5.6155587254349655],[125.1507568359375,5.616412912562637]]]}},{"type":"Feature","id":"pmtiles:10/868/495:water:10:1","properties":{"class":"ocean","water":"ocean","kind":"waterway","verification":"verified","source":"OpenMapTiles/OpenStreetMap national PMTiles","sourceId":"10/868/495:water:10:1","sourceLayer":"water","archive":"https://its.hanifahseptiani45.workers.dev/v1/map/archive/indonesia.pmtiles","updatedAt":"2026-07-26T09:38:15.864Z"},"geometry":{"type":"Polygon","coordinates":[[[125.44172286987305,5.615900400436303],[125.44412612915039,5.617694190906022],[125.44438362121582,5.618633793233315],[125.44369697570801,5.619744230392996],[125.44309616088867,5.622990111485436],[125.4422378540039,5.622819276089743],[125.44146537780762,5.623502617371656],[125.44103622436523,5.624271375354596],[125.44069290161133,5.625808888272999],[125.44137954711914,5.628456817660407],[125.44240951538086,5.629738069486308],[125.44386863708496,5.63033598603856],[125.4444694519043,5.630165152800686],[125.44558525085449,5.629396402608862],[125.44661521911621,5.629738069486308],[125.44730186462402,5.629481819347049],[125.4485034942627,5.6299089028497065],[125.44910430908203,5.6309339019756806],[125.44953346252441,5.631190151474698],[125.44987678527832,5.631958899293707],[125.45073509216309,5.632813062344098],[125.45056343078613,5.633325559571517],[125.45099258422852,5.633325559571517],[125.45125007629395,5.633581808015649],[125.45133590698242,5.634350552669758],[125.45150756835938,5.634350552669758],[125.45202255249023,5.635033880396946],[125.45365333557129,5.638706753151567],[125.45382499694824,5.639731736748843],[125.45442581176758,5.6404150581410875],[125.45554161071777,5.64067130345569],[125.45682907104492,5.641696283582135],[125.45768737792969,5.64255043230385],[125.45845985412598,5.644258725972904],[125.46103477478027,5.646735742851391],[125.46163558959961,5.648444024185039],[125.46292304992676,5.650579368767993],[125.46481132507324,5.65467920829245],[125.46549797058105,5.656899942574569],[125.46592712402344,5.657497831117027],[125.46635627746582,5.657412418505942],[125.46687126159668,5.659035255959424],[125.46652793884277,5.660487264557062],[125.46695709228516,5.661512209606599],[125.46798706054688,5.662707976533753],[125.4690170288086,5.663135035550937],[125.46978950500488,5.663135035550937],[125.46987533569336,5.66356209425247],[125.47399520874023,5.667576430613579],[125.47468185424805,5.668943006837154],[125.47476768493652,5.669540882917602],[125.47545433044434,5.670565811900218],[125.47545433044434,5.671419917995095],[125.47794342041016,5.674836329728507],[125.47966003417969,5.6791922253287055],[125.48086166381836,5.679790090782589],[125.48094749450684,5.680131727906215],[125.48154830932617,5.683121044093994],[125.48249244689941,5.684402174852281],[125.48206329345703,5.688416366094458],[125.48214912414551,5.69132023165929],[125.48274993896484,5.693370010286429],[125.48403739929199,5.695761409444444],[125.4847240447998,5.696359257678623],[125.48910140991211,5.699092270252578],[125.49150466918945,5.7014836455827265],[125.49407958984375,5.702679329511227],[125.49562454223633,5.702850141297631],[125.4971694946289,5.702764735410781],[125.4982852935791,5.703106358881868],[125.49854278564453,5.703362576351665],[125.4979419708252,5.707889066112045],[125.49888610839844,5.709853380737599],[125.49871444702148,5.713525776973697],[125.49888610839844,5.716514919315671],[125.50034523010254,5.721297514589281],[125.50094604492188,5.7218953361869325],[125.50189018249512,5.72223694824784],[125.50240516662598,5.723176380362887],[125.50223350524902,5.7256530576295575],[125.50283432006836,5.7276173112776405],[125.50309181213379,5.730264772898892],[125.50412178039551,5.732058207668246],[125.50549507141113,5.733339229053627],[125.50592422485352,5.736413668644985],[125.51201820373535,5.7472594759019415],[125.5133056640625,5.749138256172557],[125.5133056640625,5.616412912562637],[125.5133056640625,5.6155587254349655],[125.5133056640625,5.61051899590089],[125.43099403381348,5.61051899590089],[125.43116569519043,5.611287771018439],[125.43245315551758,5.612227383674693],[125.43399810791016,5.612398222176793],[125.43434143066406,5.612654479836081],[125.43648719787598,5.611458609795832],[125.43828964233398,5.611629448523161],[125.43992042541504,5.6139357664429355],[125.44069290161133,5.614192023426341],[125.44172286987305,5.615900400436303]]]}},{"type":"Feature","id":"pmtiles:8/217/123:water:10:0","properties":{"class":"ocean","water":"ocean","kind":"waterway","verification":"verified","source":"OpenMapTiles/OpenStreetMap national PMTiles","sourceId":"8/217/123:water:10:0","sourceLayer":"water","archive":"https://its.hanifahseptiani45.workers.dev/v1/map/archive/indonesia.pmtiles","updatedAt":"2026-07-26T09:35:16.687Z"},"geometry":{"type":"Polygon","coordinates":[[[125.13427734375,6.014922187699071],[125.13633728027344,6.016629348208511],[125.13839721679688,6.017312210911243],[125.13805389404297,6.018336503356821],[125.14183044433594,6.019702223614473],[125.14217376708984,6.022433653830433],[125.14148712158203,6.022433653830433],[125.14217376708984,6.023116509238193],[125.14183044433594,6.023457936620062],[125.14251708984375,6.02653077339464],[125.1449203491211,6.02857932157923],[125.1449203491211,6.030627862028695],[125.14423370361328,6.03096928468473],[125.14354705810547,6.033700658193865],[125.145263671875,6.034042078914936],[125.14320373535156,6.038821946423525],[125.14663696289062,6.04530884199184],[125.14698028564453,6.048381554855979],[125.14869689941406,6.048722966318806],[125.14698028564453,6.048722966318806],[125.14698028564453,6.049747199413787],[125.14835357666016,6.050088610014257],[125.14801025390625,6.051112840521867],[125.14904022216797,6.050771430568304],[125.14835357666016,6.05179565978203],[125.14938354492188,6.051454250259781],[125.14869689941406,6.052137069088573],[125.14972686767578,6.052137069088573],[125.14972686767578,6.053502704157808],[125.14835357666016,6.053844112385775],[125.14869689941406,6.055209743140097],[125.15007019042969,6.054526928194491],[125.14938354492188,6.05555115028919],[125.1504135131836,6.055209743140097],[125.14972686767578,6.055892557222492],[125.1507568359375,6.056916776727391],[125.1507568359375,6.057599588651371],[125.14972686767578,6.057940994289552],[125.1504135131836,6.058282399711828],[125.15007019042969,6.05930661468318],[125.1511001586914,6.05930661468318],[125.1511001586914,6.060330827711027],[125.15419006347656,6.063744857096722],[125.15384674072266,6.064427660381071],[125.15625,6.066476065046729],[125.15625,6.068865860652949],[125.15384674072266,6.072621232335237],[125.15350341796875,6.075011000682011],[125.15384674072266,6.07569378968995],[125.15556335449219,6.075011000682011],[125.15796661376953,6.08047328849014],[125.15727996826172,6.081838851776638],[125.1559066772461,6.081497461280094],[125.15625,6.082180242056452],[125.15522003173828,6.082180242056452],[125.15384674072266,6.085935520826567],[125.15350341796875,6.090714928578208],[125.15453338623047,6.0920804658378955],[125.16105651855469,6.095152911971027],[125.15830993652344,6.09720119961959],[125.15933990478516,6.098908100018477],[125.16414642333984,6.102321884514765],[125.16483306884766,6.104711520724408],[125.1668930053711,6.104370144775544],[125.16998291015625,6.106418397205431],[125.17890930175781,6.10607702234438],[125.19092559814453,6.103687392225268],[125.1943588256836,6.100614994984042],[125.19950866699219,6.098908100018477],[125.2060317993164,6.099590858656796],[125.20774841308594,6.100956373325033],[125.21530151367188,6.1019805070434785],[125.21564483642578,6.102321884514765],[125.22319793701172,6.0958356753894805],[125.22697448730469,6.09685981888795],[125.23212432861328,6.09720119961959],[125.23452758789062,6.096177056772888],[125.23521423339844,6.0948115299359955],[125.23796081542969,6.09720119961959],[125.23933410644531,6.096177056772888],[125.24036407470703,6.09720119961959],[125.2496337890625,6.095152911971027],[125.25032043457031,6.0958356753894805],[125.25684356689453,6.092763233165229],[125.25993347167969,6.089349387845786],[125.2606201171875,6.090032158646039],[125.26302337646484,6.089349387845786],[125.27229309082031,6.082863021965835],[125.27229309082031,6.080814679636816],[125.27435302734375,6.078424937060035],[125.27606964111328,6.06989005552596],[125.27847290039062,6.066134664809553],[125.27778625488281,6.059989423584369],[125.277099609375,6.060672231621709],[125.27297973632812,6.057599588651371],[125.2716064453125,6.058282399711828],[125.27091979980469,6.055892557222492],[125.27606964111328,6.052819887054625],[125.27538299560547,6.050088610014257],[125.2774429321289,6.049405788597724],[125.27915954589844,6.046674494308732],[125.28053283691406,6.036090598724755],[125.2774429321289,6.035407759648535],[125.27812957763672,6.026872198629121],[125.2822494506836,6.018677933743021],[125.28602600097656,6.0156050525460785],[125.28877258300781,6.011507850602811],[125.28945922851562,6.007752055049764],[125.2877426147461,6.004679112142753],[125.28877258300781,6.00092326949229],[125.2877426147461,5.998874617136991],[125.29048919677734,5.993752952577552],[125.29220581054688,5.982485121399705],[125.2877426147461,5.972582896218057],[125.28327941894531,5.969168294280692],[125.2829360961914,5.965070743870214],[125.28362274169922,5.964046351482523],[125.2822494506836,5.963363422161038],[125.2822494506836,5.959948762801147],[125.27847290039062,5.953802322422973],[125.26885986328125,5.9442410562901955],[125.2657699584961,5.936387034817301],[125.26611328125,5.927166953729596],[125.2712631225586,5.92511802589398],[125.27091979980469,5.924093559124387],[125.2719497680664,5.924093559124387],[125.2712631225586,5.923069090454064],[125.27229309082031,5.920337164709764],[125.2716064453125,5.918971196771736],[125.27263641357422,5.918971196771736],[125.27023315429688,5.916922238534511],[125.2664566040039,5.917263732101475],[125.26473999023438,5.916580744756601],[125.2609634399414,5.918971196771736],[125.25821685791016,5.918971196771736],[125.24585723876953,5.911458312783083],[125.24139404296875,5.9100923229133],[125.23590087890625,5.906335833390756],[125.23761749267578,5.899164282655022],[125.23624420166016,5.895066212013063],[125.2280044555664,5.891651130024698],[125.22354125976562,5.890968111106005],[125.2218246459961,5.891651130024698],[125.21461486816406,5.885845442443525],[125.21289825439453,5.8834548475734465],[125.22010803222656,5.877990592137252],[125.2218246459961,5.869111062647889],[125.22148132324219,5.861255976327669],[125.21907806396484,5.8568160960172975],[125.2166748046875,5.856133034374878],[125.21495819091797,5.853400779454063],[125.21530151367188,5.848619301205019],[125.21427154541016,5.846570083726746],[125.21015167236328,5.84486239676184],[125.20843505859375,5.840422386272934],[125.2056884765625,5.837348512238904],[125.2056884765625,5.830859167255539],[125.20397186279297,5.826760594904087],[125.20294189453125,5.826760594904087],[125.20328521728516,5.826077496602807],[125.20259857177734,5.825735947140515],[125.19882202148438,5.825735947140515],[125.19641876220703,5.827785240797695],[125.19195556640625,5.828809884821013],[125.18852233886719,5.830859167255539],[125.1837158203125,5.837006969638679],[125.18062591552734,5.838373138790644],[125.1785659790039,5.832908442205039],[125.17513275146484,5.829492979797365],[125.17478942871094,5.82368664600483],[125.17650604248047,5.819246467901053],[125.17341613769531,5.816514033174016],[125.1723861694336,5.811732240463897],[125.17341613769531,5.811390682287026],[125.17444610595703,5.806950407133911],[125.17444610595703,5.798752884159768],[125.17719268798828,5.795337214423782],[125.17684936523438,5.7943125094724195],[125.17753601074219,5.793629371804997],[125.18028259277344,5.7949956463133105],[125.18234252929688,5.793970940742014],[125.18714904785156,5.790555242075897],[125.1888656616211,5.787139522759858],[125.1895523071289,5.7833822076758565],[125.1888656616211,5.781674328932297],[125.1888656616211,5.780308022225995],[125.18989562988281,5.77962486763596],[125.1895523071289,5.778258555982632],[125.18749237060547,5.778258555982632],[125.18783569335938,5.776209082320847],[125.18680572509766,5.77484276242626],[125.18302917480469,5.776550661779538],[125.18234252929688,5.775184342708869],[125.18268585205078,5.774159601243255],[125.18508911132812,5.773818020342858],[125.19641876220703,5.769377449904184],[125.19710540771484,5.770402200015781],[125.19676208496094,5.772110112752458],[125.19882202148438,5.773818020342858],[125.20912170410156,5.774501181937737],[125.2163314819336,5.768352697940813],[125.22285461425781,5.757080304218334],[125.2276611328125,5.741366897569478],[125.22834777832031,5.7406836961386745],[125.22972106933594,5.735559659309345],[125.22903442382812,5.7314603967044775],[125.2276611328125,5.731118790158391],[125.2273178100586,5.72906914658968],[125.23418426513672,5.723261783205899],[125.23796081542969,5.718137590050162],[125.23967742919922,5.7177959755410654],[125.24620056152344,5.711305261133205],[125.2499771118164,5.712330115667726],[125.26473999023438,5.708572306745381],[125.26714324951172,5.710622023758276],[125.27091979980469,5.710963642547583],[125.27503967285156,5.708572306745381],[125.27950286865234,5.7037896052137285],[125.28327941894531,5.695932223289134],[125.28636932373047,5.693882453800995],[125.29151916503906,5.682266955338022],[125.29289245605469,5.678850587647929],[125.2932357788086,5.671334507442495],[125.29735565185547,5.662793388362445],[125.2987289428711,5.657668656301354],[125.3042221069336,5.651518917890186],[125.30834197998047,5.635460959818104],[125.30868530273438,5.63033598603856],[125.30765533447266,5.6258943055382105],[125.30525207519531,5.623844287711677],[125.30010223388672,5.616327493906226],[125.30044555664062,5.616327493906226],[125.2994155883789,5.61461911814834],[125.299072265625,5.608468923967081],[125.29632568359375,5.600951931935029],[125.29460906982422,5.59958519571633],[125.29254913330078,5.595484967884644],[125.29289245605469,5.5941182188847876],[125.13427734375,5.5941182188847876],[125.13427734375,5.615644144204097],[125.13427734375,5.616327493906226],[125.13427734375,6.014922187699071]]]}}]}