{"type":"FeatureCollection","features":[{"type":"Feature","id":"pmtiles:10/882/521:mountain_peak:10701649101:0","properties":{"name_int":"Langget","name_de":"Langget","name":"Langget","rank":2,"class":"peak","name:latin":"Langget","name_en":"Langget","kind":"poi","verification":"verified","source":"OpenMapTiles/OpenStreetMap national PMTiles","sourceId":"10/882/521:mountain_peak:10701649101:0","sourceLayer":"mountain_peak","archive":"https://its.hanifahseptiani45.workers.dev/v1/map/archive/indonesia.pmtiles","updatedAt":"2026-07-26T09:43:36.670Z"},"geometry":{"type":"Point","coordinates":[130.4366397857666,-3.5663632052119283]}},{"type":"Feature","id":"pmtiles:10/883/521:mountain_peak:10701649101:0","properties":{"name_int":"Langget","name_de":"Langget","name":"Langget","rank":2,"class":"peak","name:latin":"Langget","name_en":"Langget","kind":"poi","verification":"verified","source":"OpenMapTiles/OpenStreetMap national PMTiles","sourceId":"10/883/521:mountain_peak:10701649101:0","sourceLayer":"mountain_peak","archive":"https://its.hanifahseptiani45.workers.dev/v1/map/archive/indonesia.pmtiles","updatedAt":"2026-07-26T09:43:36.731Z"},"geometry":{"type":"Point","coordinates":[130.4366397857666,-3.5663632052119283]}},{"type":"Feature","id":"pmtiles:10/883/521:mountain_peak:10701902431:0","properties":{"name_int":"Gunung Tenan","name_de":"Gunung Tenan","name":"Gunung Tenan","rank":1,"class":"peak","name:latin":"Gunung Tenan","name_en":"Gunung Tenan","kind":"poi","verification":"verified","source":"OpenMapTiles/OpenStreetMap national PMTiles","sourceId":"10/883/521:mountain_peak:10701902431:0","sourceLayer":"mountain_peak","archive":"https://its.hanifahseptiani45.workers.dev/v1/map/archive/indonesia.pmtiles","updatedAt":"2026-07-26T09:43:36.731Z"},"geometry":{"type":"Point","coordinates":[130.5666732788086,-3.600028723698941]}},{"type":"Feature","id":"pmtiles:10/882/522:mountain_peak:10701649101:0","properties":{"name_int":"Langget","name_de":"Langget","name":"Langget","rank":2,"class":"peak","name:latin":"Langget","name_en":"Langget","kind":"poi","verification":"verified","source":"OpenMapTiles/OpenStreetMap national PMTiles","sourceId":"10/882/522:mountain_peak:10701649101:0","sourceLayer":"mountain_peak","archive":"https://its.hanifahseptiani45.workers.dev/v1/map/archive/indonesia.pmtiles","updatedAt":"2026-07-26T09:43:46.055Z"},"geometry":{"type":"Point","coordinates":[130.4366397857666,-3.5663632052119283]}},{"type":"Feature","id":"pmtiles:10/882/522:mountain_peak:10701871851:0","properties":{"name_int":"Walakletan","name_de":"Walakletan","name":"Walakletan","rank":1,"class":"peak","name:latin":"Walakletan","name_en":"Walakletan","kind":"poi","verification":"verified","source":"OpenMapTiles/OpenStreetMap national PMTiles","sourceId":"10/882/522:mountain_peak:10701871851:0","sourceLayer":"mountain_peak","archive":"https://its.hanifahseptiani45.workers.dev/v1/map/archive/indonesia.pmtiles","updatedAt":"2026-07-26T09:43:46.055Z"},"geometry":{"type":"Point","coordinates":[130.46805381774902,-3.623927917271601]}},{"type":"Feature","id":"pmtiles:10/883/522:landuse:1958671990:0","properties":{"class":"residential","kind":"green","verification":"verified","source":"OpenMapTiles/OpenStreetMap national PMTiles","sourceId":"10/883/522:landuse:1958671990:0","sourceLayer":"landuse","archive":"https://its.hanifahseptiani45.workers.dev/v1/map/archive/indonesia.pmtiles","updatedAt":"2026-07-26T09:43:46.140Z"},"geometry":{"type":"Polygon","coordinates":[[[130.43869972229004,-3.6492826437925032],[130.43972969055176,-3.647740822699248],[130.44041633605957,-3.6478264794960467],[130.44316291809082,-3.6502248664913424],[130.44187545776367,-3.6515953704704742],[130.43869972229004,-3.6492826437925032]]]}},{"type":"Feature","id":"pmtiles:10/883/522:landuse:1958671990:1","properties":{"class":"residential","kind":"green","verification":"verified","source":"OpenMapTiles/OpenStreetMap national PMTiles","sourceId":"10/883/522:landuse:1958671990:1","sourceLayer":"landuse","archive":"https://its.hanifahseptiani45.workers.dev/v1/map/archive/indonesia.pmtiles","updatedAt":"2026-07-26T09:43:46.140Z"},"geometry":{"type":"Polygon","coordinates":[[[130.45260429382324,-3.6611888397014667],[130.45251846313477,-3.6592187606475477],[130.45294761657715,-3.659047449220708],[130.45629501342773,-3.6629876037478653],[130.45509338378906,-3.663587190960058],[130.45260429382324,-3.6611888397014667]]]}},{"type":"Feature","id":"pmtiles:10/883/522:landuse:1958671990:2","properties":{"class":"residential","kind":"green","verification":"verified","source":"OpenMapTiles/OpenStreetMap national PMTiles","sourceId":"10/883/522:landuse:1958671990:2","sourceLayer":"landuse","archive":"https://its.hanifahseptiani45.workers.dev/v1/map/archive/indonesia.pmtiles","updatedAt":"2026-07-26T09:43:46.140Z"},"geometry":{"type":"Polygon","coordinates":[[[130.59585571289062,-3.751807753022888],[130.59714317321777,-3.7512938724244123],[130.5974006652832,-3.7539489189294812],[130.5967140197754,-3.754291504987407],[130.59585571289062,-3.751807753022888]]]}},{"type":"Feature","id":"pmtiles:10/883/522:landuse:1958671990:3","properties":{"class":"residential","kind":"green","verification":"verified","source":"OpenMapTiles/OpenStreetMap national PMTiles","sourceId":"10/883/522:landuse:1958671990:3","sourceLayer":"landuse","archive":"https://its.hanifahseptiani45.workers.dev/v1/map/archive/indonesia.pmtiles","updatedAt":"2026-07-26T09:43:46.140Z"},"geometry":{"type":"Polygon","coordinates":[[[130.54195404052734,-3.7106963536038364],[130.54332733154297,-3.710867655085295],[130.54341316223145,-3.7116385113408086],[130.54409980773926,-3.7118954632764627],[130.54384231567383,-3.712323716336442],[130.54186820983887,-3.7119811139050682],[130.54195404052734,-3.7106963536038364]]]}},{"type":"Feature","id":"pmtiles:10/883/522:landuse:1958671990:4","properties":{"class":"residential","kind":"green","verification":"verified","source":"OpenMapTiles/OpenStreetMap national PMTiles","sourceId":"10/883/522:landuse:1958671990:4","sourceLayer":"landuse","archive":"https://its.hanifahseptiani45.workers.dev/v1/map/archive/indonesia.pmtiles","updatedAt":"2026-07-26T09:43:46.140Z"},"geometry":{"type":"Polygon","coordinates":[[[130.5718231201172,-3.72808328429538],[130.57302474975586,-3.727911986159853],[130.57302474975586,-3.7300532104551394],[130.57225227355957,-3.729881912703462],[130.5718231201172,-3.72808328429538]]]}},{"type":"Feature","id":"pmtiles:10/883/522:landuse:1958671990:5","properties":{"class":"residential","kind":"green","verification":"verified","source":"OpenMapTiles/OpenStreetMap national PMTiles","sourceId":"10/883/522:landuse:1958671990:5","sourceLayer":"landuse","archive":"https://its.hanifahseptiani45.workers.dev/v1/map/archive/indonesia.pmtiles","updatedAt":"2026-07-26T09:43:46.140Z"},"geometry":{"type":"Polygon","coordinates":[[[130.6095027923584,-3.7608006145354835],[130.61182022094727,-3.7608006145354835],[130.61182022094727,-3.761485781135491],[130.60993194580078,-3.7619140099869526],[130.60890197753906,-3.7612288437236003],[130.6095027923584,-3.7608006145354835]]]}},{"type":"Feature","id":"pmtiles:10/883/522:landuse:1958671990:6","properties":{"class":"residential","kind":"green","verification":"verified","source":"OpenMapTiles/OpenStreetMap national PMTiles","sourceId":"10/883/522:landuse:1958671990:6","sourceLayer":"landuse","archive":"https://its.hanifahseptiani45.workers.dev/v1/map/archive/indonesia.pmtiles","updatedAt":"2026-07-26T09:43:46.140Z"},"geometry":{"type":"Polygon","coordinates":[[[130.70056915283203,-3.819209122981235],[130.69988250732422,-3.81955168321322],[130.69833755493164,-3.8174106795204352],[130.6991958618164,-3.816468636204249],[130.70005416870117,-3.8174106795204352],[130.6996250152588,-3.8180101610926442],[130.70056915283203,-3.819209122981235]]]}},{"type":"Feature","id":"pmtiles:10/883/522:landuse:1958671990:7","properties":{"class":"residential","kind":"green","verification":"verified","source":"OpenMapTiles/OpenStreetMap national PMTiles","sourceId":"10/883/522:landuse:1958671990:7","sourceLayer":"landuse","archive":"https://its.hanifahseptiani45.workers.dev/v1/map/archive/indonesia.pmtiles","updatedAt":"2026-07-26T09:43:46.140Z"},"geometry":{"type":"Polygon","coordinates":[[[130.73198318481445,-3.822634719146521],[130.72983741760254,-3.8234054763982215],[130.72786331176758,-3.824176232957015],[130.7277774810791,-3.823491116050093],[130.73129653930664,-3.8219496010078444],[130.73198318481445,-3.822634719146521]]]}},{"type":"Feature","id":"pmtiles:10/883/522:landuse:1958671990:8","properties":{"class":"residential","kind":"green","verification":"verified","source":"OpenMapTiles/OpenStreetMap national PMTiles","sourceId":"10/883/522:landuse:1958671990:8","sourceLayer":"landuse","archive":"https://its.hanifahseptiani45.workers.dev/v1/map/archive/indonesia.pmtiles","updatedAt":"2026-07-26T09:43:46.140Z"},"geometry":{"type":"Polygon","coordinates":[[[130.74914932250977,-3.8279443661540142],[130.748291015625,-3.8282869228954297],[130.7468318939209,-3.8265741378181986],[130.74700355529785,-3.8259746622320137],[130.74734687805176,-3.8256321045658694],[130.7489776611328,-3.8266597771534236],[130.74914932250977,-3.8279443661540142]]]}},{"type":"Feature","id":"pmtiles:10/883/522:landuse:1958671990:9","properties":{"class":"residential","kind":"green","verification":"verified","source":"OpenMapTiles/OpenStreetMap national PMTiles","sourceId":"10/883/522:landuse:1958671990:9","sourceLayer":"landuse","archive":"https://its.hanifahseptiani45.workers.dev/v1/map/archive/indonesia.pmtiles","updatedAt":"2026-07-26T09:43:46.140Z"},"geometry":{"type":"Polygon","coordinates":[[[130.77713012695312,-3.8460140469243385],[130.77713012695312,-3.843016732967172],[130.77773094177246,-3.8426741821298265],[130.77816009521484,-3.8435305589652415],[130.7791042327881,-3.843359283666942],[130.77936172485352,-3.8441300222383887],[130.77850341796875,-3.8446438475656493],[130.77850341796875,-3.8457571347123576],[130.77713012695312,-3.8460140469243385]]]}},{"type":"Feature","id":"pmtiles:10/883/522:landuse:1958671990:10","properties":{"class":"residential","kind":"green","verification":"verified","source":"OpenMapTiles/OpenStreetMap national PMTiles","sourceId":"10/883/522:landuse:1958671990:10","sourceLayer":"landuse","archive":"https://its.hanifahseptiani45.workers.dev/v1/map/archive/indonesia.pmtiles","updatedAt":"2026-07-26T09:43:46.141Z"},"geometry":{"type":"Polygon","coordinates":[[[130.7791042327881,-3.847212969556182],[130.7797908782959,-3.847212969556182],[130.77961921691895,-3.847898067445527],[130.77781677246094,-3.848754439032362],[130.77678680419922,-3.8484118905009552],[130.77670097351074,-3.847898067445527],[130.7791042327881,-3.847212969556182]]]}},{"type":"Feature","id":"pmtiles:10/883/522:landuse:1958671990:11","properties":{"class":"residential","kind":"green","verification":"verified","source":"OpenMapTiles/OpenStreetMap national PMTiles","sourceId":"10/883/522:landuse:1958671990:11","sourceLayer":"landuse","archive":"https://its.hanifahseptiani45.workers.dev/v1/map/archive/indonesia.pmtiles","updatedAt":"2026-07-26T09:43:46.141Z"},"geometry":{"type":"Polygon","coordinates":[[[130.7618522644043,-3.831198649662781],[130.76245307922363,-3.8300853435390536],[130.76210975646973,-3.828458201214744],[130.76279640197754,-3.828201283722919],[130.7636547088623,-3.8300853435390536],[130.76288223266602,-3.831113010781607],[130.7618522644043,-3.831198649662781]]]}},{"type":"Feature","id":"pmtiles:10/883/522:mountain_peak:10701649101:0","properties":{"name_int":"Langget","name_de":"Langget","name":"Langget","rank":2,"class":"peak","name:latin":"Langget","name_en":"Langget","kind":"poi","verification":"verified","source":"OpenMapTiles/OpenStreetMap national PMTiles","sourceId":"10/883/522:mountain_peak:10701649101:0","sourceLayer":"mountain_peak","archive":"https://its.hanifahseptiani45.workers.dev/v1/map/archive/indonesia.pmtiles","updatedAt":"2026-07-26T09:43:46.141Z"},"geometry":{"type":"Point","coordinates":[130.4366397857666,-3.5663632052119283]}},{"type":"Feature","id":"pmtiles:10/883/522:mountain_peak:10701871851:0","properties":{"name_int":"Walakletan","name_de":"Walakletan","name":"Walakletan","rank":1,"class":"peak","name:latin":"Walakletan","name_en":"Walakletan","kind":"poi","verification":"verified","source":"OpenMapTiles/OpenStreetMap national PMTiles","sourceId":"10/883/522:mountain_peak:10701871851:0","sourceLayer":"mountain_peak","archive":"https://its.hanifahseptiani45.workers.dev/v1/map/archive/indonesia.pmtiles","updatedAt":"2026-07-26T09:43:46.141Z"},"geometry":{"type":"Point","coordinates":[130.46805381774902,-3.623927917271601]}},{"type":"Feature","id":"pmtiles:10/883/522:mountain_peak:10701902431:0","properties":{"name_int":"Gunung Tenan","name_de":"Gunung Tenan","name":"Gunung Tenan","rank":1,"class":"peak","name:latin":"Gunung Tenan","name_en":"Gunung Tenan","kind":"poi","verification":"verified","source":"OpenMapTiles/OpenStreetMap national PMTiles","sourceId":"10/883/522:mountain_peak:10701902431:0","sourceLayer":"mountain_peak","archive":"https://its.hanifahseptiani45.workers.dev/v1/map/archive/indonesia.pmtiles","updatedAt":"2026-07-26T09:43:46.141Z"},"geometry":{"type":"Point","coordinates":[130.5666732788086,-3.600028723698941]}},{"type":"Feature","id":"pmtiles:10/883/522:mountain_peak:10701701861:0","properties":{"name_int":"Gunung Selagor","name_de":"Gunung Selagor","name":"Gunung Selagor","rank":1,"class":"peak","name:latin":"Gunung Selagor","name_en":"Gunung Selagor","kind":"poi","verification":"verified","source":"OpenMapTiles/OpenStreetMap national PMTiles","sourceId":"10/883/522:mountain_peak:10701701861:0","sourceLayer":"mountain_peak","archive":"https://its.hanifahseptiani45.workers.dev/v1/map/archive/indonesia.pmtiles","updatedAt":"2026-07-26T09:43:46.141Z"},"geometry":{"type":"Point","coordinates":[130.76665878295898,-3.699989945162457]}},{"type":"Feature","id":"pmtiles:10/883/522:mountain_peak:10701600211:0","properties":{"name_int":"Gunung Uratlean","name_de":"Gunung Uratlean","name":"Gunung Uratlean","rank":1,"class":"peak","name:latin":"Gunung Uratlean","name_en":"Gunung Uratlean","kind":"poi","verification":"verified","source":"OpenMapTiles/OpenStreetMap national PMTiles","sourceId":"10/883/522:mountain_peak:10701600211:0","sourceLayer":"mountain_peak","archive":"https://its.hanifahseptiani45.workers.dev/v1/map/archive/indonesia.pmtiles","updatedAt":"2026-07-26T09:43:46.141Z"},"geometry":{"type":"Point","coordinates":[130.75000762939453,-3.8000255321343275]}},{"type":"Feature","id":"pmtiles:10/883/522:mountain_peak:10701633581:0","properties":{"name_int":"Gunung Semin","name_de":"Gunung Semin","name":"Gunung Semin","rank":2,"class":"peak","name:latin":"Gunung Semin","name_en":"Gunung Semin","kind":"poi","verification":"verified","source":"OpenMapTiles/OpenStreetMap national PMTiles","sourceId":"10/883/522:mountain_peak:10701633581:0","sourceLayer":"mountain_peak","archive":"https://its.hanifahseptiani45.workers.dev/v1/map/archive/indonesia.pmtiles","updatedAt":"2026-07-26T09:43:46.141Z"},"geometry":{"type":"Point","coordinates":[130.75000762939453,-3.766624513458382]}},{"type":"Feature","id":"pmtiles:10/883/522:mountain_peak:10701692321:0","properties":{"name_int":"Gunung Dois","name_de":"Gunung Dois","name":"Gunung Dois","rank":3,"class":"peak","name:latin":"Gunung Dois","name_en":"Gunung Dois","kind":"poi","verification":"verified","source":"OpenMapTiles/OpenStreetMap national PMTiles","sourceId":"10/883/522:mountain_peak:10701692321:0","sourceLayer":"mountain_peak","archive":"https://its.hanifahseptiani45.workers.dev/v1/map/archive/indonesia.pmtiles","updatedAt":"2026-07-26T09:43:46.141Z"},"geometry":{"type":"Point","coordinates":[130.75000762939453,-3.833339618905626]}},{"type":"Feature","id":"pmtiles:10/883/522:mountain_peak:10701769761:0","properties":{"name_int":"Gunung Tunlean","name_de":"Gunung Tunlean","name":"Gunung Tunlean","rank":4,"class":"peak","name:latin":"Gunung Tunlean","name_en":"Gunung Tunlean","kind":"poi","verification":"verified","source":"OpenMapTiles/OpenStreetMap national PMTiles","sourceId":"10/883/522:mountain_peak:10701769761:0","sourceLayer":"mountain_peak","archive":"https://its.hanifahseptiani45.workers.dev/v1/map/archive/indonesia.pmtiles","updatedAt":"2026-07-26T09:43:46.141Z"},"geometry":{"type":"Point","coordinates":[130.76665878295898,-3.7833251837458732]}},{"type":"Feature","id":"pmtiles:10/883/522:mountain_peak:10701798361:0","properties":{"name_int":"Gunung Birat","name_de":"Gunung Birat","name":"Gunung Birat","rank":5,"class":"peak","name:latin":"Gunung Birat","name_en":"Gunung Birat","kind":"poi","verification":"verified","source":"OpenMapTiles/OpenStreetMap national PMTiles","sourceId":"10/883/522:mountain_peak:10701798361:0","sourceLayer":"mountain_peak","archive":"https://its.hanifahseptiani45.workers.dev/v1/map/archive/indonesia.pmtiles","updatedAt":"2026-07-26T09:43:46.141Z"},"geometry":{"type":"Point","coordinates":[130.75000762939453,-3.816639916884057]}},{"type":"Feature","id":"pmtiles:10/883/522:water:1080:0","properties":{"class":"ocean","water":"ocean","kind":"waterway","verification":"verified","source":"OpenMapTiles/OpenStreetMap national PMTiles","sourceId":"10/883/522:water:1080:0","sourceLayer":"water","archive":"https://its.hanifahseptiani45.workers.dev/v1/map/archive/indonesia.pmtiles","updatedAt":"2026-07-26T09:43:46.141Z"},"geometry":{"type":"Polygon","coordinates":[[[130.7867431640625,-3.8697352734583603],[130.4241943359375,-3.8697352734583603],[130.4241943359375,-3.6422587707314023],[130.43063163757324,-3.645256772041421],[130.4399871826172,-3.650653149209518],[130.44513702392578,-3.65425071597582],[130.44925689697266,-3.658019579971821],[130.45655250549316,-3.667356015663259],[130.45775413513184,-3.6695830409747145],[130.45844078063965,-3.6700969691044776],[130.45955657958984,-3.671553097199606],[130.46221733093262,-3.674294037759509],[130.46565055847168,-3.678919355857616],[130.47002792358398,-3.6828594227098534],[130.47225952148438,-3.6860285942624955],[130.4732894897461,-3.6885981845289137],[130.4736328125,-3.6910821147246367],[130.4732894897461,-3.693223428283403],[130.4725170135498,-3.6949364754113105],[130.47225952148438,-3.6951934321952677],[130.4714870452881,-3.6951934321952677],[130.47054290771484,-3.695707345539887],[130.47088623046875,-3.6970777796698258],[130.4714870452881,-3.698105603877366],[130.47346115112305,-3.7001612487169524],[130.47646522521973,-3.7007608108968526],[130.47904014587402,-3.701702979216776],[130.48118591308594,-3.7041012213257574],[130.48221588134766,-3.7057285961988384],[130.48298835754395,-3.7064138057761795],[130.48504829406738,-3.7074416191468202],[130.48616409301758,-3.707527270207123],[130.49019813537598,-3.7072703170013313],[130.49328804016113,-3.706585108087566],[130.49663543701172,-3.7060712010538595],[130.5017852783203,-3.7060712010538595],[130.52770614624023,-3.709068987873522],[130.53448677062988,-3.710953305813561],[130.5472755432129,-3.713008920800405],[130.55242538452148,-3.7142936777369755],[130.56495666503906,-3.7194326867750647],[130.5691623687744,-3.722259128976546],[130.570707321167,-3.7237151714194567],[130.57242393493652,-3.727055494981684],[130.57276725769043,-3.7273980915530416],[130.57259559631348,-3.727740687990959],[130.57147979736328,-3.7276550388939853],[130.57130813598633,-3.727911986159853],[130.57268142700195,-3.731252293781978],[130.57456970214844,-3.7343356433922565],[130.5746555328369,-3.7356203692006886],[130.57371139526367,-3.737247685857909],[130.57379722595215,-3.7377615747014517],[130.5747413635254,-3.738960647498658],[130.5747413635254,-3.7396458312179703],[130.574312210083,-3.7405023101139534],[130.57448387145996,-3.7408449014379954],[130.5768871307373,-3.7407592536195438],[130.57997703552246,-3.741444435932763],[130.58143615722656,-3.741872674606441],[130.58366775512695,-3.7431573893713903],[130.58555603027344,-3.74478469203477],[130.58692932128906,-3.7464119916730567],[130.58770179748535,-3.747097169562821],[130.5901050567627,-3.748553170796626],[130.59319496154785,-3.7500948165195496],[130.5948257446289,-3.7512082256286305],[130.59576988220215,-3.7524929266840275],[130.5970573425293,-3.7553192623546465],[130.59988975524902,-3.758830757560716],[130.60040473937988,-3.7591733417020947],[130.603666305542,-3.7601154473968847],[130.60503959655762,-3.7608006145354835],[130.61010360717773,-3.7655111240285066],[130.61302185058594,-3.7721914392335663],[130.61336517333984,-3.773647398555269],[130.61345100402832,-3.775360288750605],[130.61302185058594,-3.7773301082977326],[130.61293601989746,-3.779642499452052],[130.61250686645508,-3.780927158540649],[130.61113357543945,-3.781355377813881],[130.61070442199707,-3.7803276512028106],[130.61001777648926,-3.780242007263567],[130.60924530029297,-3.7816123092762837],[130.60941696166992,-3.7818692406625303],[130.61001777648926,-3.7816979530801547],[130.6102752685547,-3.7822118157257165],[130.60967445373535,-3.7836677582335057],[130.60958862304688,-3.785551915493784],[130.6101894378662,-3.7863227059187494],[130.6131935119629,-3.787778641515686],[130.6193733215332,-3.792146433606476],[130.61988830566406,-3.793088503517822],[130.62040328979492,-3.792574647329829],[130.6204891204834,-3.791632576858433],[130.6208324432373,-3.791461291207881],[130.6234073638916,-3.7919751480577304],[130.62469482421875,-3.791632576858433],[130.62572479248047,-3.7917182196709973],[130.625638961792,-3.790861791163735],[130.62478065490723,-3.787607355101983],[130.625638961792,-3.7879499278954967],[130.6266689300537,-3.789063288537747],[130.62701225280762,-3.788892002378347],[130.62684059143066,-3.7878642847098263],[130.62701225280762,-3.7876929983130765],[130.62838554382324,-3.7881212142414],[130.62932968139648,-3.7879499278954967],[130.6307888031006,-3.787264782172869],[130.63164710998535,-3.787264782172869],[130.63190460205078,-3.7875217118824196],[130.63233375549316,-3.788892002378347],[130.63164710998535,-3.789919718826056],[130.63190460205078,-3.791461291207881],[130.63276290893555,-3.792574647329829],[130.63233375549316,-3.7935167167744055],[130.6329345703125,-3.7935167167744055],[130.63336372375488,-3.793088503517822],[130.63447952270508,-3.7933454314972437],[130.640230178833,-3.7965998459562087],[130.64349174499512,-3.7971993420188994],[130.64486503601074,-3.7971993420188994],[130.6461524963379,-3.7981414064191057],[130.64786911010742,-3.80113887721366],[130.65044403076172,-3.803622487979638],[130.65336227416992,-3.8049927529249317],[130.65387725830078,-3.806534298383184],[130.65361976623535,-3.807133787538419],[130.65396308898926,-3.80764763505357],[130.6552505493164,-3.807476352582583],[130.6549072265625,-3.8069625049652274],[130.65516471862793,-3.8063630156907493],[130.65499305725098,-3.805934808810605],[130.65533638000488,-3.805420960273409],[130.65499305725098,-3.805078394411666],[130.65533638000488,-3.8043076207246855],[130.6582546234131,-3.802423504365251],[130.66091537475586,-3.801909653734299],[130.66306114196777,-3.801995295527391],[130.66795349121094,-3.8032799214028756],[130.67310333251953,-3.802594787840846],[130.6761074066162,-3.8030229963809177],[130.67816734313965,-3.8030229963809177],[130.67893981933594,-3.803451204708267],[130.68366050720215,-3.8043932622795182],[130.6856346130371,-3.8049927529249317],[130.69035530090332,-3.80764763505357],[130.69344520568848,-3.809788663064836],[130.69619178771973,-3.8125291711446607],[130.69730758666992,-3.814498905931913],[130.6977367401123,-3.8162117151205166],[130.69859504699707,-3.818181441464958],[130.6996250152588,-3.819209122981235],[130.70005416870117,-3.8200655233048195],[130.70005416870117,-3.821178842447665],[130.70091247558594,-3.8204080831949483],[130.7017707824707,-3.8204937231461145],[130.70597648620605,-3.8222921601455795],[130.70786476135254,-3.823576755693395],[130.7109546661377,-3.8242618725318636],[130.7124137878418,-3.824946988822731],[130.71327209472656,-3.825032628320585],[130.71584701538086,-3.826145941013735],[130.7167911529541,-3.826831055798138],[130.71807861328125,-3.826488498474447],[130.72073936462402,-3.8265741378181986],[130.7229709625244,-3.826231580391749],[130.7240867614746,-3.8258033834160727],[130.72443008422852,-3.8252039072906],[130.72511672973633,-3.824861349316322],[130.72940826416016,-3.8238336745719863],[130.73369979858398,-3.823491116050093],[130.73859214782715,-3.823491116050093],[130.74365615844727,-3.8244331516559242],[130.74520111083984,-3.82511826780987],[130.74623107910156,-3.8259746622320137],[130.7486343383789,-3.8292289532275845],[130.748291015625,-3.83085609408667],[130.74949264526367,-3.8332539802388084],[130.74949264526367,-3.8336821734871194],[130.74914932250977,-3.8342816436744727],[130.7494068145752,-3.8347954749290523],[130.75215339660645,-3.836679520219633],[130.75387001037598,-3.8375359030692806],[130.75429916381836,-3.837450264822934],[130.7548999786377,-3.83676515854323],[130.75567245483398,-3.836679520219633],[130.75661659240723,-3.835994413321856],[130.75876235961914,-3.835908774920995],[130.7589340209961,-3.8342816436744727],[130.75919151306152,-3.8337678121110343],[130.76065063476562,-3.83342525756386],[130.76090812683105,-3.8322263155681497],[130.76210975646973,-3.8313699273994075],[130.76288223266602,-3.831113010781607],[130.76348304748535,-3.830513538373424],[130.7636547088623,-3.8299997045464664],[130.76348304748535,-3.8292289532275845],[130.76382637023926,-3.828458201214744],[130.7655429840088,-3.8277730877319414],[130.76717376708984,-3.828115644541853],[130.76897621154785,-3.82914331414932],[130.77232360839844,-3.832397593099003],[130.7750701904297,-3.83676515854323],[130.7761001586914,-3.8395055803647438],[130.77713012695312,-3.843016732967172],[130.77713012695312,-3.8460140469243385],[130.77678680419922,-3.8464422337722084],[130.77601432800293,-3.8461853216892905],[130.77584266662598,-3.8464422337722084],[130.77601432800293,-3.8474698813292605],[130.7768726348877,-3.8486688019124244],[130.7775592803955,-3.848840076143702],[130.77987670898438,-3.847812430239486],[130.78099250793457,-3.847812430239486],[130.78296661376953,-3.849439535681867],[130.78373908996582,-3.8506384534920954],[130.7867431640625,-3.8509810011277494],[130.7867431640625,-3.8697352734583603]],[[130.717134475708,-3.846956057705654],[130.71739196777344,-3.846956057705654],[130.71799278259277,-3.847212969556182],[130.71885108947754,-3.84627095905887],[130.71928024291992,-3.8451576725832552],[130.71893692016602,-3.8443869349407294],[130.71773529052734,-3.8442156598144237],[130.71739196777344,-3.8419034422428524],[130.71722030639648,-3.8420747178334693],[130.71730613708496,-3.8427598198520485],[130.71704864501953,-3.8439587470604977],[130.717134475708,-3.8448151226059224],[130.71670532226562,-3.845671497291164],[130.717134475708,-3.846956057705654]]]}},{"type":"Feature","id":"pmtiles:10/883/522:water:11028565602:0","properties":{"intermittent":0,"class":"river","id":1102856560,"water":"river","kind":"waterway","verification":"verified","source":"OpenMapTiles/OpenStreetMap national PMTiles","sourceId":"10/883/522:water:11028565602:0","sourceLayer":"water","archive":"https://its.hanifahseptiani45.workers.dev/v1/map/archive/indonesia.pmtiles","updatedAt":"2026-07-26T09:43:46.141Z"},"geometry":{"type":"Polygon","coordinates":[[[130.53010940551758,-3.7096685440175747],[130.53208351135254,-3.7079555253841505],[130.53491592407227,-3.7081268273968817],[130.53534507751465,-3.7078698743653433],[130.53594589233398,-3.707184665916145],[130.5366325378418,-3.7057285961988384],[130.5374050140381,-3.7027307980589796],[130.53800582885742,-3.702902101083353],[130.53749084472656,-3.705385991211145],[130.53637504577637,-3.7077842233382228],[130.53534507751465,-3.7085550822834676],[130.53397178649902,-3.7088976860433718],[130.53242683410645,-3.7085550822834676],[130.5322551727295,-3.7088976860433718],[130.53242683410645,-3.7093259405564964],[130.53277015686035,-3.7095828931647503],[130.53362846374512,-3.710011147345824],[130.53431510925293,-3.710011147345824],[130.53568840026855,-3.710782004348701],[130.53500175476074,-3.710867655085295],[130.5340576171875,-3.7106107028506443],[130.53388595581055,-3.710867655085295],[130.53010940551758,-3.7096685440175747]]]}},{"type":"Feature","id":"pmtiles:10/884/522:landuse:269723870:8","properties":{"class":"residential","kind":"green","verification":"verified","source":"OpenMapTiles/OpenStreetMap national PMTiles","sourceId":"10/884/522:landuse:269723870:8","sourceLayer":"landuse","archive":"https://its.hanifahseptiani45.workers.dev/v1/map/archive/indonesia.pmtiles","updatedAt":"2026-07-26T09:43:46.211Z"},"geometry":{"type":"Polygon","coordinates":[[[130.7791042327881,-3.847212969556182],[130.7797908782959,-3.847212969556182],[130.77961921691895,-3.847898067445527],[130.77781677246094,-3.848754439032362],[130.77678680419922,-3.8484118905009552],[130.77670097351074,-3.847898067445527],[130.7791042327881,-3.847212969556182]]]}},{"type":"Feature","id":"pmtiles:10/884/522:landuse:269723870:9","properties":{"class":"residential","kind":"green","verification":"verified","source":"OpenMapTiles/OpenStreetMap national PMTiles","sourceId":"10/884/522:landuse:269723870:9","sourceLayer":"landuse","archive":"https://its.hanifahseptiani45.workers.dev/v1/map/archive/indonesia.pmtiles","updatedAt":"2026-07-26T09:43:46.211Z"},"geometry":{"type":"Polygon","coordinates":[[[130.77713012695312,-3.8460140469243385],[130.77713012695312,-3.843016732967172],[130.77773094177246,-3.8426741821298265],[130.77816009521484,-3.8435305589652415],[130.7791042327881,-3.843359283666942],[130.77936172485352,-3.8441300222383887],[130.77850341796875,-3.8446438475656493],[130.77850341796875,-3.8457571347123576],[130.77713012695312,-3.8460140469243385]]]}},{"type":"Feature","id":"pmtiles:10/884/522:mountain_peak:10701701861:0","properties":{"name_int":"Gunung Selagor","name_de":"Gunung Selagor","name":"Gunung Selagor","rank":1,"class":"peak","name:latin":"Gunung Selagor","name_en":"Gunung Selagor","kind":"poi","verification":"verified","source":"OpenMapTiles/OpenStreetMap national PMTiles","sourceId":"10/884/522:mountain_peak:10701701861:0","sourceLayer":"mountain_peak","archive":"https://its.hanifahseptiani45.workers.dev/v1/map/archive/indonesia.pmtiles","updatedAt":"2026-07-26T09:43:46.211Z"},"geometry":{"type":"Point","coordinates":[130.76665878295898,-3.699989945162457]}},{"type":"Feature","id":"pmtiles:10/884/522:mountain_peak:10701600211:0","properties":{"name_int":"Gunung Uratlean","name_de":"Gunung Uratlean","name":"Gunung Uratlean","rank":1,"class":"peak","name:latin":"Gunung Uratlean","name_en":"Gunung Uratlean","kind":"poi","verification":"verified","source":"OpenMapTiles/OpenStreetMap national PMTiles","sourceId":"10/884/522:mountain_peak:10701600211:0","sourceLayer":"mountain_peak","archive":"https://its.hanifahseptiani45.workers.dev/v1/map/archive/indonesia.pmtiles","updatedAt":"2026-07-26T09:43:46.211Z"},"geometry":{"type":"Point","coordinates":[130.75000762939453,-3.8000255321343275]}},{"type":"Feature","id":"pmtiles:10/884/522:mountain_peak:10701633581:0","properties":{"name_int":"Gunung Semin","name_de":"Gunung Semin","name":"Gunung Semin","rank":2,"class":"peak","name:latin":"Gunung Semin","name_en":"Gunung Semin","kind":"poi","verification":"verified","source":"OpenMapTiles/OpenStreetMap national PMTiles","sourceId":"10/884/522:mountain_peak:10701633581:0","sourceLayer":"mountain_peak","archive":"https://its.hanifahseptiani45.workers.dev/v1/map/archive/indonesia.pmtiles","updatedAt":"2026-07-26T09:43:46.211Z"},"geometry":{"type":"Point","coordinates":[130.75000762939453,-3.766624513458382]}},{"type":"Feature","id":"pmtiles:10/884/522:mountain_peak:10701692321:0","properties":{"name_int":"Gunung Dois","name_de":"Gunung Dois","name":"Gunung Dois","rank":3,"class":"peak","name:latin":"Gunung Dois","name_en":"Gunung Dois","kind":"poi","verification":"verified","source":"OpenMapTiles/OpenStreetMap national PMTiles","sourceId":"10/884/522:mountain_peak:10701692321:0","sourceLayer":"mountain_peak","archive":"https://its.hanifahseptiani45.workers.dev/v1/map/archive/indonesia.pmtiles","updatedAt":"2026-07-26T09:43:46.211Z"},"geometry":{"type":"Point","coordinates":[130.75000762939453,-3.833339618905626]}},{"type":"Feature","id":"pmtiles:10/884/522:mountain_peak:10701769761:0","properties":{"name_int":"Gunung Tunlean","name_de":"Gunung Tunlean","name":"Gunung Tunlean","rank":4,"class":"peak","name:latin":"Gunung Tunlean","name_en":"Gunung Tunlean","kind":"poi","verification":"verified","source":"OpenMapTiles/OpenStreetMap national PMTiles","sourceId":"10/884/522:mountain_peak:10701769761:0","sourceLayer":"mountain_peak","archive":"https://its.hanifahseptiani45.workers.dev/v1/map/archive/indonesia.pmtiles","updatedAt":"2026-07-26T09:43:46.211Z"},"geometry":{"type":"Point","coordinates":[130.76665878295898,-3.7833251837458732]}},{"type":"Feature","id":"pmtiles:10/884/522:mountain_peak:10701798361:0","properties":{"name_int":"Gunung Birat","name_de":"Gunung Birat","name":"Gunung Birat","rank":5,"class":"peak","name:latin":"Gunung Birat","name_en":"Gunung Birat","kind":"poi","verification":"verified","source":"OpenMapTiles/OpenStreetMap national PMTiles","sourceId":"10/884/522:mountain_peak:10701798361:0","sourceLayer":"mountain_peak","archive":"https://its.hanifahseptiani45.workers.dev/v1/map/archive/indonesia.pmtiles","updatedAt":"2026-07-26T09:43:46.211Z"},"geometry":{"type":"Point","coordinates":[130.75000762939453,-3.816639916884057]}},{"type":"Feature","id":"pmtiles:10/883/523:mountain_peak:10701600211:0","properties":{"name_int":"Gunung Uratlean","name_de":"Gunung Uratlean","name":"Gunung Uratlean","rank":1,"class":"peak","name:latin":"Gunung Uratlean","name_en":"Gunung Uratlean","kind":"poi","verification":"verified","source":"OpenMapTiles/OpenStreetMap national PMTiles","sourceId":"10/883/523:mountain_peak:10701600211:0","sourceLayer":"mountain_peak","archive":"https://its.hanifahseptiani45.workers.dev/v1/map/archive/indonesia.pmtiles","updatedAt":"2026-07-26T09:43:55.928Z"},"geometry":{"type":"Point","coordinates":[130.75000762939453,-3.8000255321343275]}},{"type":"Feature","id":"pmtiles:10/883/523:mountain_peak:10701692321:0","properties":{"name_int":"Gunung Dois","name_de":"Gunung Dois","name":"Gunung Dois","rank":3,"class":"peak","name:latin":"Gunung Dois","name_en":"Gunung Dois","kind":"poi","verification":"verified","source":"OpenMapTiles/OpenStreetMap national PMTiles","sourceId":"10/883/523:mountain_peak:10701692321:0","sourceLayer":"mountain_peak","archive":"https://its.hanifahseptiani45.workers.dev/v1/map/archive/indonesia.pmtiles","updatedAt":"2026-07-26T09:43:55.928Z"},"geometry":{"type":"Point","coordinates":[130.75000762939453,-3.833339618905626]}},{"type":"Feature","id":"pmtiles:10/883/523:mountain_peak:10701769761:0","properties":{"name_int":"Gunung Tunlean","name_de":"Gunung Tunlean","name":"Gunung Tunlean","rank":4,"class":"peak","name:latin":"Gunung Tunlean","name_en":"Gunung Tunlean","kind":"poi","verification":"verified","source":"OpenMapTiles/OpenStreetMap national PMTiles","sourceId":"10/883/523:mountain_peak:10701769761:0","sourceLayer":"mountain_peak","archive":"https://its.hanifahseptiani45.workers.dev/v1/map/archive/indonesia.pmtiles","updatedAt":"2026-07-26T09:43:55.928Z"},"geometry":{"type":"Point","coordinates":[130.76665878295898,-3.7833251837458732]}},{"type":"Feature","id":"pmtiles:10/883/523:mountain_peak:10701798361:0","properties":{"name_int":"Gunung Birat","name_de":"Gunung Birat","name":"Gunung Birat","rank":5,"class":"peak","name:latin":"Gunung Birat","name_en":"Gunung Birat","kind":"poi","verification":"verified","source":"OpenMapTiles/OpenStreetMap national PMTiles","sourceId":"10/883/523:mountain_peak:10701798361:0","sourceLayer":"mountain_peak","archive":"https://its.hanifahseptiani45.workers.dev/v1/map/archive/indonesia.pmtiles","updatedAt":"2026-07-26T09:43:55.928Z"},"geometry":{"type":"Point","coordinates":[130.75000762939453,-3.816639916884057]}},{"type":"Feature","id":"pmtiles:10/884/523:mountain_peak:10701600211:0","properties":{"name_int":"Gunung Uratlean","name_de":"Gunung Uratlean","name":"Gunung Uratlean","rank":1,"class":"peak","name:latin":"Gunung Uratlean","name_en":"Gunung Uratlean","kind":"poi","verification":"verified","source":"OpenMapTiles/OpenStreetMap national PMTiles","sourceId":"10/884/523:mountain_peak:10701600211:0","sourceLayer":"mountain_peak","archive":"https://its.hanifahseptiani45.workers.dev/v1/map/archive/indonesia.pmtiles","updatedAt":"2026-07-26T09:43:56.005Z"},"geometry":{"type":"Point","coordinates":[130.75000762939453,-3.8000255321343275]}},{"type":"Feature","id":"pmtiles:10/884/523:mountain_peak:10701692321:0","properties":{"name_int":"Gunung Dois","name_de":"Gunung Dois","name":"Gunung Dois","rank":3,"class":"peak","name:latin":"Gunung Dois","name_en":"Gunung Dois","kind":"poi","verification":"verified","source":"OpenMapTiles/OpenStreetMap national PMTiles","sourceId":"10/884/523:mountain_peak:10701692321:0","sourceLayer":"mountain_peak","archive":"https://its.hanifahseptiani45.workers.dev/v1/map/archive/indonesia.pmtiles","updatedAt":"2026-07-26T09:43:56.005Z"},"geometry":{"type":"Point","coordinates":[130.75000762939453,-3.833339618905626]}},{"type":"Feature","id":"pmtiles:10/884/523:mountain_peak:10701769761:0","properties":{"name_int":"Gunung Tunlean","name_de":"Gunung Tunlean","name":"Gunung Tunlean","rank":4,"class":"peak","name:latin":"Gunung Tunlean","name_en":"Gunung Tunlean","kind":"poi","verification":"verified","source":"OpenMapTiles/OpenStreetMap national PMTiles","sourceId":"10/884/523:mountain_peak:10701769761:0","sourceLayer":"mountain_peak","archive":"https://its.hanifahseptiani45.workers.dev/v1/map/archive/indonesia.pmtiles","updatedAt":"2026-07-26T09:43:56.005Z"},"geometry":{"type":"Point","coordinates":[130.76665878295898,-3.7833251837458732]}},{"type":"Feature","id":"pmtiles:10/884/523:mountain_peak:10701798361:0","properties":{"name_int":"Gunung Birat","name_de":"Gunung Birat","name":"Gunung Birat","rank":5,"class":"peak","name:latin":"Gunung Birat","name_en":"Gunung Birat","kind":"poi","verification":"verified","source":"OpenMapTiles/OpenStreetMap national PMTiles","sourceId":"10/884/523:mountain_peak:10701798361:0","sourceLayer":"mountain_peak","archive":"https://its.hanifahseptiani45.workers.dev/v1/map/archive/indonesia.pmtiles","updatedAt":"2026-07-26T09:43:56.005Z"},"geometry":{"type":"Point","coordinates":[130.75000762939453,-3.816639916884057]}},{"type":"Feature","id":"pmtiles:8/220/130:mountain_peak:10701600211:0","properties":{"name_int":"Gunung Uratlean","name_de":"Gunung Uratlean","name":"Gunung Uratlean","rank":1,"class":"peak","name:latin":"Gunung Uratlean","name_en":"Gunung Uratlean","kind":"poi","verification":"verified","source":"OpenMapTiles/OpenStreetMap national PMTiles","sourceId":"8/220/130:mountain_peak:10701600211:0","sourceLayer":"mountain_peak","archive":"https://its.hanifahseptiani45.workers.dev/v1/map/archive/indonesia.pmtiles","updatedAt":"2026-07-26T09:35:38.795Z"},"geometry":{"type":"Point","coordinates":[130.75000762939453,-3.7998542481484208]}},{"type":"Feature","id":"pmtiles:8/220/130:mountain_peak:10701633581:0","properties":{"name_int":"Gunung Semin","name_de":"Gunung Semin","name":"Gunung Semin","rank":2,"class":"peak","name:latin":"Gunung Semin","name_en":"Gunung Semin","kind":"poi","verification":"verified","source":"OpenMapTiles/OpenStreetMap national PMTiles","sourceId":"8/220/130:mountain_peak:10701633581:0","sourceLayer":"mountain_peak","archive":"https://its.hanifahseptiani45.workers.dev/v1/map/archive/indonesia.pmtiles","updatedAt":"2026-07-26T09:35:38.795Z"},"geometry":{"type":"Point","coordinates":[130.75000762939453,-3.766624513458382]}},{"type":"Feature","id":"pmtiles:8/220/130:mountain_peak:10701649101:0","properties":{"name_int":"Langget","name_de":"Langget","name":"Langget","rank":4,"class":"peak","name:latin":"Langget","name_en":"Langget","kind":"poi","verification":"verified","source":"OpenMapTiles/OpenStreetMap national PMTiles","sourceId":"8/220/130:mountain_peak:10701649101:0","sourceLayer":"mountain_peak","archive":"https://its.hanifahseptiani45.workers.dev/v1/map/archive/indonesia.pmtiles","updatedAt":"2026-07-26T09:35:38.795Z"},"geometry":{"type":"Point","coordinates":[130.43655395507812,-3.5665345341367782]}},{"type":"Feature","id":"pmtiles:8/220/130:mountain_peak:10701692321:0","properties":{"name_int":"Gunung Dois","name_de":"Gunung Dois","name":"Gunung Dois","rank":5,"class":"peak","name:latin":"Gunung Dois","name_en":"Gunung Dois","kind":"poi","verification":"verified","source":"OpenMapTiles/OpenStreetMap national PMTiles","sourceId":"8/220/130:mountain_peak:10701692321:0","sourceLayer":"mountain_peak","archive":"https://its.hanifahseptiani45.workers.dev/v1/map/archive/indonesia.pmtiles","updatedAt":"2026-07-26T09:35:38.795Z"},"geometry":{"type":"Point","coordinates":[130.75000762939453,-3.83342525756386]}},{"type":"Feature","id":"pmtiles:8/221/130:mountain_peak:10701600211:0","properties":{"name_int":"Gunung Uratlean","name_de":"Gunung Uratlean","name":"Gunung Uratlean","rank":1,"class":"peak","name:latin":"Gunung Uratlean","name_en":"Gunung Uratlean","kind":"poi","verification":"verified","source":"OpenMapTiles/OpenStreetMap national PMTiles","sourceId":"8/221/130:mountain_peak:10701600211:0","sourceLayer":"mountain_peak","archive":"https://its.hanifahseptiani45.workers.dev/v1/map/archive/indonesia.pmtiles","updatedAt":"2026-07-26T09:35:38.855Z"},"geometry":{"type":"Point","coordinates":[130.75000762939453,-3.7998542481484208]}},{"type":"Feature","id":"pmtiles:8/221/130:mountain_peak:10701633581:0","properties":{"name_int":"Gunung Semin","name_de":"Gunung Semin","name":"Gunung Semin","rank":2,"class":"peak","name:latin":"Gunung Semin","name_en":"Gunung Semin","kind":"poi","verification":"verified","source":"OpenMapTiles/OpenStreetMap national PMTiles","sourceId":"8/221/130:mountain_peak:10701633581:0","sourceLayer":"mountain_peak","archive":"https://its.hanifahseptiani45.workers.dev/v1/map/archive/indonesia.pmtiles","updatedAt":"2026-07-26T09:35:38.855Z"},"geometry":{"type":"Point","coordinates":[130.75000762939453,-3.766624513458382]}},{"type":"Feature","id":"pmtiles:8/221/130:mountain_peak:10701649101:0","properties":{"name_int":"Langget","name_de":"Langget","name":"Langget","rank":4,"class":"peak","name:latin":"Langget","name_en":"Langget","kind":"poi","verification":"verified","source":"OpenMapTiles/OpenStreetMap national PMTiles","sourceId":"8/221/130:mountain_peak:10701649101:0","sourceLayer":"mountain_peak","archive":"https://its.hanifahseptiani45.workers.dev/v1/map/archive/indonesia.pmtiles","updatedAt":"2026-07-26T09:35:38.855Z"},"geometry":{"type":"Point","coordinates":[130.43655395507812,-3.5665345341367782]}},{"type":"Feature","id":"pmtiles:8/221/130:mountain_peak:10701692321:0","properties":{"name_int":"Gunung Dois","name_de":"Gunung Dois","name":"Gunung Dois","rank":5,"class":"peak","name:latin":"Gunung Dois","name_en":"Gunung Dois","kind":"poi","verification":"verified","source":"OpenMapTiles/OpenStreetMap national PMTiles","sourceId":"8/221/130:mountain_peak:10701692321:0","sourceLayer":"mountain_peak","archive":"https://its.hanifahseptiani45.workers.dev/v1/map/archive/indonesia.pmtiles","updatedAt":"2026-07-26T09:35:38.855Z"},"geometry":{"type":"Point","coordinates":[130.75000762939453,-3.83342525756386]}}]}