{"type":"FeatureCollection","features":[{"type":"Feature","id":"pmtiles:12/3344/1980:water:2410:0","properties":{"class":"ocean","water":"ocean","kind":"waterway","verification":"verified","source":"OpenMapTiles/OpenStreetMap national PMTiles","sourceId":"12/3344/1980:water:2410:0","sourceLayer":"water","archive":"https://its.hanifahseptiani45.workers.dev/v1/map/archive/indonesia.pmtiles","updatedAt":"2026-07-26T10:37:48.037Z"},"geometry":{"type":"Polygon","coordinates":[[[113.90487670898438,5.967119522904156],[113.99551391601562,5.967119522904156],[113.99551391601562,5.87696603826862],[113.90487670898438,5.87696603826862],[113.90487670898438,5.967119522904156]]]}},{"type":"Feature","id":"pmtiles:12/3345/1980:water:2410:0","properties":{"class":"ocean","water":"ocean","kind":"waterway","verification":"verified","source":"OpenMapTiles/OpenStreetMap national PMTiles","sourceId":"12/3345/1980:water:2410:0","sourceLayer":"water","archive":"https://its.hanifahseptiani45.workers.dev/v1/map/archive/indonesia.pmtiles","updatedAt":"2026-07-26T10:37:48.107Z"},"geometry":{"type":"Polygon","coordinates":[[[113.99276733398438,5.967119522904156],[114.08340454101562,5.967119522904156],[114.08340454101562,5.87696603826862],[113.99276733398438,5.87696603826862],[113.99276733398438,5.967119522904156]]]}},{"type":"Feature","id":"pmtiles:12/3346/1980:water:2410:0","properties":{"class":"ocean","water":"ocean","kind":"waterway","verification":"verified","source":"OpenMapTiles/OpenStreetMap national PMTiles","sourceId":"12/3346/1980:water:2410:0","sourceLayer":"water","archive":"https://its.hanifahseptiani45.workers.dev/v1/map/archive/indonesia.pmtiles","updatedAt":"2026-07-26T10:37:48.166Z"},"geometry":{"type":"Polygon","coordinates":[[[114.08065795898438,5.967119522904156],[114.17129516601562,5.967119522904156],[114.17129516601562,5.87696603826862],[114.08065795898438,5.87696603826862],[114.08065795898438,5.967119522904156]]]}},{"type":"Feature","id":"pmtiles:12/3347/1980:water:2410:0","properties":{"class":"ocean","water":"ocean","kind":"waterway","verification":"verified","source":"OpenMapTiles/OpenStreetMap national PMTiles","sourceId":"12/3347/1980:water:2410:0","sourceLayer":"water","archive":"https://its.hanifahseptiani45.workers.dev/v1/map/archive/indonesia.pmtiles","updatedAt":"2026-07-26T10:37:48.230Z"},"geometry":{"type":"Polygon","coordinates":[[[114.16854858398438,5.967119522904156],[114.25918579101562,5.967119522904156],[114.25918579101562,5.87696603826862],[114.16854858398438,5.87696603826862],[114.16854858398438,5.967119522904156]]]}},{"type":"Feature","id":"pmtiles:12/3344/1981:water:2410:0","properties":{"class":"ocean","water":"ocean","kind":"waterway","verification":"verified","source":"OpenMapTiles/OpenStreetMap national PMTiles","sourceId":"12/3344/1981:water:2410:0","sourceLayer":"water","archive":"https://its.hanifahseptiani45.workers.dev/v1/map/archive/indonesia.pmtiles","updatedAt":"2026-07-26T10:38:24.362Z"},"geometry":{"type":"Polygon","coordinates":[[[113.90487670898438,5.879698177726667],[113.99551391601562,5.879698177726667],[113.99551391601562,5.789530528448793],[113.90487670898438,5.789530528448793],[113.90487670898438,5.879698177726667]]]}},{"type":"Feature","id":"pmtiles:12/3345/1981:water:2410:0","properties":{"class":"ocean","water":"ocean","kind":"waterway","verification":"verified","source":"OpenMapTiles/OpenStreetMap national PMTiles","sourceId":"12/3345/1981:water:2410:0","sourceLayer":"water","archive":"https://its.hanifahseptiani45.workers.dev/v1/map/archive/indonesia.pmtiles","updatedAt":"2026-07-26T10:38:24.432Z"},"geometry":{"type":"Polygon","coordinates":[[[113.99276733398438,5.879698177726667],[114.08340454101562,5.879698177726667],[114.08340454101562,5.789530528448793],[113.99276733398438,5.789530528448793],[113.99276733398438,5.879698177726667]]]}},{"type":"Feature","id":"pmtiles:12/3346/1981:water:2410:0","properties":{"class":"ocean","water":"ocean","kind":"waterway","verification":"verified","source":"OpenMapTiles/OpenStreetMap national PMTiles","sourceId":"12/3346/1981:water:2410:0","sourceLayer":"water","archive":"https://its.hanifahseptiani45.workers.dev/v1/map/archive/indonesia.pmtiles","updatedAt":"2026-07-26T10:38:24.484Z"},"geometry":{"type":"Polygon","coordinates":[[[114.08065795898438,5.879698177726667],[114.17129516601562,5.879698177726667],[114.17129516601562,5.789530528448793],[114.08065795898438,5.789530528448793],[114.08065795898438,5.879698177726667]]]}},{"type":"Feature","id":"pmtiles:12/3347/1981:water:2410:0","properties":{"class":"ocean","water":"ocean","kind":"waterway","verification":"verified","source":"OpenMapTiles/OpenStreetMap national PMTiles","sourceId":"12/3347/1981:water:2410:0","sourceLayer":"water","archive":"https://its.hanifahseptiani45.workers.dev/v1/map/archive/indonesia.pmtiles","updatedAt":"2026-07-26T10:38:24.535Z"},"geometry":{"type":"Polygon","coordinates":[[[114.16854858398438,5.879698177726667],[114.25918579101562,5.879698177726667],[114.25918579101562,5.789530528448793],[114.16854858398438,5.789530528448793],[114.16854858398438,5.879698177726667]]]}},{"type":"Feature","id":"pmtiles:12/3344/1982:water:2410:0","properties":{"class":"ocean","water":"ocean","kind":"waterway","verification":"verified","source":"OpenMapTiles/OpenStreetMap national PMTiles","sourceId":"12/3344/1982:water:2410:0","sourceLayer":"water","archive":"https://its.hanifahseptiani45.workers.dev/v1/map/archive/indonesia.pmtiles","updatedAt":"2026-07-26T10:38:56.019Z"},"geometry":{"type":"Polygon","coordinates":[[[113.90487670898438,5.792263093990954],[113.99551391601562,5.792263093990954],[113.99551391601562,5.702081487858422],[113.90487670898438,5.702081487858422],[113.90487670898438,5.792263093990954]]]}},{"type":"Feature","id":"pmtiles:12/3345/1982:water:2410:0","properties":{"class":"ocean","water":"ocean","kind":"waterway","verification":"verified","source":"OpenMapTiles/OpenStreetMap national PMTiles","sourceId":"12/3345/1982:water:2410:0","sourceLayer":"water","archive":"https://its.hanifahseptiani45.workers.dev/v1/map/archive/indonesia.pmtiles","updatedAt":"2026-07-26T10:38:56.082Z"},"geometry":{"type":"Polygon","coordinates":[[[113.99276733398438,5.792263093990954],[114.08340454101562,5.792263093990954],[114.08340454101562,5.702081487858422],[113.99276733398438,5.702081487858422],[113.99276733398438,5.792263093990954]]]}},{"type":"Feature","id":"pmtiles:12/3346/1982:water:2410:0","properties":{"class":"ocean","water":"ocean","kind":"waterway","verification":"verified","source":"OpenMapTiles/OpenStreetMap national PMTiles","sourceId":"12/3346/1982:water:2410:0","sourceLayer":"water","archive":"https://its.hanifahseptiani45.workers.dev/v1/map/archive/indonesia.pmtiles","updatedAt":"2026-07-26T10:38:56.155Z"},"geometry":{"type":"Polygon","coordinates":[[[114.08065795898438,5.792263093990954],[114.17129516601562,5.792263093990954],[114.17129516601562,5.702081487858422],[114.08065795898438,5.702081487858422],[114.08065795898438,5.792263093990954]]]}},{"type":"Feature","id":"pmtiles:12/3347/1982:water:2410:0","properties":{"class":"ocean","water":"ocean","kind":"waterway","verification":"verified","source":"OpenMapTiles/OpenStreetMap national PMTiles","sourceId":"12/3347/1982:water:2410:0","sourceLayer":"water","archive":"https://its.hanifahseptiani45.workers.dev/v1/map/archive/indonesia.pmtiles","updatedAt":"2026-07-26T10:38:56.211Z"},"geometry":{"type":"Polygon","coordinates":[[[114.16854858398438,5.792263093990954],[114.25918579101562,5.792263093990954],[114.25918579101562,5.702081487858422],[114.16854858398438,5.702081487858422],[114.16854858398438,5.792263093990954]]]}},{"type":"Feature","id":"pmtiles:12/3344/1983:water:1990:0","properties":{"class":"ocean","water":"ocean","kind":"waterway","verification":"verified","source":"OpenMapTiles/OpenStreetMap national PMTiles","sourceId":"12/3344/1983:water:1990:0","sourceLayer":"water","archive":"https://its.hanifahseptiani45.workers.dev/v1/map/archive/indonesia.pmtiles","updatedAt":"2026-07-26T10:39:30.232Z"},"geometry":{"type":"Polygon","coordinates":[[[113.90487670898438,5.70481447318565],[113.99551391601562,5.70481447318565],[113.99551391601562,5.61461911814834],[113.90487670898438,5.61461911814834],[113.90487670898438,5.70481447318565]]]}},{"type":"Feature","id":"pmtiles:12/3345/1983:water:1990:0","properties":{"class":"ocean","water":"ocean","kind":"waterway","verification":"verified","source":"OpenMapTiles/OpenStreetMap national PMTiles","sourceId":"12/3345/1983:water:1990:0","sourceLayer":"water","archive":"https://its.hanifahseptiani45.workers.dev/v1/map/archive/indonesia.pmtiles","updatedAt":"2026-07-26T10:39:30.393Z"},"geometry":{"type":"Polygon","coordinates":[[[113.99276733398438,5.70481447318565],[114.08340454101562,5.70481447318565],[114.08340454101562,5.61461911814834],[113.99276733398438,5.61461911814834],[113.99276733398438,5.70481447318565]]]}},{"type":"Feature","id":"pmtiles:12/3346/1983:water:1990:0","properties":{"class":"ocean","water":"ocean","kind":"waterway","verification":"verified","source":"OpenMapTiles/OpenStreetMap national PMTiles","sourceId":"12/3346/1983:water:1990:0","sourceLayer":"water","archive":"https://its.hanifahseptiani45.workers.dev/v1/map/archive/indonesia.pmtiles","updatedAt":"2026-07-26T10:39:30.504Z"},"geometry":{"type":"Polygon","coordinates":[[[114.08065795898438,5.70481447318565],[114.17129516601562,5.70481447318565],[114.17129516601562,5.61461911814834],[114.08065795898438,5.61461911814834],[114.08065795898438,5.70481447318565]]]}},{"type":"Feature","id":"pmtiles:12/3347/1983:water:1990:0","properties":{"class":"ocean","water":"ocean","kind":"waterway","verification":"verified","source":"OpenMapTiles/OpenStreetMap national PMTiles","sourceId":"12/3347/1983:water:1990:0","sourceLayer":"water","archive":"https://its.hanifahseptiani45.workers.dev/v1/map/archive/indonesia.pmtiles","updatedAt":"2026-07-26T10:39:30.573Z"},"geometry":{"type":"Polygon","coordinates":[[[114.16854858398438,5.70481447318565],[114.25918579101562,5.70481447318565],[114.25918579101562,5.61461911814834],[114.16854858398438,5.61461911814834],[114.16854858398438,5.70481447318565]]]}},{"type":"Feature","id":"pmtiles:10/836/495:water:1990:0","properties":{"class":"ocean","water":"ocean","kind":"waterway","verification":"verified","source":"OpenMapTiles/OpenStreetMap national PMTiles","sourceId":"10/836/495:water:1990:0","sourceLayer":"water","archive":"https://its.hanifahseptiani45.workers.dev/v1/map/archive/indonesia.pmtiles","updatedAt":"2026-07-26T09:38:13.350Z"},"geometry":{"type":"Polygon","coordinates":[[[113.9007568359375,5.971217057997222],[114.2633056640625,5.971217057997222],[114.2633056640625,5.61051899590089],[113.9007568359375,5.61051899590089],[113.9007568359375,5.971217057997222]]]}}]}