{"type":"FeatureCollection","features":[{"type":"Feature","id":"pmtiles:12/3292/1973:water:2690:0","properties":{"class":"ocean","water":"ocean","kind":"waterway","verification":"verified","source":"OpenMapTiles/OpenStreetMap national PMTiles","sourceId":"12/3292/1973:water:2690:0","sourceLayer":"water","archive":"https://its.hanifahseptiani45.workers.dev/v1/map/archive/indonesia.pmtiles","updatedAt":"2026-07-26T10:33:57.523Z"},"geometry":{"type":"Polygon","coordinates":[[[109.33456420898438,6.578667368565007],[109.42520141601562,6.578667368565007],[109.42520141601562,6.488618840362278],[109.33456420898438,6.488618840362278],[109.33456420898438,6.578667368565007]]]}},{"type":"Feature","id":"pmtiles:12/3293/1973:water:2690:0","properties":{"class":"ocean","water":"ocean","kind":"waterway","verification":"verified","source":"OpenMapTiles/OpenStreetMap national PMTiles","sourceId":"12/3293/1973:water:2690:0","sourceLayer":"water","archive":"https://its.hanifahseptiani45.workers.dev/v1/map/archive/indonesia.pmtiles","updatedAt":"2026-07-26T10:33:57.583Z"},"geometry":{"type":"Polygon","coordinates":[[[109.42245483398438,6.578667368565007],[109.51309204101562,6.578667368565007],[109.51309204101562,6.488618840362278],[109.42245483398438,6.488618840362278],[109.42245483398438,6.578667368565007]]]}},{"type":"Feature","id":"pmtiles:12/3294/1973:water:2690:0","properties":{"class":"ocean","water":"ocean","kind":"waterway","verification":"verified","source":"OpenMapTiles/OpenStreetMap national PMTiles","sourceId":"12/3294/1973:water:2690:0","sourceLayer":"water","archive":"https://its.hanifahseptiani45.workers.dev/v1/map/archive/indonesia.pmtiles","updatedAt":"2026-07-26T10:33:57.643Z"},"geometry":{"type":"Polygon","coordinates":[[[109.51034545898438,6.578667368565007],[109.60098266601562,6.578667368565007],[109.60098266601562,6.488618840362278],[109.51034545898438,6.488618840362278],[109.51034545898438,6.578667368565007]]]}},{"type":"Feature","id":"pmtiles:12/3295/1973:water:2690:0","properties":{"class":"ocean","water":"ocean","kind":"waterway","verification":"verified","source":"OpenMapTiles/OpenStreetMap national PMTiles","sourceId":"12/3295/1973:water:2690:0","sourceLayer":"water","archive":"https://its.hanifahseptiani45.workers.dev/v1/map/archive/indonesia.pmtiles","updatedAt":"2026-07-26T10:33:57.716Z"},"geometry":{"type":"Polygon","coordinates":[[[109.59823608398438,6.578667368565007],[109.68887329101562,6.578667368565007],[109.68887329101562,6.488618840362278],[109.59823608398438,6.488618840362278],[109.59823608398438,6.578667368565007]]]}},{"type":"Feature","id":"pmtiles:12/3292/1974:water:2690:0","properties":{"class":"ocean","water":"ocean","kind":"waterway","verification":"verified","source":"OpenMapTiles/OpenStreetMap national PMTiles","sourceId":"12/3292/1974:water:2690:0","sourceLayer":"water","archive":"https://its.hanifahseptiani45.workers.dev/v1/map/archive/indonesia.pmtiles","updatedAt":"2026-07-26T10:34:30.406Z"},"geometry":{"type":"Polygon","coordinates":[[[109.33456420898438,6.491347821282432],[109.42520141601562,6.491347821282432],[109.42520141601562,6.4012836786624945],[109.33456420898438,6.4012836786624945],[109.33456420898438,6.491347821282432]]]}},{"type":"Feature","id":"pmtiles:12/3293/1974:water:2690:0","properties":{"class":"ocean","water":"ocean","kind":"waterway","verification":"verified","source":"OpenMapTiles/OpenStreetMap national PMTiles","sourceId":"12/3293/1974:water:2690:0","sourceLayer":"water","archive":"https://its.hanifahseptiani45.workers.dev/v1/map/archive/indonesia.pmtiles","updatedAt":"2026-07-26T10:34:30.470Z"},"geometry":{"type":"Polygon","coordinates":[[[109.42245483398438,6.491347821282432],[109.51309204101562,6.491347821282432],[109.51309204101562,6.4012836786624945],[109.42245483398438,6.4012836786624945],[109.42245483398438,6.491347821282432]]]}},{"type":"Feature","id":"pmtiles:12/3294/1974:water:2690:0","properties":{"class":"ocean","water":"ocean","kind":"waterway","verification":"verified","source":"OpenMapTiles/OpenStreetMap national PMTiles","sourceId":"12/3294/1974:water:2690:0","sourceLayer":"water","archive":"https://its.hanifahseptiani45.workers.dev/v1/map/archive/indonesia.pmtiles","updatedAt":"2026-07-26T10:34:30.532Z"},"geometry":{"type":"Polygon","coordinates":[[[109.51034545898438,6.491347821282432],[109.60098266601562,6.491347821282432],[109.60098266601562,6.4012836786624945],[109.51034545898438,6.4012836786624945],[109.51034545898438,6.491347821282432]]]}},{"type":"Feature","id":"pmtiles:12/3295/1974:water:2690:0","properties":{"class":"ocean","water":"ocean","kind":"waterway","verification":"verified","source":"OpenMapTiles/OpenStreetMap national PMTiles","sourceId":"12/3295/1974:water:2690:0","sourceLayer":"water","archive":"https://its.hanifahseptiani45.workers.dev/v1/map/archive/indonesia.pmtiles","updatedAt":"2026-07-26T10:34:30.596Z"},"geometry":{"type":"Polygon","coordinates":[[[109.59823608398438,6.491347821282432],[109.68887329101562,6.491347821282432],[109.68887329101562,6.4012836786624945],[109.59823608398438,6.4012836786624945],[109.59823608398438,6.491347821282432]]]}},{"type":"Feature","id":"pmtiles:12/3292/1975:water:2690:0","properties":{"class":"ocean","water":"ocean","kind":"waterway","verification":"verified","source":"OpenMapTiles/OpenStreetMap national PMTiles","sourceId":"12/3292/1975:water:2690:0","sourceLayer":"water","archive":"https://its.hanifahseptiani45.workers.dev/v1/map/archive/indonesia.pmtiles","updatedAt":"2026-07-26T10:35:02.918Z"},"geometry":{"type":"Polygon","coordinates":[[[109.33456420898438,6.40401312961761],[109.42520141601562,6.40401312961761],[109.42520141601562,6.31393357916707],[109.33456420898438,6.31393357916707],[109.33456420898438,6.40401312961761]]]}},{"type":"Feature","id":"pmtiles:12/3293/1975:water:2690:0","properties":{"class":"ocean","water":"ocean","kind":"waterway","verification":"verified","source":"OpenMapTiles/OpenStreetMap national PMTiles","sourceId":"12/3293/1975:water:2690:0","sourceLayer":"water","archive":"https://its.hanifahseptiani45.workers.dev/v1/map/archive/indonesia.pmtiles","updatedAt":"2026-07-26T10:35:02.975Z"},"geometry":{"type":"Polygon","coordinates":[[[109.42245483398438,6.40401312961761],[109.51309204101562,6.40401312961761],[109.51309204101562,6.31393357916707],[109.42245483398438,6.31393357916707],[109.42245483398438,6.40401312961761]]]}},{"type":"Feature","id":"pmtiles:12/3294/1975:water:2690:0","properties":{"class":"ocean","water":"ocean","kind":"waterway","verification":"verified","source":"OpenMapTiles/OpenStreetMap national PMTiles","sourceId":"12/3294/1975:water:2690:0","sourceLayer":"water","archive":"https://its.hanifahseptiani45.workers.dev/v1/map/archive/indonesia.pmtiles","updatedAt":"2026-07-26T10:35:03.036Z"},"geometry":{"type":"Polygon","coordinates":[[[109.51034545898438,6.40401312961761],[109.60098266601562,6.40401312961761],[109.60098266601562,6.31393357916707],[109.51034545898438,6.31393357916707],[109.51034545898438,6.40401312961761]]]}},{"type":"Feature","id":"pmtiles:12/3295/1975:water:2690:0","properties":{"class":"ocean","water":"ocean","kind":"waterway","verification":"verified","source":"OpenMapTiles/OpenStreetMap national PMTiles","sourceId":"12/3295/1975:water:2690:0","sourceLayer":"water","archive":"https://its.hanifahseptiani45.workers.dev/v1/map/archive/indonesia.pmtiles","updatedAt":"2026-07-26T10:35:03.099Z"},"geometry":{"type":"Polygon","coordinates":[[[109.59823608398438,6.40401312961761],[109.68887329101562,6.40401312961761],[109.68887329101562,6.31393357916707],[109.59823608398438,6.31393357916707],[109.59823608398438,6.40401312961761]]]}},{"type":"Feature","id":"pmtiles:10/823/493:water:2690:0","properties":{"class":"ocean","water":"ocean","kind":"waterway","verification":"verified","source":"OpenMapTiles/OpenStreetMap national PMTiles","sourceId":"10/823/493:water:2690:0","sourceLayer":"water","archive":"https://its.hanifahseptiani45.workers.dev/v1/map/archive/indonesia.pmtiles","updatedAt":"2026-07-26T09:37:47.793Z"},"geometry":{"type":"Polygon","coordinates":[[[109.3304443359375,6.670063575977281],[109.6929931640625,6.670063575977281],[109.6929931640625,6.309838680093364],[109.3304443359375,6.309838680093364],[109.3304443359375,6.670063575977281]]]}}]}