{"type":"FeatureCollection","features":[{"type":"Feature","id":"pmtiles:10/832/516:waterway:3196071462:0","properties":{"name_int":"Sampit","name_de":"Sungai Mentaya","name":"Sungai Mentaya","name:en":"Mentaya River","class":"river","name:latin":"Sungai Mentaya","name_en":"Mentaya River","waterway":"river","kind":"waterway","verification":"verified","source":"OpenMapTiles/OpenStreetMap national PMTiles","sourceId":"10/832/516:waterway:3196071462:0","sourceLayer":"waterway","archive":"https://its.hanifahseptiani45.workers.dev/v1/map/archive/indonesia.pmtiles","updatedAt":"2026-07-26T09:42:17.054Z"},"geometry":{"type":"LineString","coordinates":[[112.63484001159668,-1.5009212181215332],[112.63303756713867,-1.501521826721202],[112.63252258300781,-1.5024656399014873],[112.63200759887695,-1.5053828780613117],[112.63286590576172,-1.5086433160908967],[112.63269424438477,-1.5105309358752947],[112.63303756713867,-1.5140487683687809],[112.63423919677734,-1.5161079847412822],[112.63647079467773,-1.523057825521434],[112.63647079467773,-1.5241732299817272],[112.63415336608887,-1.5279484407884638],[112.63372421264648,-1.529836043704691],[112.63406753540039,-1.5320668450097656],[112.63458251953125,-1.5331822447913623],[112.63604164123535,-1.5349840432106703],[112.63750076293945,-1.5373864387408958],[112.63784408569336,-1.5387592349731705],[112.63784408569336,-1.5395314324655942],[112.6373291015625,-1.5403036296782915],[112.63629913330078,-1.5443362105725953],[112.63655662536621,-1.5452800049967834],[112.63707160949707,-1.5459664006782532],[112.63904571533203,-1.5478539876576463],[112.64144897460938,-1.548111385751966],[112.6431655883789,-1.5477681882859287],[112.64368057250977,-1.5481971851097995],[112.64376640319824,-1.5488835798473843],[112.64290809631348,-1.5496557736613994],[112.64033317565918,-1.5499989708217043],[112.63956069946289,-1.5505137664578683],[112.63835906982422,-1.5526587469270794],[112.6373291015625,-1.5534309393633237],[112.63724327087402,-1.5547179261298112],[112.63818740844727,-1.5559191130706296],[112.64162063598633,-1.562868824070037],[112.64290809631348,-1.5667297646937897],[112.64505386352539,-1.5711912872174594],[112.64488220214844,-1.5725640614627139],[112.64385223388672,-1.573250448246796],[112.6413631439209,-1.5744516245754312],[112.63544082641602,-1.5762533877704215],[112.63406753540039,-1.5775403605266547],[112.63389587402344,-1.5792563229631043],[112.6344108581543,-1.5809722839826605],[112.63775825500488,-1.585262180322644],[112.63818740844727,-1.5866349452752075],[112.6376724243164,-1.5879219115908398],[112.63578414916992,-1.5898952583848285],[112.63484001159668,-1.5900668536691],[112.63114929199219,-1.5898952583848285],[112.62874603271484,-1.5890372817495404],[112.62823104858398,-1.5894662701117426],[112.62848854064941,-1.5906674370517067],[112.6278018951416,-1.5925549836871795],[112.62402534484863,-1.595557895225184],[112.62368202209473,-1.5965016665178098],[112.62428283691406,-1.6024216765509465],[112.62282371520996,-1.6055103706489433],[112.62282371520996,-1.6074837005465952],[112.62411117553711,-1.6098002158186944],[112.62471199035645,-1.6115161513605045],[112.62445449829102,-1.6123741185893294],[112.62351036071777,-1.6134036787865398],[112.62265205383301,-1.6160633735499914],[112.62299537658691,-1.6200100109715407],[112.62222290039062,-1.622154919390141],[112.6211929321289,-1.623870844487925],[112.6205062866211,-1.6264447294025217],[112.61878967285156,-1.6280748548172994],[112.61724472045898,-1.6288470190274325],[112.61630058288574,-1.6297049789138498],[112.61621475219727,-1.6323646522380244],[112.61527061462402,-1.6345095475175242],[112.61166572570801,-1.6369118275102608],[112.61080741882324,-1.6381129664274994],[112.61080741882324,-1.639914673452978],[112.61209487915039,-1.64291751489003],[112.6150131225586,-1.6478936421866024],[112.6168155670166,-1.6503817011747657],[112.62016296386719,-1.6526981670895822],[112.62127876281738,-1.6540708863568199],[112.62127876281738,-1.6548430405273393],[112.62007713317871,-1.6569879116454018],[112.62042045593262,-1.6599907273078145],[112.62007713317871,-1.6617066199248853],[112.61956214904785,-1.6632509220056875],[112.61913299560547,-1.6636798945914677],[112.61612892150879,-1.6653957840014897],[112.61492729187012,-1.6653099895664525],[112.6142406463623,-1.6645378394831312],[112.61398315429688,-1.6635083055683424],[112.61406898498535,-1.6619640036888939],[112.61492729187012,-1.6588753963080194],[112.6150131225586,-1.6578458594424177],[112.61449813842773,-1.6569879116454018],[112.61363983154297,-1.6568163220413936],[112.61312484741211,-1.6569879116454018],[112.61235237121582,-1.6579316542016755],[112.61115074157715,-1.6610202630568693],[112.61012077331543,-1.662478771116298],[112.60866165161133,-1.6635941000817667],[112.59836196899414,-1.6689133526194695],[112.5959587097168,-1.6715729734955573],[112.59261131286621,-1.6738894145491088],[112.59183883666992,-1.6749189430279898],[112.59106636047363,-1.676977998362588],[112.59003639221191,-1.6775785557605474],[112.58814811706543,-1.6779217313337398],[112.58737564086914,-1.6777501435546611],[112.58651733398438,-1.677406967951356],[112.58454322814941,-1.675176325063191],[112.5838565826416,-1.6753479130678812],[112.58334159851074,-1.6764632347319264],[112.58256912231445,-1.6818682460947798],[112.58334159851074,-1.688817524412869],[112.5827407836914,-1.6895038715419872],[112.58059501647949,-1.6897612516528824],[112.57999420166016,-1.6905333917809315],[112.57990837097168,-1.6913055316018557],[112.58111000061035,-1.69293560354798],[112.58119583129883,-1.694136708315483],[112.58008003234863,-1.6959383640702157],[112.57767677307129,-1.7010859426920888],[112.57467269897461,-1.7061477149440805],[112.57192611694336,-1.7089788698891084],[112.57184028625488,-1.7100083797437122],[112.5714111328125,-1.7108663042007208],[112.57123947143555,-1.7126679443111925],[112.57184028625488,-1.7146411672504485],[112.57244110107422,-1.7154132974121836],[112.5794792175293,-1.7190165673776363],[112.58033752441406,-1.7198744877961332],[112.58102416992188,-1.7223624548278167],[112.58222579956055,-1.722619830542314],[112.58377075195312,-1.723735124903257],[112.5838565826416,-1.7242498759264606],[112.58342742919922,-1.7258799199145898],[112.58308410644531,-1.7338585360943881],[112.58359909057617,-1.7342874930021992],[112.5875473022461,-1.7352311978570754],[112.58969306945801,-1.7363464848057362],[112.59055137634277,-1.7369470236593685],[112.59089469909668,-1.7377191447621243],[112.59089469909668,-1.7387486390747426],[112.5904655456543,-1.73900601256517],[112.58917808532715,-1.7386628479034698],[112.58600234985352,-1.7369470236593685],[112.58411407470703,-1.7371186061539277],[112.58368492126465,-1.737461771096278],[112.58359909057617,-1.7381481007939357],[112.58419990539551,-1.7394349683045363],[112.59037971496582,-1.7484430162658384],[112.59561538696289,-1.753676243337793],[112.59587287902832,-1.754534148020113],[112.59527206420898,-1.7550488906406514],[112.5919246673584,-1.7556494235188609],[112.5904655456543,-1.7565931176519172],[112.58746147155762,-1.7574510209956173],[112.58634567260742,-1.7573652306789853],[112.58394241333008,-1.7562499562041296],[112.58282661437988,-1.7562499562041296],[112.58248329162598,-1.7569362790366938],[112.58222579956055,-1.7597673580543187],[112.58265495300293,-1.7631131731699696]]}},{"type":"Feature","id":"pmtiles:10/832/516:waterway:3196071562:0","properties":{"name_int":"Kalang River","name_de":"Sungai Kalang","name":"Sungai Kalang","name:en":"Kalang River","class":"river","name:latin":"Sungai Kalang","name_en":"Kalang River","waterway":"river","kind":"waterway","verification":"verified","source":"OpenMapTiles/OpenStreetMap national PMTiles","sourceId":"10/832/516:waterway:3196071562:0","sourceLayer":"waterway","archive":"https://its.hanifahseptiani45.workers.dev/v1/map/archive/indonesia.pmtiles","updatedAt":"2026-07-26T09:42:17.054Z"},"geometry":{"type":"LineString","coordinates":[[112.65466690063477,-1.4005315139814059],[112.65166282653809,-1.4021618093200772],[112.65054702758789,-1.4044785428477695],[112.64908790588379,-1.4061946402766523],[112.64908790588379,-1.408940393537776],[112.6486587524414,-1.4104848783253487],[112.64917373657227,-1.4117719481986057],[112.65054702758789,-1.4120293620877788],[112.65140533447266,-1.4109997063601156],[112.65320777893066,-1.4103990736417984],[112.65483856201172,-1.4109997063601156],[112.65561103820801,-1.4121151667111747],[112.65501022338867,-1.4129732127708081],[112.65380859375,-1.4129732127708081],[112.6526927947998,-1.4140028676239496],[112.65157699584961,-1.4157189580307374],[112.65020370483398,-1.4160621759597092],[112.64968872070312,-1.416491198299454],[112.64900207519531,-1.4200949828148026],[112.64900207519531,-1.4235271533196823],[112.64728546142578,-1.424642607634297],[112.64522552490234,-1.425329040790274],[112.64522552490234,-1.425929669633888],[112.64634132385254,-1.426444494232257],[112.64702796936035,-1.4271309268508787],[112.64702796936035,-1.4282463794191358],[112.64582633972168,-1.4309063025883972],[112.64402389526367,-1.4364835508253577],[112.64333724975586,-1.4396582860524774],[112.64204978942871,-1.4417175714040837],[112.64076232910156,-1.4419749819421241],[112.63827323913574,-1.444463282308135],[112.63758659362793,-1.4460077432340057],[112.63792991638184,-1.4472947932028148],[112.63981819152832,-1.4491824651689171],[112.64153480529785,-1.44961148130551],[112.64256477355957,-1.4502979069549298],[112.642822265625,-1.4515849544863784],[112.64239311218262,-1.4529578043790394],[112.642822265625,-1.455188683674777],[112.6453971862793,-1.4601652526087463],[112.64814376831055,-1.4621387165509532],[112.65028953552246,-1.4669436649768102],[112.65054702758789,-1.4708047767715016],[112.65028953552246,-1.4720918125526339],[112.64874458312988,-1.4740652659738203],[112.6479721069336,-1.475952915435684],[112.64883041381836,-1.4784411781867988],[112.65011787414551,-1.4806720320754323],[112.64771461486816,-1.4823022700359303],[112.64745712280273,-1.4832460914645225],[112.64771461486816,-1.48444731815502],[112.64582633972168,-1.4856485441928982],[112.64359474182129,-1.488737408146946],[112.64119148254395,-1.490710846741294],[112.63998985290527,-1.4956015347593734],[112.63904571533203,-1.4974033644414533],[112.6387882232666,-1.4992909939482217],[112.63827323913574,-1.5004922118779263],[112.63784408569336,-1.5010070193601592],[112.63604164123535,-1.501521826721202],[112.63484001159668,-1.5009212181215332]]}},{"type":"Feature","id":"pmtiles:10/832/516:waterway:6320857872:0","properties":{"name_int":"Tualan River","name_de":"Sungai Tualan","name":"Sungai Tualan","name:en":"Tualan River","class":"river","name:latin":"Sungai Tualan","name_en":"Tualan River","waterway":"river","kind":"waterway","verification":"verified","source":"OpenMapTiles/OpenStreetMap national PMTiles","sourceId":"10/832/516:waterway:6320857872:0","sourceLayer":"waterway","archive":"https://its.hanifahseptiani45.workers.dev/v1/map/archive/indonesia.pmtiles","updatedAt":"2026-07-26T09:42:17.054Z"},"geometry":{"type":"LineString","coordinates":[[112.75594711303711,-1.711295266285319],[112.7552604675293,-1.7116384358839412],[112.75500297546387,-1.7115526434900374],[112.75491714477539,-1.709836794806293],[112.75465965270996,-1.7094936248854253],[112.75388717651367,-1.709922587276921],[112.75388717651367,-1.7103515495725503],[112.75440216064453,-1.7106947193399975],[112.75431632995605,-1.7116384358839412],[112.75405883789062,-1.7118100206601952],[112.75345802307129,-1.711295266285319],[112.75277137756348,-1.7115526434900374],[112.75259971618652,-1.7119816054211157],[112.75362968444824,-1.7126679443111925],[112.75405883789062,-1.713268490638356],[112.75397300720215,-1.7144695827277445],[112.752685546875,-1.716099635072112],[112.75165557861328,-1.7165285959844994],[112.75217056274414,-1.7170433489523163],[112.75079727172852,-1.7189307753145613],[112.75174140930176,-1.7190165673776363],[112.75071144104004,-1.7196171117110737],[112.75028228759766,-1.7194455276350737],[112.7501106262207,-1.7185876070238066],[112.74968147277832,-1.7185876070238066],[112.74942398071289,-1.7190165673776363],[112.7497673034668,-1.7198744877961332],[112.75028228759766,-1.7203034478607293],[112.75079727172852,-1.7206466158429805],[112.75199890136719,-1.7208181998109495],[112.75088310241699,-1.7221050790785597],[112.7501106262207,-1.722619830542314],[112.75208473205566,-1.7236493330525349],[112.75320053100586,-1.7238209167501282],[112.75457382202148,-1.7234777493394802],[112.75474548339844,-1.723735124903257],[112.75465965270996,-1.7241640840989163],[112.75388717651367,-1.7248504186108846],[112.75371551513672,-1.7254509611057642],[112.75431632995605,-1.7272525874524405],[112.75397300720215,-1.728110504160071],[112.7541446685791,-1.7291400036976086],[112.75517463684082,-1.7288826288655628],[112.75577545166016,-1.7273383791406474],[112.75611877441406,-1.7273383791406474],[112.75663375854492,-1.7277673375235167],[112.75620460510254,-1.7291400036976086],[112.75551795959473,-1.7291400036976086],[112.75534629821777,-1.7294831700860414],[112.75534629821777,-1.7299121279843064],[112.75586128234863,-1.7303410857855823],[112.75594711303711,-1.7306842519567454],[112.75543212890625,-1.7324858733362163],[112.75568962097168,-1.7326574562354153],[112.75680541992188,-1.732142707491235],[112.75689125061035,-1.732314290421499],[112.75594711303711,-1.7338585360943881],[112.75577545166016,-1.734544867100226],[112.75697708129883,-1.7337727447011702],[112.75749206542969,-1.7338585360943881],[112.75835037231445,-1.7360033196608384],[112.75774955749512,-1.7369470236593685],[112.75774955749512,-1.7388344302421217],[112.75792121887207,-1.7392633860204967],[112.75895118713379,-1.7394349683045363],[112.7592945098877,-1.7398639239463876],[112.7581787109375,-1.7401212972846736],[112.75774955749512,-1.7404644616810856],[112.75714874267578,-1.742437655748077],[112.75689125061035,-1.742695028734886],[112.75646209716797,-1.740979208158592],[112.75603294372559,-1.7408934170887704],[112.75508880615234,-1.74312398363476],[112.75543212890625,-1.744925593146661],[112.75586128234863,-1.7453545475380423],[112.7567195892334,-1.74561192012591],[112.75689125061035,-1.7454403384045776],[112.75663375854492,-1.7445824295630956],[112.75714874267578,-1.7442392659169457],[112.75809288024902,-1.7447540113627156],[112.75843620300293,-1.74561192012591],[112.75792121887207,-1.7462124560272372],[112.75620460510254,-1.7473277364776578],[112.75568962097168,-1.748014062579557],[112.7556037902832,-1.7483572255364095],[112.75629043579102,-1.7486145977129013],[112.75637626647949,-1.74904355126192],[112.75508880615234,-1.7491293419599572],[112.75474548339844,-1.7493867140305355],[112.75431632995605,-1.750416201959709],[112.75457382202148,-1.7505877832262797],[112.75500297546387,-1.7503304113205331],[112.75517463684082,-1.7505877832262797],[112.75405883789062,-1.751531479911705],[112.75371551513672,-1.7514456893235888],[112.75328636169434,-1.7505877832262797],[112.75311470031738,-1.7505019925949625],[112.75285720825195,-1.7509309457123265],[112.75440216064453,-1.7523893855769188],[112.75543212890625,-1.7547057289093857],[112.75543212890625,-1.7549631002137431],[112.7552604675293,-1.7549631002137431],[112.75431632995605,-1.754534148020113],[112.7538013458252,-1.7548773097828843],[112.7552604675293,-1.7580515531016943],[112.75508880615234,-1.758480504487764],[112.75465965270996,-1.7585662947531517],[112.75448799133301,-1.7588236655256395],[112.75517463684082,-1.7596815678441686],[112.75577545166016,-1.7597673580543187],[112.75500297546387,-1.7610542107328797],[112.75465965270996,-1.7603678894148658],[112.75440216064453,-1.7603678894148658],[112.75491714477539,-1.7627700129218908],[112.75534629821777,-1.7629415930538244],[112.75646209716797,-1.7624268526105311],[112.75697708129883,-1.7626842228499697],[112.75749206542969,-1.7647431834842138]]}},{"type":"Feature","id":"pmtiles:10/832/516:waterway:12449438122:0","properties":{"name_int":"Mentaya River","name_de":"Sungai Mentaya","name":"Sungai Mentaya","name:en":"Mentaya River","class":"river","name:latin":"Sungai Mentaya","name_en":"Mentaya River","waterway":"river","kind":"waterway","verification":"verified","source":"OpenMapTiles/OpenStreetMap national PMTiles","sourceId":"10/832/516:waterway:12449438122:0","sourceLayer":"waterway","archive":"https://its.hanifahseptiani45.workers.dev/v1/map/archive/indonesia.pmtiles","updatedAt":"2026-07-26T09:42:17.054Z"},"geometry":{"type":"LineString","coordinates":[[112.49279022216797,-1.4943145126520108],[112.4945068359375,-1.4944861156432552],[112.4970817565918,-1.4941429096473655],[112.49828338623047,-1.4919978709586985],[112.50360488891602,-1.4922552757118268],[112.5040340423584,-1.4914830613620609],[112.50317573547363,-1.4911398548973835],[112.5029182434082,-1.4904534418075173],[112.50369071960449,-1.4873645802566813],[112.50386238098145,-1.4807578341032581],[112.50454902648926,-1.4804146259720312],[112.50566482543945,-1.4813584482050146],[112.50703811645508,-1.482988685660274],[112.50815391540527,-1.4827312798260834],[112.51012802124023,-1.4811010421813364],[112.51012802124023,-1.4803288239309182],[112.5124454498291,-1.4786985845191936],[112.51381874084473,-1.4786985845191936],[112.51450538635254,-1.4794708033372501],[112.51553535461426,-1.479899813675587],[112.51622200012207,-1.4792133970944263],[112.51656532287598,-1.4779263654324808],[112.51716613769531,-1.476896739565845],[112.51896858215332,-1.4745800796222142],[112.52137184143066,-1.4725208243146142],[112.52171516418457,-1.470461567104465],[112.52223014831543,-1.469174530383171],[112.5234317779541,-1.4683165054903355],[112.52394676208496,-1.4687455179779363],[112.52446174621582,-1.4698609500601663],[112.52446174621582,-1.4708905791800078],[112.52317428588867,-1.470461567104465],[112.52300262451172,-1.470976381585217],[112.5230884552002,-1.4722634172673281],[112.52283096313477,-1.473464649900265],[112.52360343933105,-1.474923288654992],[112.52609252929688,-1.4755239043349775],[112.52695083618164,-1.476038717645892],[112.52695083618164,-1.4776689590105718],[112.52763748168945,-1.47861278241173],[112.52935409545898,-1.4792991991786835],[112.53321647644043,-1.4779263654324808],[112.53501892089844,-1.476639333024636],[112.53725051879883,-1.4768109373887484],[112.53905296325684,-1.4758671132221508],[112.54051208496094,-1.474322672812903],[112.5413703918457,-1.4748374864017535],[112.54188537597656,-1.4753522998715312],[112.54016876220703,-1.4776689590105718],[112.53999710083008,-1.4809294381489337],[112.54145622253418,-1.4834176953173852],[112.54291534423828,-1.484790525661026],[112.54446029663086,-1.4847047237895197],[112.54858016967773,-1.4824738739619647],[112.54952430725098,-1.4811010421813364],[112.5505542755127,-1.4802430218864941],[112.5508975982666,-1.4811868441925498],[112.55106925964355,-1.4835034972388286],[112.55227088928223,-1.4841041105957373],[112.55312919616699,-1.4832460914645225],[112.55398750305176,-1.482988685660274],[112.55664825439453,-1.4830744875983441],[112.55956649780273,-1.4781837718245754],[112.55922317504883,-1.4765535308375917],[112.55793571472168,-1.4744084750859798],[112.55862236022949,-1.4737220568087537],[112.55922317504883,-1.4738936613979092],[112.56119728088379,-1.475952915435684],[112.56454467773438,-1.4769825417396305],[112.5670337677002,-1.476896739565845],[112.56832122802734,-1.4777547611545145],[112.57063865661621,-1.4782695739486371],[112.5714111328125,-1.4789559908217313],[112.57089614868164,-1.4792991991786835],[112.56935119628906,-1.4788701887242155],[112.56857872009277,-1.4792991991786835],[112.56832122802734,-1.4810152401667978],[112.56943702697754,-1.4818732601626436],[112.56978034973145,-1.4828170817741437],[112.56875038146973,-1.4835892991569466],[112.56720542907715,-1.486935571365791],[112.56832122802734,-1.4865065623914973],[112.56892204284668,-1.485562742354702],[112.57089614868164,-1.4851337331137415],[112.57132530212402,-1.4837609029831924],[112.57304191589355,-1.4833318933926165],[112.57372856140137,-1.483675101071725],[112.57518768310547,-1.483675101071725],[112.57613182067871,-1.4841899124905495],[112.5783634185791,-1.4878793908156638],[112.58136749267578,-1.4899386318496823],[112.58291244506836,-1.4944861156432552],[112.58462905883789,-1.4956873362063732],[112.58548736572266,-1.4950009245365123],[112.5849723815918,-1.4940571081400265],[112.58471488952637,-1.4928558866853336],[112.58402824401855,-1.4924268788638528],[112.5838565826416,-1.4916546645743125],[112.58505821228027,-1.4911398548973835],[112.58608818054199,-1.490196036843642],[112.58943557739258,-1.4889948132812236],[112.59235382080078,-1.4890806149859515],[112.59218215942383,-1.487536183789686],[112.59072303771973,-1.4851337331137415],[112.59089469909668,-1.4833318933926165],[112.59441375732422,-1.4819590621439431],[112.59587287902832,-1.4820448641219315],[112.59647369384766,-1.4839325067961227],[112.59810447692871,-1.4857343460277406],[112.59982109069824,-1.4862491569669203],[112.60136604309082,-1.4879651925638058],[112.60273933410645,-1.4877935890641822],[112.60660171508789,-1.4893380200801687],[112.60883331298828,-1.490710846741294],[112.61157989501953,-1.4913972597508973],[112.61303901672363,-1.4926842835667742],[112.61432647705078,-1.4944861156432552],[112.61432647705078,-1.4954299318553268],[112.61381149291992,-1.4961163433910087],[112.61415481567383,-1.496802754711922],[112.61492729187012,-1.4965453504917576],[112.61801719665527,-1.4912256565185658],[112.61672973632812,-1.4886516064288315],[112.61698722839355,-1.4876219855511863],[112.61784553527832,-1.487107174932163],[112.61784553527832,-1.4889948132812236],[112.61947631835938,-1.4909682516449863],[112.62007713317871,-1.4926842835667742],[112.62136459350586,-1.491912069367615],[112.62316703796387,-1.4889948132812236],[112.6252269744873,-1.487107174932163],[112.62617111206055,-1.487107174932163],[112.62711524963379,-1.4878793908156638],[112.62685775756836,-1.4890806149859515],[112.62582778930664,-1.4905392434554443],[112.62471199035645,-1.4943145126520108],[112.62454032897949,-1.4956015347593734],[112.62660026550293,-1.4962021448178717],[112.62840270996094,-1.4974033644414533],[112.62917518615723,-1.4987761860622584],[112.63020515441895,-1.4986903847361788],[112.63089179992676,-1.496802754711922],[112.63054847717285,-1.4945719171338396],[112.63166427612305,-1.4895954251442873],[112.63252258300781,-1.4889948132812236],[112.63338088989258,-1.4889090115731278],[112.63406753540039,-1.4895096234595968],[112.63363838195801,-1.4912256565185658],[112.63278007507324,-1.4929416882395827],[112.63269424438477,-1.4951725274740966],[112.63432502746582,-1.497660768560877],[112.6347541809082,-1.499462596549975],[112.63484001159668,-1.5009212181215332]]}}]}