{"type":"FeatureCollection","features":[{"type":"Feature","id":"pmtiles:10/871/541:water:1930:0","properties":{"class":"ocean","water":"ocean","kind":"waterway","verification":"verified","source":"OpenMapTiles/OpenStreetMap national PMTiles","sourceId":"10/871/541:water:1930:0","sourceLayer":"water","archive":"https://its.hanifahseptiani45.workers.dev/v1/map/archive/indonesia.pmtiles","updatedAt":"2026-07-26T09:47:13.339Z"},"geometry":{"type":"Polygon","coordinates":[[[126.2054443359375,-10.13652430945622],[126.5679931640625,-10.13652430945622],[126.5679931640625,-10.493213228263954],[126.2054443359375,-10.493213228263954],[126.2054443359375,-10.13652430945622]]]}}]}