{"type":"FeatureCollection","features":[{"type":"Feature","id":"pmtiles:10/887/529:transportation:13612285662:0","properties":{"class":"ferry","highway":"ferry","kind":"road","verification":"verified","source":"OpenMapTiles/OpenStreetMap national PMTiles","sourceId":"10/887/529:transportation:13612285662:0","sourceLayer":"transportation","archive":"https://its.hanifahseptiani45.workers.dev/v1/map/archive/indonesia.pmtiles","updatedAt":"2026-07-26T09:44:53.665Z"},"geometry":{"type":"LineString","coordinates":[[132.1574592590332,-6.320758338986849],[132.1929931640625,-6.256346096344359]]}},{"type":"Feature","id":"pmtiles:10/887/529:water:980:0","properties":{"class":"ocean","water":"ocean","kind":"waterway","verification":"verified","source":"OpenMapTiles/OpenStreetMap national PMTiles","sourceId":"10/887/529:water:980:0","sourceLayer":"water","archive":"https://its.hanifahseptiani45.workers.dev/v1/map/archive/indonesia.pmtiles","updatedAt":"2026-07-26T09:44:53.665Z"},"geometry":{"type":"Polygon","coordinates":[[[131.8304443359375,-5.960290229693385],[132.1929931640625,-5.960290229693385],[132.1929931640625,-6.320758338986849],[131.8304443359375,-6.320758338986849],[131.8304443359375,-5.960290229693385]]]}}]}