{"type":"FeatureCollection","features":[{"type":"Feature","id":"pmtiles:8/203/136:water:1350:0","properties":{"class":"ocean","water":"ocean","kind":"waterway","verification":"verified","source":"OpenMapTiles/OpenStreetMap national PMTiles","sourceId":"8/203/136:water:1350:0","sourceLayer":"water","archive":"https://its.hanifahseptiani45.workers.dev/v1/map/archive/indonesia.pmtiles","updatedAt":"2026-07-26T09:35:52.637Z"},"geometry":{"type":"Polygon","coordinates":[[[105.44677734375,-11.156845275211765],[106.89697265625,-11.156845275211765],[106.89697265625,-12.576009912063782],[105.44677734375,-12.576009912063782],[105.44677734375,-11.156845275211765]]]}}]}