{"type":"FeatureCollection","features":[{"type":"Feature","id":"pmtiles:10/884/506:water:470:0","properties":{"class":"ocean","water":"ocean","kind":"waterway","verification":"verified","source":"OpenMapTiles/OpenStreetMap national PMTiles","sourceId":"10/884/506:water:470:0","sourceLayer":"water","archive":"https://its.hanifahseptiani45.workers.dev/v1/map/archive/indonesia.pmtiles","updatedAt":"2026-07-26T09:40:17.559Z"},"geometry":{"type":"Polygon","coordinates":[[[130.7757568359375,2.114388093041839],[131.1383056640625,2.114388093041839],[131.1383056640625,1.7520462233579792],[130.7757568359375,1.7520462233579792],[130.7757568359375,2.114388093041839]]]}}]}