{"type":"FeatureCollection","features":[{"type":"Feature","id":"pmtiles:10/819/505:water:790:0","properties":{"class":"ocean","water":"ocean","kind":"waterway","verification":"verified","source":"OpenMapTiles/OpenStreetMap national PMTiles","sourceId":"10/819/505:water:790:0","sourceLayer":"water","archive":"https://its.hanifahseptiani45.workers.dev/v1/map/archive/indonesia.pmtiles","updatedAt":"2026-07-26T09:40:02.751Z"},"geometry":{"type":"Polygon","coordinates":[[[107.9241943359375,2.4656692707025485],[108.2867431640625,2.4656692707025485],[108.2867431640625,2.1034092060773872],[107.9241943359375,2.1034092060773872],[107.9241943359375,2.4656692707025485]]]}}]}