{"type":"FeatureCollection","features":[{"type":"Feature","id":"pmtiles:10/828/508:mountain_peak:10701812861:0","properties":{"name_int":"Bukit Burung","name_de":"Bukit Burung","name":"Bukit Burung","rank":1,"class":"peak","name:latin":"Bukit Burung","name_en":"Bukit Burung","kind":"poi","verification":"verified","source":"OpenMapTiles/OpenStreetMap national PMTiles","sourceId":"10/828/508:mountain_peak:10701812861:0","sourceLayer":"mountain_peak","archive":"https://its.hanifahseptiani45.workers.dev/v1/map/archive/indonesia.pmtiles","updatedAt":"2026-07-26T09:40:41.291Z"},"geometry":{"type":"Point","coordinates":[111.48333549499512,1.0166969761297224]}},{"type":"Feature","id":"pmtiles:10/828/508:mountain_peak:67441942791:0","properties":{"name_int":"Bukit Ngaras","name_de":"Bukit Ngaras","name":"Bukit Ngaras","rank":4,"class":"peak","name:latin":"Bukit Ngaras","name_en":"Bukit Ngaras","kind":"poi","verification":"verified","source":"OpenMapTiles/OpenStreetMap national PMTiles","sourceId":"10/828/508:mountain_peak:67441942791:0","sourceLayer":"mountain_peak","archive":"https://its.hanifahseptiani45.workers.dev/v1/map/archive/indonesia.pmtiles","updatedAt":"2026-07-26T09:40:41.291Z"},"geometry":{"type":"Point","coordinates":[111.51543617248535,0.9906942680204622]}},{"type":"Feature","id":"pmtiles:10/828/508:mountain_peak:67443194831:0","properties":{"name_int":"Bukit Mansul","name_de":"Bukit Mansul","name":"Bukit Mansul","rank":5,"class":"peak","name:latin":"Bukit Mansul","name_en":"Bukit Mansul","kind":"poi","verification":"verified","source":"OpenMapTiles/OpenStreetMap national PMTiles","sourceId":"10/828/508:mountain_peak:67443194831:0","sourceLayer":"mountain_peak","archive":"https://its.hanifahseptiani45.workers.dev/v1/map/archive/indonesia.pmtiles","updatedAt":"2026-07-26T09:40:41.291Z"},"geometry":{"type":"Point","coordinates":[111.50187492370605,1.0203012955021507]}},{"type":"Feature","id":"pmtiles:10/829/508:mountain_peak:10701812861:0","properties":{"name_int":"Bukit Burung","name_de":"Bukit Burung","name":"Bukit Burung","rank":1,"class":"peak","name:latin":"Bukit Burung","name_en":"Bukit Burung","kind":"poi","verification":"verified","source":"OpenMapTiles/OpenStreetMap national PMTiles","sourceId":"10/829/508:mountain_peak:10701812861:0","sourceLayer":"mountain_peak","archive":"https://its.hanifahseptiani45.workers.dev/v1/map/archive/indonesia.pmtiles","updatedAt":"2026-07-26T09:40:42.388Z"},"geometry":{"type":"Point","coordinates":[111.48333549499512,1.0166969761297224]}},{"type":"Feature","id":"pmtiles:10/829/508:mountain_peak:67441942791:0","properties":{"name_int":"Bukit Ngaras","name_de":"Bukit Ngaras","name":"Bukit Ngaras","rank":4,"class":"peak","name:latin":"Bukit Ngaras","name_en":"Bukit Ngaras","kind":"poi","verification":"verified","source":"OpenMapTiles/OpenStreetMap national PMTiles","sourceId":"10/829/508:mountain_peak:67441942791:0","sourceLayer":"mountain_peak","archive":"https://its.hanifahseptiani45.workers.dev/v1/map/archive/indonesia.pmtiles","updatedAt":"2026-07-26T09:40:42.388Z"},"geometry":{"type":"Point","coordinates":[111.51543617248535,0.9906942680204622]}},{"type":"Feature","id":"pmtiles:10/829/508:mountain_peak:67443194831:0","properties":{"name_int":"Bukit Mansul","name_de":"Bukit Mansul","name":"Bukit Mansul","rank":5,"class":"peak","name:latin":"Bukit Mansul","name_en":"Bukit Mansul","kind":"poi","verification":"verified","source":"OpenMapTiles/OpenStreetMap national PMTiles","sourceId":"10/829/508:mountain_peak:67443194831:0","sourceLayer":"mountain_peak","archive":"https://its.hanifahseptiani45.workers.dev/v1/map/archive/indonesia.pmtiles","updatedAt":"2026-07-26T09:40:42.388Z"},"geometry":{"type":"Point","coordinates":[111.50187492370605,1.0203012955021507]}},{"type":"Feature","id":"pmtiles:10/829/508:mountain_peak:10701594511:0","properties":{"name_int":"Bukit Patok","name_de":"Bukit Patok","name":"Bukit Patok","rank":1,"class":"peak","name:latin":"Bukit Patok","name_en":"Bukit Patok","kind":"poi","verification":"verified","source":"OpenMapTiles/OpenStreetMap national PMTiles","sourceId":"10/829/508:mountain_peak:10701594511:0","sourceLayer":"mountain_peak","archive":"https://its.hanifahseptiani45.workers.dev/v1/map/archive/indonesia.pmtiles","updatedAt":"2026-07-26T09:40:42.388Z"},"geometry":{"type":"Point","coordinates":[111.68332099914551,1.0166969761297224]}},{"type":"Feature","id":"pmtiles:10/829/508:mountain_peak:67441942751:0","properties":{"name_int":"Tinteng Kudu","name_de":"Tinteng Kudu","name":"Tinteng Kudu","rank":2,"class":"peak","name:latin":"Tinteng Kudu","name_en":"Tinteng Kudu","kind":"poi","verification":"verified","source":"OpenMapTiles/OpenStreetMap national PMTiles","sourceId":"10/829/508:mountain_peak:67441942751:0","sourceLayer":"mountain_peak","archive":"https://its.hanifahseptiani45.workers.dev/v1/map/archive/indonesia.pmtiles","updatedAt":"2026-07-26T09:40:42.388Z"},"geometry":{"type":"Point","coordinates":[111.57920837402344,0.9795379277418164]}},{"type":"Feature","id":"pmtiles:10/829/508:mountain_peak:67441942781:0","properties":{"name_int":"Tinteng Kah","name_de":"Tinteng Kah","name":"Tinteng Kah","rank":3,"class":"peak","name:latin":"Tinteng Kah","name_en":"Tinteng Kah","kind":"poi","verification":"verified","source":"OpenMapTiles/OpenStreetMap national PMTiles","sourceId":"10/829/508:mountain_peak:67441942781:0","sourceLayer":"mountain_peak","archive":"https://its.hanifahseptiani45.workers.dev/v1/map/archive/indonesia.pmtiles","updatedAt":"2026-07-26T09:40:42.388Z"},"geometry":{"type":"Point","coordinates":[111.55131340026855,0.9871757339679874]}},{"type":"Feature","id":"pmtiles:10/829/508:mountain_peak:67443194811:0","properties":{"name_int":"Bukit Balau Ulu","name_de":"Bukit Balau Ulu","name":"Bukit Balau Ulu","rank":4,"class":"peak","name:latin":"Bukit Balau Ulu","name_en":"Bukit Balau Ulu","kind":"poi","verification":"verified","source":"OpenMapTiles/OpenStreetMap national PMTiles","sourceId":"10/829/508:mountain_peak:67443194811:0","sourceLayer":"mountain_peak","archive":"https://its.hanifahseptiani45.workers.dev/v1/map/archive/indonesia.pmtiles","updatedAt":"2026-07-26T09:40:42.388Z"},"geometry":{"type":"Point","coordinates":[111.60598754882812,1.011290489530893]}},{"type":"Feature","id":"pmtiles:10/829/508:mountain_peak:67443221871:0","properties":{"name_int":"Bukit Putong","name_de":"Bukit Putong","name":"Bukit Putong","rank":5,"class":"peak","name:latin":"Bukit Putong","name_en":"Bukit Putong","kind":"poi","verification":"verified","source":"OpenMapTiles/OpenStreetMap national PMTiles","sourceId":"10/829/508:mountain_peak:67443221871:0","sourceLayer":"mountain_peak","archive":"https://its.hanifahseptiani45.workers.dev/v1/map/archive/indonesia.pmtiles","updatedAt":"2026-07-26T09:40:42.388Z"},"geometry":{"type":"Point","coordinates":[111.6404914855957,1.0241630617769033]}},{"type":"Feature","id":"pmtiles:10/829/508:mountain_peak:10701628901:0","properties":{"name_int":"Bukit Nyambau","name_de":"Bukit Nyambau","name":"Bukit Nyambau","rank":1,"class":"peak","name:latin":"Bukit Nyambau","name_en":"Bukit Nyambau","kind":"poi","verification":"verified","source":"OpenMapTiles/OpenStreetMap national PMTiles","sourceId":"10/829/508:mountain_peak:10701628901:0","sourceLayer":"mountain_peak","archive":"https://its.hanifahseptiani45.workers.dev/v1/map/archive/indonesia.pmtiles","updatedAt":"2026-07-26T09:40:42.388Z"},"geometry":{"type":"Point","coordinates":[111.76666259765625,1.0166969761297224]}},{"type":"Feature","id":"pmtiles:10/829/508:mountain_peak:10701855491:0","properties":{"name_int":"Bukit Buwaya","name_de":"Bukit Buwaya","name":"Bukit Buwaya","rank":2,"class":"peak","name:latin":"Bukit Buwaya","name_en":"Bukit Buwaya","kind":"poi","verification":"verified","source":"OpenMapTiles/OpenStreetMap national PMTiles","sourceId":"10/829/508:mountain_peak:10701855491:0","sourceLayer":"mountain_peak","archive":"https://its.hanifahseptiani45.workers.dev/v1/map/archive/indonesia.pmtiles","updatedAt":"2026-07-26T09:40:42.388Z"},"geometry":{"type":"Point","coordinates":[111.71670913696289,1.033345465089738]}},{"type":"Feature","id":"pmtiles:10/829/508:mountain_peak:67443194841:0","properties":{"name_int":"Bukit Nyambau","name_de":"Bukit Nyambau","name":"Bukit Nyambau","rank":5,"class":"peak","name:latin":"Bukit Nyambau","name_en":"Bukit Nyambau","kind":"poi","verification":"verified","source":"OpenMapTiles/OpenStreetMap national PMTiles","sourceId":"10/829/508:mountain_peak:67443194841:0","sourceLayer":"mountain_peak","archive":"https://its.hanifahseptiani45.workers.dev/v1/map/archive/indonesia.pmtiles","updatedAt":"2026-07-26T09:40:42.388Z"},"geometry":{"type":"Point","coordinates":[111.76211357116699,1.0217601855294873]}},{"type":"Feature","id":"pmtiles:10/830/508:mountain_peak:10701628901:0","properties":{"name_int":"Bukit Nyambau","name_de":"Bukit Nyambau","name":"Bukit Nyambau","rank":1,"class":"peak","name:latin":"Bukit Nyambau","name_en":"Bukit Nyambau","kind":"poi","verification":"verified","source":"OpenMapTiles/OpenStreetMap national PMTiles","sourceId":"10/830/508:mountain_peak:10701628901:0","sourceLayer":"mountain_peak","archive":"https://its.hanifahseptiani45.workers.dev/v1/map/archive/indonesia.pmtiles","updatedAt":"2026-07-26T09:40:42.468Z"},"geometry":{"type":"Point","coordinates":[111.76666259765625,1.0166969761297224]}},{"type":"Feature","id":"pmtiles:10/830/508:mountain_peak:10701855491:0","properties":{"name_int":"Bukit Buwaya","name_de":"Bukit Buwaya","name":"Bukit Buwaya","rank":2,"class":"peak","name:latin":"Bukit Buwaya","name_en":"Bukit Buwaya","kind":"poi","verification":"verified","source":"OpenMapTiles/OpenStreetMap national PMTiles","sourceId":"10/830/508:mountain_peak:10701855491:0","sourceLayer":"mountain_peak","archive":"https://its.hanifahseptiani45.workers.dev/v1/map/archive/indonesia.pmtiles","updatedAt":"2026-07-26T09:40:42.468Z"},"geometry":{"type":"Point","coordinates":[111.71670913696289,1.033345465089738]}},{"type":"Feature","id":"pmtiles:10/830/508:mountain_peak:67443194841:0","properties":{"name_int":"Bukit Nyambau","name_de":"Bukit Nyambau","name":"Bukit Nyambau","rank":5,"class":"peak","name:latin":"Bukit Nyambau","name_en":"Bukit Nyambau","kind":"poi","verification":"verified","source":"OpenMapTiles/OpenStreetMap national PMTiles","sourceId":"10/830/508:mountain_peak:67443194841:0","sourceLayer":"mountain_peak","archive":"https://its.hanifahseptiani45.workers.dev/v1/map/archive/indonesia.pmtiles","updatedAt":"2026-07-26T09:40:42.468Z"},"geometry":{"type":"Point","coordinates":[111.76211357116699,1.0217601855294873]}},{"type":"Feature","id":"pmtiles:10/828/509:mountain_peak:10701812861:0","properties":{"name_int":"Bukit Burung","name_de":"Bukit Burung","name":"Bukit Burung","rank":1,"class":"peak","name:latin":"Bukit Burung","name_en":"Bukit Burung","kind":"poi","verification":"verified","source":"OpenMapTiles/OpenStreetMap national PMTiles","sourceId":"10/828/509:mountain_peak:10701812861:0","sourceLayer":"mountain_peak","archive":"https://its.hanifahseptiani45.workers.dev/v1/map/archive/indonesia.pmtiles","updatedAt":"2026-07-26T09:40:54.190Z"},"geometry":{"type":"Point","coordinates":[111.48333549499512,1.0166969761297224]}},{"type":"Feature","id":"pmtiles:10/828/509:mountain_peak:67441942791:0","properties":{"name_int":"Bukit Ngaras","name_de":"Bukit Ngaras","name":"Bukit Ngaras","rank":4,"class":"peak","name:latin":"Bukit Ngaras","name_en":"Bukit Ngaras","kind":"poi","verification":"verified","source":"OpenMapTiles/OpenStreetMap national PMTiles","sourceId":"10/828/509:mountain_peak:67441942791:0","sourceLayer":"mountain_peak","archive":"https://its.hanifahseptiani45.workers.dev/v1/map/archive/indonesia.pmtiles","updatedAt":"2026-07-26T09:40:54.190Z"},"geometry":{"type":"Point","coordinates":[111.51543617248535,0.9906942680204622]}},{"type":"Feature","id":"pmtiles:10/828/509:mountain_peak:67443194831:0","properties":{"name_int":"Bukit Mansul","name_de":"Bukit Mansul","name":"Bukit Mansul","rank":5,"class":"peak","name:latin":"Bukit Mansul","name_en":"Bukit Mansul","kind":"poi","verification":"verified","source":"OpenMapTiles/OpenStreetMap national PMTiles","sourceId":"10/828/509:mountain_peak:67443194831:0","sourceLayer":"mountain_peak","archive":"https://its.hanifahseptiani45.workers.dev/v1/map/archive/indonesia.pmtiles","updatedAt":"2026-07-26T09:40:54.190Z"},"geometry":{"type":"Point","coordinates":[111.50187492370605,1.0203012955021507]}},{"type":"Feature","id":"pmtiles:10/829/509:landcover:9142025632:0","properties":{"subclass":"orchard","class":"farmland","kind":"green","verification":"verified","source":"OpenMapTiles/OpenStreetMap national PMTiles","sourceId":"10/829/509:landcover:9142025632:0","sourceLayer":"landcover","archive":"https://its.hanifahseptiani45.workers.dev/v1/map/archive/indonesia.pmtiles","updatedAt":"2026-07-26T09:40:54.248Z"},"geometry":{"type":"Polygon","coordinates":[[[111.8023681640625,0.7939942848954047],[111.80133819580078,0.7939084624473338],[111.79902076721191,0.7978562932121065],[111.79550170898438,0.7986286944409642],[111.7939567565918,0.7997443848486085],[111.79421424865723,0.8018041201887343],[111.7972183227539,0.8035205655140203],[111.79859161376953,0.804893721255084],[111.79867744445801,0.8063526987233445],[111.7965316772461,0.8079833199808348],[111.79447174072266,0.8083266085832719],[111.79344177246094,0.8098714069349313],[111.79266929626465,0.8102146953776099],[111.78829193115234,0.8067818096439652],[111.78691864013672,0.8066101652811426],[111.78597450256348,0.8075542091870034],[111.78348541259766,0.8084982528736191],[111.78048133850098,0.8062668765337975],[111.77953720092773,0.8066101652811426],[111.77816390991211,0.8084982528736191],[111.7778205871582,0.8125318916042374],[111.77704811096191,0.8133901120918381],[111.77447319030762,0.8139908663245734],[111.76898002624512,0.8140766883505108],[111.76726341247559,0.8146774424809564],[111.76597595214844,0.8181103215061256],[111.76898002624512,0.8203416912982675],[111.76949501037598,0.822916347204341],[111.77258491516113,0.8284947626263488],[111.77361488342285,0.8319276297548441],[111.77258491516113,0.8349313860427117],[111.77095413208008,0.836218709464049],[111.76932334899902,0.836390352555],[111.76820755004883,0.8391366409884284],[111.76932334899902,0.8409388917254716],[111.77618980407715,0.8414538203547153],[111.77910804748535,0.8432560700215816],[111.78339958190918,0.844457569336015],[111.78494453430176,0.8457448896179613],[111.78640365600586,0.8441142838554754],[111.78631782531738,0.8435135341916293],[111.78348541259766,0.8407672488339557],[111.78434371948242,0.8405956059348938],[111.78640365600586,0.838364247561131],[111.7888069152832,0.838192604556582],[111.78957939147949,0.8367336387144064],[111.79129600524902,0.836991103314233],[111.79155349731445,0.836218709464049],[111.79069519042969,0.834845564466292],[111.7924976348877,0.8341589917875467],[111.79292678833008,0.8320992730329664],[111.79464340209961,0.8320992730329664],[111.79352760314941,0.8329574893115534],[111.79378509521484,0.8351888507607299],[111.79438591003418,0.8351888507607299],[111.7957592010498,0.8329574893115534],[111.79636001586914,0.8360470663655661],[111.79764747619629,0.836218709464049],[111.79841995239258,0.834845564466292],[111.7983341217041,0.8321850946692422],[111.79902076721191,0.8321850946692422],[111.80193901062012,0.8294388013837022],[111.8023681640625,0.8296104447699548],[111.8023681640625,0.8251477143122656],[111.80219650268555,0.8253193578841405],[111.80022239685059,0.8233454563605846],[111.79764747619629,0.823259634533045],[111.79593086242676,0.8222297724583285],[111.79335594177246,0.8224872380019264],[111.79266929626465,0.822916347204341],[111.79515838623047,0.8289238711803222],[111.79052352905273,0.829782088148761],[111.78906440734863,0.8278940105727344],[111.78915023803711,0.827035793195364],[111.7873477935791,0.8235171000101644],[111.78571701049805,0.8236887436523546],[111.78503036499023,0.8242894963417484],[111.78374290466309,0.824203674534516],[111.78314208984375,0.8224872380019264],[111.78528785705566,0.8188827188824632],[111.78683280944824,0.8184536092473138],[111.79198265075684,0.814934908509457],[111.79438591003418,0.8151065525193104],[111.79515838623047,0.8155356625119339],[111.79550170898438,0.8158789504730919],[111.79507255554199,0.8175953898392976],[111.79644584655762,0.8180244995662491],[111.79747581481934,0.8192260065575141],[111.8020248413086,0.8190543627236622],[111.8023681640625,0.8189685408039935],[111.8023681640625,0.7939942848954047]]]}},{"type":"Feature","id":"pmtiles:10/829/509:landcover:13596293642:0","properties":{"subclass":"orchard","class":"farmland","kind":"green","verification":"verified","source":"OpenMapTiles/OpenStreetMap national PMTiles","sourceId":"10/829/509:landcover:13596293642:0","sourceLayer":"landcover","archive":"https://its.hanifahseptiani45.workers.dev/v1/map/archive/indonesia.pmtiles","updatedAt":"2026-07-26T09:40:54.248Z"},"geometry":{"type":"Polygon","coordinates":[[[111.8023681640625,0.9663219073852076],[111.80193901062012,0.9670084551694629],[111.80056571960449,0.9673517290095504],[111.7983341217041,0.9696688265210867],[111.79678916931152,0.9702695552468015],[111.79584503173828,0.9682957318906489],[111.79696083068848,0.9672659105527828],[111.80082321166992,0.9658069964559388],[111.79962158203125,0.9654637224597451],[111.79841995239258,0.9659786334410114],[111.79713249206543,0.9634040777552144],[111.78022384643555,0.96348989630944],[111.77953720092773,0.9628033478150684],[111.7760181427002,0.9625458920940275],[111.77464485168457,0.9636615334114111],[111.77335739135742,0.963833170504742],[111.77146911621094,0.9651204484288911],[111.77206993103027,0.9659786334410114],[111.77172660827637,0.9666651812946725],[111.77267074584961,0.9670084551694629],[111.77258491516113,0.9678666397045248],[111.77515983581543,0.9698404633107458],[111.77430152893066,0.9716426490763865],[111.77558898925781,0.9734448338806487],[111.77584648132324,0.9767059277435095],[111.7752456665039,0.9767917459603837],[111.77490234375,0.9757619272134264],[111.77490234375,0.9732731972740822],[111.77387237548828,0.9730157423478829],[111.7734432220459,0.9722433774513775],[111.77206993103027,0.9732731972740822],[111.77069664001465,0.9731015606588045],[111.77061080932617,0.9740455619347728],[111.77249908447266,0.9766201095244611],[111.77387237548828,0.9773924734170549],[111.77438735961914,0.9785939280079532],[111.77584648132324,0.9779073825800992],[111.77679061889648,0.9791088369866543],[111.77739143371582,0.9791088369866543],[111.77713394165039,0.9774782916163787],[111.77584648132324,0.9773924734170549],[111.77730560302734,0.9762768366263259],[111.77790641784668,0.9779932007662779],[111.77704811096191,0.9806535634480298],[111.77842140197754,0.9830564698594912],[111.78030967712402,0.9839146503018696],[111.78271293640137,0.9834855601082637],[111.78408622741699,0.9846011944968467],[111.78563117980957,0.9839146503018696],[111.78683280944824,0.9842579224170152],[111.7870044708252,0.9857168285120679],[111.78803443908691,0.9857168285120679],[111.7888069152832,0.986832462153572],[111.78897857666016,0.9881197312748924],[111.78794860839844,0.9882913671200697],[111.78915023803711,0.9893211820047725],[111.78957939147949,0.9876906416231748],[111.79078102111816,0.9880339133489997],[111.79447174072266,0.9871757339679874],[111.79481506347656,0.9840004683339743],[111.79678916931152,0.9815117445075003],[111.7997932434082,0.9809968358982388],[111.80168151855469,0.9817691987824162],[111.8023681640625,0.981683380692985],[111.8023681640625,0.9663219073852076]]]}},{"type":"Feature","id":"pmtiles:10/829/509:landcover:13596293672:0","properties":{"subclass":"orchard","class":"farmland","kind":"green","verification":"verified","source":"OpenMapTiles/OpenStreetMap national PMTiles","sourceId":"10/829/509:landcover:13596293672:0","sourceLayer":"landcover","archive":"https://its.hanifahseptiani45.workers.dev/v1/map/archive/indonesia.pmtiles","updatedAt":"2026-07-26T09:40:54.248Z"},"geometry":{"type":"Polygon","coordinates":[[[111.7719841003418,1.0063130812071677],[111.77146911621094,1.0062272637555623],[111.77138328552246,1.0068279858693643],[111.77026748657227,1.0064847161036141],[111.76966667175293,1.005798176463685],[111.7697525024414,1.0045967317463607],[111.76872253417969,1.0032236515285007],[111.7679500579834,1.0041676442402263],[111.76726341247559,1.0037385566777601],[111.76674842834473,1.0040818267322322],[111.76374435424805,1.0021938409869051],[111.76434516906738,1.0034811041132627],[111.76666259765625,1.005111636679331],[111.76657676696777,1.006055628845587],[111.76614761352539,1.0063130812071677],[111.76563262939453,1.0055407240614755],[111.7650318145752,1.0062272637555623],[111.76400184631348,1.0061414463016973],[111.7624568939209,1.0047683667330318],[111.76194190979004,1.0051974541602675],[111.76451683044434,1.0071712555990047],[111.76752090454102,1.0120628453117604],[111.76734924316406,1.0129210181859207],[111.76812171936035,1.0150664493766044],[111.76752090454102,1.0157529870571693],[111.7682933807373,1.0157529870571693],[111.76932334899902,1.0165253417734306],[111.77103996276855,1.016182073033434],[111.77189826965332,1.0154097182351052],[111.7719841003418,1.0099174121334045],[111.77249908447266,1.0092308732170778],[111.7719841003418,1.0063130812071677]]]}},{"type":"Feature","id":"pmtiles:10/829/509:landcover:13596293682:0","properties":{"subclass":"orchard","class":"farmland","kind":"green","verification":"verified","source":"OpenMapTiles/OpenStreetMap national PMTiles","sourceId":"10/829/509:landcover:13596293682:0","sourceLayer":"landcover","archive":"https://its.hanifahseptiani45.workers.dev/v1/map/archive/indonesia.pmtiles","updatedAt":"2026-07-26T09:40:54.248Z"},"geometry":{"type":"Polygon","coordinates":[[[111.77438735961914,0.9785939280079532],[111.77335739135742,0.9805677453299779],[111.77412986755371,0.9829706518031145],[111.77275657653809,0.9831422879136511],[111.77172660827637,0.9825415614881763],[111.77000999450684,0.9839146503018696],[111.76743507385254,0.9848586485335034],[111.76580429077148,0.9870040980652135],[111.76477432250977,0.98743318780555],[111.76331520080566,0.986832462153572],[111.7624568939209,0.9857168285120679],[111.76494598388672,0.9836571961923397],[111.76486015319824,0.9823699253467737],[111.76631927490234,0.9814259264114753],[111.76614761352539,0.9806535634480298],[111.76571846008301,0.9803102909626347],[111.7624568939209,0.9808251996775397],[111.7628002166748,0.9829706518031145],[111.76177024841309,0.9832281059656225],[111.76159858703613,0.9846011944968467],[111.75971031188965,0.9850302845469088],[111.75928115844727,0.9860601004415912],[111.7595386505127,0.9878622774905068],[111.76065444946289,0.986832462153572],[111.76511764526367,0.9882055491985966],[111.76580429077148,0.990865903732427],[111.76528930664062,0.9918957178174281],[111.76408767700195,0.9919815356433759],[111.7635726928711,0.9938695272509648],[111.76091194152832,0.9943844338658181],[111.76254272460938,0.9930113493811774],[111.76082611083984,0.9917240821588251],[111.75850868225098,0.994985158148296],[111.75713539123535,0.9948993404003375],[111.75670623779297,0.9955858823213788],[111.7598819732666,0.9973022364982995],[111.76074028015137,0.9967015126380971],[111.76262855529785,0.9996193132170959],[111.76451683044434,0.999790948464593],[111.76820755004883,1.0016789355946685],[111.77189826965332,1.005969811387203],[111.77447319030762,1.002365476099655],[111.77515983581543,1.0001342189327005],[111.77679061889648,0.998589501543691],[111.77842140197754,0.9984178662334244],[111.77773475646973,0.9991044074207593],[111.78056716918945,0.9986753191954705],[111.78751945495605,0.9957575177792961],[111.78837776184082,0.9943844338658181],[111.7899227142334,0.9939553450256824],[111.78915023803711,0.9932688027655274],[111.79086685180664,0.9921531712886065],[111.78915023803711,0.9907800858775602],[111.78760528564453,0.9909517215850769],[111.78777694702148,0.9899219072066074],[111.78709030151367,0.9888062746023678],[111.78537368774414,0.9888920925083085],[111.78503036499023,0.9893211820047725],[111.78408622741699,0.9888062746023678],[111.78408622741699,0.9881197312748924],[111.78202629089355,0.9870040980652135],[111.7815113067627,0.9852877385504399],[111.7800521850586,0.985201920551475],[111.78142547607422,0.9859742824625357],[111.78125381469727,0.9876048236861834],[111.7803955078125,0.9876906416231748],[111.7800521850586,0.986918280110487],[111.77859306335449,0.986918280110487],[111.77850723266602,0.9858884644812633],[111.77799224853516,0.9857168285120679],[111.77799224853516,0.9843437404402948],[111.77850723266602,0.984086286363862],[111.77730560302734,0.9840004683339743],[111.77644729614258,0.9831422879136511],[111.77576065063477,0.9784222916641596],[111.77438735961914,0.9785939280079532]]]}},{"type":"Feature","id":"pmtiles:10/829/509:mountain_peak:10701812861:0","properties":{"name_int":"Bukit Burung","name_de":"Bukit Burung","name":"Bukit Burung","rank":1,"class":"peak","name:latin":"Bukit Burung","name_en":"Bukit Burung","kind":"poi","verification":"verified","source":"OpenMapTiles/OpenStreetMap national PMTiles","sourceId":"10/829/509:mountain_peak:10701812861:0","sourceLayer":"mountain_peak","archive":"https://its.hanifahseptiani45.workers.dev/v1/map/archive/indonesia.pmtiles","updatedAt":"2026-07-26T09:40:54.248Z"},"geometry":{"type":"Point","coordinates":[111.48333549499512,1.0166969761297224]}},{"type":"Feature","id":"pmtiles:10/829/509:mountain_peak:67441642851:0","properties":{"name_int":"Tinteng Kamantan","name_de":"Tinteng Kamantan","name":"Tinteng Kamantan","rank":3,"class":"peak","name:latin":"Tinteng Kamantan","name_en":"Tinteng Kamantan","kind":"poi","verification":"verified","source":"OpenMapTiles/OpenStreetMap national PMTiles","sourceId":"10/829/509:mountain_peak:67441642851:0","sourceLayer":"mountain_peak","archive":"https://its.hanifahseptiani45.workers.dev/v1/map/archive/indonesia.pmtiles","updatedAt":"2026-07-26T09:40:54.248Z"},"geometry":{"type":"Point","coordinates":[111.54951095581055,0.9567102238805916]}},{"type":"Feature","id":"pmtiles:10/829/509:mountain_peak:67441942791:0","properties":{"name_int":"Bukit Ngaras","name_de":"Bukit Ngaras","name":"Bukit Ngaras","rank":4,"class":"peak","name:latin":"Bukit Ngaras","name_en":"Bukit Ngaras","kind":"poi","verification":"verified","source":"OpenMapTiles/OpenStreetMap national PMTiles","sourceId":"10/829/509:mountain_peak:67441942791:0","sourceLayer":"mountain_peak","archive":"https://its.hanifahseptiani45.workers.dev/v1/map/archive/indonesia.pmtiles","updatedAt":"2026-07-26T09:40:54.249Z"},"geometry":{"type":"Point","coordinates":[111.51543617248535,0.9906942680204622]}},{"type":"Feature","id":"pmtiles:10/829/509:mountain_peak:67443194831:0","properties":{"name_int":"Bukit Mansul","name_de":"Bukit Mansul","name":"Bukit Mansul","rank":5,"class":"peak","name:latin":"Bukit Mansul","name_en":"Bukit Mansul","kind":"poi","verification":"verified","source":"OpenMapTiles/OpenStreetMap national PMTiles","sourceId":"10/829/509:mountain_peak:67443194831:0","sourceLayer":"mountain_peak","archive":"https://its.hanifahseptiani45.workers.dev/v1/map/archive/indonesia.pmtiles","updatedAt":"2026-07-26T09:40:54.249Z"},"geometry":{"type":"Point","coordinates":[111.50187492370605,1.0203012955021507]}},{"type":"Feature","id":"pmtiles:10/829/509:mountain_peak:10701594511:0","properties":{"name_int":"Bukit Patok","name_de":"Bukit Patok","name":"Bukit Patok","rank":1,"class":"peak","name:latin":"Bukit Patok","name_en":"Bukit Patok","kind":"poi","verification":"verified","source":"OpenMapTiles/OpenStreetMap national PMTiles","sourceId":"10/829/509:mountain_peak:10701594511:0","sourceLayer":"mountain_peak","archive":"https://its.hanifahseptiani45.workers.dev/v1/map/archive/indonesia.pmtiles","updatedAt":"2026-07-26T09:40:54.249Z"},"geometry":{"type":"Point","coordinates":[111.68332099914551,1.0166969761297224]}},{"type":"Feature","id":"pmtiles:10/829/509:mountain_peak:67441942751:0","properties":{"name_int":"Tinteng Kudu","name_de":"Tinteng Kudu","name":"Tinteng Kudu","rank":2,"class":"peak","name:latin":"Tinteng Kudu","name_en":"Tinteng Kudu","kind":"poi","verification":"verified","source":"OpenMapTiles/OpenStreetMap national PMTiles","sourceId":"10/829/509:mountain_peak:67441942751:0","sourceLayer":"mountain_peak","archive":"https://its.hanifahseptiani45.workers.dev/v1/map/archive/indonesia.pmtiles","updatedAt":"2026-07-26T09:40:54.249Z"},"geometry":{"type":"Point","coordinates":[111.57920837402344,0.9795379277418164]}},{"type":"Feature","id":"pmtiles:10/829/509:mountain_peak:67441942781:0","properties":{"name_int":"Tinteng Kah","name_de":"Tinteng Kah","name":"Tinteng Kah","rank":3,"class":"peak","name:latin":"Tinteng Kah","name_en":"Tinteng Kah","kind":"poi","verification":"verified","source":"OpenMapTiles/OpenStreetMap national PMTiles","sourceId":"10/829/509:mountain_peak:67441942781:0","sourceLayer":"mountain_peak","archive":"https://its.hanifahseptiani45.workers.dev/v1/map/archive/indonesia.pmtiles","updatedAt":"2026-07-26T09:40:54.249Z"},"geometry":{"type":"Point","coordinates":[111.55131340026855,0.9871757339679874]}},{"type":"Feature","id":"pmtiles:10/829/509:mountain_peak:67443194811:0","properties":{"name_int":"Bukit Balau Ulu","name_de":"Bukit Balau Ulu","name":"Bukit Balau Ulu","rank":4,"class":"peak","name:latin":"Bukit Balau Ulu","name_en":"Bukit Balau Ulu","kind":"poi","verification":"verified","source":"OpenMapTiles/OpenStreetMap national PMTiles","sourceId":"10/829/509:mountain_peak:67443194811:0","sourceLayer":"mountain_peak","archive":"https://its.hanifahseptiani45.workers.dev/v1/map/archive/indonesia.pmtiles","updatedAt":"2026-07-26T09:40:54.249Z"},"geometry":{"type":"Point","coordinates":[111.60598754882812,1.011290489530893]}},{"type":"Feature","id":"pmtiles:10/829/509:mountain_peak:67443221871:0","properties":{"name_int":"Bukit Putong","name_de":"Bukit Putong","name":"Bukit Putong","rank":5,"class":"peak","name:latin":"Bukit Putong","name_en":"Bukit Putong","kind":"poi","verification":"verified","source":"OpenMapTiles/OpenStreetMap national PMTiles","sourceId":"10/829/509:mountain_peak:67443221871:0","sourceLayer":"mountain_peak","archive":"https://its.hanifahseptiani45.workers.dev/v1/map/archive/indonesia.pmtiles","updatedAt":"2026-07-26T09:40:54.249Z"},"geometry":{"type":"Point","coordinates":[111.6404914855957,1.0241630617769033]}},{"type":"Feature","id":"pmtiles:10/829/509:mountain_peak:10701799911:0","properties":{"name_int":"Gunung Tutoop","name_de":"Gunung Tutoop","name":"Gunung Tutoop","rank":1,"class":"peak","name:latin":"Gunung Tutoop","name_en":"Gunung Tutoop","kind":"poi","verification":"verified","source":"OpenMapTiles/OpenStreetMap national PMTiles","sourceId":"10/829/509:mountain_peak:10701799911:0","sourceLayer":"mountain_peak","archive":"https://its.hanifahseptiani45.workers.dev/v1/map/archive/indonesia.pmtiles","updatedAt":"2026-07-26T09:40:54.249Z"},"geometry":{"type":"Point","coordinates":[111.61663055419922,0.9166326492847077]}},{"type":"Feature","id":"pmtiles:10/829/509:mountain_peak:10701628901:0","properties":{"name_int":"Bukit Nyambau","name_de":"Bukit Nyambau","name":"Bukit Nyambau","rank":1,"class":"peak","name:latin":"Bukit Nyambau","name_en":"Bukit Nyambau","kind":"poi","verification":"verified","source":"OpenMapTiles/OpenStreetMap national PMTiles","sourceId":"10/829/509:mountain_peak:10701628901:0","sourceLayer":"mountain_peak","archive":"https://its.hanifahseptiani45.workers.dev/v1/map/archive/indonesia.pmtiles","updatedAt":"2026-07-26T09:40:54.249Z"},"geometry":{"type":"Point","coordinates":[111.76666259765625,1.0166969761297224]}},{"type":"Feature","id":"pmtiles:10/829/509:mountain_peak:10701855491:0","properties":{"name_int":"Bukit Buwaya","name_de":"Bukit Buwaya","name":"Bukit Buwaya","rank":2,"class":"peak","name:latin":"Bukit Buwaya","name_en":"Bukit Buwaya","kind":"poi","verification":"verified","source":"OpenMapTiles/OpenStreetMap national PMTiles","sourceId":"10/829/509:mountain_peak:10701855491:0","sourceLayer":"mountain_peak","archive":"https://its.hanifahseptiani45.workers.dev/v1/map/archive/indonesia.pmtiles","updatedAt":"2026-07-26T09:40:54.249Z"},"geometry":{"type":"Point","coordinates":[111.71670913696289,1.033345465089738]}},{"type":"Feature","id":"pmtiles:10/829/509:mountain_peak:67443194841:0","properties":{"name_int":"Bukit Nyambau","name_de":"Bukit Nyambau","name":"Bukit Nyambau","rank":5,"class":"peak","name:latin":"Bukit Nyambau","name_en":"Bukit Nyambau","kind":"poi","verification":"verified","source":"OpenMapTiles/OpenStreetMap national PMTiles","sourceId":"10/829/509:mountain_peak:67443194841:0","sourceLayer":"mountain_peak","archive":"https://its.hanifahseptiani45.workers.dev/v1/map/archive/indonesia.pmtiles","updatedAt":"2026-07-26T09:40:54.249Z"},"geometry":{"type":"Point","coordinates":[111.76211357116699,1.0217601855294873]}},{"type":"Feature","id":"pmtiles:10/829/509:transportation:2345123980:0","properties":{"class":"secondary","highway":"secondary","kind":"road","verification":"verified","source":"OpenMapTiles/OpenStreetMap national PMTiles","sourceId":"10/829/509:transportation:2345123980:0","sourceLayer":"transportation","archive":"https://its.hanifahseptiani45.workers.dev/v1/map/archive/indonesia.pmtiles","updatedAt":"2026-07-26T09:40:54.249Z"},"geometry":{"type":"LineString","coordinates":[[111.55328750610352,1.0201296613377764],[111.55354499816895,1.0212452832425072],[111.5526008605957,1.0225325388052227],[111.55320167541504,1.0249354144740437],[111.55208587646484,1.027424105230395],[111.55088424682617,1.0281964571401545],[111.54659271240234,1.029483709907737],[111.54376029968262,1.0318007635793265],[111.54187202453613,1.0321440306464922],[111.5398120880127,1.0349759825357836],[111.53964042663574,1.035919965937282],[111.54058456420898,1.0412405943877445],[111.54135704040527,1.0430427407002298],[111.54144287109375,1.0438150888040525],[111.54075622558594,1.0447590695622182],[111.53715133666992,1.047848459149975],[111.53655052185059,1.0490498876117584],[111.53818130493164,1.0531690674038856],[111.53929710388184,1.0543704938187375],[111.53955459594727,1.0550570229904963],[111.5401554107666,1.0601201709472292]]}},{"type":"Feature","id":"pmtiles:10/829/509:transportation:2345123980:1","properties":{"class":"secondary","highway":"secondary","kind":"road","verification":"verified","source":"OpenMapTiles/OpenStreetMap national PMTiles","sourceId":"10/829/509:transportation:2345123980:1","sourceLayer":"transportation","archive":"https://its.hanifahseptiani45.workers.dev/v1/map/archive/indonesia.pmtiles","updatedAt":"2026-07-26T09:40:54.249Z"},"geometry":{"type":"LineString","coordinates":[[111.8023681640625,1.0397817132848957],[111.79884910583496,1.0390951807678448],[111.79807662963867,1.038580281282151],[111.79601669311523,1.0351476159024315],[111.79378509521484,1.0342036322710157],[111.79069519042969,1.034804349159856],[111.7884635925293,1.036005782596206],[111.78503036499023,1.036005782596206],[111.78194046020508,1.0370355823219057],[111.78116798400879,1.0375504820591317],[111.78030967712402,1.0396100801696235],[111.7792797088623,1.0408115117804897],[111.77498817443848,1.043729272357453],[111.77292823791504,1.0472477447462438],[111.77009582519531,1.0511094781870156],[111.76477432250977,1.0543704938187375],[111.76408767700195,1.0552286552597678],[111.76383018493652,1.0566875291660978],[111.7650318145752,1.0601201709472292]]}},{"type":"Feature","id":"pmtiles:10/829/509:transportation:5058489610:0","properties":{"class":"trunk","highway":"trunk","kind":"road","verification":"verified","source":"OpenMapTiles/OpenStreetMap national PMTiles","sourceId":"10/829/509:transportation:5058489610:0","sourceLayer":"transportation","archive":"https://its.hanifahseptiani45.workers.dev/v1/map/archive/indonesia.pmtiles","updatedAt":"2026-07-26T09:40:54.249Z"},"geometry":{"type":"LineString","coordinates":[[111.8023681640625,0.8532971599839243],[111.79936408996582,0.8532113388127982],[111.79738998413086,0.8528680541091802],[111.79533004760742,0.8509799876922273],[111.79378509521484,0.8502934178568324],[111.79232597351074,0.8491777416139286],[111.79078102111816,0.8490919203511282],[111.78769111633301,0.8478904224720338],[111.78262710571289,0.8475471372951944],[111.7774772644043,0.848662814008577],[111.77558898925781,0.8483195289002623],[111.77404403686523,0.8487486352808986],[111.77095413208008,0.8488344565513302],[111.76992416381836,0.8483195289002623],[111.76872253417969,0.8472038520879437],[111.76631927490234,0.8460881749544029],[111.7653751373291,0.8460023536231347],[111.76443099975586,0.8451441402061448],[111.76348686218262,0.844972497499981],[111.75945281982422,0.8417112846438641],[111.75833702087402,0.8414538203547153],[111.75722122192383,0.839479926907174],[111.75704956054688,0.8384500690605847],[111.75670623779297,0.8381067830514866],[111.75481796264648,0.838364247561131],[111.75301551818848,0.8378493185249312],[111.7518138885498,0.8388791765295878],[111.75069808959961,0.8387933550395701],[111.7477798461914,0.8403381415721611],[111.74683570861816,0.8405097844825349],[111.74606323242188,0.8412821774858514],[111.7445182800293,0.8417971060697909],[111.74245834350586,0.84214039175464],[111.741943359375,0.842397855998442],[111.74142837524414,0.8431702486277715],[111.73954010009766,0.8417971060697909],[111.73919677734375,0.8405097844825349],[111.73799514770508,0.8398232127957783],[111.73687934875488,0.8387075335476339],[111.73636436462402,0.8378493185249312],[111.73593521118164,0.836476174097669],[111.73439025878906,0.8353604938966868],[111.73190116882324,0.8351030291899235],[111.73069953918457,0.835274672329632],[111.7283821105957,0.836476174097669],[111.72726631164551,0.836647817177365],[111.72649383544922,0.836476174097669],[111.72460556030273,0.8350172076172555],[111.72117233276367,0.8341589917875467],[111.72005653381348,0.8336440621998804],[111.71928405761719,0.8324425595668146],[111.71833992004395,0.8314985215268536],[111.7170524597168,0.8308119482650795],[111.71585083007812,0.829782088148761],[111.7141342163086,0.8289238711803222],[111.71379089355469,0.8277223671121163],[111.71387672424316,0.8260059320976012],[111.71310424804688,0.8243753181471334],[111.71319007873535,0.8230021690392846],[111.71379089355469,0.8213715538597768],[111.71327590942383,0.8187110750339173],[111.71567916870117,0.8161364164247402],[111.71507835388184,0.8143341544173808],[111.71525001525879,0.8136475782025343],[111.71507835388184,0.8127893577696597],[111.71550750732422,0.8122744254223875],[111.71610832214355,0.8106438058900522],[111.7155933380127,0.8096139405838585],[111.71619415283203,0.8070392761746064],[111.71567916870117,0.804464610135625],[111.71610832214355,0.8029198097321313],[111.71688079833984,0.8018041201887343],[111.71696662902832,0.8004309634103066],[111.71645164489746,0.7991436285129225],[111.71679496765137,0.7971697142202459],[111.7159366607666,0.7967406022922034],[111.71456336975098,0.7969980694543892],[111.71361923217773,0.7975988261035809],[111.71284675598145,0.7974271813556157],[111.71224594116211,0.7959682007091118],[111.71078681945801,0.7949383317066463],[111.71070098876953,0.7941659297862174],[111.71113014221191,0.7932218827985906],[111.71061515808105,0.7922778355955984],[111.70975685119629,0.7920203681392479],[111.70941352844238,0.7916770781725972],[111.70623779296875,0.7916770781725972],[111.70580863952637,0.7909046756436879],[111.7046070098877,0.79013227297105],[111.70357704162598,0.7886732897532482],[111.70306205749512,0.7884158220734747],[111.70220375061035,0.7884158220734747],[111.70100212097168,0.7873859511951622],[111.69782638549805,0.786356080062447],[111.69585227966309,0.7846396276101189],[111.69319152832031,0.7836097558005974],[111.69147491455078,0.7836955784610637],[111.69061660766602,0.783523933138369],[111.68872833251953,0.7817216568257805],[111.68649673461914,0.7802626706727835],[111.68563842773438,0.780091025209714],[111.68177604675293,0.7805201388542287],[111.68014526367188,0.7808634297383037],[111.67902946472168,0.781635834124927],[111.67688369750977,0.7814641887179476],[111.67533874511719,0.7821507703037724],[111.67379379272461,0.7821507703037724],[111.67242050170898,0.7815500114223113],[111.67190551757812,0.7802626706727835],[111.67147636413574,0.7799193797396811],[111.66881561279297,0.7800052024755644],[111.66641235351562,0.779576088778569],[111.66040420532227,0.7779454563313664],[111.65645599365234,0.7777738107739225],[111.65353775024414,0.7778596335535184],[111.64898872375488,0.7784603929617901],[111.64692878723145,0.7796619115214725],[111.64315223693848,0.781035075169811],[111.6416072845459,0.7811208978829569],[111.64040565490723,0.780691784299762],[111.63740158081055,0.7804343161288188],[111.63585662841797,0.77923279778949],[111.63516998291016,0.7790611522844557],[111.63448333740234,0.77923279778949],[111.63396835327148,0.7801768479421298],[111.632080078125,0.7804343161288188],[111.63113594055176,0.780091025209714],[111.62856101989746,0.7782887474252931],[111.62607192993164,0.7773446968497808],[111.6222095489502,0.7782887474252931],[111.61869049072266,0.7775163424246756],[111.61740303039551,0.7769155828820402],[111.61499977111816,0.7767439372827454],[111.61362648010254,0.7754565950658758],[111.61190986633301,0.7749416580694799],[111.60821914672852,0.7744267210104852],[111.60418510437012,0.7747700123901069],[111.60246849060059,0.7735684924398356],[111.59955024719238,0.7720236805753729],[111.59843444824219,0.7723669721493422],[111.59534454345703,0.7720236805753729],[111.59259796142578,0.7722811492584469],[111.59225463867188,0.7726244408116258],[111.58942222595215,0.7739976067468604],[111.58856391906738,0.7748558352306674],[111.58727645874023,0.7754565950658758],[111.58607482910156,0.7768297600832597],[111.58435821533203,0.7772588740597257],[111.58281326293945,0.775628240717424],[111.58246994018555,0.7746841895477985],[111.58015251159668,0.7733968467048555],[111.5797233581543,0.7718520347779787],[111.57611846923828,0.7701355764233853],[111.57405853271484,0.7699639305498778],[111.57337188720703,0.7684191173775474],[111.57259941101074,0.7696206387821434],[111.57174110412598,0.7702213993575384],[111.56865119934082,0.7753707722374941],[111.56882286071777,0.7775163424246756],[111.56805038452148,0.7814641887179476],[111.56899452209473,0.783523933138369],[111.56805038452148,0.7844679823261203],[111.56547546386719,0.784725450249482],[111.56478881835938,0.7852403860486135],[111.5635871887207,0.7878150640920438],[111.56229972839355,0.7887591123096342],[111.56092643737793,0.79073303061773],[111.56041145324707,0.792878592931487],[111.55912399291992,0.7946808644158807],[111.55611991882324,0.7954532662400027],[111.55217170715332,0.7958823783020534],[111.55139923095703,0.796139845517871],[111.5493392944336,0.7975988261035809],[111.54736518859863,0.7975130037304865],[111.54230117797852,0.8000018518226995],[111.54084205627441,0.8033489210139066],[111.5398120880127,0.8042071434422979],[111.53843879699707,0.8047220768127232],[111.53646469116211,0.804464610135625],[111.53543472290039,0.8032630987611782],[111.53397560119629,0.8024048761345313],[111.53140068054199,0.8024906984052933],[111.53148651123047,0.8062668765337975],[111.53079986572266,0.8080691421341584],[111.53045654296875,0.8101288732696617],[111.53037071228027,0.8172521020247103],[111.53079986572266,0.8191401846415118],[111.52925491333008,0.8212857319897751],[111.52891159057617,0.8224872380019264],[111.52848243713379,0.8261775756324425],[111.53054237365723,0.8293529796877976],[111.53054237365723,0.8312410565676913],[111.53114318847656,0.8334724189890039],[111.53054237365723,0.834073170194273],[111.5291690826416,0.8337298838024907],[111.52813911437988,0.8338157054032393],[111.52642250061035,0.8344164565561272],[111.5251350402832,0.834073170194273],[111.52376174926758,0.8326142028225405],[111.52213096618652,0.8318418081129835],[111.52101516723633,0.831755986469247],[111.51972770690918,0.8323567379361663],[111.51852607727051,0.8323567379361663],[111.5152645111084,0.8308977699293365],[111.5141487121582,0.8323567379361663],[111.51294708251953,0.8332149541586915],[111.5108871459961,0.833300775770681],[111.50839805603027,0.834073170194273],[111.50530815124512,0.8328716676921033],[111.50196075439453,0.8331291325448547],[111.50041580200195,0.8328716676921033],[111.49629592895508,0.8339873485991376],[111.49569511413574,0.8346739213078394],[111.49535179138184,0.8356179585865817],[111.49166107177734,0.8374202109430797],[111.48591041564941,0.8356179585865817],[111.48324966430664,0.8355321370251545],[111.47998809814453,0.837076924843771],[111.47784233093262,0.838364247561131],[111.47621154785156,0.8402523201141463],[111.47234916687012,0.8418829274938417],[111.47097587585449,0.8431702486277715],[111.46917343139648,0.8439426411038511],[111.46857261657715,0.844972497499981],[111.4684009552002,0.8464314602604475],[111.4676284790039,0.8477187798874155],[111.46556854248047,0.8487486352808986],[111.46402359008789,0.8492635628748388],[111.4629077911377,0.8493493841338164],[111.45956039428711,0.850808345244829],[111.45818710327148,0.8531255176397678],[111.45792961120605,0.8549277618712523],[111.45835876464844,0.8565583630660996],[111.46016120910645,0.8595621002920666],[111.46041870117188,0.8604203104944759],[111.46016120910645,0.8617934464166837],[111.4588737487793,0.8630807608942064],[111.45750045776367,0.8635098656232572],[111.45647048950195,0.8644538958565988],[111.45312309265137,0.8659986720957562],[111.45252227783203,0.8669427017098315],[111.45269393920898,0.8682300144405701],[111.4522647857666,0.8703755346841007],[111.45312309265137,0.8736367231156237],[111.45277976989746,0.8752673162705946],[111.45303726196289,0.8788717828324337],[111.45157814025879,0.8797299886444847],[111.45037651062012,0.8794725269215888],[111.44874572753906,0.8796441680721614],[111.44342422485352,0.878700141646334],[111.44196510314941,0.8797299886444847],[111.4398193359375,0.8799016297832054]]}},{"type":"Feature","id":"pmtiles:10/829/509:transportation_name:5058489610:0","properties":{"name":"Jalan Paralel Perbatasan","name_int":"Jalan Paralel Perbatasan","class":"trunk","name:latin":"Jalan Paralel Perbatasan","name_de":"Jalan Paralel Perbatasan","name_en":"Jalan Paralel Perbatasan","highway":"trunk","kind":"road","verification":"verified","source":"OpenMapTiles/OpenStreetMap national PMTiles","sourceId":"10/829/509:transportation_name:5058489610:0","sourceLayer":"transportation_name","archive":"https://its.hanifahseptiani45.workers.dev/v1/map/archive/indonesia.pmtiles","updatedAt":"2026-07-26T09:40:54.249Z"},"geometry":{"type":"LineString","coordinates":[[111.57337188720703,0.7684191173775474],[111.57405853271484,0.7699639305498778],[111.57611846923828,0.7701355764233853],[111.5797233581543,0.7718520347779787],[111.58015251159668,0.7733968467048555],[111.58246994018555,0.7746841895477985],[111.58281326293945,0.775628240717424],[111.58435821533203,0.7772588740597257],[111.58607482910156,0.7768297600832597],[111.58727645874023,0.7754565950658758],[111.58856391906738,0.7748558352306674],[111.58942222595215,0.7739976067468604],[111.59225463867188,0.7726244408116258],[111.59259796142578,0.7722811492584469],[111.59534454345703,0.7720236805753729],[111.59843444824219,0.7723669721493422],[111.59955024719238,0.7720236805753729],[111.60246849060059,0.7735684924398356],[111.60418510437012,0.7747700123901069],[111.60821914672852,0.7744267210104852],[111.61190986633301,0.7749416580694799],[111.61362648010254,0.7754565950658758],[111.61499977111816,0.7767439372827454],[111.61740303039551,0.7769155828820402],[111.61869049072266,0.7775163424246756],[111.6222095489502,0.7782887474252931],[111.62607192993164,0.7773446968497808],[111.62856101989746,0.7782887474252931],[111.63113594055176,0.780091025209714],[111.632080078125,0.7804343161288188],[111.63396835327148,0.7801768479421298],[111.63448333740234,0.77923279778949],[111.63516998291016,0.7790611522844557],[111.63585662841797,0.77923279778949],[111.63740158081055,0.7804343161288188],[111.64040565490723,0.780691784299762],[111.6416072845459,0.7811208978829569],[111.64315223693848,0.781035075169811],[111.64692878723145,0.7796619115214725],[111.64898872375488,0.7784603929617901],[111.65353775024414,0.7778596335535184],[111.65645599365234,0.7777738107739225],[111.66040420532227,0.7779454563313664],[111.66641235351562,0.779576088778569],[111.66881561279297,0.7800052024755644],[111.67147636413574,0.7799193797396811],[111.67190551757812,0.7802626706727835],[111.67242050170898,0.7815500114223113],[111.67379379272461,0.7821507703037724],[111.67533874511719,0.7821507703037724],[111.67688369750977,0.7814641887179476],[111.67902946472168,0.781635834124927],[111.68014526367188,0.7808634297383037],[111.68177604675293,0.7805201388542287],[111.68563842773438,0.780091025209714],[111.68649673461914,0.7802626706727835],[111.68872833251953,0.7817216568257805],[111.69061660766602,0.783523933138369],[111.69147491455078,0.7836955784610637],[111.69319152832031,0.7836097558005974],[111.69585227966309,0.7846396276101189],[111.69782638549805,0.786356080062447],[111.70100212097168,0.7873859511951622],[111.70220375061035,0.7884158220734747],[111.70306205749512,0.7884158220734747],[111.70357704162598,0.7886732897532482],[111.7046070098877,0.79013227297105],[111.70580863952637,0.7909046756436879],[111.70623779296875,0.7916770781725972],[111.70941352844238,0.7916770781725972],[111.70975685119629,0.7920203681392479],[111.71061515808105,0.7922778355955984],[111.71113014221191,0.7932218827985906],[111.71070098876953,0.7941659297862174],[111.71078681945801,0.7949383317066463],[111.71224594116211,0.7959682007091118],[111.71284675598145,0.7974271813556157],[111.71361923217773,0.7975988261035809],[111.71456336975098,0.7969980694543892],[111.7159366607666,0.7967406022922034],[111.71679496765137,0.7971697142202459],[111.71645164489746,0.7991436285129225],[111.71696662902832,0.8004309634103066],[111.71688079833984,0.8018041201887343],[111.71610832214355,0.8029198097321313],[111.71567916870117,0.804464610135625],[111.71619415283203,0.8070392761746064],[111.7155933380127,0.8096139405838585],[111.71610832214355,0.8106438058900522],[111.71550750732422,0.8122744254223875],[111.71507835388184,0.8127893577696597],[111.71525001525879,0.8136475782025343],[111.71507835388184,0.8143341544173808],[111.71567916870117,0.8161364164247402],[111.71327590942383,0.8187110750339173],[111.71379089355469,0.8213715538597768],[111.71319007873535,0.8230021690392846],[111.71310424804688,0.8243753181471334],[111.71387672424316,0.8260059320976012],[111.71379089355469,0.8277223671121163],[111.7141342163086,0.8289238711803222],[111.71585083007812,0.829782088148761],[111.7170524597168,0.8308119482650795],[111.71833992004395,0.8314985215268536],[111.71928405761719,0.8324425595668146],[111.72005653381348,0.8336440621998804],[111.72117233276367,0.8341589917875467],[111.72460556030273,0.8350172076172555],[111.72649383544922,0.836476174097669],[111.72726631164551,0.836647817177365],[111.7283821105957,0.836476174097669],[111.73069953918457,0.835274672329632],[111.73190116882324,0.8351030291899235],[111.73439025878906,0.8353604938966868],[111.73593521118164,0.836476174097669],[111.73636436462402,0.8378493185249312],[111.73687934875488,0.8387075335476339],[111.73799514770508,0.8398232127957783],[111.73919677734375,0.8405097844825349]]}},{"type":"Feature","id":"pmtiles:10/829/509:transportation_name:5058489610:1","properties":{"name":"Jalan Paralel Perbatasan","name_int":"Jalan Paralel Perbatasan","class":"trunk","name:latin":"Jalan Paralel Perbatasan","name_de":"Jalan Paralel Perbatasan","name_en":"Jalan Paralel Perbatasan","highway":"trunk","kind":"road","verification":"verified","source":"OpenMapTiles/OpenStreetMap national PMTiles","sourceId":"10/829/509:transportation_name:5058489610:1","sourceLayer":"transportation_name","archive":"https://its.hanifahseptiani45.workers.dev/v1/map/archive/indonesia.pmtiles","updatedAt":"2026-07-26T09:40:54.249Z"},"geometry":{"type":"LineString","coordinates":[[111.80871963500977,0.8549277618712523],[111.80417060852051,0.8533829811531319],[111.79936408996582,0.8532113388127982],[111.79738998413086,0.8528680541091802],[111.79533004760742,0.8509799876922273],[111.79378509521484,0.8502934178568324],[111.79232597351074,0.8491777416139286],[111.79078102111816,0.8490919203511282],[111.78769111633301,0.8478904224720338],[111.78262710571289,0.8475471372951944],[111.7774772644043,0.848662814008577],[111.77558898925781,0.8483195289002623],[111.77404403686523,0.8487486352808986],[111.77095413208008,0.8488344565513302],[111.76992416381836,0.8483195289002623],[111.76872253417969,0.8472038520879437],[111.76631927490234,0.8460881749544029],[111.7653751373291,0.8460023536231347],[111.76443099975586,0.8451441402061448],[111.76348686218262,0.844972497499981],[111.75945281982422,0.8417112846438641],[111.75833702087402,0.8414538203547153],[111.75722122192383,0.839479926907174],[111.75704956054688,0.8384500690605847],[111.75670623779297,0.8381067830514866],[111.75481796264648,0.838364247561131],[111.75301551818848,0.8378493185249312],[111.7518138885498,0.8388791765295878],[111.75069808959961,0.8387933550395701],[111.7477798461914,0.8403381415721611],[111.74683570861816,0.8405097844825349],[111.74606323242188,0.8412821774858514],[111.7445182800293,0.8417971060697909],[111.74245834350586,0.84214039175464],[111.741943359375,0.842397855998442],[111.74142837524414,0.8431702486277715],[111.73954010009766,0.8417971060697909],[111.73928260803223,0.8406814273853627]]}},{"type":"Feature","id":"pmtiles:10/829/509:waterway:2049114540:0","properties":{"name":"Batang Ai","name_int":"Batang Ai","class":"river","name:latin":"Batang Ai","name_de":"Batang Ai","name_en":"Batang Ai","waterway":"river","kind":"waterway","verification":"verified","source":"OpenMapTiles/OpenStreetMap national PMTiles","sourceId":"10/829/509:waterway:2049114540:0","sourceLayer":"waterway","archive":"https://its.hanifahseptiani45.workers.dev/v1/map/archive/indonesia.pmtiles","updatedAt":"2026-07-26T09:40:54.249Z"},"geometry":{"type":"LineString","coordinates":[[111.80322647094727,1.0511094781870156],[111.80142402648926,1.0517960080770337],[111.80065155029297,1.0513669269134738],[111.80005073547363,1.0499080505163647],[111.79996490478516,1.0491357039128246],[111.79764747619629,1.0462179483577643],[111.79464340209961,1.0463037647363933],[111.79266929626465,1.0471619283934643],[111.79078102111816,1.0463895811126633],[111.79052352905273,1.0458746828198002],[111.79060935974121,1.0447590695622182],[111.7902660369873,1.0445016202926496],[111.78966522216797,1.0442441710020063],[111.78794860839844,1.0445016202926496],[111.7873477935791,1.0443299874345513],[111.78709030151367,1.043986721690274],[111.78674697875977,1.0424420253773263],[111.7862319946289,1.041669676936607],[111.78683280944824,1.0396100801696235],[111.78666114807129,1.039266813911098],[111.785888671875,1.0395242636084987],[111.7844295501709,1.0408973283066132],[111.78314208984375,1.0414122274143125],[111.78194046020508,1.041326410902201],[111.78065299987793,1.0408115117804897],[111.77996635437012,1.0408115117804897],[111.77790641784668,1.0433860065475642],[111.77507400512695,1.0463037647363933],[111.77464485168457,1.0472477447462438],[111.77361488342285,1.0515385593859747],[111.77275657653809,1.0530832512136783],[111.7708683013916,1.0547137584235458],[111.77018165588379,1.0550570229904963],[111.76880836486816,1.0551428391263187],[111.76777839660645,1.0556577358915291],[111.76640510559082,1.0559151842421528],[111.76580429077148,1.056344264779142],[111.7668342590332,1.0588329307246056],[111.7682933807373,1.0600343549490248],[111.7697525024414,1.0627804657107305]]}},{"type":"Feature","id":"pmtiles:10/829/509:waterway:3200326710:0","properties":{"name_int":"Ketungau","name_de":"Sungai Ketungau","name":"Sungai Ketungau","name:en":"Ketungau River","class":"river","name:latin":"Sungai Ketungau","name_en":"Ketungau River","waterway":"river","kind":"waterway","verification":"verified","source":"OpenMapTiles/OpenStreetMap national PMTiles","sourceId":"10/829/509:waterway:3200326710:0","sourceLayer":"waterway","archive":"https://its.hanifahseptiani45.workers.dev/v1/map/archive/indonesia.pmtiles","updatedAt":"2026-07-26T09:40:54.249Z"},"geometry":{"type":"LineString","coordinates":[[111.46162033081055,1.004682549240826],[111.46041870117188,1.0040818267322322],[111.45981788635254,1.0028803813839602],[111.45998954772949,1.002451293652669],[111.45767211914062,1.00142148286821],[111.45732879638672,1.0001342189327005],[111.45647048950195,0.9995334955899864],[111.45604133605957,0.9983320485749232],[111.45011901855469,0.9947277048977696],[111.44960403442383,0.9941269805684243],[111.44668579101562,0.9930113493811774],[111.44556999206543,0.9923248069249269],[111.44574165344238,0.9913808108149595],[111.44462585449219,0.9909517215850769],[111.44196510314941,0.9883771850393259],[111.44084930419922,0.9860601004415912],[111.44102096557617,0.9852877385504399],[111.44196510314941,0.9839146503018696],[111.44170761108398,0.9821124711181142],[111.44102096557617,0.980739381563879],[111.44076347351074,0.9785939280079532],[111.43681526184082,0.9767059277435095]]}},{"type":"Feature","id":"pmtiles:10/829/509:waterway:3200326750:0","properties":{"name":"Sungai Merakai","name_int":"Sungai Merakai","class":"river","name:latin":"Sungai Merakai","name_de":"Sungai Merakai","name_en":"Sungai Merakai","waterway":"river","kind":"waterway","verification":"verified","source":"OpenMapTiles/OpenStreetMap national PMTiles","sourceId":"10/829/509:waterway:3200326750:0","sourceLayer":"waterway","archive":"https://its.hanifahseptiani45.workers.dev/v1/map/archive/indonesia.pmtiles","updatedAt":"2026-07-26T09:40:54.249Z"},"geometry":{"type":"LineString","coordinates":[[111.49998664855957,0.8136475782025343],[111.49887084960938,0.8139050442967886],[111.49869918823242,0.8141625103746293],[111.4987850189209,0.8154498405170756],[111.49706840515137,0.8157931284855522],[111.49543762207031,0.8150207305153003],[111.49526596069336,0.8145916204678088],[111.49543762207031,0.8141625103746293],[111.49500846862793,0.8136475782025343],[111.49415016174316,0.8132184680089125],[111.49415016174316,0.8146774424809564],[111.49389266967773,0.8150207305153003],[111.49346351623535,0.8151065525193104],[111.49303436279297,0.814934908509457],[111.49260520935059,0.8130468239186825],[111.49020195007324,0.811158738444945],[111.4896011352539,0.8098714069349313],[111.48874282836914,0.8094422963407055],[111.48736953735352,0.8096997627026923],[111.48685455322266,0.8091848299623763],[111.48702621459961,0.8080691421341584],[111.48874282836914,0.8072109205193101],[111.48900032043457,0.8065243430970241],[111.4889144897461,0.8058377655589197],[111.48754119873047,0.8055802989522931],[111.48736953735352,0.8054944767464463],[111.48745536804199,0.8051511879050821],[111.48874282836914,0.8042929656752165],[111.48934364318848,0.8033489210139066],[111.49020195007324,0.8011175418570389],[111.49123191833496,0.8000018518226995],[111.49226188659668,0.7993152731892366],[111.49277687072754,0.798285405023833],[111.49251937866211,0.7975130037304865],[111.4918327331543,0.7971697142202459],[111.49097442626953,0.7971697142202459],[111.48985862731934,0.7957107334825793],[111.49011611938477,0.795024154133344],[111.49148941040039,0.7947666868479217],[111.49174690246582,0.7942517522289592],[111.49097442626953,0.7915912556764937],[111.49045944213867,0.7913337881774964],[111.48968696594238,0.7920203681392479],[111.48942947387695,0.7919345456502498],[111.48977279663086,0.7909046756436879],[111.49131774902344,0.7893598701548115],[111.49140357971191,0.7875575963592212],[111.49106025695801,0.786356080062447],[111.49148941040039,0.7858411444007771],[111.49432182312012,0.7845538049690077],[111.49706840515137,0.7826657064194507],[111.49981498718262,0.781635834124927],[111.49998664855957,0.781035075169811],[111.49981498718262,0.780091025209714],[111.50007247924805,0.7774305196381022],[111.49947166442871,0.7769155828820402],[111.49809837341309,0.777001405679087],[111.49758338928223,0.7767439372827454],[111.49715423583984,0.7758857091816935],[111.49741172790527,0.7745983667037706],[111.49672508239746,0.7741692524575257],[111.49578094482422,0.774083429603067],[111.49543762207031,0.7733968467048555],[111.49569511413574,0.7722811492584469],[111.49681091308594,0.7709938056871835],[111.49775505065918,0.771079628604042],[111.49741172790527,0.7720236805753729],[111.49775505065918,0.7725386179259317],[111.4987850189209,0.7722811492584469],[111.49904251098633,0.771594566068913],[111.49758338928223,0.7696206387821434],[111.49663925170898,0.7689340551637969],[111.49535179138184,0.768590763313199],[111.49526596069336,0.7678183565485028],[111.49595260620117,0.767389241618929],[111.49603843688965,0.7660160735550932],[111.49535179138184,0.7654153123887681],[111.49483680725098,0.7643854359078688],[111.49518013000488,0.7632697361081995],[111.49457931518555,0.7629264438038916],[111.49372100830078,0.7643854359078688],[111.49251937866211,0.7641279667490437],[111.49226188659668,0.7635272053184536],[111.4936351776123,0.7620682129233387],[111.49389266967773,0.7610383356409756],[111.49312019348145,0.7606092200340555],[111.49269104003906,0.7599226349742594],[111.49569511413574,0.7586352876930818],[111.49612426757812,0.7578628791404896],[111.4958667755127,0.7563180616222098],[111.49655342102051,0.7548590667945234],[111.4958667755127,0.7548590667945234],[111.4944076538086,0.7564038848321104],[111.49406433105469,0.7560605919823473],[111.49432182312012,0.7547732435540979],[111.49415016174316,0.7527993085575844],[111.49320602416992,0.7517694290741019],[111.49397850036621,0.7475640853324137],[111.4947509765625,0.746963321611446],[111.49629592895508,0.7473924385633808],[111.49646759033203,0.7468774982160227],[111.4962100982666,0.7458476173403739],[111.49663925170898,0.744560265906955],[111.49638175964355,0.7442169721278731],[111.49543762207031,0.7441311486789317],[111.49552345275879,0.7436162079501827],[111.49603843688965,0.7433587375632698],[111.49724006652832,0.7437020314091285],[111.49818420410156,0.7433587375632698],[111.49809837341309,0.7428437967444381],[111.4976692199707,0.7425863263125194],[111.49646759033203,0.7425863263125194],[111.49603843688965,0.7415564444349343],[111.4958667755127,0.7395825035000883],[111.49518013000488,0.7395825035000883],[111.49432182312012,0.7401832682254792],[111.49372100830078,0.7399257976388611],[111.49346351623535,0.739496679961249],[111.49346351623535,0.7381235031143376],[111.49312019348145,0.736664502249937],[111.49380683898926,0.7365786786547801],[111.49432182312012,0.7371794437860757],[111.49483680725098,0.7372652673696507],[111.49569511413574,0.736664502249937],[111.49595260620117,0.7372652673696507],[111.49578094482422,0.7376085616873951],[111.49500846862793,0.7378660324083199],[111.4950942993164,0.7384667973658594],[111.49578094482422,0.7388959151429617],[111.49689674377441,0.7388100915908495],[111.49715423583984,0.7383809738054481],[111.49629592895508,0.7358920898341381],[111.49526596069336,0.7347763827752374],[111.49432182312012,0.7348622064050545],[111.4944076538086,0.7341756173204033],[111.49552345275879,0.7328882625025699],[111.49552345275879,0.7318583783818724],[111.49483680725098,0.7313434362328337],[111.4950942993164,0.7289403720901362],[111.49449348449707,0.7282537820993866],[111.49457931518555,0.7276530157716508],[111.49526596069336,0.7274813682347627],[111.49578094482422,0.7267947780218975],[111.49706840515137,0.7257648925068878],[111.49715423583984,0.725249949661432],[111.49646759033203,0.725249949661432],[111.4958667755127,0.7260223639076457],[111.49543762207031,0.7261940114999845],[111.49466514587402,0.7258507163087558],[111.49466514587402,0.7250783020332534],[111.49724006652832,0.7220744674881274],[111.49741172790527,0.720958757008276],[111.49646759033203,0.7199288701688147],[111.49698257446289,0.7187273352288059],[111.49844169616699,0.7183840394735768],[111.49827003479004,0.7177832718398776],[111.49706840515137,0.7177832718398776],[111.49663925170898,0.716753384284246],[111.49706840515137,0.7157234964970343],[111.49844169616699,0.7161526164364886],[111.4991283416748,0.7157234964970343],[111.49947166442871,0.7146077844665655],[111.49844169616699,0.7131487760179311],[111.49578094482422,0.7116039430388383],[111.49500846862793,0.7100591095424136],[111.4936351776123,0.7092008684879403],[111.49372100830078,0.7085142755297653],[111.49500846862793,0.7087717479010109],[111.49578094482422,0.7085142755297653],[111.49595260620117,0.707913506607909],[111.49518013000488,0.7068836168465111],[111.49389266967773,0.7063686718801563],[111.49337768554688,0.7055104301427519],[111.49415016174316,0.7046521882470671],[111.49406433105469,0.7035364735463077],[111.4947509765625,0.7024207585787536],[111.49569511413574,0.7020774616120633],[111.49638175964355,0.7025924070526486],[111.49663925170898,0.7039655946166476],[111.49749755859375,0.7042230672399086],[111.49818420410156,0.7037939461932581],[111.50007247924805,0.6986444905607812],[111.50084495544434,0.6977862474055598],[111.50144577026367,0.6982153690027388],[111.50144577026367,0.6990736120796157],[111.50221824645996,0.6988161391730046],[111.50238990783691,0.6980437203685597],[111.50178909301758,0.6971854771037158]]}},{"type":"Feature","id":"pmtiles:10/830/509:landcover:9142025632:0","properties":{"subclass":"orchard","class":"farmland","kind":"green","verification":"verified","source":"OpenMapTiles/OpenStreetMap national PMTiles","sourceId":"10/830/509:landcover:9142025632:0","sourceLayer":"landcover","archive":"https://its.hanifahseptiani45.workers.dev/v1/map/archive/indonesia.pmtiles","updatedAt":"2026-07-26T09:40:54.324Z"},"geometry":{"type":"Polygon","coordinates":[[[111.79155349731445,0.836218709464049],[111.7913818359375,0.8360470663655661],[111.7913818359375,0.8367336387144064],[111.79155349731445,0.836218709464049]]]}},{"type":"Feature","id":"pmtiles:10/830/509:mountain_peak:10701628901:0","properties":{"name_int":"Bukit Nyambau","name_de":"Bukit Nyambau","name":"Bukit Nyambau","rank":1,"class":"peak","name:latin":"Bukit Nyambau","name_en":"Bukit Nyambau","kind":"poi","verification":"verified","source":"OpenMapTiles/OpenStreetMap national PMTiles","sourceId":"10/830/509:mountain_peak:10701628901:0","sourceLayer":"mountain_peak","archive":"https://its.hanifahseptiani45.workers.dev/v1/map/archive/indonesia.pmtiles","updatedAt":"2026-07-26T09:40:54.330Z"},"geometry":{"type":"Point","coordinates":[111.76666259765625,1.0166969761297224]}},{"type":"Feature","id":"pmtiles:10/830/509:mountain_peak:10701855491:0","properties":{"name_int":"Bukit Buwaya","name_de":"Bukit Buwaya","name":"Bukit Buwaya","rank":2,"class":"peak","name:latin":"Bukit Buwaya","name_en":"Bukit Buwaya","kind":"poi","verification":"verified","source":"OpenMapTiles/OpenStreetMap national PMTiles","sourceId":"10/830/509:mountain_peak:10701855491:0","sourceLayer":"mountain_peak","archive":"https://its.hanifahseptiani45.workers.dev/v1/map/archive/indonesia.pmtiles","updatedAt":"2026-07-26T09:40:54.330Z"},"geometry":{"type":"Point","coordinates":[111.71670913696289,1.033345465089738]}},{"type":"Feature","id":"pmtiles:10/830/509:mountain_peak:67443194841:0","properties":{"name_int":"Bukit Nyambau","name_de":"Bukit Nyambau","name":"Bukit Nyambau","rank":5,"class":"peak","name:latin":"Bukit Nyambau","name_en":"Bukit Nyambau","kind":"poi","verification":"verified","source":"OpenMapTiles/OpenStreetMap national PMTiles","sourceId":"10/830/509:mountain_peak:67443194841:0","sourceLayer":"mountain_peak","archive":"https://its.hanifahseptiani45.workers.dev/v1/map/archive/indonesia.pmtiles","updatedAt":"2026-07-26T09:40:54.330Z"},"geometry":{"type":"Point","coordinates":[111.76211357116699,1.0217601855294873]}},{"type":"Feature","id":"pmtiles:8/207/127:landcover:13596293642:0","properties":{"subclass":"orchard","class":"farmland","kind":"green","verification":"verified","source":"OpenMapTiles/OpenStreetMap national PMTiles","sourceId":"8/207/127:landcover:13596293642:0","sourceLayer":"landcover","archive":"https://its.hanifahseptiani45.workers.dev/v1/map/archive/indonesia.pmtiles","updatedAt":"2026-07-26T09:35:29.912Z"},"geometry":{"type":"Polygon","coordinates":[[[111.80339813232422,0.9667509997666457],[111.796875,0.9701837368639445],[111.79584503173828,0.9684673687498844],[111.80065155029297,0.965721177960134],[111.79824829101562,0.9660644519303219],[111.7972183227539,0.9633182591988145],[111.77593231201172,0.9626317106698679],[111.77146911621094,0.9650346299157775],[111.7752456665039,0.9698404633107458],[111.77593231201172,0.9767059277435095],[111.77352905273438,0.9722433774513775],[111.77043914794922,0.9739597436478817],[111.77421569824219,0.9787655643429787],[111.77730560302734,0.9791088369866543],[111.77593231201172,0.9773924734170549],[111.77730560302734,0.9763626548541566],[111.77833557128906,0.9832281059656225],[111.78691864013672,0.9842579224170152],[111.78932189941406,0.9894069998974118],[111.78966522216797,0.9876906416231748],[111.79447174072266,0.9870040980652135],[111.796875,0.9815117445075003],[111.8075180053711,0.9818550168696589],[111.80477142333984,0.9760193819297314],[111.80717468261719,0.9760193819297314],[111.80717468261719,0.9712135573145702],[111.80339813232422,0.9667509997666457]]]}},{"type":"Feature","id":"pmtiles:8/207/127:landcover:13596293682:0","properties":{"subclass":"orchard","class":"farmland","kind":"green","verification":"verified","source":"OpenMapTiles/OpenStreetMap national PMTiles","sourceId":"8/207/127:landcover:13596293682:0","sourceLayer":"landcover","archive":"https://its.hanifahseptiani45.workers.dev/v1/map/archive/indonesia.pmtiles","updatedAt":"2026-07-26T09:35:29.912Z"},"geometry":{"type":"Polygon","coordinates":[[[111.77421569824219,0.9787655643429787],[111.77421569824219,0.9828848337445351],[111.77181243896484,0.9825415614881763],[111.76460266113281,0.9873473698619222],[111.76254272460938,0.9856310105241732],[111.76631927490234,0.9804819272097376],[111.76254272460938,0.9808251996775397],[111.75945281982422,0.9876906416231748],[111.76528930664062,0.9880339133489997],[111.76597595214844,0.9907800858775602],[111.7635726928711,0.9938695272509648],[111.76082611083984,0.9942127983364486],[111.76254272460938,0.9928397137804836],[111.76082611083984,0.9918098999892351],[111.75670623779297,0.9955858823213788],[111.76803588867188,1.0017647531656735],[111.77181243896484,1.0058839939265596],[111.77696228027344,0.9986753191954705],[111.78760528564453,0.995929153228289],[111.7910385131836,0.9921531712886065],[111.78142547607422,0.9852877385504399],[111.7800521850586,0.9852877385504399],[111.78142547607422,0.9876906416231748],[111.77867889404297,0.9870040980652135],[111.77421569824219,0.9787655643429787]]]}},{"type":"Feature","id":"pmtiles:8/207/127:mountain_peak:10701594511:0","properties":{"name_int":"Bukit Patok","name_de":"Bukit Patok","name":"Bukit Patok","rank":2,"class":"peak","name:latin":"Bukit Patok","name_en":"Bukit Patok","kind":"poi","verification":"verified","source":"OpenMapTiles/OpenStreetMap national PMTiles","sourceId":"8/207/127:mountain_peak:10701594511:0","sourceLayer":"mountain_peak","archive":"https://its.hanifahseptiani45.workers.dev/v1/map/archive/indonesia.pmtiles","updatedAt":"2026-07-26T09:35:29.917Z"},"geometry":{"type":"Point","coordinates":[111.68323516845703,1.0165253417734306]}},{"type":"Feature","id":"pmtiles:8/207/127:mountain_peak:10701812861:0","properties":{"name_int":"Bukit Burung","name_de":"Bukit Burung","name":"Bukit Burung","rank":5,"class":"peak","name:latin":"Bukit Burung","name_en":"Bukit Burung","kind":"poi","verification":"verified","source":"OpenMapTiles/OpenStreetMap national PMTiles","sourceId":"8/207/127:mountain_peak:10701812861:0","sourceLayer":"mountain_peak","archive":"https://its.hanifahseptiani45.workers.dev/v1/map/archive/indonesia.pmtiles","updatedAt":"2026-07-26T09:35:29.918Z"},"geometry":{"type":"Point","coordinates":[111.4834213256836,1.0165253417734306]}},{"type":"Feature","id":"pmtiles:8/207/127:mountain_peak:10701799911:0","properties":{"name_int":"Gunung Tutoop","name_de":"Gunung Tutoop","name":"Gunung Tutoop","rank":3,"class":"peak","name:latin":"Gunung Tutoop","name_en":"Gunung Tutoop","kind":"poi","verification":"verified","source":"OpenMapTiles/OpenStreetMap national PMTiles","sourceId":"8/207/127:mountain_peak:10701799911:0","sourceLayer":"mountain_peak","archive":"https://its.hanifahseptiani45.workers.dev/v1/map/archive/indonesia.pmtiles","updatedAt":"2026-07-26T09:35:29.918Z"},"geometry":{"type":"Point","coordinates":[111.61663055419922,0.9166326492847077]}},{"type":"Feature","id":"pmtiles:8/207/127:mountain_peak:10701628901:0","properties":{"name_int":"Bukit Nyambau","name_de":"Bukit Nyambau","name":"Bukit Nyambau","rank":2,"class":"peak","name:latin":"Bukit Nyambau","name_en":"Bukit Nyambau","kind":"poi","verification":"verified","source":"OpenMapTiles/OpenStreetMap national PMTiles","sourceId":"8/207/127:mountain_peak:10701628901:0","sourceLayer":"mountain_peak","archive":"https://its.hanifahseptiani45.workers.dev/v1/map/archive/indonesia.pmtiles","updatedAt":"2026-07-26T09:35:29.918Z"},"geometry":{"type":"Point","coordinates":[111.76666259765625,1.0165253417734306]}},{"type":"Feature","id":"pmtiles:8/207/127:transportation_name:5058489610:0","properties":{"name":"Jalan Paralel Perbatasan","name_int":"Jalan Paralel Perbatasan","class":"trunk","name:latin":"Jalan Paralel Perbatasan","name_de":"Jalan Paralel Perbatasan","name_en":"Jalan Paralel Perbatasan","highway":"trunk","kind":"road","verification":"verified","source":"OpenMapTiles/OpenStreetMap national PMTiles","sourceId":"8/207/127:transportation_name:5058489610:0","sourceLayer":"transportation_name","archive":"https://its.hanifahseptiani45.workers.dev/v1/map/archive/indonesia.pmtiles","updatedAt":"2026-07-26T09:35:29.920Z"},"geometry":{"type":"LineString","coordinates":[[111.57337188720703,0.7683332944071566],[111.57405853271484,0.7700497534874984],[111.57989501953125,0.7717662118766953],[111.58058166503906,0.773825961029246],[111.5822982788086,0.7745125438579805],[111.58435821533203,0.7772588740597257],[111.59259796142578,0.7721095034714551],[111.5994644165039,0.7721095034714551],[111.6042709350586,0.7748558352306674],[111.61182403564453,0.7748558352306674],[111.61491394042969,0.7769155828820402],[111.62212371826172,0.7782887474252931],[111.62590026855469,0.7772588740597257],[111.632080078125,0.7803484934016751],[111.63379669189453,0.7803484934016751],[111.63516998291016,0.7789753295293167],[111.6375732421875,0.7803484934016751],[111.64306640625,0.781035075169811],[111.6489028930664,0.7782887474252931],[111.65645599365234,0.7776021652095011],[111.67156219482422,0.7800052024755644],[111.67396545410156,0.782064947611687],[111.6866683959961,0.7803484934016751],[111.69078826904297,0.7834381104743926],[111.69593811035156,0.7844679823261203],[111.7034912109375,0.7885874671951001],[111.70623779296875,0.7916770781725972],[111.71070098876953,0.7923636580774911],[111.71070098876953,0.795109976558237],[111.71276092529297,0.7975130037304865],[111.71688079833984,0.7971697142202459],[111.71688079833984,0.8016324756166],[111.71585083007812,0.8043787879063302],[111.71619415283203,0.8105579837911989],[111.71516418457031,0.8126177136612114],[111.71550750732422,0.8160505944426859],[111.71344757080078,0.818796896959114],[111.71310424804688,0.8242894963417484],[111.7141342163086,0.8290955145889143],[111.71825408935547,0.8314985215268536],[111.719970703125,0.8335582405953659],[111.72443389892578,0.8349313860427117],[111.72649383544922,0.836647817177365],[111.7306137084961,0.835274672329632],[111.73439025878906,0.835274672329632],[111.73919677734375,0.8404239630282859]]}}]}