{"type":"FeatureCollection","features":[{"type":"Feature","id":"pmtiles:10/822/514:transportation:10409184680:0","properties":{"class":"ferry","highway":"ferry","kind":"road","verification":"verified","source":"OpenMapTiles/OpenStreetMap national PMTiles","sourceId":"10/822/514:transportation:10409184680:0","sourceLayer":"transportation","archive":"https://its.hanifahseptiani45.workers.dev/v1/map/archive/indonesia.pmtiles","updatedAt":"2026-07-26T09:41:55.483Z"},"geometry":{"type":"LineString","coordinates":[[109.13535118103027,-0.6976145987557061],[109.17972564697266,-0.8650546422465624],[109.20547485351562,-0.8939761761440792],[109.2425537109375,-0.9149162547781202],[109.3414306640625,-0.9504454513706122]]}},{"type":"Feature","id":"pmtiles:10/822/514:transportation:10409184680:1","properties":{"class":"ferry","highway":"ferry","kind":"road","verification":"verified","source":"OpenMapTiles/OpenStreetMap national PMTiles","sourceId":"10/822/514:transportation:10409184680:1","sourceLayer":"transportation","archive":"https://its.hanifahseptiani45.workers.dev/v1/map/archive/indonesia.pmtiles","updatedAt":"2026-07-26T09:41:55.483Z"},"geometry":{"type":"LineString","coordinates":[[109.0451431274414,-1.060120170947215],[109.04145240783691,-1.0275099221184831],[109.04110908508301,-1.0186707705710916],[109.03801918029785,-0.986918280110487],[109.03570175170898,-0.7829231744535576],[109.03613090515137,-0.7721095034714409],[109.03621673583984,-0.7581203486733159],[109.0323543548584,-0.6976145987557061]]}},{"type":"Feature","id":"pmtiles:10/822/514:water:310:0","properties":{"class":"ocean","water":"ocean","kind":"waterway","verification":"verified","source":"OpenMapTiles/OpenStreetMap national PMTiles","sourceId":"10/822/514:water:310:0","sourceLayer":"water","archive":"https://its.hanifahseptiani45.workers.dev/v1/map/archive/indonesia.pmtiles","updatedAt":"2026-07-26T09:41:55.483Z"},"geometry":{"type":"Polygon","coordinates":[[[108.9788818359375,-0.6976145987557061],[109.24160957336426,-0.6976145987557061],[109.24135208129883,-0.702334934339433],[109.24195289611816,-0.7194139266618294],[109.24195289611816,-0.7331457334957605],[109.24229621887207,-0.7412131504224675],[109.24212455749512,-0.7489372592430215],[109.24126625061035,-0.7600942812494367],[109.23774719238281,-0.7915912556764795],[109.23714637756348,-0.7952816214026797],[109.237060546875,-0.7988003391387792],[109.23757553100586,-0.8028339874703505],[109.23869132995605,-0.8096139405838443],[109.24075126647949,-0.8177670337355778],[109.24392700195312,-0.8284947626263346],[109.25268173217773,-0.8478046011806839],[109.25448417663574,-0.850121775378895],[109.25714492797852,-0.8544128350342106],[109.2616081237793,-0.8597337423479843],[109.26504135131836,-0.8634240446813095],[109.27122116088867,-0.871062100904382],[109.27448272705078,-0.874151647346352],[109.27757263183594,-0.8778419355976439],[109.29070472717285,-0.8916590289059343],[109.29611206054688,-0.895950041156695],[109.29980278015137,-0.9000694081895801],[109.30057525634766,-0.9005843287419708],[109.3018627166748,-0.9010992492216161],[109.30357933044434,-0.9006701488269613],[109.30392265319824,-0.9007559689099338],[109.30563926696777,-0.9043604105674063],[109.30718421936035,-0.906076810099492],[109.31199073791504,-0.9095096067225654],[109.31722640991211,-0.912255841670742],[109.32332038879395,-0.9160319113009052],[109.3278694152832,-0.9186065019501513],[109.33293342590332,-0.9208378123458942],[109.33645248413086,-0.9219534670202307],[109.34091567993164,-0.922897482240856],[109.3414306640625,-0.922897482240856],[109.3414306640625,-1.060120170947215],[108.9788818359375,-1.060120170947215],[108.9788818359375,-0.6976145987557061]],[[109.29928779602051,-1.0573740578261663],[109.30031776428223,-1.0569449774314137],[109.30109024047852,-1.0566875291660978],[109.29988861083984,-1.0560868164640596],[109.29885864257812,-1.056344264779156],[109.29851531982422,-1.0570307935151106],[109.29877281188965,-1.0573740578261663],[109.29928779602051,-1.0573740578261663]],[[109.26040649414062,-0.942292648221482],[109.26032066345215,-0.9416919146010656],[109.25911903381348,-0.9403188087943306],[109.25860404968262,-0.9401471705305084],[109.25731658935547,-0.9405762661742614],[109.25705909729004,-0.9412628190945327],[109.25731658935547,-0.9429792008036628],[109.2575740814209,-0.9434082960987666],[109.25894737243652,-0.9438373913409492],[109.25954818725586,-0.9438373913409492],[109.25997734069824,-0.943494115151438],[109.26040649414062,-0.942292648221482]],[[109.25259590148926,-0.9470985134497312],[109.25431251525879,-0.9452104957600795],[109.25457000732422,-0.944180667496596],[109.25431251525879,-0.9436657532504285],[109.2531967163086,-0.9420351909682694],[109.25199508666992,-0.9414344573034867],[109.25148010253906,-0.942121010054791],[109.25113677978516,-0.9431508389280481],[109.25148010253906,-0.9438373913409492],[109.25148010253906,-0.9443523055617078],[109.2509651184082,-0.9449530387228151],[109.25105094909668,-0.9452104957600795],[109.25019264221191,-0.9453821337743165],[109.24984931945801,-0.9450388577373587],[109.24907684326172,-0.9448672197061683],[109.24761772155762,-0.9449530387228151],[109.24710273742676,-0.9452963147682567],[109.24710273742676,-0.9457254097773244],[109.24538612365723,-0.9469268755204041],[109.24530029296875,-0.9476992461354143],[109.24555778503418,-0.9482141597830491],[109.24615859985352,-0.9483857976485837],[109.24590110778809,-0.9488148922751662],[109.24650192260742,-0.9492439868485292],[109.24675941467285,-0.9483857976485837],[109.2477035522461,-0.9475276082358448],[109.248046875,-0.9465835996362841],[109.24881935119629,-0.9464977806599393],[109.25045013427734,-0.9469268755204041],[109.25130844116211,-0.9464977806599393],[109.25259590148926,-0.9470985134497312]]]}},{"type":"Feature","id":"pmtiles:10/822/514:water:310:1","properties":{"class":"ocean","water":"ocean","kind":"waterway","verification":"verified","source":"OpenMapTiles/OpenStreetMap national PMTiles","sourceId":"10/822/514:water:310:1","sourceLayer":"water","archive":"https://its.hanifahseptiani45.workers.dev/v1/map/archive/indonesia.pmtiles","updatedAt":"2026-07-26T09:41:55.483Z"},"geometry":{"type":"Polygon","coordinates":[[[109.30323600769043,-0.7002751521236235],[109.29825782775879,-0.6976145987557061],[109.3414306640625,-0.6976145987557061],[109.3414306640625,-0.7106598781857514],[109.33533668518066,-0.709544164928829],[109.32744026184082,-0.7076560341889859],[109.31859970092773,-0.7050813092146768],[109.31207656860352,-0.7038797704057345],[109.30727005004883,-0.7022491100985491],[109.30323600769043,-0.7002751521236235]]]}},{"type":"Feature","id":"pmtiles:10/822/514:water:166932293:0","properties":{"intermittent":0,"class":"river","id":16693229,"water":"river","kind":"waterway","verification":"verified","source":"OpenMapTiles/OpenStreetMap national PMTiles","sourceId":"10/822/514:water:166932293:0","sourceLayer":"water","archive":"https://its.hanifahseptiani45.workers.dev/v1/map/archive/indonesia.pmtiles","updatedAt":"2026-07-26T09:41:55.483Z"},"geometry":{"type":"Polygon","coordinates":[[[109.3414306640625,-0.8735509024036361],[109.34117317199707,-0.8734650816897016],[109.33791160583496,-0.8711479216731277],[109.33679580688477,-0.871062100904382],[109.33585166931152,-0.8714912047285424],[109.33490753173828,-0.8727785159076404],[109.3344783782959,-0.8748382128774495],[109.3348217010498,-0.8772411912463696],[109.33602333068848,-0.8819613228316001],[109.3359375,-0.8827337074310151],[109.33525085449219,-0.8845359375388568],[109.3344783782959,-0.8856516033576014],[109.33053016662598,-0.8891702395072372],[109.32683944702148,-0.8934612546618439],[109.32538032531738,-0.8942336368581323],[109.32246208190918,-0.8943194570921378],[109.32083129882812,-0.8940619963841101],[109.31928634643555,-0.8935470749138972],[109.31671142578125,-0.8916590289059343],[109.31344985961914,-0.8871963708598116],[109.31181907653809,-0.8856516033576014],[109.31078910827637,-0.8852225011593475],[109.30872917175293,-0.8860807055061741],[109.30795669555664,-0.8866814484306786],[109.30761337280273,-0.8873680116535922],[109.30744171142578,-0.8883120358770213],[109.30795669555664,-0.8919164897822753],[109.30787086486816,-0.8938903559020588],[109.30752754211426,-0.8949201986739439],[109.30684089660645,-0.8962075017321638],[109.30426597595215,-0.8993828473399788],[109.30392265319824,-0.9007559689099338],[109.30323600769043,-0.9007559689099338],[109.30375099182129,-0.8990395668667333],[109.30649757385254,-0.895606760361261],[109.3073558807373,-0.8938045356580204],[109.30744171142578,-0.8919164897822753],[109.30709838867188,-0.8882262155030389],[109.30718421936035,-0.8871963708598116],[109.30761337280273,-0.8864239871892465],[109.30855751037598,-0.8856516033576014],[109.31053161621094,-0.8847933989114267],[109.3113899230957,-0.8848792193649757],[109.3128490447998,-0.8859090646527079],[109.31379318237305,-0.8869389096542051],[109.3168830871582,-0.8913157477094984],[109.3179988861084,-0.8923455912027976],[109.31954383850098,-0.8932037938936475],[109.3209171295166,-0.8938045356580204],[109.32435035705566,-0.8939761761440792],[109.32520866394043,-0.8938045356580204],[109.32658195495605,-0.8931179736335793],[109.33027267456055,-0.8888269580790791],[109.33430671691895,-0.8853941420446034],[109.33533668518066,-0.8834202713847077],[109.33576583862305,-0.8819613228316001],[109.33439254760742,-0.8770695499854355],[109.33413505554199,-0.8743232887408823],[109.33473587036133,-0.8724352329696075],[109.33525085449219,-0.8718344877526931],[109.3359375,-0.871062100904382],[109.33679580688477,-0.8708046385864208],[109.33868408203125,-0.8712337424399124],[109.34125900268555,-0.8730359780906127],[109.3414306640625,-0.8731217988143385],[109.3414306640625,-0.8735509024036361]]]}}]}