{"type":"FeatureCollection","features":[{"type":"Feature","id":"pmtiles:8/207/136:water:1710:0","properties":{"class":"ocean","water":"ocean","kind":"waterway","verification":"verified","source":"OpenMapTiles/OpenStreetMap national PMTiles","sourceId":"8/207/136:water:1710:0","sourceLayer":"water","archive":"https://its.hanifahseptiani45.workers.dev/v1/map/archive/indonesia.pmtiles","updatedAt":"2026-07-26T09:35:52.901Z"},"geometry":{"type":"Polygon","coordinates":[[[111.07177734375,-11.156845275211765],[112.52197265625,-11.156845275211765],[112.52197265625,-12.576009912063782],[111.07177734375,-12.576009912063782],[111.07177734375,-11.156845275211765]]]}}]}