{"type":"FeatureCollection","features":[{"type":"Feature","id":"pmtiles:10/874/517:water:1690:0","properties":{"class":"ocean","water":"ocean","kind":"waterway","verification":"verified","source":"OpenMapTiles/OpenStreetMap national PMTiles","sourceId":"10/874/517:water:1690:0","sourceLayer":"water","archive":"https://its.hanifahseptiani45.workers.dev/v1/map/archive/indonesia.pmtiles","updatedAt":"2026-07-26T09:42:40.661Z"},"geometry":{"type":"Polygon","coordinates":[[[127.2601318359375,-2.114388093041839],[127.2601318359375,-1.7520462233579792],[127.6226806640625,-1.7520462233579792],[127.6226806640625,-1.8232510185521562],[127.62225151062012,-1.823336805785189],[127.62113571166992,-1.822993656828487],[127.61856079101562,-1.8236799546764928],[127.61727333068848,-1.8235941674598024],[127.61641502380371,-1.8231652313150164],[127.61581420898438,-1.8224789332707587],[127.61418342590332,-1.822564720540612],[127.61332511901855,-1.822221571436728],[127.60963439941406,-1.8227362950680117],[127.60783195495605,-1.8227362950680117],[127.6073169708252,-1.822221571436728],[127.60525703430176,-1.8229078695790832],[127.60448455810547,-1.822822082325601],[127.60405540466309,-1.8223931459968412],[127.60148048400879,-1.8227362950680117],[127.59933471679688,-1.8238515290976096],[127.59847640991211,-1.8240231035023555],[127.5963306427002,-1.8255672724086196],[127.59324073791504,-1.8267682917520744],[127.59075164794922,-1.8285698192615598],[127.58869171142578,-1.82951347580682],[127.58508682250977,-1.8319155084085708],[127.58448600769043,-1.8319155084085708],[127.58405685424805,-1.8316581479266603],[127.58345603942871,-1.8296850496708004],[127.58354187011719,-1.8288271801867495],[127.58414268493652,-1.8281408843042044],[127.58414268493652,-1.8275403751917452],[127.5838851928711,-1.8274545881592843],[127.58216857910156,-1.8283982452909129],[127.5816535949707,-1.829341901926412],[127.58045196533203,-1.8308860662590973],[127.58036613464355,-1.8312292137079709],[127.58070945739746,-1.8314865742514996],[127.58070945739746,-1.8321728688535188],[127.57959365844727,-1.8349180446310243],[127.57830619812012,-1.836204844326602],[127.57418632507324,-1.8384352949371277],[127.57375717163086,-1.8398936649835065],[127.57195472717285,-1.8433251192107605],[127.57255554199219,-1.8443545541897635],[127.57281303405762,-1.8459844916883412],[127.57221221923828,-1.8483865021198511],[127.57272720336914,-1.8489012182182307],[127.5728988647461,-1.8506169374679189],[127.5732421875,-1.8510458670210284],[127.57307052612305,-1.8519895116725422],[127.57204055786133,-1.8517321540901293],[127.57169723510742,-1.8522468692175664],[127.57246971130371,-1.8525042267251877],[127.57332801818848,-1.853362084813952],[127.57264137268066,-1.8551635854472437],[127.5732421875,-1.857222441067222],[127.57264137268066,-1.8603107199983242],[127.57332801818848,-1.8606538617681991],[127.5735855102539,-1.8611685742978494],[127.5743579864502,-1.8612543597048443],[127.57598876953125,-1.8598817926921072],[127.57658958435059,-1.8596244362583292],[127.57736206054688,-1.8597102217404284],[127.5776195526123,-1.8604822908916105],[127.57693290710449,-1.8618548574369669],[127.57487297058105,-1.8635705641154772],[127.57410049438477,-1.8633132082202195],[127.57341384887695,-1.8633132082202195],[127.57298469543457,-1.862626925649053],[127.57238388061523,-1.8627127109850647],[127.5721263885498,-1.86305585228736],[127.57221221923828,-1.8641710610581015],[127.57186889648438,-1.8652004839117353],[127.57204055786133,-1.8654578395310466],[127.57332801818848,-1.8655436247291135],[127.5743579864502,-1.8652004839117353],[127.57547378540039,-1.8656294099230024],[127.57667541503906,-1.8654578395310466],[127.57736206054688,-1.865800980298232],[127.57693290710449,-1.8664014764796946],[127.57710456848145,-1.8665730467795925],[127.57744789123535,-1.8664872616317467],[127.57925033569336,-1.8655436247291135],[127.57993698120117,-1.8648573430274382],[127.58010864257812,-1.8638279199731045],[127.58285522460938,-1.8614259305063143],[127.58491516113281,-1.8606538617681991],[127.58611679077148,-1.8604822908916105],[127.58920669555664,-1.8591097232781806],[127.59135246276855,-1.8579945113063872],[127.59195327758789,-1.8570508698571473],[127.59349822998047,-1.8564503704907054],[127.5940990447998,-1.8558498709202809],[127.5937557220459,-1.8558498709202809],[127.59332656860352,-1.8555925138990972],[127.59366989135742,-1.8543057282315232],[127.59427070617676,-1.853619442159527],[127.59572982788086,-1.8532762990237757],[127.59607315063477,-1.8529331558215176],[127.59538650512695,-1.852847370010565],[127.59478569030762,-1.8531905132294355],[127.59366989135742,-1.8523326550575945],[127.59324073791504,-1.8521610833733746],[127.59221076965332,-1.8526757983761826],[127.59126663208008,-1.8525900125527812],[127.59143829345703,-1.8530189416283207],[127.59075164794922,-1.8534478705999646],[127.59023666381836,-1.8535336563818134],[127.59015083312988,-1.85310472743096],[127.59040832519531,-1.8525900125527812],[127.59203910827637,-1.8506169374679189],[127.59160995483398,-1.8505311515448568],[127.59143829345703,-1.849587506117203],[127.59023666381836,-1.849501720144346],[127.58989334106445,-1.849158576211451],[127.59032249450684,-1.848558074169219],[127.59169578552246,-1.8481291440146919],[127.59366989135742,-1.8468423529295137],[127.59658813476562,-1.846070277831089],[127.59967803955078,-1.84564134707594],[127.60087966918945,-1.8452982023973306],[127.60122299194336,-1.84564134707594],[127.60113716125488,-1.8465849946006472],[127.60173797607422,-1.8475286416242795],[127.60148048400879,-1.8484722881465956],[127.60225296020508,-1.8483007160889429],[127.6018238067627,-1.8477002137565393],[127.60199546813965,-1.8471854973100363],[127.60311126708984,-1.8473570694754642],[127.60560035705566,-1.8469281390308794],[127.6087760925293,-1.8466707807144047],[127.60937690734863,-1.8468423529295137],[127.60972023010254,-1.8471854973100363],[127.60972023010254,-1.8477002137565393],[127.61040687561035,-1.847957571923871],[127.61186599731445,-1.8477002137565393],[127.61298179626465,-1.8482149300538993],[127.61469841003418,-1.8484722881465956],[127.61547088623047,-1.8489012182182307],[127.61727333068848,-1.8488154322122057],[127.6183032989502,-1.8489870042201204],[127.61916160583496,-1.849587506117203],[127.61881828308105,-1.8507027233868456],[127.61959075927734,-1.8513032247030878],[127.62044906616211,-1.851131652919193],[127.62130737304688,-1.8513032247030878],[127.6223373413086,-1.8509600811187],[127.6226806640625,-1.851131652919193],[127.6226806640625,-2.114388093041839],[127.2601318359375,-2.114388093041839]]]}},{"type":"Feature","id":"pmtiles:8/218/129:water:1200:0","properties":{"class":"ocean","water":"ocean","kind":"waterway","verification":"verified","source":"OpenMapTiles/OpenStreetMap national PMTiles","sourceId":"8/218/129:water:1200:0","sourceLayer":"water","archive":"https://its.hanifahseptiani45.workers.dev/v1/map/archive/indonesia.pmtiles","updatedAt":"2026-07-26T09:35:36.208Z"},"geometry":{"type":"Polygon","coordinates":[[[126.54052734375,-2.811028283742303],[126.54052734375,-1.3841426927919969],[126.5621566772461,-1.3841426927919969],[126.5628433227539,-1.3841426927919969],[127.31712341308594,-1.3841426927919969],[127.3202133178711,-1.3889478039948102],[127.320556640625,-1.3916935774402361],[127.31986999511719,-1.393066462964569],[127.31437683105469,-1.3971851147344836],[127.30682373046875,-1.3964986732737117],[127.30098724365234,-1.4009605391805309],[127.29927062988281,-1.4043927379432262],[127.29377746582031,-1.4043927379432262],[127.29068756103516,-1.4067952740787462],[127.28485107421875,-1.4074817125203651],[127.28450775146484,-1.4122867759484308],[127.28141784667969,-1.4150325220203825],[127.28313446044922,-1.4164053938378487],[127.28313446044922,-1.4177782648419566],[127.28588104248047,-1.41846470003874],[127.29103088378906,-1.4242993909796127],[127.29412078857422,-1.430134067147094],[127.29377746582031,-1.4325365765549805],[127.29755401611328,-1.4345958683281737],[127.30030059814453,-1.433909437942944],[127.30339050292969,-1.4356255135198523],[127.30648040771484,-1.4349390834435667],[127.3099136352539,-1.4349390834435667],[127.31746673583984,-1.4369983730539957],[127.320556640625,-1.4435194445587882],[127.32467651367188,-1.4459219398767829],[127.32467651367188,-1.4493540716333086],[127.3263931274414,-1.4548454716189667],[127.33257293701172,-1.4534726228737327],[127.33085632324219,-1.4527861981880648],[127.32982635498047,-1.4507269228801078],[127.3311996459961,-1.4469515799491859],[127.33806610107422,-1.4418033749199992],[127.33875274658203,-1.439057660807748],[127.34046936035156,-1.4356255135198523],[127.34390258789062,-1.433909437942944],[127.35145568847656,-1.4335662226731216],[127.35282897949219,-1.4325365765549805],[127.35420227050781,-1.4294476354255607],[127.35591888427734,-1.4284179874585021],[127.36656188964844,-1.4256722572915237],[127.3751449584961,-1.4256722572915237],[127.37789154052734,-1.4222400899784162],[127.38475799560547,-1.418807917560784],[127.38716125488281,-1.4160621759597092],[127.39437103271484,-1.4122867759484308],[127.39334106445312,-1.4102274642652475],[127.39368438720703,-1.4085113698039038],[127.39540100097656,-1.4064520547821786],[127.39917755126953,-1.4054223965896853],[127.39917755126953,-1.4009605391805309],[127.39574432373047,-1.397871555994655],[127.39299774169922,-1.3934096842206714],[127.39334106445312,-1.3906639127724958],[127.39265441894531,-1.3879181381298906],[127.38819122314453,-1.3879181381298906],[127.38544464111328,-1.389291025850099],[127.38235473632812,-1.389634247655522],[127.37754821777344,-1.3882613601346918],[127.37651824951172,-1.3862020273589053],[127.37274169921875,-1.3844859153440865],[127.37274169921875,-1.3841426927919969],[127.55950927734375,-1.3841426927919969],[127.55916595458984,-1.3844859153440865],[127.55985260009766,-1.3855155827021406],[127.55847930908203,-1.389634247655522],[127.55401611328125,-1.3927232416584445],[127.5509262084961,-1.3923800203023546],[127.54783630371094,-1.397871555994655],[127.5406265258789,-1.403019859042331],[127.5399398803711,-1.4047359575424707],[127.53753662109375,-1.4067952740787462],[127.53341674804688,-1.4088545887973254],[127.529296875,-1.4071384933248083],[127.52311706542969,-1.4119435574612282],[127.52174377441406,-1.4122867759484308],[127.52174377441406,-1.4157189580307374],[127.51934051513672,-1.4177782648419566],[127.51487731933594,-1.416748611665156],[127.5128173828125,-1.417091829441631],[127.51384735107422,-1.4225833069396288],[127.5131607055664,-1.424642607634297],[127.51453399658203,-1.428074771366937],[127.51625061035156,-1.4294476354255607],[127.51556396484375,-1.4304772829308803],[127.51659393310547,-1.4315069299741339],[127.51693725585938,-1.4359687284807023],[127.51075744628906,-1.433909437942944],[127.50732421875,-1.4345958683281737],[127.50492095947266,-1.4404305182774522],[127.50629425048828,-1.4435194445587882],[127.50560760498047,-1.445578726415519],[127.50801086425781,-1.4486676456977534],[127.50595092773438,-1.4524429857670214],[127.50389099121094,-1.4531294105569827],[127.50080108642578,-1.4534726228737327],[127.49702453613281,-1.4507269228801078],[127.49427795410156,-1.4507269228801078],[127.49324798583984,-1.4496972845230545],[127.49290466308594,-1.446265153286177],[127.49153137207031,-1.443862658331156],[127.49393463134766,-1.440773732515666],[127.49290466308594,-1.4383712317629715],[127.49153137207031,-1.438714446311181],[127.48947143554688,-1.440773732515666],[127.48809814453125,-1.4404305182774522],[127.48878479003906,-1.4442058720517252],[127.48603820800781,-1.4466083666436447],[127.48329162597656,-1.445578726415519],[127.48432159423828,-1.443862658331156],[127.48191833496094,-1.440773732515666],[127.4798583984375,-1.440773732515666],[127.4740219116211,-1.4394008752526872],[127.47333526611328,-1.43802801716312],[127.47161865234375,-1.440773732515666],[127.4688720703125,-1.43802801716312],[127.46475219726562,-1.439057660807748],[127.46406555175781,-1.4383712317629715],[127.46440887451172,-1.437341587808632],[127.4630355834961,-1.4369983730539957],[127.4582290649414,-1.4383712317629715],[127.45445251464844,-1.4349390834435667],[127.45548248291016,-1.4332230073518417],[127.44792938232422,-1.431850145552474],[127.44792938232422,-1.4284179874585021],[127.44552612304688,-1.4267019064882476],[127.44415283203125,-1.4270451227847474],[127.44243621826172,-1.4260154737416144],[127.4410629272461,-1.4256722572915237],[127.43968963623047,-1.4273883390300455],[127.43728637695312,-1.4260154737416144],[127.4362564086914,-1.4232697407088892],[127.43453979492188,-1.4218968729661583],[127.43522644042969,-1.418807917560784],[127.4410629272461,-1.417091829441631],[127.4417495727539,-1.4164053938378487],[127.44346618652344,-1.416748611665156],[127.44483947753906,-1.4153757400509477],[127.44758605957031,-1.4157189580307374],[127.4472427368164,-1.413659649390297],[127.44380950927734,-1.4133164311059119],[127.44380950927734,-1.4119435574612282],[127.44071960449219,-1.4088545887973254],[127.43797302246094,-1.414346085806855],[127.4362564086914,-1.4153757400509477],[127.43522644042969,-1.411257120334767],[127.43350982666016,-1.4116003389233214],[127.43144989013672,-1.4119435574612282],[127.430419921875,-1.4133164311059119],[127.42767333984375,-1.414346085806855],[127.42630004882812,-1.4140028676239496],[127.42630004882812,-1.4160621759597092],[127.4245834350586,-1.4174350471672312],[127.42252349853516,-1.4177782648419566],[127.42183685302734,-1.416748611665156],[127.4197769165039,-1.41846470003874],[127.41497039794922,-1.4194943524520767],[127.41565704345703,-1.4225833069396288],[127.42012023925781,-1.428074771366937],[127.42355346679688,-1.4273883390300455],[127.42252349853516,-1.4256722572915237],[127.42389678955078,-1.4242993909796127],[127.42595672607422,-1.4242993909796127],[127.42698669433594,-1.425329040790274],[127.42870330810547,-1.424642607634297],[127.4300765991211,-1.4263586901405318],[127.43144989013672,-1.4263586901405318],[127.43179321289062,-1.431850145552474],[127.42938995361328,-1.4335662226731216],[127.4300765991211,-1.4345958683281737],[127.43144989013672,-1.4349390834435667],[127.43316650390625,-1.4369983730539957],[127.43659973144531,-1.437341587808632],[127.44312286376953,-1.4328797919791185],[127.44415283203125,-1.4335662226731216],[127.4410629272461,-1.439057660807748],[127.4410629272461,-1.440773732515666],[127.43865966796875,-1.4428330168586143],[127.43934631347656,-1.445578726415519],[127.4362564086914,-1.4472947932028148],[127.43831634521484,-1.4510701355616646],[127.43694305419922,-1.4520997732938525],[127.43488311767578,-1.451413348191167],[127.43179321289062,-1.4538158351383146],[127.43213653564453,-1.4565615313756126],[127.42870330810547,-1.45793437824004],[127.42870330810547,-1.4606800694564583],[127.42733001708984,-1.4606800694564583],[127.42904663085938,-1.462396124763373],[127.42801666259766,-1.4647985999883275],[127.43247985839844,-1.4665146521435304],[127.43247985839844,-1.469603542706011],[127.43110656738281,-1.469946752504967],[127.42938995361328,-1.4692603328543328],[127.42767333984375,-1.470289962251158],[127.42561340332031,-1.469946752504967],[127.42286682128906,-1.4720060101903414],[127.41943359375,-1.4723492196197157],[127.41600036621094,-1.479899813675587],[127.41668701171875,-1.4812726462004377],[127.41874694824219,-1.4823022700359303],[127.41874694824219,-1.4847047237895197],[127.41634368896484,-1.4881367960500995],[127.41634368896484,-1.4895096234595968],[127.41874694824219,-1.4915688629698565],[127.41874694824219,-1.4946577186210845],[127.42080688476562,-1.496030541960792],[127.42424011230469,-1.4953441303982657],[127.42767333984375,-1.49706015890186],[127.42698669433594,-1.4980897753593894],[127.42767333984375,-1.4987761860622584],[127.43110656738281,-1.4943145126520108],[127.43213653564453,-1.4953441303982657],[127.43110656738281,-1.4977465699273012],[127.43144989013672,-1.4991193913330108],[127.42938995361328,-1.50014900682244],[127.42835998535156,-1.5025514410794898],[127.42424011230469,-1.5032378503820638],[127.41771697998047,-1.5073563016623694],[127.41771697998047,-1.5087291170257373],[127.4139404296875,-1.5145635726454003],[127.41153717041016,-1.5169659909851703],[127.41085052490234,-1.5210844162160981],[127.40776062011719,-1.5228004244101356],[127.40638732910156,-1.524859632439373],[127.408447265625,-1.5293212430739942],[127.40638732910156,-1.530350844211867],[127.4026107788086,-1.537901237431484],[127.40638732910156,-1.5413332255265715],[127.408447265625,-1.5420196224822007],[127.41050720214844,-1.5451084060417628],[127.41119384765625,-1.5516291565733127],[127.40982055664062,-1.55609071114921],[127.41050720214844,-1.5567771033238955],[127.40982055664062,-1.556433907264477],[127.41188049316406,-1.5615818422837862],[127.41256713867188,-1.5657001812225246],[127.41153717041016,-1.5660433757691408],[127.41119384765625,-1.5674161533935091],[127.41188049316406,-1.5687889301178615],[127.4081039428711,-1.5842326060108292],[127.40055084228516,-1.6044808064677056],[127.39677429199219,-1.6120309317411738],[127.3923110961914,-1.617178728382214],[127.3919677734375,-1.6199242145875417],[127.3923110961914,-1.6209537709556798],[127.39334106445312,-1.6199242145875417],[127.39334106445312,-1.6230128821210599],[127.39608764648438,-1.6250719911896425],[127.39849090576172,-1.62816065085525],[127.40364074707031,-1.6439470594868766],[127.40364074707031,-1.651840217065626],[127.40776062011719,-1.6569879116454018],[127.40776062011719,-1.660076521974048],[127.40913391113281,-1.6628219493266556],[127.41222381591797,-1.6638514835996574],[127.41531372070312,-1.6635083055683424],[127.41703033447266,-1.6628219493266556],[127.4197769165039,-1.6587038068676065],[127.42286682128906,-1.6587038068676065],[127.42424011230469,-1.661449236127325],[127.42355346679688,-1.6641946615712584],[127.4245834350586,-1.6689991468974625],[127.430419921875,-1.6741467967195263],[127.43385314941406,-1.6792944330243245],[127.45891571044922,-1.69233505088512],[127.47264862060547,-1.6981689831566626],[127.48191833496094,-1.7029733847477075],[127.4908447265625,-1.7105231344639407],[127.49565124511719,-1.7167001803225048],[127.49702453613281,-1.7232203737409009],[127.49908447265625,-1.724593043197899],[127.50560760498047,-1.725622544640899],[127.51487731933594,-1.7249362104074777],[127.51728057861328,-1.725965711664756],[127.52517700195312,-1.724593043197899],[127.53067016601562,-1.725622544640899],[127.55435943603516,-1.7335153704981394],[127.56637573242188,-1.7348880325097866],[127.57495880126953,-1.7331722048396898],[127.58285522460938,-1.7328290391190535],[127.5897216796875,-1.734544867100226],[127.59178161621094,-1.7366038586235248],[127.59590148925781,-1.7379765183929123],[127.6010513305664,-1.7366038586235248],[127.6058578491211,-1.7342017016284217],[127.60791778564453,-1.731113209583384],[127.60963439941406,-1.7225340386413421],[127.61272430419922,-1.7194455276350737],[127.6168441772461,-1.7173865175204952],[127.61890411376953,-1.7180728544719983],[127.62130737304688,-1.7208181998109495],[127.62611389160156,-1.7187591911769005],[127.62920379638672,-1.7204750318595785],[127.63160705566406,-1.7208181998109495],[127.63504028320312,-1.7239067085931197],[127.63984680175781,-1.7263088786266536],[127.6443099975586,-1.7293973784947525],[127.64533996582031,-1.7293973784947525],[127.64568328857422,-1.730083711116464],[127.64808654785156,-1.730426877334196],[127.6498031616211,-1.7290542120908015],[127.65220642089844,-1.730426877334196],[127.65701293945312,-1.7280247125067518],[127.6614761352539,-1.7273383791406474],[127.66868591308594,-1.7232203737409009],[127.67040252685547,-1.7156706740635173],[127.67040252685547,-1.710179964665798],[127.67280578613281,-1.7067482633111695],[127.67932891845703,-1.7033165558320036],[127.68516540527344,-1.705375581053758],[127.69203186035156,-1.7033165558320036],[127.69821166992188,-1.6950804329675293],[127.70576477050781,-1.6895896649160704],[127.7102279663086,-1.6878737967145412],[127.72018432617188,-1.6861579269987885],[127.7273941040039,-1.687187449009869],[127.72945404052734,-1.6882169704760344],[127.7325439453125,-1.6937077424125562],[127.73563385009766,-1.695423605454252],[127.74181365966797,-1.6940509151424976],[127.74524688720703,-1.6889033178172639],[127.74765014648438,-1.687187449009869],[127.75520324707031,-1.6865011010629871],[127.7651596069336,-1.6895896649160704],[127.76927947998047,-1.6885601441769467],[127.77442932128906,-1.6889033178172639],[127.79090881347656,-1.6957667778801095],[127.79777526855469,-1.695423605454252],[127.80773162841797,-1.6974826390964495],[127.81700134277344,-1.7005711854472736],[127.82283782958984,-1.69919849878994],[127.82936096191406,-1.6985121550953721],[127.83931732177734,-1.6933645696218207],[127.84412384033203,-1.694394087811645],[127.84858703613281,-1.697825811157017],[127.85442352294922,-1.697825811157017],[127.86506652832031,-1.6933645696218207],[127.87261962890625,-1.69233505088512],[127.88223266601562,-1.685128404443148],[127.8860092163086,-1.683412532307841],[127.8921890258789,-1.682726183030752],[127.89974212646484,-1.685128404443148],[127.9024887084961,-1.6854715786888477],[127.90523529052734,-1.6844420557703472],[127.91210174560547,-1.6865011010629871],[127.9244613647461,-1.6882169704760344],[127.94197082519531,-1.69233505088512],[127.95295715332031,-1.6961099502451447],[127.95845031738281,-1.695423605454252],[127.9629135131836,-1.6957667778801095],[127.96772003173828,-1.6974826390964495],[127.96977996826172,-1.6964531225493005],[127.97080993652344,-1.6974826390964495],[127.97904968261719,-1.6985121550953721],[127.98831939697266,-1.7022870423957954],[127.99072265625,-1.7036597268551645],[127.99072265625,-2.811028283742303],[127.99072265625,-2.811714102819167],[127.99072265625,-2.8333171968552904],[126.5628433227539,-2.8333171968552904],[126.5621566772461,-2.8333171968552904],[126.54052734375,-2.8333171968552904],[126.54052734375,-2.811714102819167],[126.54052734375,-2.811028283742303]],[[127.61341094970703,-1.8223931459968412],[127.60139465332031,-1.8227362950680117],[127.58491516113281,-1.8320012952276699],[127.5838851928711,-1.8316581479266603],[127.58354187011719,-1.8295992627408566],[127.584228515625,-1.8275403751917452],[127.58216857910156,-1.8285698192615598],[127.58045196533203,-1.8309718531274797],[127.57976531982422,-1.8350896179772604],[127.57427215576172,-1.8385210814434316],[127.57186889648438,-1.8433251192107605],[127.5728988647461,-1.846070277831089],[127.57221221923828,-1.8484722881465956],[127.5732421875,-1.8508742952122361],[127.5728988647461,-1.8519037258158875],[127.57152557373047,-1.8522468692175664],[127.5732421875,-1.8532762990237757],[127.57255554199219,-1.8604822908916105],[127.57427215576172,-1.8611685742978494],[127.57667541503906,-1.8594528652816251],[127.57770538330078,-1.8604822908916105],[127.57495880126953,-1.8635705641154772],[127.57255554199219,-1.8625411403088492],[127.57186889648438,-1.8656294099230024],[127.57667541503906,-1.8656294099230024],[127.57736206054688,-1.8666588319232602],[127.57942199707031,-1.8656294099230024],[127.58285522460938,-1.8615117159007895],[127.58903503417969,-1.8591097232781806],[127.59349822998047,-1.856364584850283],[127.59384155273438,-1.8543057282315232],[127.59590148925781,-1.8529331558215176],[127.5948715209961,-1.8532762990237757],[127.59315490722656,-1.8522468692175664],[127.59040832519531,-1.853619442159527],[127.59212493896484,-1.8505311515448568],[127.5900650024414,-1.849158576211451],[127.59349822998047,-1.846756566824041],[127.6007080078125,-1.8453839885731895],[127.60139465332031,-1.8484722881465956],[127.60208129882812,-1.8484722881465956],[127.60208129882812,-1.8470997112211336],[127.60860443115234,-1.846756566824041],[127.61032104492188,-1.8481291440146919],[127.61821746826172,-1.849158576211451],[127.61959075927734,-1.8512174388132223],[127.6226806640625,-1.8512174388132223],[127.62474060058594,-1.849158576211451],[127.62577056884766,-1.8501880078110702],[127.6285171508789,-1.8498448640108904],[127.62989044189453,-1.8484722881465956],[127.63469696044922,-1.846756566824041],[127.63813018798828,-1.8436682642699083],[127.6388168334961,-1.8426388288940245],[127.63641357421875,-1.8412662474672885],[127.64053344726562,-1.8416093929231039],[127.64122009277344,-1.8405799563574732],[127.63778686523438,-1.8398936649835065],[127.64533996582031,-1.8340601776529013],[127.64190673828125,-1.8326875896324708],[127.64396667480469,-1.8320012952276699],[127.64259338378906,-1.8316581479266603],[127.64396667480469,-1.830285558065512],[127.64362335205078,-1.8285698192615598],[127.64087677001953,-1.830285558065512],[127.64259338378906,-1.825481485281955],[127.6443099975586,-1.8268540788173198],[127.6449966430664,-1.828912967153613],[127.6446533203125,-1.8268540788173198],[127.64293670654297,-1.8234225930141434],[127.64053344726562,-1.8217068476583194],[127.63092041015625,-1.8199911006683465],[127.62645721435547,-1.8223931459968412],[127.61856079101562,-1.8237657418890905],[127.61341094970703,-1.8223931459968412]],[[127.40570068359375,-1.501865031561195],[127.4081039428711,-1.5011786218273215],[127.40947723388672,-1.501521826721202],[127.41050720214844,-1.5004922118779263],[127.40741729736328,-1.4963737476615222],[127.40776062011719,-1.4936281005529963],[127.40192413330078,-1.4915688629698565],[127.40089416503906,-1.490196036843642],[127.39814758300781,-1.4908824500137712],[127.39574432373047,-1.4881367960500995],[127.39368438720703,-1.4881367960500995],[127.39334106445312,-1.4867639677860751],[127.39471435546875,-1.484361516270198],[127.39540100097656,-1.484361516270198],[127.39540100097656,-1.486077553333871],[127.39608764648438,-1.4840183086975998],[127.39402770996094,-1.482988685660274],[127.39093780517578,-1.4833318933926165],[127.38922119140625,-1.4864207605866397],[127.386474609375,-1.4881367960500995],[127.38475799560547,-1.4922552757118268],[127.3809814453125,-1.4936281005529963],[127.38166809082031,-1.501521826721202],[127.37823486328125,-1.5063266895717646],[127.37926483154297,-1.5125043548055572],[127.37720489501953,-1.5155931808316865],[127.37789154052734,-1.5217708196575614],[127.38475799560547,-1.521427617964136],[127.38956451416016,-1.5231436258850408],[127.3916244506836,-1.5224572228805755],[127.39334106445312,-1.5231436258850408],[127.39574432373047,-1.525202833586107],[127.39608764648438,-1.5217708196575614],[127.39917755126953,-1.5166227885284371],[127.39608764648438,-1.5090723207312493],[127.39677429199219,-1.5056402812410568],[127.40467071533203,-1.5101019315227688],[127.40467071533203,-1.5073563016623694],[127.39883422851562,-1.5011786218273215],[127.39917755126953,-1.499462596549975],[127.40055084228516,-1.501521826721202],[127.40364074707031,-1.5011786218273215],[127.40570068359375,-1.502894645757749],[127.40570068359375,-1.501865031561195]]]}}]}