{"type":"FeatureCollection","features":[{"type":"Feature","id":"pmtiles:10/856/538:transportation:1127159370:0","properties":{"class":"ferry","highway":"ferry","kind":"road","verification":"verified","source":"OpenMapTiles/OpenStreetMap national PMTiles","sourceId":"10/856/538:transportation:1127159370:0","sourceLayer":"transportation","archive":"https://its.hanifahseptiani45.workers.dev/v1/map/archive/indonesia.pmtiles","updatedAt":"2026-07-26T09:46:44.569Z"},"geometry":{"type":"LineString","coordinates":[[120.9320068359375,-9.248429727784753],[121.20460510253906,-9.096672703361222]]}},{"type":"Feature","id":"pmtiles:10/856/538:transportation:1127159370:1","properties":{"class":"ferry","highway":"ferry","kind":"road","verification":"verified","source":"OpenMapTiles/OpenStreetMap national PMTiles","sourceId":"10/856/538:transportation:1127159370:1","sourceLayer":"transportation","archive":"https://its.hanifahseptiani45.workers.dev/v1/map/archive/indonesia.pmtiles","updatedAt":"2026-07-26T09:46:44.569Z"},"geometry":{"type":"LineString","coordinates":[[121.25970840454102,-9.096672703361222],[121.2945556640625,-9.112520825677322]]}},{"type":"Feature","id":"pmtiles:10/856/538:transportation:1127159370:2","properties":{"class":"ferry","highway":"ferry","kind":"road","verification":"verified","source":"OpenMapTiles/OpenStreetMap national PMTiles","sourceId":"10/856/538:transportation:1127159370:2","sourceLayer":"transportation","archive":"https://its.hanifahseptiani45.workers.dev/v1/map/archive/indonesia.pmtiles","updatedAt":"2026-07-26T09:46:44.569Z"},"geometry":{"type":"LineString","coordinates":[[121.29258155822754,-9.096672703361222],[120.9320068359375,-9.28045052232872]]}},{"type":"Feature","id":"pmtiles:10/856/538:water:1800:0","properties":{"class":"ocean","water":"ocean","kind":"waterway","verification":"verified","source":"OpenMapTiles/OpenStreetMap national PMTiles","sourceId":"10/856/538:water:1800:0","sourceLayer":"water","archive":"https://its.hanifahseptiani45.workers.dev/v1/map/archive/indonesia.pmtiles","updatedAt":"2026-07-26T09:46:44.569Z"},"geometry":{"type":"Polygon","coordinates":[[[120.9320068359375,-9.096672703361222],[121.2945556640625,-9.096672703361222],[121.2945556640625,-9.454480416742797],[120.9320068359375,-9.454480416742797],[120.9320068359375,-9.096672703361222]]]}}]}