{"type":"FeatureCollection","features":[{"type":"Feature","id":"pmtiles:10/887/533:transportation:10282115330:0","properties":{"class":"ferry","highway":"ferry","kind":"road","verification":"verified","source":"OpenMapTiles/OpenStreetMap national PMTiles","sourceId":"10/887/533:transportation:10282115330:0","sourceLayer":"transportation","archive":"https://its.hanifahseptiani45.workers.dev/v1/map/archive/indonesia.pmtiles","updatedAt":"2026-07-26T09:45:33.229Z"},"geometry":{"type":"LineString","coordinates":[[131.8304443359375,-7.543996842727182],[131.95738792419434,-7.357018957392015]]}},{"type":"Feature","id":"pmtiles:10/887/533:transportation:10282115330:1","properties":{"class":"ferry","highway":"ferry","kind":"road","verification":"verified","source":"OpenMapTiles/OpenStreetMap national PMTiles","sourceId":"10/887/533:transportation:10282115330:1","sourceLayer":"transportation","archive":"https://its.hanifahseptiani45.workers.dev/v1/map/archive/indonesia.pmtiles","updatedAt":"2026-07-26T09:45:33.229Z"},"geometry":{"type":"LineString","coordinates":[[131.89078330993652,-7.716435112415482],[132.066650390625,-7.599385424645163],[132.176513671875,-7.357018957392015]]}},{"type":"Feature","id":"pmtiles:10/887/533:water:980:0","properties":{"class":"ocean","water":"ocean","kind":"waterway","verification":"verified","source":"OpenMapTiles/OpenStreetMap national PMTiles","sourceId":"10/887/533:water:980:0","sourceLayer":"water","archive":"https://its.hanifahseptiani45.workers.dev/v1/map/archive/indonesia.pmtiles","updatedAt":"2026-07-26T09:45:33.229Z"},"geometry":{"type":"Polygon","coordinates":[[[131.8304443359375,-7.357018957392015],[132.1929931640625,-7.357018957392015],[132.1929931640625,-7.716435112415482],[131.8304443359375,-7.716435112415482],[131.8304443359375,-7.357018957392015]]]}}]}