{"type":"FeatureCollection","features":[{"type":"Feature","id":"pmtiles:10/886/511:water:470:0","properties":{"class":"ocean","water":"ocean","kind":"waterway","verification":"verified","source":"OpenMapTiles/OpenStreetMap national PMTiles","sourceId":"10/886/511:water:470:0","sourceLayer":"water","archive":"https://its.hanifahseptiani45.workers.dev/v1/map/archive/indonesia.pmtiles","updatedAt":"2026-07-26T09:41:18.088Z"},"geometry":{"type":"Polygon","coordinates":[[[131.4788818359375,0.3570533530247104],[131.8414306640625,0.3570533530247104],[131.8414306640625,-0.005493164054087174],[131.4788818359375,-0.005493164054087174],[131.4788818359375,0.3570533530247104]]]}}]}