{"type":"FeatureCollection","features":[{"type":"Feature","id":"pmtiles:10/909/515:water:1410:0","properties":{"class":"ocean","water":"ocean","kind":"waterway","verification":"verified","source":"OpenMapTiles/OpenStreetMap national PMTiles","sourceId":"10/909/515:water:1410:0","sourceLayer":"water","archive":"https://its.hanifahseptiani45.workers.dev/v1/map/archive/indonesia.pmtiles","updatedAt":"2026-07-26T09:42:13.126Z"},"geometry":{"type":"Polygon","coordinates":[[[139.5648193359375,-1.0491357039128246],[139.9273681640625,-1.0491357039128246],[139.9273681640625,-1.4116003389233214],[139.5648193359375,-1.4116003389233214],[139.5648193359375,-1.0491357039128246]]]}}]}