{"type":"FeatureCollection","features":[{"type":"Feature","id":"pmtiles:10/904/520:water:25601193:0","properties":{"intermittent":0,"class":"river","id":2560119,"water":"river","kind":"waterway","verification":"verified","source":"OpenMapTiles/OpenStreetMap national PMTiles","sourceId":"10/904/520:water:25601193:0","sourceLayer":"water","archive":"https://its.hanifahseptiani45.workers.dev/v1/map/archive/indonesia.pmtiles","updatedAt":"2026-07-26T09:43:28.297Z"},"geometry":{"type":"Polygon","coordinates":[[[137.97626495361328,-3.167940314402756],[137.97592163085938,-3.166397721791398],[137.9769515991211,-3.163055429919737],[137.97892570495605,-3.161941330234299],[137.9802131652832,-3.1616842301369275],[137.98227310180664,-3.1616842301369275],[137.9850196838379,-3.162284130264993],[137.9871654510498,-3.163655329254496],[137.98802375793457,-3.163569629370798],[137.98913955688477,-3.1627983300985676],[137.99128532409668,-3.160655829110226],[137.99317359924316,-3.159541726847749],[137.99463272094727,-3.1591132256591123],[137.99583435058594,-3.1590275254001625],[137.9971218109131,-3.159541726847749],[137.9981517791748,-3.1603130285414665],[138.0003833770752,-3.163226829765094],[138.0014991760254,-3.165369325440679],[138.00167083740234,-3.167940314402756],[137.9999542236328,-3.167940314402756],[137.9996109008789,-3.165712124337688],[137.99875259399414,-3.163141129845954],[137.99652099609375,-3.1620270302526023],[137.9952335357666,-3.1609986295657393],[137.99403190612793,-3.1609129294624836],[137.99325942993164,-3.161084329661918],[137.9908561706543,-3.1638267290006894],[137.9897403717041,-3.164598027507708],[137.98810958862305,-3.1649408266599153],[137.98622131347656,-3.1648551268825003],[137.98270225524902,-3.163398229582114],[137.98115730285645,-3.163569629370798],[137.98004150390625,-3.1640838285668025],[137.979097366333,-3.1648551268825003],[137.97866821289062,-3.165712124337688],[137.97815322875977,-3.167940314402756],[137.97626495361328,-3.167940314402756]]]}},{"type":"Feature","id":"pmtiles:10/904/521:landcover:77491923:1","properties":{"subclass":"wood","class":"wood","kind":"green","verification":"verified","source":"OpenMapTiles/OpenStreetMap national PMTiles","sourceId":"10/904/521:landcover:77491923:1","sourceLayer":"landcover","archive":"https://its.hanifahseptiani45.workers.dev/v1/map/archive/indonesia.pmtiles","updatedAt":"2026-07-26T09:43:38.186Z"},"geometry":{"type":"Polygon","coordinates":[[[138.0933380126953,-3.165026526430225],[138.06750297546387,-3.156970717063345],[138.1695556640625,-3.156970717063345],[138.1695556640625,-3.189022182575158],[138.15393447875977,-3.1861084541118174],[138.13762664794922,-3.1861084541118174],[138.1256103515625,-3.1845658886444284],[138.10895919799805,-3.1771958217598097],[138.0933380126953,-3.165026526430225]]]}},{"type":"Feature","id":"pmtiles:10/904/521:landuse:2979066620:0","properties":{"class":"residential","kind":"green","verification":"verified","source":"OpenMapTiles/OpenStreetMap national PMTiles","sourceId":"10/904/521:landuse:2979066620:0","sourceLayer":"landuse","archive":"https://its.hanifahseptiani45.workers.dev/v1/map/archive/indonesia.pmtiles","updatedAt":"2026-07-26T09:43:38.186Z"},"geometry":{"type":"Polygon","coordinates":[[[137.94450759887695,-3.303165207618946],[137.94347763061523,-3.3053074076166524],[137.942533493042,-3.3047075920834175],[137.94279098510742,-3.3033365837889193],[137.94407844543457,-3.302908143308528],[137.94442176818848,-3.302222638155328],[137.94373512268066,-3.3012800677970375],[137.9451084136963,-3.301879885401277],[137.94450759887695,-3.303165207618946]]]}},{"type":"Feature","id":"pmtiles:10/904/521:landuse:2979066620:1","properties":{"class":"residential","kind":"green","verification":"verified","source":"OpenMapTiles/OpenStreetMap national PMTiles","sourceId":"10/904/521:landuse:2979066620:1","sourceLayer":"landuse","archive":"https://its.hanifahseptiani45.workers.dev/v1/map/archive/indonesia.pmtiles","updatedAt":"2026-07-26T09:43:38.186Z"},"geometry":{"type":"Polygon","coordinates":[[[137.96931266784668,-3.5117076567232886],[137.97154426574707,-3.510508282610587],[137.97223091125488,-3.510765291478691],[137.97188758850098,-3.512050334758243],[137.96931266784668,-3.5117076567232886]]]}},{"type":"Feature","id":"pmtiles:10/904/521:landuse:2979066620:2","properties":{"class":"residential","kind":"green","verification":"verified","source":"OpenMapTiles/OpenStreetMap national PMTiles","sourceId":"10/904/521:landuse:2979066620:2","sourceLayer":"landuse","archive":"https://its.hanifahseptiani45.workers.dev/v1/map/archive/indonesia.pmtiles","updatedAt":"2026-07-26T09:43:38.186Z"},"geometry":{"type":"Polygon","coordinates":[[[138.0784034729004,-3.482065532042455],[138.07960510253906,-3.480780447672231],[138.08115005493164,-3.480266413433199],[138.08157920837402,-3.481979859805662],[138.08029174804688,-3.4823225487060654],[138.08012008666992,-3.4835219588751585],[138.07771682739258,-3.4832649425390088],[138.0784034729004,-3.482065532042455]]]}},{"type":"Feature","id":"pmtiles:10/904/521:landuse:2979066620:3","properties":{"class":"residential","kind":"green","verification":"verified","source":"OpenMapTiles/OpenStreetMap national PMTiles","sourceId":"10/904/521:landuse:2979066620:3","sourceLayer":"landuse","archive":"https://its.hanifahseptiani45.workers.dev/v1/map/archive/indonesia.pmtiles","updatedAt":"2026-07-26T09:43:38.187Z"},"geometry":{"type":"Polygon","coordinates":[[[138.14569473266602,-3.262119766374269],[138.14586639404297,-3.2616913082167684],[138.15187454223633,-3.2616913082167684],[138.15350532531738,-3.2640906715462137],[138.15316200256348,-3.2662329553910894],[138.15144538879395,-3.2663186466498217],[138.1498146057129,-3.26469051148338],[138.14706802368164,-3.264433437268451],[138.14706802368164,-3.2634051397509154],[138.1454372406006,-3.2631480652071048],[138.14552307128906,-3.26263391592218],[138.1519603729248,-3.2634051397509154],[138.15204620361328,-3.262805299046377],[138.14569473266602,-3.262119766374269]]]}},{"type":"Feature","id":"pmtiles:10/904/521:park:77491923:1","properties":{"name":"Taman Nasional Mamberamo Foja","name_int":"Mamberamo Foja National Park","class":"national_park","name:latin":"Taman Nasional Mamberamo Foja","name_de":"Taman Nasional Mamberamo Foja","name_en":"Mamberamo Foja National Park","kind":"green","verification":"verified","source":"OpenMapTiles/OpenStreetMap national PMTiles","sourceId":"10/904/521:park:77491923:1","sourceLayer":"park","archive":"https://its.hanifahseptiani45.workers.dev/v1/map/archive/indonesia.pmtiles","updatedAt":"2026-07-26T09:43:38.187Z"},"geometry":{"type":"Polygon","coordinates":[[[138.0933380126953,-3.165026526430225],[138.06750297546387,-3.156970717063345],[138.1695556640625,-3.156970717063345],[138.1695556640625,-3.189022182575158],[138.15393447875977,-3.1861084541118174],[138.13762664794922,-3.1861084541118174],[138.1256103515625,-3.1845658886444284],[138.10895919799805,-3.1771958217598097],[138.0933380126953,-3.165026526430225]]]}},{"type":"Feature","id":"pmtiles:10/904/521:water:25601193:0","properties":{"intermittent":0,"class":"river","id":2560119,"water":"river","kind":"waterway","verification":"verified","source":"OpenMapTiles/OpenStreetMap national PMTiles","sourceId":"10/904/521:water:25601193:0","sourceLayer":"water","archive":"https://its.hanifahseptiani45.workers.dev/v1/map/archive/indonesia.pmtiles","updatedAt":"2026-07-26T09:43:38.187Z"},"geometry":{"type":"Polygon","coordinates":[[[137.86974906921387,-3.2097608344565174],[137.87283897399902,-3.2101036185619165],[137.87343978881836,-3.210446402552293],[137.8751564025879,-3.212417408264301],[137.87592887878418,-3.2125887998855234],[137.87790298461914,-3.210703490469598],[137.87979125976562,-3.2118175373633875],[137.8806495666504,-3.2131029745765574],[137.8806495666504,-3.2138742361273955],[137.88039207458496,-3.2145598014609646],[137.8805637359619,-3.215673844145357],[137.88485527038574,-3.217730535134308],[137.887601852417,-3.2175591443770486],[137.88880348205566,-3.2171306673578215],[137.89103507995605,-3.215759539686047],[137.89592742919922,-3.2137028447220217],[137.8978157043457,-3.213360061824943],[137.89978981018066,-3.213360061824943],[137.90159225463867,-3.214131323181462],[137.90348052978516,-3.2155024530423333],[137.9047679901123,-3.2168735810598292],[137.9055404663086,-3.2186731837839915],[137.90605545043945,-3.2208155638347904],[137.90596961975098,-3.2221866847017537],[137.9055404663086,-3.223557803721519],[137.90322303771973,-3.2266428147581223],[137.9033088684082,-3.2269855931843097],[137.90416717529297,-3.227585455151896],[137.90485382080078,-3.227585455151896],[137.9055404663086,-3.2273283714948633],[137.9062271118164,-3.2264714255016713],[137.90682792663574,-3.224414752170503],[137.9069995880127,-3.2223580746802583],[137.90725708007812,-3.2213297343763116],[137.90931701660156,-3.217987621216153],[137.91094779968262,-3.216530799228309],[137.91197776794434,-3.216102321776873],[137.91335105895996,-3.216102321776873],[137.91626930236816,-3.2171306673578215],[137.91893005371094,-3.2187588790725385],[137.91927337646484,-3.2187588790725385],[137.9194450378418,-3.21824470723314],[137.91918754577637,-3.217644839759288],[137.91438102722168,-3.214645497095262],[137.9092311859131,-3.20941805023611],[137.9081153869629,-3.207704127409386],[137.9073429107666,-3.2055617198355293],[137.90691375732422,-3.2019624650127554],[137.90785789489746,-3.199391560965765],[137.90871620178223,-3.1982775005425452],[137.90940284729004,-3.1978490154420456],[137.9120635986328,-3.1970777418100056],[137.913179397583,-3.1970777418100056],[137.91712760925293,-3.198106106523838],[137.9191017150879,-3.199220167133305],[137.9227066040039,-3.2005913169904687],[137.9245948791504,-3.2015339814529398],[137.9271697998047,-3.202390948393287],[137.92880058288574,-3.2026480383355675],[137.93025970458984,-3.202390948393287],[137.93137550354004,-3.2015339814529398],[137.93566703796387,-3.1951924038238815],[137.93678283691406,-3.1940783388404554],[137.9396152496338,-3.1925357853293406],[137.94124603271484,-3.192707180278333],[137.94382095336914,-3.192192995345593],[137.94476509094238,-3.1912503223005473],[137.9450225830078,-3.1897934622573842],[137.946138381958,-3.1883366001497677],[137.94862747192383,-3.186194152125566],[137.94939994812012,-3.184480190495151],[137.95025825500488,-3.1836232086101006],[137.9527473449707,-3.182166337769388],[137.95394897460938,-3.1818235443310527],[137.955322265625,-3.181994941064488],[137.95635223388672,-3.1825091310936955],[137.9574680328369,-3.1836232086101006],[137.95849800109863,-3.1849943792838786],[137.95909881591797,-3.186451246123994],[137.95927047729492,-3.1878224130308297],[137.95909881591797,-3.189707764543485],[137.95952796936035,-3.192878575198705],[137.95995712280273,-3.1939069441203145],[137.96072959899902,-3.194592522829211],[137.96218872070312,-3.1950210092897464],[137.96330451965332,-3.1947639174348836],[137.96424865722656,-3.1943354308670138],[137.96536445617676,-3.1930499700904846],[137.96605110168457,-3.190821834266913],[137.96545028686523,-3.1907361366387477],[137.96545028686523,-3.190564741360987],[137.96622276306152,-3.1904790437113917],[137.9688835144043,-3.1885079957989717],[137.96982765197754,-3.1884222979779366],[137.9725742340088,-3.1891935781100926],[137.97540664672852,-3.1915931125988095],[137.97574996948242,-3.1916788101555085],[137.9761791229248,-3.1914217174639674],[137.97635078430176,-3.1909932295017995],[137.97523498535156,-3.1885936936128445],[137.97077178955078,-3.1831090191368503],[137.97025680541992,-3.182166337769388],[137.96974182128906,-3.178652699623271],[137.96991348266602,-3.1769387254527715],[137.97051429748535,-3.1754818451701965],[137.97137260437012,-3.174539156833305],[137.9724884033203,-3.173939263807384],[137.9736042022705,-3.1736821666896446],[137.9765224456787,-3.1744534578509302],[137.9776382446289,-3.175310447354761],[137.97849655151367,-3.1764245326465925],[137.97926902770996,-3.178395603679178],[137.9798698425293,-3.1812236555396396],[137.97995567321777,-3.18388030325049],[137.9802131652832,-3.1852514735819426],[137.9809856414795,-3.1867083400582032],[137.98192977905273,-3.187136829805823],[137.9835605621338,-3.1873082256548884],[137.9850196838379,-3.187136829805823],[137.98656463623047,-3.186622642087272],[137.98742294311523,-3.186022756090935],[137.98802375793457,-3.184908681170242],[137.98819541931152,-3.1834518121475384],[137.98768043518066,-3.181652147569139],[137.98699378967285,-3.180452369437745],[137.98622131347656,-3.1796810827589184],[137.98364639282227,-3.1782242063475366],[137.9802131652832,-3.175310447354761],[137.97892570495605,-3.1733393704331547],[137.97738075256348,-3.1715396882213867],[137.97669410705566,-3.1702541990094204],[137.97592163085938,-3.166397721791398],[137.9769515991211,-3.163055429919737],[137.97892570495605,-3.161941330234299],[137.9802131652832,-3.1616842301369275],[137.98227310180664,-3.1616842301369275],[137.9850196838379,-3.162284130264993],[137.9871654510498,-3.163655329254496],[137.98802375793457,-3.163569629370798],[137.98913955688477,-3.1627983300985676],[137.99128532409668,-3.160655829110226],[137.99317359924316,-3.159541726847749],[137.99463272094727,-3.1591132256591123],[137.99583435058594,-3.1590275254001625],[137.9971218109131,-3.159541726847749],[137.9981517791748,-3.1603130285414665],[138.0003833770752,-3.163226829765094],[138.0014991760254,-3.165369325440679],[138.00192832946777,-3.1706826955909406],[138.0026149749756,-3.1723966801415457],[138.00175666809082,-3.1736821666896446],[138.0007266998291,-3.172568078440335],[138.00029754638672,-3.1713682897521096],[137.9996109008789,-3.165712124337688],[137.99875259399414,-3.163141129845954],[137.99652099609375,-3.1620270302526023],[137.9952335357666,-3.1609986295657393],[137.99403190612793,-3.1609129294624836],[137.99325942993164,-3.161084329661918],[137.9908561706543,-3.1638267290006894],[137.9897403717041,-3.164598027507708],[137.98810958862305,-3.1649408266599153],[137.98622131347656,-3.1648551268825003],[137.98270225524902,-3.163398229582114],[137.98115730285645,-3.163569629370798],[137.98004150390625,-3.1640838285668025],[137.979097366333,-3.1648551268825003],[137.97866821289062,-3.165712124337688],[137.9780673980713,-3.168283112448705],[137.97823905944824,-3.169568604109827],[137.97892570495605,-3.170939793454636],[137.98107147216797,-3.1729965740629495],[137.98338890075684,-3.1763388338206653],[137.98476219177246,-3.1772815205145832],[137.98690795898438,-3.178309905016917],[137.98871040344238,-3.180452369437745],[137.9897403717041,-3.1823377344457953],[137.98999786376953,-3.1835375103823793],[137.98999786376953,-3.1852514735819426],[137.98948287963867,-3.186622642087272],[137.98853874206543,-3.187565319374997],[137.98639297485352,-3.1885936936128445],[137.98467636108398,-3.188936484796983],[137.98330307006836,-3.188936484796983],[137.97995567321777,-3.1873939235687345],[137.97918319702148,-3.1867083400582032],[137.97849655151367,-3.1854228697449827],[137.9780673980713,-3.181395052372821],[137.97720909118652,-3.177795712893854],[137.97635078430176,-3.176767327879162],[137.97497749328613,-3.1760817373002084],[137.97343254089355,-3.1762531349876184],[137.97223091125488,-3.1772815205145832],[137.9714584350586,-3.1787383982570674],[137.9714584350586,-3.1803666709463556],[137.97205924987793,-3.181480750778718],[137.97429084777832,-3.1845658886444284],[137.9747200012207,-3.185679963936053],[137.97592163085938,-3.187651017267413],[137.97592163085938,-3.1881652044720283],[137.9766082763672,-3.1891078803461994],[137.97712326049805,-3.190821834266913],[137.97712326049805,-3.1915931125988095],[137.97669410705566,-3.1924500878441364],[137.9751491546631,-3.1930499700904846],[137.97446250915527,-3.192964272648169],[137.9740333557129,-3.1922786928522555],[137.97334671020508,-3.1925357853293406],[137.9736042022705,-3.191935902782717],[137.97163009643555,-3.191078927108535],[137.96931266784668,-3.1904790437113917],[137.96819686889648,-3.190564741360987],[137.96733856201172,-3.1911646247081222],[137.96605110168457,-3.193821246749522],[137.9655361175537,-3.195877981674201],[137.96467781066895,-3.1977633184004617],[137.9641628265381,-3.1982775005425452],[137.96313285827637,-3.1983631975411555],[137.96175956726074,-3.1980204095037266],[137.96072959899902,-3.1972491360005932],[137.95798301696777,-3.1939069441203145],[137.9575538635254,-3.192621482807411],[137.95772552490234,-3.1886793914195977],[137.95738220214844,-3.1881652044720283],[137.9560089111328,-3.187565319374997],[137.95437812805176,-3.1872225277339368],[137.95154571533203,-3.1855942658795016],[137.95103073120117,-3.185679963936053],[137.95034408569336,-3.1861084541118174],[137.94854164123535,-3.1902219507197174],[137.94742584228516,-3.1915931125988095],[137.94596672058105,-3.192792877742093],[137.9443359375,-3.193478457194786],[137.94330596923828,-3.1936498519864642],[137.93927192687988,-3.196649256208289],[137.93755531311035,-3.1972491360005932],[137.93678283691406,-3.1969063475907973],[137.93575286865234,-3.1977633184004617],[137.93498039245605,-3.199391560965765],[137.93214797973633,-3.2025623416953124],[137.93025970458984,-3.20384779054595],[137.92940139770508,-3.204190576633522],[137.92510986328125,-3.203676397459134],[137.91790008544922,-3.2004199233586377],[137.91558265686035,-3.1990487732721817],[137.91335105895996,-3.1983631975411555],[137.91223526000977,-3.1982775005425452],[137.91043281555176,-3.1988773793824095],[137.90888786315918,-3.2002485296981575],[137.90828704833984,-3.2025623416953124],[137.90863037109375,-3.2043619696342347],[137.90974617004395,-3.2068471649184147],[137.91120529174805,-3.208903873689877],[137.91523933410645,-3.21318867033321],[137.9186725616455,-3.215759539686047],[137.92038917541504,-3.216273712779042],[137.92107582092285,-3.217216362776071],[137.92141914367676,-3.217987621216153],[137.92081832885742,-3.2188445743538665],[137.92038917541504,-3.220301393033594],[137.91927337646484,-3.220986954044136],[137.9190158843994,-3.221415429441322],[137.91884422302246,-3.221415429441322],[137.9190158843994,-3.2209012589430728],[137.9165267944336,-3.219615831561512],[137.9142951965332,-3.219101660154635],[137.9117202758789,-3.2188445743538665],[137.91077613830566,-3.219101660154635],[137.9091453552246,-3.220729868719289],[137.90888786315918,-3.2215011244991274],[137.90854454040527,-3.2245861417736563],[137.90777206420898,-3.2264714255016713],[137.90717124938965,-3.227414066054436],[137.90468215942383,-3.229127955727904],[137.90390968322754,-3.2292136501356623],[137.90202140808105,-3.227671149689783],[137.9011631011963,-3.2251003104098004],[137.90142059326172,-3.2248432261242215],[137.90167808532715,-3.225357394630379],[137.90193557739258,-3.2245861417736563],[137.9018497467041,-3.2236434985989035],[137.90210723876953,-3.223557803721519],[137.902193069458,-3.224071972877539],[137.90270805358887,-3.2229579393777215],[137.90279388427734,-3.2220152946943728],[137.90348052978516,-3.220301393033594],[137.90348052978516,-3.2190159648949077],[137.90313720703125,-3.217987621216153],[137.90227890014648,-3.2171306673578215],[137.89987564086914,-3.215845235219561],[137.89772987365723,-3.215759539686047],[137.89395332336426,-3.216102321776873],[137.8926658630371,-3.216616494696993],[137.88923263549805,-3.2186731837839915],[137.8871726989746,-3.2190159648949077],[137.88399696350098,-3.2189302696279896],[137.88253784179688,-3.2185017931852684],[137.87979125976562,-3.216702190158472],[137.87927627563477,-3.216787885612746],[137.87687301635742,-3.2188445743538665],[137.87558555603027,-3.2192730506524185],[137.87498474121094,-3.2191873554071293],[137.8740406036377,-3.21833040255774],[137.87301063537598,-3.2171306673578215],[137.87232398986816,-3.215759539686047],[137.87232398986816,-3.2149882795604867],[137.8729248046875,-3.214045627503964],[137.87283897399902,-3.212931583041666],[137.8711223602295,-3.2119032332279573],[137.869234085083,-3.2119889290853223],[137.8688907623291,-3.212417408264301],[137.86786079406738,-3.215673844145357],[137.8670883178711,-3.216787885612746],[137.86511421203613,-3.2184160978751066],[137.8637409210205,-3.2187588790725385],[137.8637409210205,-3.216102321776873],[137.86434173583984,-3.2155881485974476],[137.8652000427246,-3.2151596707499124],[137.8666591644287,-3.2134457575599953],[137.86786079406738,-3.2106177945043584],[137.86974906921387,-3.2097608344565174]],[[137.87670135498047,-3.213360061824943],[137.87464141845703,-3.2136171490085417],[137.87378311157227,-3.213959931819275],[137.87335395812988,-3.2144741058194626],[137.87309646606445,-3.2151596707499124],[137.87335395812988,-3.216102321776873],[137.87464141845703,-3.218073316562368],[137.87575721740723,-3.2185874884882395],[137.87652969360352,-3.2185017931852684],[137.87738800048828,-3.2179019258627477],[137.8791904449463,-3.2160166262649597],[137.87927627563477,-3.214645497095262],[137.87893295288086,-3.213274366082672],[137.87824630737305,-3.2123317124428894],[137.87670135498047,-3.213360061824943]],[[137.9575538635254,-3.187651017267413],[137.9574680328369,-3.186022756090935],[137.95618057250977,-3.184822983049486],[137.95506477355957,-3.1843944923387397],[137.95394897460938,-3.1843087941751804],[137.95248985290527,-3.184651586786572],[137.9516315460205,-3.185080077390353],[137.95266151428223,-3.185937058062919],[137.9545497894287,-3.18687973597865],[137.9575538635254,-3.187651017267413]]]}},{"type":"Feature","id":"pmtiles:10/904/521:water:78032523:0","properties":{"intermittent":0,"class":"river","id":7803252,"water":"river","kind":"waterway","verification":"verified","source":"OpenMapTiles/OpenStreetMap national PMTiles","sourceId":"10/904/521:water:78032523:0","sourceLayer":"water","archive":"https://its.hanifahseptiani45.workers.dev/v1/map/archive/indonesia.pmtiles","updatedAt":"2026-07-26T09:43:38.187Z"},"geometry":{"type":"Polygon","coordinates":[[[138.0110263824463,-3.156970717063345],[138.01111221313477,-3.1582562227512625],[138.01076889038086,-3.159713127273662],[138.01085472106934,-3.160570128978648],[138.0099105834961,-3.162541230213648],[138.0069065093994,-3.1651979259496414],[138.00673484802246,-3.1662263224705214],[138.00793647766113,-3.169740002877319],[138.0076789855957,-3.17188248507469],[138.00750732421875,-3.1726537775790717],[138.00647735595703,-3.173853564775243],[138.00493240356445,-3.1749676516385534],[138.0044174194336,-3.1749676516385534],[138.00175666809082,-3.1736821666896446],[138.0026149749756,-3.1723966801415457],[138.0033016204834,-3.1728251758352286],[138.00484657287598,-3.172739476710703],[138.00561904907227,-3.172225281814349],[138.00630569458008,-3.1708540941738477],[138.00639152526855,-3.1703398983399325],[138.0054473876953,-3.1676832157937866],[138.00518989562988,-3.165969223436008],[138.00604820251465,-3.163741029131131],[138.0069065093994,-3.1627983300985676],[138.0076789855957,-3.162541230213648],[138.00905227661133,-3.161598530090316],[138.0095672607422,-3.1603987286942754],[138.0095672607422,-3.158513323697889],[138.00939559936523,-3.1576563202949046],[138.00905227661133,-3.156970717063345],[138.0110263824463,-3.156970717063345]]]}},{"type":"Feature","id":"pmtiles:10/904/521:water:6035742732:0","properties":{"intermittent":0,"class":"river","id":603574273,"water":"river","kind":"waterway","verification":"verified","source":"OpenMapTiles/OpenStreetMap national PMTiles","sourceId":"10/904/521:water:6035742732:0","sourceLayer":"water","archive":"https://its.hanifahseptiani45.workers.dev/v1/map/archive/indonesia.pmtiles","updatedAt":"2026-07-26T09:43:38.187Z"},"geometry":{"type":"Polygon","coordinates":[[[137.8070068359375,-3.2178162305021516],[137.80760765075684,-3.2178162305021516],[137.8088092803955,-3.217302058187144],[137.81018257141113,-3.216102321776873],[137.81258583068848,-3.21481688834227],[137.8147315979004,-3.2149025839549807],[137.8165340423584,-3.215673844145357],[137.81807899475098,-3.2174734489876187],[137.82254219055176,-3.219872917167635],[137.82614707946777,-3.2215011244991274],[137.82546043395996,-3.2234721088369156],[137.82082557678223,-3.221158344224648],[137.81610488891602,-3.217644839759288],[137.81198501586914,-3.216787885612746],[137.81112670898438,-3.217216362776071],[137.8084659576416,-3.219787221972794],[137.8070068359375,-3.220301393033594],[137.8070068359375,-3.2178162305021516]]]}},{"type":"Feature","id":"pmtiles:10/904/521:water:6035742742:0","properties":{"intermittent":0,"class":"river","id":603574274,"water":"river","kind":"waterway","verification":"verified","source":"OpenMapTiles/OpenStreetMap national PMTiles","sourceId":"10/904/521:water:6035742742:0","sourceLayer":"water","archive":"https://its.hanifahseptiani45.workers.dev/v1/map/archive/indonesia.pmtiles","updatedAt":"2026-07-26T09:43:38.187Z"},"geometry":{"type":"Polygon","coordinates":[[[137.82614707946777,-3.2215011244991274],[137.82812118530273,-3.2216725145930667],[137.82923698425293,-3.222443769658696],[137.83095359802246,-3.2225294646299005],[137.83284187316895,-3.2221866847017537],[137.83430099487305,-3.2215011244991274],[137.8385066986084,-3.2215011244991274],[137.8414249420166,-3.2223580746802583],[137.84408569335938,-3.22398627803625],[137.8451156616211,-3.2241576677116086],[137.8458023071289,-3.223557803721519],[137.8462314605713,-3.2217582096292148],[137.845458984375,-3.219615831561512],[137.84348487854004,-3.2181590119013634],[137.84279823303223,-3.2171306673578215],[137.84193992614746,-3.214131323181462],[137.84185409545898,-3.2123317124428894],[137.84236907958984,-3.2101036185619165],[137.843656539917,-3.2085610891819982],[137.84554481506348,-3.2078755198213855],[137.84708976745605,-3.2084753930370766],[137.84992218017578,-3.2119032332279573],[137.85103797912598,-3.2125887998855234],[137.85069465637207,-3.214045627503964],[137.84932136535645,-3.2134457575599953],[137.84811973571777,-3.212417408264301],[137.8469181060791,-3.2125031040785075],[137.845458984375,-3.213531453287871],[137.84442901611328,-3.214645497095262],[137.84425735473633,-3.2160166262649597],[137.84640312194824,-3.21833040255774],[137.8476905822754,-3.2220152946943728],[137.84751892089844,-3.2231293292263246],[137.84674644470215,-3.2251860051572123],[137.84597396850586,-3.226042952234124],[137.84451484680176,-3.226128646902069],[137.84185409545898,-3.2251860051572123],[137.83807754516602,-3.2232150241397903],[137.83721923828125,-3.2230436343056255],[137.8366184234619,-3.2232150241397903],[137.83447265625,-3.224757531347933],[137.8330135345459,-3.225271699897405],[137.8297519683838,-3.2251003104098004],[137.82546043395996,-3.2234721088369156],[137.82614707946777,-3.2215011244991274]]]}},{"type":"Feature","id":"pmtiles:10/904/521:water:6035742752:0","properties":{"intermittent":0,"class":"river","id":603574275,"water":"river","kind":"waterway","verification":"verified","source":"OpenMapTiles/OpenStreetMap national PMTiles","sourceId":"10/904/521:water:6035742752:0","sourceLayer":"water","archive":"https://its.hanifahseptiani45.workers.dev/v1/map/archive/indonesia.pmtiles","updatedAt":"2026-07-26T09:43:38.187Z"},"geometry":{"type":"Polygon","coordinates":[[[137.85103797912598,-3.2125887998855234],[137.8531837463379,-3.212246016614287],[137.85524368286133,-3.2125887998855234],[137.85884857177734,-3.21481688834227],[137.86133766174316,-3.2168735810598292],[137.86176681518555,-3.2169592764997077],[137.8627109527588,-3.216702190158472],[137.8637409210205,-3.216102321776873],[137.8637409210205,-3.2187588790725385],[137.86245346069336,-3.2188445743538665],[137.85893440246582,-3.2181590119013634],[137.8579044342041,-3.217644839759288],[137.85738945007324,-3.216702190158472],[137.8553295135498,-3.2145598014609646],[137.85249710083008,-3.2144741058194626],[137.85069465637207,-3.214045627503964],[137.85103797912598,-3.2125887998855234]]]}},{"type":"Feature","id":"pmtiles:10/904/521:water:9758632232:0","properties":{"intermittent":0,"class":"lake","id":975863223,"water":"lake","kind":"waterway","verification":"verified","source":"OpenMapTiles/OpenStreetMap national PMTiles","sourceId":"10/904/521:water:9758632232:0","sourceLayer":"water","archive":"https://its.hanifahseptiani45.workers.dev/v1/map/archive/indonesia.pmtiles","updatedAt":"2026-07-26T09:43:38.187Z"},"geometry":{"type":"Polygon","coordinates":[[[137.86468505859375,-3.2080469122046367],[137.86459922790527,-3.2078755198213855],[137.86468505859375,-3.210017922546342],[137.8652858734131,-3.210446402552293],[137.86468505859375,-3.2103607065654813],[137.8645133972168,-3.2099322265235912],[137.86425590515137,-3.207189950000995],[137.86356925964355,-3.205476023439246],[137.86382675170898,-3.20564741622465],[137.86365509033203,-3.2051332377822774],[137.86314010620117,-3.2044476661238406],[137.86236763000488,-3.204019183604089],[137.86039352416992,-3.2035050043435973],[137.8597068786621,-3.204019183604089],[137.85893440246582,-3.204961844910727],[137.85850524902344,-3.2066757723340515],[137.85910606384277,-3.207789823618981],[137.86005020141602,-3.2086467853197576],[137.8615951538086,-3.2095037463019906],[137.8640842437744,-3.211303362024978],[137.86348342895508,-3.2111319701879637],[137.86331176757812,-3.2120746249355108],[137.8630542755127,-3.2121603207785085],[137.8615951538086,-3.2107891864276468],[137.85850524902344,-3.2098465304936354],[137.8579044342041,-3.209332354163024],[137.85730361938477,-3.20838969688495],[137.85687446594238,-3.2064186834036406],[137.8575611114502,-3.204961844910727],[137.85841941833496,-3.203676397459134],[137.8597927093506,-3.2028194315945626],[137.8611660003662,-3.2026480383355675],[137.86236763000488,-3.2028194315945626],[137.8637409210205,-3.203676397459134],[137.86468505859375,-3.204790452010471],[137.86537170410156,-3.2064186834036406],[137.865629196167,-3.2095037463019906],[137.86554336547852,-3.2097608344565174],[137.86494255065918,-3.210017922546342],[137.86468505859375,-3.2080469122046367]]]}},{"type":"Feature","id":"pmtiles:10/904/521:waterway:3742953380:0","properties":{"name_int":"Toli","name_de":"Toli","name":"Toli","name:id":"Sungai Toli","class":"river","name:latin":"Toli","name_en":"Toli","waterway":"river","kind":"waterway","verification":"verified","source":"OpenMapTiles/OpenStreetMap national PMTiles","sourceId":"10/904/521:waterway:3742953380:0","sourceLayer":"waterway","archive":"https://its.hanifahseptiani45.workers.dev/v1/map/archive/indonesia.pmtiles","updatedAt":"2026-07-26T09:43:38.187Z"},"geometry":{"type":"LineString","coordinates":[[138.1703281402588,-3.4366581585590836],[138.1666374206543,-3.434601924247289],[138.16560745239258,-3.4343448946468413],[138.16526412963867,-3.434601924247289],[138.16431999206543,-3.4359727476140733],[138.1640625,-3.4376005978044475],[138.1637191772461,-3.43837168376713],[138.16320419311523,-3.438543036118631],[138.16268920898438,-3.438200331384863],[138.16234588623047,-3.437343569011688],[138.16157341003418,-3.4369151875365134],[138.1577968597412,-3.4368295112184057],[138.15625190734863,-3.4364011295124044],[138.15402030944824,-3.435115983240536],[138.15324783325195,-3.4352873361767706],[138.15213203430176,-3.4365724822178834],[138.15135955810547,-3.4369151875365134],[138.15058708190918,-3.4365724822178834],[138.1497287750244,-3.434858953778516],[138.14947128295898,-3.4329740689426416],[138.14861297607422,-3.4323743320783393],[138.1493854522705,-3.431774594837492],[138.14947128295898,-3.4312605340457196],[138.1490421295166,-3.4304037654449218],[138.1490421295166,-3.429804026967389],[138.15007209777832,-3.429632673047564],[138.15153121948242,-3.4286045488836976],[138.15170288085938,-3.4280048092776525],[138.15041542053223,-3.4262912654742195],[138.14921379089355,-3.42594855634529],[138.1486988067627,-3.426548297240373],[138.1457805633545,-3.428090486387248],[138.1450080871582,-3.4264626199926624],[138.14483642578125,-3.4243206863072544],[138.1413173675537,-3.422350103084881],[138.1387424468994,-3.4205508713855153],[138.13651084899902,-3.4167810416382878],[138.1340217590332,-3.4160099382741578],[138.13316345214844,-3.4138679812351143],[138.13170433044434,-3.412925518624462],[138.12827110290527,-3.4124114477198617],[138.1252670288086,-3.4111262692552202],[138.1249237060547,-3.4101838039557038],[138.12569618225098,-3.4081275128232704],[138.12466621398926,-3.405214426196352],[138.12389373779297,-3.4042719551063243],[138.12320709228516,-3.4040149173762444]]}},{"type":"Feature","id":"pmtiles:10/904/522:landuse:2979066470:0","properties":{"class":"residential","kind":"green","verification":"verified","source":"OpenMapTiles/OpenStreetMap national PMTiles","sourceId":"10/904/522:landuse:2979066470:0","sourceLayer":"landuse","archive":"https://its.hanifahseptiani45.workers.dev/v1/map/archive/indonesia.pmtiles","updatedAt":"2026-07-26T09:43:47.714Z"},"geometry":{"type":"Polygon","coordinates":[[[137.96931266784668,-3.5117076567232886],[137.97154426574707,-3.510508282610587],[137.97223091125488,-3.510765291478691],[137.97188758850098,-3.512050334758243],[137.96931266784668,-3.5117076567232886]]]}},{"type":"Feature","id":"pmtiles:8/226/130:water:25601193:0","properties":{"intermittent":0,"class":"river","id":2560119,"water":"river","kind":"waterway","verification":"verified","source":"OpenMapTiles/OpenStreetMap national PMTiles","sourceId":"8/226/130:water:25601193:0","sourceLayer":"water","archive":"https://its.hanifahseptiani45.workers.dev/v1/map/archive/indonesia.pmtiles","updatedAt":"2026-07-26T09:35:39.188Z"},"geometry":{"type":"Polygon","coordinates":[[[137.86983489990234,-3.2097608344565174],[137.8729248046875,-3.2101036185619165],[137.87601470947266,-3.2125031040785075],[137.8780746459961,-3.2107891864276468],[137.88047790527344,-3.21318867033321],[137.88047790527344,-3.2155881485974476],[137.88494110107422,-3.217644839759288],[137.8887176513672,-3.2169592764997077],[137.89592742919922,-3.2138742361273955],[137.8997039794922,-3.213531453287871],[137.90142059326172,-3.2142170188517554],[137.90485382080078,-3.2169592764997077],[137.9058837890625,-3.220729868719289],[137.9055404663086,-3.2234721088369156],[137.90313720703125,-3.226557120133492],[137.90485382080078,-3.227585455151896],[137.9062271118164,-3.226557120133492],[137.90725708007812,-3.221415429441322],[137.9110336303711,-3.216616494696993],[137.91343688964844,-3.2159309307458557],[137.91893005371094,-3.2186731837839915],[137.91961669921875,-3.21833040255774],[137.91446685791016,-3.2145598014609646],[137.90828704833984,-3.207704127409386],[137.90691375732422,-3.201876768315131],[137.90863037109375,-3.198106106523838],[137.91309356689453,-3.1970777418100056],[137.9271697998047,-3.2025623416953124],[137.93025970458984,-3.2025623416953124],[137.93678283691406,-3.193992641483959],[137.9395294189453,-3.192621482807411],[137.9436492919922,-3.1922786928522555],[137.9494857788086,-3.1843944923387397],[137.95394897460938,-3.181652147569139],[137.95635223388672,-3.182680527713103],[137.95841217041016,-3.185080077390353],[137.95944213867188,-3.192964272648169],[137.9608154296875,-3.1946782201356143],[137.96424865722656,-3.1943354308670138],[137.96527862548828,-3.192964272648169],[137.9659652709961,-3.1909075318879303],[137.96527862548828,-3.190564741360987],[137.96905517578125,-3.1885079957989717],[137.9724884033203,-3.1891935781100926],[137.97557830810547,-3.1915931125988095],[137.97626495361328,-3.1909075318879303],[137.97523498535156,-3.1885079957989717],[137.97042846679688,-3.1823377344457953],[137.96974182128906,-3.1768530266695336],[137.9714584350586,-3.1744534578509302],[137.97351837158203,-3.1737678657359965],[137.9776382446289,-3.1754818451701965],[137.97935485839844,-3.1782242063475366],[137.98107147216797,-3.1867940380220006],[137.9834747314453,-3.187136829805823],[137.98656463623047,-3.1867940380220006],[137.98828125,-3.1833661139055494],[137.98690795898438,-3.180623766399137],[137.98038482666016,-3.175139049510875],[137.977294921875,-3.171711086662242],[137.97592163085938,-3.1662263224705214],[137.9769515991211,-3.163141129845954],[137.97901153564453,-3.1621127302638143],[137.9824447631836,-3.161769930176476],[137.9879379272461,-3.1634839294799946],[137.99137115478516,-3.160741529234727],[137.99583435058594,-3.1590275254001625],[137.99823760986328,-3.1603987286942754],[138.00167083740234,-3.1651979259496414],[138.00270080566406,-3.1723966801415457],[138.00167083740234,-3.1737678657359965],[138.00029754638672,-3.1713682897521096],[137.9989242553711,-3.163141129845954],[137.99514770507812,-3.161084329661918],[137.9930877685547,-3.161084329661918],[137.98965454101562,-3.1645123277019422],[137.98622131347656,-3.1648551268825003],[137.9827880859375,-3.1634839294799946],[137.98004150390625,-3.164169528407996],[137.97866821289062,-3.165883523743659],[137.97832489013672,-3.1696543034971256],[137.9834747314453,-3.1765102314654143],[137.98690795898438,-3.1782242063475366],[137.9886245727539,-3.1802809724478607],[137.98999786376953,-3.1833661139055494],[137.98965454101562,-3.1867940380220006],[137.98484802246094,-3.18885078701166],[137.98004150390625,-3.1874796214754326],[137.97866821289062,-3.1854228697449827],[137.977294921875,-3.1778814115988183],[137.97489166259766,-3.1761674361474803],[137.97351837158203,-3.1761674361474803],[137.9714584350586,-3.1789097955032872],[137.9714584350586,-3.1802809724478607],[137.9766082763672,-3.1891935781100926],[137.977294921875,-3.1915931125988095],[137.97523498535156,-3.192964272648169],[137.9718017578125,-3.1912503223005473],[137.96836853027344,-3.190564741360987],[137.96424865722656,-3.198106106523838],[137.96184539794922,-3.198106106523838],[137.95806884765625,-3.193992641483959],[137.95738220214844,-3.1881652044720283],[137.95154571533203,-3.185765661985471],[137.9501724243164,-3.1861084541118174],[137.94742584228516,-3.1915931125988095],[137.9391860961914,-3.196734953342954],[137.93678283691406,-3.1970777418100056],[137.93231964111328,-3.2025623416953124],[137.92957305908203,-3.2042762731374665],[137.92510986328125,-3.203590700904954],[137.91343688964844,-3.1984488945326035],[137.91034698486328,-3.198791682426773],[137.90897369384766,-3.200162832857174],[137.90828704833984,-3.2025623416953124],[137.90966033935547,-3.2066757723340515],[137.91515350341797,-3.21318867033321],[137.92030334472656,-3.216273712779042],[137.92133331298828,-3.217987621216153],[137.91893005371094,-3.221415429441322],[137.9165267944336,-3.2197015267707627],[137.9106903076172,-3.2190159648949077],[137.90931701660156,-3.220729868719289],[137.90794372558594,-3.226557120133492],[137.90485382080078,-3.2289565668907017],[137.90210723876953,-3.227585455151896],[137.9010772705078,-3.2251860051572123],[137.90176391601562,-3.2251860051572123],[137.90279388427734,-3.222786549500242],[137.90313720703125,-3.217987621216153],[137.8997039794922,-3.2159309307458557],[137.89386749267578,-3.2159309307458557],[137.88734436035156,-3.2190159648949077],[137.8839111328125,-3.2190159648949077],[137.87979125976562,-3.216616494696993],[137.87567138671875,-3.219358745890517],[137.8722381591797,-3.2155881485974476],[137.8729248046875,-3.2128458872634127],[137.87120819091797,-3.2118175373633875],[137.86914825439453,-3.2121603207785085],[137.8670883178711,-3.2169592764997077],[137.86365509033203,-3.2186731837839915],[137.86365509033203,-3.216273712779042],[137.8667449951172,-3.213531453287871],[137.8677749633789,-3.210446402552293],[137.86983489990234,-3.2097608344565174]]]}}]}