{"type":"FeatureCollection","features":[{"type":"Feature","id":"pmtiles:10/904/531:water:630:0","properties":{"class":"ocean","water":"ocean","kind":"waterway","verification":"verified","source":"OpenMapTiles/OpenStreetMap national PMTiles","sourceId":"10/904/531:water:630:0","sourceLayer":"water","archive":"https://its.hanifahseptiani45.workers.dev/v1/map/archive/indonesia.pmtiles","updatedAt":"2026-07-26T09:45:14.328Z"},"geometry":{"type":"Polygon","coordinates":[[[137.8070068359375,-6.659151487659315],[138.1695556640625,-6.659151487659315],[138.1695556640625,-7.019119954643813],[137.8070068359375,-7.019119954643813],[137.8070068359375,-6.659151487659315]]]}}]}