{"type":"FeatureCollection","features":[{"type":"Feature","id":"pmtiles:10/902/508:water:2770:0","properties":{"class":"ocean","water":"ocean","kind":"waterway","verification":"verified","source":"OpenMapTiles/OpenStreetMap national PMTiles","sourceId":"10/902/508:water:2770:0","sourceLayer":"water","archive":"https://its.hanifahseptiani45.workers.dev/v1/map/archive/indonesia.pmtiles","updatedAt":"2026-07-26T09:40:50.233Z"},"geometry":{"type":"Polygon","coordinates":[[[137.1038818359375,1.4116003389233356],[137.4664306640625,1.4116003389233356],[137.4664306640625,1.0491357039128246],[137.1038818359375,1.0491357039128246],[137.1038818359375,1.4116003389233356]]]}}]}