{"type":"FeatureCollection","features":[{"type":"Feature","id":"pmtiles:10/912/518:landcover:132467083:0","properties":{"subclass":"wood","class":"wood","kind":"green","verification":"verified","source":"OpenMapTiles/OpenStreetMap national PMTiles","sourceId":"10/912/518:landcover:132467083:0","sourceLayer":"landcover","archive":"https://its.hanifahseptiani45.workers.dev/v1/map/archive/indonesia.pmtiles","updatedAt":"2026-07-26T09:42:51.696Z"},"geometry":{"type":"Polygon","coordinates":[[[140.63178062438965,-2.4656692707025485],[140.6195068359375,-2.4656692707025485],[140.6195068359375,-2.4500624564975055],[140.62045097351074,-2.451005730664235],[140.62199592590332,-2.451005730664235],[140.62302589416504,-2.453235285142739],[140.62448501586914,-2.453749797186944],[140.62602996826172,-2.455722091521963],[140.6272315979004,-2.455464835904209],[140.62748908996582,-2.4547788206813976],[140.62877655029297,-2.454264309033192],[140.6297206878662,-2.452978029046392],[140.63203811645508,-2.4547788206813976],[140.6327247619629,-2.4547788206813976],[140.63298225402832,-2.4575228794589066],[140.63203811645508,-2.458980658390715],[140.63246726989746,-2.4597524230628096],[140.63178062438965,-2.460266932596099],[140.63092231750488,-2.463868493768487],[140.63143730163574,-2.465412017003999],[140.63178062438965,-2.4656692707025485]]]}},{"type":"Feature","id":"pmtiles:10/912/518:transportation:7066506610:0","properties":{"class":"ferry","highway":"ferry","kind":"road","verification":"verified","source":"OpenMapTiles/OpenStreetMap national PMTiles","sourceId":"10/912/518:transportation:7066506610:0","sourceLayer":"transportation","archive":"https://its.hanifahseptiani45.workers.dev/v1/map/archive/indonesia.pmtiles","updatedAt":"2026-07-26T09:42:51.696Z"},"geometry":{"type":"LineString","coordinates":[[140.6195068359375,-2.431882861235337],[140.69151878356934,-2.4656692707025485]]}},{"type":"Feature","id":"pmtiles:10/912/518:transportation:7066506610:1","properties":{"class":"ferry","highway":"ferry","kind":"road","verification":"verified","source":"OpenMapTiles/OpenStreetMap national PMTiles","sourceId":"10/912/518:transportation:7066506610:1","sourceLayer":"transportation","archive":"https://its.hanifahseptiani45.workers.dev/v1/map/archive/indonesia.pmtiles","updatedAt":"2026-07-26T09:42:51.696Z"},"geometry":{"type":"LineString","coordinates":[[140.6195068359375,-2.437285313795144],[140.679931640625,-2.4656692707025485]]}},{"type":"Feature","id":"pmtiles:10/912/518:transportation:7066506610:2","properties":{"class":"ferry","highway":"ferry","kind":"road","verification":"verified","source":"OpenMapTiles/OpenStreetMap national PMTiles","sourceId":"10/912/518:transportation:7066506610:2","sourceLayer":"transportation","archive":"https://its.hanifahseptiani45.workers.dev/v1/map/archive/indonesia.pmtiles","updatedAt":"2026-07-26T09:42:51.696Z"},"geometry":{"type":"LineString","coordinates":[[140.68568229675293,-2.4656692707025485],[140.6195068359375,-2.4346269668294696]]}},{"type":"Feature","id":"pmtiles:10/912/518:water:1380:0","properties":{"class":"ocean","water":"ocean","kind":"waterway","verification":"verified","source":"OpenMapTiles/OpenStreetMap national PMTiles","sourceId":"10/912/518:water:1380:0","sourceLayer":"water","archive":"https://its.hanifahseptiani45.workers.dev/v1/map/archive/indonesia.pmtiles","updatedAt":"2026-07-26T09:42:51.696Z"},"geometry":{"type":"Polygon","coordinates":[[[140.62457084655762,-2.103409206077373],[140.62542915344238,-2.103409206077373],[140.9820556640625,-2.103409206077373],[140.9820556640625,-2.4656692707025485],[140.6480884552002,-2.4656692707025485],[140.6477451324463,-2.465497768242372],[140.64680099487305,-2.465412017003999],[140.64448356628418,-2.4632682342491847],[140.64379692077637,-2.46369699107629],[140.64319610595703,-2.4646402556099645],[140.64242362976074,-2.4653262657600976],[140.64233779907227,-2.4656692707025485],[140.63169479370117,-2.4656692707025485],[140.63143730163574,-2.465412017003999],[140.63092231750488,-2.463868493768487],[140.6311798095703,-2.4623249687437436],[140.63178062438965,-2.4612101995582094],[140.63178062438965,-2.460266932596099],[140.63246726989746,-2.4597524230628096],[140.63203811645508,-2.458980658390715],[140.63298225402832,-2.4575228794589066],[140.6327247619629,-2.4547788206813976],[140.63203811645508,-2.4547788206813976],[140.6297206878662,-2.452978029046392],[140.62877655029297,-2.454264309033192],[140.62748908996582,-2.4547788206813976],[140.6272315979004,-2.455464835904209],[140.62602996826172,-2.455722091521963],[140.62542915344238,-2.4549503245201123],[140.62542915344238,-2.455036076431213],[140.62448501586914,-2.453749797186944],[140.62302589416504,-2.453235285142739],[140.62199592590332,-2.451005730664235],[140.6209659576416,-2.4507484741392176],[140.62045097351074,-2.451005730664235],[140.6195068359375,-2.4500624564975055],[140.6195068359375,-2.103409206077373],[140.62457084655762,-2.103409206077373]]]}}]}