{"type":"FeatureCollection","features":[{"type":"Feature","id":"pmtiles:10/912/506:water:2800:0","properties":{"class":"ocean","water":"ocean","kind":"waterway","verification":"verified","source":"OpenMapTiles/OpenStreetMap national PMTiles","sourceId":"10/912/506:water:2800:0","sourceLayer":"water","archive":"https://its.hanifahseptiani45.workers.dev/v1/map/archive/indonesia.pmtiles","updatedAt":"2026-07-26T09:40:19.891Z"},"geometry":{"type":"Polygon","coordinates":[[[140.6195068359375,2.114388093041839],[140.9820556640625,2.114388093041839],[140.9820556640625,1.7520462233579792],[140.6195068359375,1.7520462233579792],[140.6195068359375,2.114388093041839]]]}}]}