{"type":"FeatureCollection","features":[{"type":"Feature","id":"pmtiles:10/907/494:water:2300:0","properties":{"class":"ocean","water":"ocean","kind":"waterway","verification":"verified","source":"OpenMapTiles/OpenStreetMap national PMTiles","sourceId":"10/907/494:water:2300:0","sourceLayer":"water","archive":"https://its.hanifahseptiani45.workers.dev/v1/map/archive/indonesia.pmtiles","updatedAt":"2026-07-26T09:38:09.171Z"},"geometry":{"type":"Polygon","coordinates":[[[138.8616943359375,6.320758338986863],[139.2242431640625,6.320758338986863],[139.2242431640625,5.960290229693385],[138.8616943359375,5.960290229693385],[138.8616943359375,6.320758338986863]]]}}]}