{"type":"FeatureCollection","features":[{"type":"Feature","id":"pmtiles:10/905/504:water:2800:0","properties":{"class":"ocean","water":"ocean","kind":"waterway","verification":"verified","source":"OpenMapTiles/OpenStreetMap national PMTiles","sourceId":"10/905/504:water:2800:0","sourceLayer":"water","archive":"https://its.hanifahseptiani45.workers.dev/v1/map/archive/indonesia.pmtiles","updatedAt":"2026-07-26T09:39:59.785Z"},"geometry":{"type":"Polygon","coordinates":[[[138.1585693359375,2.816857733037736],[138.5211181640625,2.816857733037736],[138.5211181640625,2.454693068753784],[138.1585693359375,2.454693068753784],[138.1585693359375,2.816857733037736]]]}}]}