{"type":"FeatureCollection","features":[{"type":"Feature","id":"pmtiles:10/911/494:water:1180:0","properties":{"class":"ocean","water":"ocean","kind":"waterway","verification":"verified","source":"OpenMapTiles/OpenStreetMap national PMTiles","sourceId":"10/911/494:water:1180:0","sourceLayer":"water","archive":"https://its.hanifahseptiani45.workers.dev/v1/map/archive/indonesia.pmtiles","updatedAt":"2026-07-26T09:38:09.454Z"},"geometry":{"type":"Polygon","coordinates":[[[140.2679443359375,6.320758338986863],[140.6304931640625,6.320758338986863],[140.6304931640625,5.960290229693385],[140.2679443359375,5.960290229693385],[140.2679443359375,6.320758338986863]]]}}]}