{"type":"FeatureCollection","features":[{"type":"Feature","id":"pmtiles:10/900/527:water:190:0","properties":{"class":"ocean","water":"ocean","kind":"waterway","verification":"verified","source":"OpenMapTiles/OpenStreetMap national PMTiles","sourceId":"10/900/527:water:190:0","sourceLayer":"water","archive":"https://its.hanifahseptiani45.workers.dev/v1/map/archive/indonesia.pmtiles","updatedAt":"2026-07-26T09:44:34.926Z"},"geometry":{"type":"Polygon","coordinates":[[[136.4007568359375,-5.260537879550753],[136.7633056640625,-5.260537879550753],[136.7633056640625,-5.621452591118839],[136.4007568359375,-5.621452591118839],[136.4007568359375,-5.260537879550753]]]}}]}