{"type":"FeatureCollection","features":[{"type":"Feature","id":"pmtiles:10/901/520:landuse:5885110040:0","properties":{"class":"residential","kind":"green","verification":"verified","source":"OpenMapTiles/OpenStreetMap national PMTiles","sourceId":"10/901/520:landuse:5885110040:0","sourceLayer":"landuse","archive":"https://its.hanifahseptiani45.workers.dev/v1/map/archive/indonesia.pmtiles","updatedAt":"2026-07-26T09:43:28.104Z"},"geometry":{"type":"Polygon","coordinates":[[[136.93634033203125,-3.0188982792619186],[136.9332504272461,-3.019412548585393],[136.93307876586914,-3.0182982980768713],[136.93625450134277,-3.018384009695012],[136.93634033203125,-3.0188982792619186]]]}},{"type":"Feature","id":"pmtiles:10/901/520:landuse:5885110040:1","properties":{"class":"residential","kind":"green","verification":"verified","source":"OpenMapTiles/OpenStreetMap national PMTiles","sourceId":"10/901/520:landuse:5885110040:1","sourceLayer":"landuse","archive":"https://its.hanifahseptiani45.workers.dev/v1/map/archive/indonesia.pmtiles","updatedAt":"2026-07-26T09:43:28.104Z"},"geometry":{"type":"Polygon","coordinates":[[[137.0987319946289,-3.159970227859475],[137.09744453430176,-3.1616842301369275],[137.09684371948242,-3.1604844288400216],[137.09864616394043,-3.159198925910985],[137.0987319946289,-3.159970227859475]]]}},{"type":"Feature","id":"pmtiles:10/901/520:landuse:5885110040:2","properties":{"class":"residential","kind":"green","verification":"verified","source":"OpenMapTiles/OpenStreetMap national PMTiles","sourceId":"10/901/520:landuse:5885110040:2","sourceLayer":"landuse","archive":"https://its.hanifahseptiani45.workers.dev/v1/map/archive/indonesia.pmtiles","updatedAt":"2026-07-26T09:43:28.104Z"},"geometry":{"type":"Polygon","coordinates":[[[137.07298278808594,-3.0512967694866404],[137.07118034362793,-3.0490683330615838],[137.07066535949707,-3.0479541131175694],[137.0712661743164,-3.0479541131175694],[137.07263946533203,-3.05026826094128],[137.0731544494629,-3.050011133651182],[137.0734977722168,-3.0505253881698593],[137.07298278808594,-3.0512967694866404]]]}},{"type":"Feature","id":"pmtiles:10/901/520:landuse:5885110040:3","properties":{"class":"residential","kind":"green","verification":"verified","source":"OpenMapTiles/OpenStreetMap national PMTiles","sourceId":"10/901/520:landuse:5885110040:3","sourceLayer":"landuse","archive":"https://its.hanifahseptiani45.workers.dev/v1/map/archive/indonesia.pmtiles","updatedAt":"2026-07-26T09:43:28.104Z"},"geometry":{"type":"Polygon","coordinates":[[[137.07375526428223,-3.054210871686223],[137.0727252960205,-3.05472512419486],[137.07152366638184,-3.0532680747807746],[137.07186698913574,-3.052153859189346],[137.07100868225098,-3.0501825518514067],[137.07375526428223,-3.054210871686223]]]}},{"type":"Feature","id":"pmtiles:10/901/520:water:6037307172:0","properties":{"intermittent":0,"class":"river","id":603730717,"water":"river","kind":"waterway","verification":"verified","source":"OpenMapTiles/OpenStreetMap national PMTiles","sourceId":"10/901/520:water:6037307172:0","sourceLayer":"water","archive":"https://its.hanifahseptiani45.workers.dev/v1/map/archive/indonesia.pmtiles","updatedAt":"2026-07-26T09:43:28.104Z"},"geometry":{"type":"Polygon","coordinates":[[[137.1148681640625,-3.1298033258236444],[137.1148681640625,-3.1318601877374164],[137.11383819580078,-3.132374402584702],[137.11109161376953,-3.1341741525610303],[137.10783004760742,-3.137773643225316],[137.1071434020996,-3.1388877687764563],[137.10662841796875,-3.1402589985930405],[137.10654258728027,-3.1414588232056673],[137.10662841796875,-3.1457438998472753],[137.10783004760742,-3.1490862474020958],[137.10834503173828,-3.1509716694963146],[137.10851669311523,-3.1531141904574014],[137.1082592010498,-3.1546568028167172],[137.10748672485352,-3.155942311367596],[137.1064567565918,-3.156970717063345],[137.1031951904297,-3.1578277210320778],[137.10027694702148,-3.156370813864527],[137.098388671875,-3.1557709103193474],[137.098388671875,-3.154142598951225],[137.1013069152832,-3.154742503436225],[137.10448265075684,-3.1562851133792833],[137.1049976348877,-3.1562851133792833],[137.10577011108398,-3.155942311367596],[137.10688591003418,-3.1546568028167172],[137.10731506347656,-3.153542694120091],[137.10731506347656,-3.1528570881750397],[137.1064567565918,-3.149857556853334],[137.10559844970703,-3.1484863396561735],[137.10482597351074,-3.145401094363777],[137.10474014282227,-3.1442012742840575],[137.1053409576416,-3.13974478762276],[137.10594177246094,-3.1382021531932622],[137.10671424865723,-3.1369166227624277],[137.10851669311523,-3.1350311752713935],[137.10928916931152,-3.1338313432803204],[137.11074829101562,-3.1324601050346956],[137.1148681640625,-3.1298033258236444]]]}},{"type":"Feature","id":"pmtiles:10/901/520:water:6037307312:0","properties":{"intermittent":0,"class":"river","id":603730731,"water":"river","kind":"waterway","verification":"verified","source":"OpenMapTiles/OpenStreetMap national PMTiles","sourceId":"10/901/520:water:6037307312:0","sourceLayer":"water","archive":"https://its.hanifahseptiani45.workers.dev/v1/map/archive/indonesia.pmtiles","updatedAt":"2026-07-26T09:43:28.104Z"},"geometry":{"type":"Polygon","coordinates":[[[137.09023475646973,-3.167940314402756],[137.08843231201172,-3.167940314402756],[137.08911895751953,-3.166397721791398],[137.09014892578125,-3.1624555302378496],[137.08980560302734,-3.1584276233894144],[137.08989143371582,-3.1576563202949046],[137.09040641784668,-3.156370813864527],[137.09126472473145,-3.1557709103193474],[137.09452629089355,-3.154142598951225],[137.09744453430176,-3.153885496923124],[137.098388671875,-3.154142598951225],[137.098388671875,-3.1557709103193474],[137.09710121154785,-3.1552567070049946],[137.09572792053223,-3.15508530584367],[137.0946979522705,-3.1552567070049946],[137.09203720092773,-3.1567993161847454],[137.09160804748535,-3.1579991217409713],[137.0914363861084,-3.159198925910985],[137.09160804748535,-3.1615128300366138],[137.0914363861084,-3.163998128718518],[137.09160804748535,-3.1651979259496414],[137.09117889404297,-3.1664834214411997],[137.09023475646973,-3.167940314402756]]]}},{"type":"Feature","id":"pmtiles:10/901/521:landuse:5885110030:5","properties":{"class":"residential","kind":"green","verification":"verified","source":"OpenMapTiles/OpenStreetMap national PMTiles","sourceId":"10/901/521:landuse:5885110030:5","sourceLayer":"landuse","archive":"https://its.hanifahseptiani45.workers.dev/v1/map/archive/indonesia.pmtiles","updatedAt":"2026-07-26T09:43:37.987Z"},"geometry":{"type":"Polygon","coordinates":[[[137.0987319946289,-3.159970227859475],[137.09744453430176,-3.1616842301369275],[137.09684371948242,-3.1604844288400216],[137.09864616394043,-3.159198925910985],[137.0987319946289,-3.159970227859475]]]}},{"type":"Feature","id":"pmtiles:10/901/521:water:6037307172:0","properties":{"intermittent":0,"class":"river","id":603730717,"water":"river","kind":"waterway","verification":"verified","source":"OpenMapTiles/OpenStreetMap national PMTiles","sourceId":"10/901/521:water:6037307172:0","sourceLayer":"water","archive":"https://its.hanifahseptiani45.workers.dev/v1/map/archive/indonesia.pmtiles","updatedAt":"2026-07-26T09:43:37.987Z"},"geometry":{"type":"Polygon","coordinates":[[[137.10637092590332,-3.156970717063345],[137.1031951904297,-3.1578277210320778],[137.10147857666016,-3.156970717063345],[137.10637092590332,-3.156970717063345]]]}}]}