{"type":"FeatureCollection","features":[{"type":"Feature","id":"pmtiles:10/906/506:water:2800:0","properties":{"class":"ocean","water":"ocean","kind":"waterway","verification":"verified","source":"OpenMapTiles/OpenStreetMap national PMTiles","sourceId":"10/906/506:water:2800:0","sourceLayer":"water","archive":"https://its.hanifahseptiani45.workers.dev/v1/map/archive/indonesia.pmtiles","updatedAt":"2026-07-26T09:40:19.169Z"},"geometry":{"type":"Polygon","coordinates":[[[138.5101318359375,2.114388093041839],[138.8726806640625,2.114388093041839],[138.8726806640625,1.7520462233579792],[138.5101318359375,1.7520462233579792],[138.5101318359375,2.114388093041839]]]}},{"type":"Feature","id":"pmtiles:8/226/126:water:2770:0","properties":{"class":"ocean","water":"ocean","kind":"waterway","verification":"verified","source":"OpenMapTiles/OpenStreetMap national PMTiles","sourceId":"8/226/126:water:2770:0","sourceLayer":"water","archive":"https://its.hanifahseptiani45.workers.dev/v1/map/archive/indonesia.pmtiles","updatedAt":"2026-07-26T09:35:25.321Z"},"geometry":{"type":"Polygon","coordinates":[[[137.79052734375,2.8333171968553046],[139.24072265625,2.8333171968553046],[139.24072265625,1.384142692792011],[137.79052734375,1.384142692792011],[137.79052734375,2.8333171968553046]]]}}]}