{"type":"FeatureCollection","features":[{"type":"Feature","id":"pmtiles:10/905/541:water:570:0","properties":{"class":"ocean","water":"ocean","kind":"waterway","verification":"verified","source":"OpenMapTiles/OpenStreetMap national PMTiles","sourceId":"10/905/541:water:570:0","sourceLayer":"water","archive":"https://its.hanifahseptiani45.workers.dev/v1/map/archive/indonesia.pmtiles","updatedAt":"2026-07-26T09:47:15.501Z"},"geometry":{"type":"Polygon","coordinates":[[[138.1585693359375,-10.13652430945622],[138.5211181640625,-10.13652430945622],[138.5211181640625,-10.493213228263954],[138.1585693359375,-10.493213228263954],[138.1585693359375,-10.13652430945622]]]}}]}