{"type":"FeatureCollection","features":[{"type":"Feature","id":"pmtiles:10/906/508:water:2800:0","properties":{"class":"ocean","water":"ocean","kind":"waterway","verification":"verified","source":"OpenMapTiles/OpenStreetMap national PMTiles","sourceId":"10/906/508:water:2800:0","sourceLayer":"water","archive":"https://its.hanifahseptiani45.workers.dev/v1/map/archive/indonesia.pmtiles","updatedAt":"2026-07-26T09:40:50.482Z"},"geometry":{"type":"Polygon","coordinates":[[[138.5101318359375,1.4116003389233356],[138.8726806640625,1.4116003389233356],[138.8726806640625,1.0491357039128246],[138.5101318359375,1.0491357039128246],[138.5101318359375,1.4116003389233356]]]}}]}