{"type":"FeatureCollection","features":[{"type":"Feature","id":"pmtiles:10/909/531:landcover:7790408182:0","properties":{"subclass":"wetland","class":"wetland","kind":"green","verification":"verified","source":"OpenMapTiles/OpenStreetMap national PMTiles","sourceId":"10/909/531:landcover:7790408182:0","sourceLayer":"landcover","archive":"https://its.hanifahseptiani45.workers.dev/v1/map/archive/indonesia.pmtiles","updatedAt":"2026-07-26T09:45:14.660Z"},"geometry":{"type":"Polygon","coordinates":[[[139.7633457183838,-6.777466413087851],[139.76360321044922,-6.780193794282241],[139.7651481628418,-6.782324550100682],[139.76531982421875,-6.784029147970301],[139.76506233215332,-6.7865860334627115],[139.76283073425293,-6.7901656503384515],[139.76300239562988,-6.791870220444736],[139.76454734802246,-6.793915696599797],[139.76454734802246,-6.794853203596901],[139.7632598876953,-6.79672821210751],[139.76343154907227,-6.798432758952913],[139.7648048400879,-6.800052072856531],[139.77192878723145,-6.799029348920669],[139.7742462158203,-6.799370257141135],[139.7750186920166,-6.800222526634201],[139.77458953857422,-6.800904341140225],[139.77295875549316,-6.800819114379891],[139.77089881896973,-6.803461136919253],[139.76755142211914,-6.804654303624758],[139.76506233215332,-6.804654303624758],[139.76197242736816,-6.803375910612559],[139.76085662841797,-6.802097514197385],[139.75974082946777,-6.79979639207663],[139.76008415222168,-6.795961164055171],[139.76162910461426,-6.793830468600348],[139.7614574432373,-6.791529306906611],[139.75948333740234,-6.789739506868358],[139.75974082946777,-6.788034929214561],[139.7611141204834,-6.785733739807085],[139.76025581359863,-6.783432539402099],[139.7607707977295,-6.781301788483773],[139.76068496704102,-6.778148259833188],[139.76162910461426,-6.775250404506025],[139.76240158081055,-6.774739016464068],[139.76386070251465,-6.775250404506025],[139.7633457183838,-6.777466413087851]]]}},{"type":"Feature","id":"pmtiles:10/909/531:landuse:7786363160:0","properties":{"class":"residential","kind":"green","verification":"verified","source":"OpenMapTiles/OpenStreetMap national PMTiles","sourceId":"10/909/531:landuse:7786363160:0","sourceLayer":"landuse","archive":"https://its.hanifahseptiani45.workers.dev/v1/map/archive/indonesia.pmtiles","updatedAt":"2026-07-26T09:45:14.660Z"},"geometry":{"type":"Polygon","coordinates":[[[139.81990814208984,-6.86141151381193],[139.81947898864746,-6.862604535918663],[139.82025146484375,-6.8674618093397015],[139.81990814208984,-6.868825245597819],[139.81922149658203,-6.867802668770594],[139.81879234313965,-6.865672293320969],[139.81904983520508,-6.861752377576039],[139.81990814208984,-6.86141151381193]]]}},{"type":"Feature","id":"pmtiles:10/909/531:landuse:7786363160:1","properties":{"class":"residential","kind":"green","verification":"verified","source":"OpenMapTiles/OpenStreetMap national PMTiles","sourceId":"10/909/531:landuse:7786363160:1","sourceLayer":"landuse","archive":"https://its.hanifahseptiani45.workers.dev/v1/map/archive/indonesia.pmtiles","updatedAt":"2026-07-26T09:45:14.660Z"},"geometry":{"type":"Polygon","coordinates":[[[139.8237705230713,-6.915861397925937],[139.82608795166016,-6.918502782378297],[139.8263454437256,-6.920377304316517],[139.82574462890625,-6.920292098935349],[139.822998046875,-6.915520573049648],[139.8237705230713,-6.915861397925937]]]}},{"type":"Feature","id":"pmtiles:10/909/531:landuse:7786363160:2","properties":{"class":"residential","kind":"green","verification":"verified","source":"OpenMapTiles/OpenStreetMap national PMTiles","sourceId":"10/909/531:landuse:7786363160:2","sourceLayer":"landuse","archive":"https://its.hanifahseptiani45.workers.dev/v1/map/archive/indonesia.pmtiles","updatedAt":"2026-07-26T09:45:14.660Z"},"geometry":{"type":"Polygon","coordinates":[[[139.82720375061035,-6.924041121155895],[139.82900619506836,-6.927704909544104],[139.82789039611816,-6.927193684965914],[139.82711791992188,-6.926000825461713],[139.8266887664795,-6.924722758359522],[139.82720375061035,-6.924041121155895]]]}},{"type":"Feature","id":"pmtiles:10/909/531:landuse:7786363160:3","properties":{"class":"residential","kind":"green","verification":"verified","source":"OpenMapTiles/OpenStreetMap national PMTiles","sourceId":"10/909/531:landuse:7786363160:3","sourceLayer":"landuse","archive":"https://its.hanifahseptiani45.workers.dev/v1/map/archive/indonesia.pmtiles","updatedAt":"2026-07-26T09:45:14.660Z"},"geometry":{"type":"Polygon","coordinates":[[[139.88883018493652,-6.862348888576022],[139.88951683044434,-6.862774967404164],[139.88908767700195,-6.863627123916359],[139.89337921142578,-6.865842723707971],[139.8932933807373,-6.86618358429881],[139.89200592041016,-6.86618358429881],[139.89097595214844,-6.865416647626034],[139.89089012145996,-6.868654816279275],[139.89166259765625,-6.868825245597819],[139.89243507385254,-6.868058313183482],[139.89252090454102,-6.869080889461117],[139.89097595214844,-6.869421747731778],[139.89046096801758,-6.870188677947581],[139.88994598388672,-6.867547024220315],[139.88917350769043,-6.866780089745248],[139.89011764526367,-6.866268799408374],[139.89020347595215,-6.865246217086437],[139.88771438598633,-6.863627123916359],[139.8859977722168,-6.863712339483683],[139.8855686187744,-6.863201045850943],[139.88608360290527,-6.861667161657877],[139.88883018493652,-6.862348888576022]]]}},{"type":"Feature","id":"pmtiles:10/909/531:landuse:7786363160:4","properties":{"class":"residential","kind":"green","verification":"verified","source":"OpenMapTiles/OpenStreetMap national PMTiles","sourceId":"10/909/531:landuse:7786363160:4","sourceLayer":"landuse","archive":"https://its.hanifahseptiani45.workers.dev/v1/map/archive/indonesia.pmtiles","updatedAt":"2026-07-26T09:45:14.660Z"},"geometry":{"type":"Polygon","coordinates":[[[139.91260528564453,-6.818290283850331],[139.91329193115234,-6.81897207268257],[139.9134635925293,-6.819994754111903],[139.91260528564453,-6.820335647436565],[139.91148948669434,-6.8188868491316015],[139.91260528564453,-6.818290283850331]]]}},{"type":"Feature","id":"pmtiles:10/909/531:landuse:7786363160:5","properties":{"class":"residential","kind":"green","verification":"verified","source":"OpenMapTiles/OpenStreetMap national PMTiles","sourceId":"10/909/531:landuse:7786363160:5","sourceLayer":"landuse","archive":"https://its.hanifahseptiani45.workers.dev/v1/map/archive/indonesia.pmtiles","updatedAt":"2026-07-26T09:45:14.660Z"},"geometry":{"type":"Polygon","coordinates":[[[139.91037368774414,-6.8224662252192445],[139.91183280944824,-6.824085457994883],[139.9149227142334,-6.824511570973101],[139.91612434387207,-6.826301241339806],[139.91432189941406,-6.8251933509493625],[139.90985870361328,-6.8248524610826],[139.91037368774414,-6.8224662252192445]]]}},{"type":"Feature","id":"pmtiles:10/909/531:landuse:7786363160:6","properties":{"class":"residential","kind":"green","verification":"verified","source":"OpenMapTiles/OpenStreetMap national PMTiles","sourceId":"10/909/531:landuse:7786363160:6","sourceLayer":"landuse","archive":"https://its.hanifahseptiani45.workers.dev/v1/map/archive/indonesia.pmtiles","updatedAt":"2026-07-26T09:45:14.660Z"},"geometry":{"type":"Polygon","coordinates":[[[139.8910617828369,-6.8049099818187955],[139.89080429077148,-6.805932693233373],[139.8921775817871,-6.8114723421917205],[139.89389419555664,-6.812750713637271],[139.89389419555664,-6.810620092668572],[139.89689826965332,-6.810108742227953],[139.8947525024414,-6.81155756706076],[139.89535331726074,-6.814029081675258],[139.8932933807373,-6.813943857245434],[139.89131927490234,-6.811387117307547],[139.8900318145752,-6.806188370746611],[139.8900318145752,-6.804057720642575],[139.8911476135254,-6.804057720642575],[139.8910617828369,-6.8049099818187955]]]}},{"type":"Feature","id":"pmtiles:10/909/531:landuse:7786363160:7","properties":{"class":"residential","kind":"green","verification":"verified","source":"OpenMapTiles/OpenStreetMap national PMTiles","sourceId":"10/909/531:landuse:7786363160:7","sourceLayer":"landuse","archive":"https://its.hanifahseptiani45.workers.dev/v1/map/archive/indonesia.pmtiles","updatedAt":"2026-07-26T09:45:14.660Z"},"geometry":{"type":"Polygon","coordinates":[[[139.91766929626465,-6.816244911533786],[139.91912841796875,-6.817352822622141],[139.91646766662598,-6.817949389070449],[139.9163818359375,-6.817352822622141],[139.91766929626465,-6.816244911533786]]]}},{"type":"Feature","id":"pmtiles:10/909/531:landuse:7786363160:8","properties":{"class":"residential","kind":"green","verification":"verified","source":"OpenMapTiles/OpenStreetMap national PMTiles","sourceId":"10/909/531:landuse:7786363160:8","sourceLayer":"landuse","archive":"https://its.hanifahseptiani45.workers.dev/v1/map/archive/indonesia.pmtiles","updatedAt":"2026-07-26T09:45:14.660Z"},"geometry":{"type":"Polygon","coordinates":[[[139.77802276611328,-6.834567727116763],[139.779052734375,-6.834567727116763],[139.78437423706055,-6.8298805619959495],[139.78549003601074,-6.82971011876235],[139.7819709777832,-6.832863308752138],[139.7816276550293,-6.8336302977681385],[139.7769069671631,-6.835760816356313],[139.77767944335938,-6.832863308752138],[139.77802276611328,-6.834567727116763]]]}},{"type":"Feature","id":"pmtiles:10/909/531:landuse:7786363160:9","properties":{"class":"residential","kind":"green","verification":"verified","source":"OpenMapTiles/OpenStreetMap national PMTiles","sourceId":"10/909/531:landuse:7786363160:9","sourceLayer":"landuse","archive":"https://its.hanifahseptiani45.workers.dev/v1/map/archive/indonesia.pmtiles","updatedAt":"2026-07-26T09:45:14.660Z"},"geometry":{"type":"Polygon","coordinates":[[[139.7842025756836,-6.813858632800432],[139.7852325439453,-6.814284754873896],[139.78694915771484,-6.814029081675258],[139.7893524169922,-6.8180346127881535],[139.7878932952881,-6.817267598783189],[139.7863483428955,-6.815222222102449],[139.78411674499512,-6.814455203597248],[139.7842025756836,-6.813858632800432]]]}},{"type":"Feature","id":"pmtiles:10/909/531:landuse:7786363160:10","properties":{"class":"residential","kind":"green","verification":"verified","source":"OpenMapTiles/OpenStreetMap national PMTiles","sourceId":"10/909/531:landuse:7786363160:10","sourceLayer":"landuse","archive":"https://its.hanifahseptiani45.workers.dev/v1/map/archive/indonesia.pmtiles","updatedAt":"2026-07-26T09:45:14.660Z"},"geometry":{"type":"Polygon","coordinates":[[[139.77330207824707,-6.793319100286453],[139.7746753692627,-6.794853203596901],[139.77544784545898,-6.794682747915189],[139.77519035339355,-6.795279342536844],[139.7769069671631,-6.798432758952913],[139.77767944335938,-6.8013304747151295],[139.77398872375488,-6.795535025719516],[139.77313041687012,-6.795790708766219],[139.77347373962402,-6.794938431415105],[139.77252960205078,-6.793319100286453],[139.77330207824707,-6.793319100286453]]]}},{"type":"Feature","id":"pmtiles:10/909/531:transportation:5534436210:0","properties":{"class":"secondary","highway":"secondary","kind":"road","verification":"verified","source":"OpenMapTiles/OpenStreetMap national PMTiles","sourceId":"10/909/531:transportation:5534436210:0","sourceLayer":"transportation","archive":"https://its.hanifahseptiani45.workers.dev/v1/map/archive/indonesia.pmtiles","updatedAt":"2026-07-26T09:45:14.660Z"},"geometry":{"type":"LineString","coordinates":[[139.66464042663574,-7.019119954643813],[139.6658420562744,-7.017416203041449],[139.66678619384766,-7.014775375733876],[139.66652870178223,-7.011878967272139],[139.6680736541748,-7.00957886537023],[139.66790199279785,-7.008130647236854],[139.66687202453613,-7.005489767292204],[139.66472625732422,-7.0013154426814594],[139.6648120880127,-7.000548725937193],[139.66618537902832,-6.997226272155245],[139.66712951660156,-6.996033590670237],[139.6685028076172,-6.993051873629739],[139.6706485748291,-6.986662415888972],[139.67116355895996,-6.985725288075727],[139.6724510192871,-6.984702964682924],[139.67296600341797,-6.983765832942979],[139.67348098754883,-6.980869232058865],[139.67597007751465,-6.976950272911864],[139.67313766479492,-6.975587148996624],[139.6654987335205,-6.974053629849138],[139.66026306152344,-6.9713273611906175],[139.65846061706543,-6.970986576492862],[139.65622901916504,-6.971071772690536],[139.6556282043457,-6.97081618405106],[139.65279579162598,-6.9687714699171295],[139.65022087097168,-6.966215564707355],[139.64884757995605,-6.964341225365814],[139.649019241333,-6.96365964556631],[139.64824676513672,-6.961614900226323],[139.64713096618652,-6.960933316466139],[139.63614463806152,-6.960677722300858],[139.63271141052246,-6.961018514490306],[139.62824821472168,-6.962211285204347],[139.625244140625,-6.9624668785343005],[139.6237850189209,-6.96238168077312],[139.62078094482422,-6.961018514490306],[139.61923599243164,-6.9607629203714225],[139.6179485321045,-6.9607629203714225],[139.61365699768066,-6.96187049388115],[139.61185455322266,-6.962040889573686],[139.60756301879883,-6.961444504379088],[139.60335731506348,-6.960166533552666],[139.5963191986084,-6.959910938969784],[139.5816421508789,-6.960507326113316],[139.57417488098145,-6.9586329639676165],[139.56979751586914,-6.958292170046093],[139.5691967010498,-6.954543420584187],[139.56833839416504,-6.951391039924005],[139.5659351348877,-6.949346241161024],[139.5648193359375,-6.948920240299074]]}},{"type":"Feature","id":"pmtiles:10/910/531:landuse:7786363160:4","properties":{"class":"residential","kind":"green","verification":"verified","source":"OpenMapTiles/OpenStreetMap national PMTiles","sourceId":"10/910/531:landuse:7786363160:4","sourceLayer":"landuse","archive":"https://its.hanifahseptiani45.workers.dev/v1/map/archive/indonesia.pmtiles","updatedAt":"2026-07-26T09:45:14.724Z"},"geometry":{"type":"Polygon","coordinates":[[[139.91766929626465,-6.816244911533786],[139.91912841796875,-6.817352822622141],[139.91646766662598,-6.817949389070449],[139.9163818359375,-6.817352822622141],[139.91766929626465,-6.816244911533786]]]}},{"type":"Feature","id":"pmtiles:8/227/132:landcover:7790408182:0","properties":{"subclass":"wetland","class":"wetland","kind":"green","verification":"verified","source":"OpenMapTiles/OpenStreetMap national PMTiles","sourceId":"8/227/132:landcover:7790408182:0","sourceLayer":"landcover","archive":"https://its.hanifahseptiani45.workers.dev/v1/map/archive/indonesia.pmtiles","updatedAt":"2026-07-26T09:35:44.431Z"},"geometry":{"type":"Polygon","coordinates":[[[139.7632598876953,-6.777466413087851],[139.76531982421875,-6.783943918220089],[139.7629165649414,-6.790080421674617],[139.76463317871094,-6.793830468600348],[139.7632598876953,-6.798262304540401],[139.76463317871094,-6.799966845945008],[139.77493286132812,-6.800307753500377],[139.7677230834961,-6.8047395297045625],[139.7618865966797,-6.803375910612559],[139.75982666015625,-6.799625938147784],[139.76154327392578,-6.793830468600348],[139.75948333740234,-6.789739506868358],[139.76051330566406,-6.778148259833188],[139.7625732421875,-6.774739016464068],[139.7632598876953,-6.777466413087851]]]}}]}