{"type":"FeatureCollection","features":[{"type":"Feature","id":"pmtiles:8/228/129:water:1380:0","properties":{"class":"ocean","water":"ocean","kind":"waterway","verification":"verified","source":"OpenMapTiles/OpenStreetMap national PMTiles","sourceId":"8/228/129:water:1380:0","sourceLayer":"water","archive":"https://its.hanifahseptiani45.workers.dev/v1/map/archive/indonesia.pmtiles","updatedAt":"2026-07-26T09:35:36.956Z"},"geometry":{"type":"Polygon","coordinates":[[[140.6246566772461,-1.3841426927919969],[140.6253433227539,-1.3841426927919969],[142.05322265625,-1.3841426927919969],[142.05322265625,-2.811714102819167],[141.58939361572266,-2.811714102819167],[141.5694808959961,-2.797311817689092],[141.51042938232422,-2.7685067176598324],[141.49085998535156,-2.7616482570183933],[141.46888732910156,-2.756504385543252],[141.45755767822266,-2.752046345611248],[141.45137786865234,-2.7472453608844063],[141.44794464111328,-2.741415567767234],[141.44725799560547,-2.7373004025800043],[141.4427947998047,-2.7342140194147078],[141.42013549804688,-2.7321564262262257],[141.3833999633789,-2.72598362551399],[141.36280059814453,-2.720839600729292],[141.3549041748047,-2.7170673019357423],[141.35215759277344,-2.7170673019357423],[141.35112762451172,-2.7160384911275486],[141.34597778320312,-2.7136379291675468],[141.34117126464844,-2.7139808668823804],[141.33670806884766,-2.712266177335522],[141.3274383544922,-2.706093274849195],[141.32503509521484,-2.701635047944521],[141.317138671875,-2.701292106735025],[141.3109588623047,-2.698205631492968],[141.30718231201172,-2.695119148415216],[141.30374908447266,-2.687574379071336],[141.30443572998047,-2.685859652257136],[141.30821228027344,-2.6848308150129583],[141.31061553955078,-2.681744298083771],[141.3113021850586,-2.67488534370446],[141.31027221679688,-2.671798801712498],[141.30855560302734,-2.6697411027399482],[141.30306243896484,-2.6676834003215077],[141.3010025024414,-2.6683693015103813],[141.29791259765625,-2.6711129024380256],[141.2955093383789,-2.677971877928229],[141.2944793701172,-2.6786577733665666],[141.29619598388672,-2.6793436684207563],[141.29722595214844,-2.6820872447940047],[141.29962921142578,-2.6834590306731485],[141.29791259765625,-2.6865455432717766],[141.29070281982422,-2.6886032140036775],[141.28211975097656,-2.6865455432717766],[141.27216339111328,-2.681058404374909],[141.26873016357422,-2.6759141893092817],[141.27010345458984,-2.6728276499057273],[141.2738800048828,-2.6687122519612956],[141.27559661865234,-2.6683693015103813],[141.27628326416016,-2.6666545478209116],[141.27696990966797,-2.6666545478209116],[141.2783432006836,-2.6635679851575276],[141.27765655517578,-2.6615102724172743],[141.2725067138672,-2.6615102724172743],[141.27079010009766,-2.6635679851575276],[141.26667022705078,-2.6649397917412188],[141.2625503540039,-2.659795509176078],[141.2567138671875,-2.6570518830319116],[141.24984741210938,-2.6567089293350534],[141.2464141845703,-2.658423696866521],[141.2453842163086,-2.660138462015098],[141.24332427978516,-2.659795509176078],[141.2405776977539,-2.657737790139791],[141.23371124267578,-2.6570518830319116],[141.23199462890625,-2.6553371135952517],[141.23096466064453,-2.651221657239361],[141.22581481933594,-2.645391403975225],[141.22169494628906,-2.644705490023199],[141.2175750732422,-2.6474491435545104],[141.21448516845703,-2.6471061871951775],[141.21448516845703,-2.6433336609813693],[141.21105194091797,-2.6385322473984303],[141.20624542236328,-2.633730815273168],[141.20315551757812,-2.632358974122056],[141.19354248046875,-2.632358974122056],[141.18736267089844,-2.633730815273168],[141.18392944335938,-2.632358974122056],[141.17603302001953,-2.6333878551269976],[141.17156982421875,-2.6347596951449788],[141.1688232421875,-2.6381892885754326],[141.16436004638672,-2.638875206126812],[141.1585235595703,-2.6368174523376666],[141.15612030029297,-2.637503370645689],[141.15097045898438,-2.6361315336514792],[141.14925384521484,-2.634416735282173],[141.14856719970703,-2.6316730529801617],[141.1465072631836,-2.6327019345514344],[141.14444732666016,-2.6309871314608273],[141.14273071289062,-2.6306441705596484],[141.1420440673828,-2.632358974122056],[141.13998413085938,-2.632358974122056],[141.13998413085938,-2.6296152872902496],[141.13792419433594,-2.626871594424216],[141.13449096679688,-2.627900479955727],[141.12762451171875,-2.6258427080450417],[141.119384765625,-2.6251567833214864],[141.1135482788086,-2.626185670265599],[141.10462188720703,-2.626185670265599],[141.10187530517578,-2.626871594424216],[141.10187530517578,-2.6254997457303233],[141.09535217285156,-2.6227560438247224],[141.0926055908203,-2.616582692541371],[141.09054565429688,-2.6145249020217705],[141.08642578125,-2.6145249020217705],[141.08196258544922,-2.6124671081273334],[141.0692596435547,-2.6107522773058776],[141.06548309326172,-2.609037444144164],[141.05724334716797,-2.602864025408337],[141.053466796875,-2.604235898854242],[141.04248046875,-2.6049218350169667],[141.03801727294922,-2.6049218350169667],[141.02909088134766,-2.602864025408337],[141.02291107177734,-2.6083515102245514],[141.01604461669922,-2.6107522773058776],[141.0143280029297,-2.6128100740106532],[141.01329803466797,-2.6104093108607174],[141.01089477539062,-2.6083515102245514],[141.00540161132812,-2.6056077708060883],[140.99990844726562,-2.604578866982294],[140.99098205566406,-2.604578866982294],[140.97553253173828,-2.6080085431244555],[140.96179962158203,-2.6066366737890405],[140.95802307128906,-2.6104093108607174],[140.95664978027344,-2.610066344321936],[140.9539031982422,-2.611781176079674],[140.94463348388672,-2.6141819366069967],[140.93982696533203,-2.613838971098474],[140.93502044677734,-2.615210832570071],[140.92609405517578,-2.6107522773058776],[140.9219741821289,-2.6158967627433185],[140.9223175048828,-2.621727154058121],[140.91304779052734,-2.623784932744954],[140.9113311767578,-2.6220701174076595],[140.90755462646484,-2.6200123359005687],[140.888671875,-2.6158967627433185],[140.80936431884766,-2.6062937062215212],[140.80387115478516,-2.604235898854242],[140.79975128173828,-2.601149181501171],[140.79837799072266,-2.601149181501171],[140.79666137695312,-2.5984054264004612],[140.7891082763672,-2.5956616653369196],[140.78739166259766,-2.5960046357957367],[140.78842163085938,-2.5984054264004612],[140.78704833984375,-2.600806212439892],[140.78601837158203,-2.6021780881253704],[140.78327178955078,-2.6014921504691984],[140.78189849853516,-2.604578866982294],[140.78292846679688,-2.6059507385605087],[140.77983856201172,-2.6069796412631234],[140.7791519165039,-2.6086944772311256],[140.78018188476562,-2.6083515102245514],[140.7794952392578,-2.6086944772311256],[140.78052520751953,-2.6086944772311256],[140.78086853027344,-2.610066344321936],[140.7846450805664,-2.6080085431244555],[140.78773498535156,-2.611095243657445],[140.78842163085938,-2.6145249020217705],[140.78739166259766,-2.615210832570071],[140.78842163085938,-2.6155537977035834],[140.78739166259766,-2.6196693719871718],[140.78670501708984,-2.6193264079798553],[140.78567504882812,-2.6220701174076595],[140.78052520751953,-2.626528632391995],[140.77091217041016,-2.6285864031722923],[140.7671356201172,-2.627900479955727],[140.76095581054688,-2.6282434416111187],[140.74687957763672,-2.623784932744954],[140.73760986328125,-2.6189834438786335],[140.7245635986328,-2.6097233776895905],[140.7135772705078,-2.597719486693336],[140.71460723876953,-2.5932608695199093],[140.71563720703125,-2.5939468116470152],[140.71598052978516,-2.592231955631874],[140.71701049804688,-2.591546012575094],[140.7135772705078,-2.588459264221271],[140.70911407470703,-2.5778270735140865],[140.70980072021484,-2.569938616535879],[140.712890625,-2.5675377721206587],[140.712890625,-2.5661658590005487],[140.71495056152344,-2.563422028344334],[140.71701049804688,-2.563422028344334],[140.7180404663086,-2.5586203105443843],[140.71975708007812,-2.5572483878686256],[140.7176971435547,-2.553818574762147],[140.71632385253906,-2.5541615564850844],[140.71529388427734,-2.552789629043957],[140.71666717529297,-2.5521036647741084],[140.7180404663086,-2.5500457697686585],[140.7183837890625,-2.5476448881019707],[140.71529388427734,-2.5476448881019707],[140.71426391601562,-2.546615937445708],[140.71392059326172,-2.5442150493855564],[140.7122039794922,-2.5455869859675886],[140.71117401123047,-2.54455803366794],[140.7073974609375,-2.5438720650119535],[140.7073974609375,-2.5421571417758315],[140.70636749267578,-2.5421571417758315],[140.7073974609375,-2.5418141568550965],[140.70636749267578,-2.539070274208953],[140.70877075195312,-2.537698330700337],[140.71151733398438,-2.539413259858506],[140.71975708007812,-2.5342684655607144],[140.72525024414062,-2.5352974260573404],[140.7242202758789,-2.5318675545551628],[140.72525024414062,-2.5291236508159756],[140.7235336303711,-2.527408708031132],[140.72662353515625,-2.5263797412725637],[140.73108673095703,-2.5181479778796216],[140.73211669921875,-2.5191769511516213],[140.73348999023438,-2.525350773698648],[140.7352066040039,-2.5267227302826996],[140.73623657226562,-2.5294666391009173],[140.73829650878906,-2.5308385913335627],[140.73726654052734,-2.5346114524838157],[140.7400131225586,-2.5370123584000197],[140.74172973632812,-2.5363263857357907],[140.7461929321289,-2.538041316714015],[140.7465362548828,-2.5370123584000197],[140.74756622314453,-2.53666937211338],[140.74722290039062,-2.5346114524838157],[140.74790954589844,-2.5346114524838157],[140.74241638183594,-2.5294666391009173],[140.74207305908203,-2.5260367521718337],[140.74241638183594,-2.5226068561846375],[140.73863983154297,-2.5140320766680304],[140.73692321777344,-2.511974121192722],[140.73280334472656,-2.5092301755150714],[140.73246002197266,-2.5061432297445805],[140.7297134399414,-2.501684295227122],[140.7300567626953,-2.5006553081844487],[140.72696685791016,-2.497911338792619],[140.72044372558594,-2.4951673636680027],[140.71975708007812,-2.4927663807361995],[140.72078704833984,-2.4917373867100423],[140.72044372558594,-2.491051390245815],[140.7187271118164,-2.4924233828168667],[140.71529388427734,-2.4917373867100423],[140.7122039794922,-2.4883074008166943],[140.7125473022461,-2.4865924045230514],[140.70842742919922,-2.4865924045230514],[140.7070541381836,-2.4848774060001944],[140.70396423339844,-2.4838484058170565],[140.70018768310547,-2.484191405967195],[140.69812774658203,-2.4814474022728064],[140.69469451904297,-2.4800753982895714],[140.69435119628906,-2.478017389646837],[140.68920135498047,-2.4804183994188094],[140.68782806396484,-2.4800753982895714],[140.68714141845703,-2.478017389646837],[140.6847381591797,-2.4776743878952914],[140.67787170410156,-2.4814474022728064],[140.67340850830078,-2.4804183994188094],[140.67169189453125,-2.475273373147317],[140.6686019897461,-2.474244365495025],[140.66619873046875,-2.474587368134536],[140.6637954711914,-2.473558359949834],[140.66173553466797,-2.475273373147317],[140.65692901611328,-2.4769883841256473],[140.65349578857422,-2.4763023800007034],[140.64834594726562,-2.470471330607083],[140.65006256103516,-2.467041289588039],[140.64456939697266,-2.4632682342491847],[140.64044952392578,-2.466698284999339],[140.63907623291016,-2.466698284999339],[140.63873291015625,-2.467384294088262],[140.635986328125,-2.468413307057986],[140.63392639160156,-2.46807030282325],[140.6308364868164,-2.4639542451062937],[140.63289642333984,-2.4574371277074505],[140.63289642333984,-2.454693068753784],[140.6298065185547,-2.452978029046392],[140.62602996826172,-2.455722091521963],[140.6253433227539,-2.454693068753784],[140.6253433227539,-2.455036076431213],[140.62294006347656,-2.4533210371638603],[140.62191009521484,-2.450919978494724],[140.61744689941406,-2.449547943035583],[140.61538696289062,-2.444745807865246],[140.61195373535156,-2.443030755423905],[140.61161041259766,-2.4416587118937514],[140.61298370361328,-2.439600643971872],[140.6085205078125,-2.4406296783266725],[140.6081771850586,-2.4416587118937514],[140.60714721679688,-2.442344733833991],[140.6078338623047,-2.443373766087447],[140.60440063476562,-2.444745807865246],[140.60508728027344,-2.4471468776005025],[140.60302734375,-2.4481759061709027],[140.60302734375,-1.3841426927919969],[140.6246566772461,-1.3841426927919969]]]}}]}