{"type":"FeatureCollection","features":[{"type":"Feature","id":"pmtiles:10/901/500:water:2780:0","properties":{"class":"ocean","water":"ocean","kind":"waterway","verification":"verified","source":"OpenMapTiles/OpenStreetMap national PMTiles","sourceId":"10/901/500:water:2780:0","sourceLayer":"water","archive":"https://its.hanifahseptiani45.workers.dev/v1/map/archive/indonesia.pmtiles","updatedAt":"2026-07-26T09:39:25.436Z"},"geometry":{"type":"Polygon","coordinates":[[[136.7523193359375,4.220421429014593],[137.1148681640625,4.220421429014593],[137.1148681640625,3.8587739225726665],[136.7523193359375,3.8587739225726665],[136.7523193359375,4.220421429014593]]]}}]}