{"type":"FeatureCollection","features":[{"type":"Feature","id":"pmtiles:10/899/514:park:77514593:0","properties":{"name_int":"Padaido Islands Marine Park","name_de":"Taman Wisata Perairan Kepulauan Padaido","name":"Taman Wisata Perairan Kepulauan Padaido","rank":1,"name:en":"Padaido Islands Marine Park","class":"protected_area","name:latin":"Taman Wisata Perairan Kepulauan Padaido","name_en":"Padaido Islands Marine Park","kind":"green","verification":"verified","source":"OpenMapTiles/OpenStreetMap national PMTiles","sourceId":"10/899/514:park:77514593:0","sourceLayer":"park","archive":"https://its.hanifahseptiani45.workers.dev/v1/map/archive/indonesia.pmtiles","updatedAt":"2026-07-26T09:42:01.002Z"},"geometry":{"type":"Point","coordinates":[136.5040111541748,-1.3152397760287755]}},{"type":"Feature","id":"pmtiles:10/900/514:park:77514593:0","properties":{"name_int":"Padaido Islands Marine Park","name_de":"Taman Wisata Perairan Kepulauan Padaido","name":"Taman Wisata Perairan Kepulauan Padaido","rank":1,"name:en":"Padaido Islands Marine Park","class":"protected_area","name:latin":"Taman Wisata Perairan Kepulauan Padaido","name_en":"Padaido Islands Marine Park","kind":"green","verification":"verified","source":"OpenMapTiles/OpenStreetMap national PMTiles","sourceId":"10/900/514:park:77514593:0","sourceLayer":"park","archive":"https://its.hanifahseptiani45.workers.dev/v1/map/archive/indonesia.pmtiles","updatedAt":"2026-07-26T09:42:01.072Z"},"geometry":{"type":"Point","coordinates":[136.5040111541748,-1.3152397760287755]}},{"type":"Feature","id":"pmtiles:10/901/514:park:77514593:0","properties":{"name_int":"Padaido Islands Marine Park","name_de":"Taman Wisata Perairan Kepulauan Padaido","name":"Taman Wisata Perairan Kepulauan Padaido","rank":1,"name:en":"Padaido Islands Marine Park","class":"protected_area","name:latin":"Taman Wisata Perairan Kepulauan Padaido","name_en":"Padaido Islands Marine Park","kind":"green","verification":"verified","source":"OpenMapTiles/OpenStreetMap national PMTiles","sourceId":"10/901/514:park:77514593:0","sourceLayer":"park","archive":"https://its.hanifahseptiani45.workers.dev/v1/map/archive/indonesia.pmtiles","updatedAt":"2026-07-26T09:42:01.124Z"},"geometry":{"type":"Point","coordinates":[136.5040111541748,-1.3152397760287755]}},{"type":"Feature","id":"pmtiles:10/899/515:water:380:2","properties":{"class":"ocean","water":"ocean","kind":"waterway","verification":"verified","source":"OpenMapTiles/OpenStreetMap national PMTiles","sourceId":"10/899/515:water:380:2","sourceLayer":"water","archive":"https://its.hanifahseptiani45.workers.dev/v1/map/archive/indonesia.pmtiles","updatedAt":"2026-07-26T09:42:12.415Z"},"geometry":{"type":"Polygon","coordinates":[[[136.4117431640625,-1.2854641975450534],[136.4117431640625,-1.292500533024807],[136.4106273651123,-1.2893256035694662],[136.41079902648926,-1.2882100868743578],[136.4110565185547,-1.2877810418615638],[136.41122817993164,-1.2864939063899214],[136.4117431640625,-1.2854641975450534]]]}},{"type":"Feature","id":"pmtiles:10/900/515:landcover:53529333:0","properties":{"subclass":"beach","class":"sand","kind":"green","verification":"verified","source":"OpenMapTiles/OpenStreetMap national PMTiles","sourceId":"10/900/515:landcover:53529333:0","sourceLayer":"landcover","archive":"https://its.hanifahseptiani45.workers.dev/v1/map/archive/indonesia.pmtiles","updatedAt":"2026-07-26T09:42:12.487Z"},"geometry":{"type":"Polygon","coordinates":[[[136.669921875,-1.2961045021903175],[136.67086601257324,-1.2980781021798862],[136.6706943511963,-1.2980781021798862],[136.66983604431152,-1.296190310917524],[136.669921875,-1.2961045021903175]]]}},{"type":"Feature","id":"pmtiles:10/900/515:landcover:53529333:1","properties":{"subclass":"beach","class":"sand","kind":"green","verification":"verified","source":"OpenMapTiles/OpenStreetMap national PMTiles","sourceId":"10/900/515:landcover:53529333:1","sourceLayer":"landcover","archive":"https://its.hanifahseptiani45.workers.dev/v1/map/archive/indonesia.pmtiles","updatedAt":"2026-07-26T09:42:12.487Z"},"geometry":{"type":"Polygon","coordinates":[[[136.67043685913086,-1.2933586213858064],[136.669921875,-1.2961045021903175],[136.67035102844238,-1.2933586213858064],[136.67043685913086,-1.2933586213858064]]]}},{"type":"Feature","id":"pmtiles:10/900/515:landcover:53529333:2","properties":{"subclass":"beach","class":"sand","kind":"green","verification":"verified","source":"OpenMapTiles/OpenStreetMap national PMTiles","sourceId":"10/900/515:landcover:53529333:2","sourceLayer":"landcover","archive":"https://its.hanifahseptiani45.workers.dev/v1/map/archive/indonesia.pmtiles","updatedAt":"2026-07-26T09:42:12.487Z"},"geometry":{"type":"Polygon","coordinates":[[[136.67232513427734,-1.293272812562762],[136.67043685913086,-1.2933586213858064],[136.67266845703125,-1.2929295772415657],[136.67661666870117,-1.2906985465231315],[136.67678833007812,-1.2909559732444507],[136.67232513427734,-1.293272812562762]]]}},{"type":"Feature","id":"pmtiles:10/900/515:landcover:53529333:3","properties":{"subclass":"beach","class":"sand","kind":"green","verification":"verified","source":"OpenMapTiles/OpenStreetMap national PMTiles","sourceId":"10/900/515:landcover:53529333:3","sourceLayer":"landcover","archive":"https://its.hanifahseptiani45.workers.dev/v1/map/archive/indonesia.pmtiles","updatedAt":"2026-07-26T09:42:12.487Z"},"geometry":{"type":"Polygon","coordinates":[[[136.67824745178223,-1.2931011949079618],[136.6776466369629,-1.2921572975992035],[136.67824745178223,-1.2930153860762061],[136.67824745178223,-1.2931011949079618]]]}},{"type":"Feature","id":"pmtiles:10/900/515:landcover:53529333:4","properties":{"subclass":"beach","class":"sand","kind":"green","verification":"verified","source":"OpenMapTiles/OpenStreetMap national PMTiles","sourceId":"10/900/515:landcover:53529333:4","sourceLayer":"landcover","archive":"https://its.hanifahseptiani45.workers.dev/v1/map/archive/indonesia.pmtiles","updatedAt":"2026-07-26T09:42:12.487Z"},"geometry":{"type":"Polygon","coordinates":[[[136.67807579040527,-1.2952464147584521],[136.67824745178223,-1.2934444302059518],[136.6783332824707,-1.2951606059992855],[136.67807579040527,-1.2952464147584521]]]}},{"type":"Feature","id":"pmtiles:10/900/515:landcover:53529333:5","properties":{"subclass":"beach","class":"sand","kind":"green","verification":"verified","source":"OpenMapTiles/OpenStreetMap national PMTiles","sourceId":"10/900/515:landcover:53529333:5","sourceLayer":"landcover","archive":"https://its.hanifahseptiani45.workers.dev/v1/map/archive/indonesia.pmtiles","updatedAt":"2026-07-26T09:42:12.487Z"},"geometry":{"type":"Polygon","coordinates":[[[136.67241096496582,-1.2982497194975195],[136.67807579040527,-1.2952464147584521],[136.67258262634277,-1.2982497194975195],[136.67241096496582,-1.2982497194975195]]]}},{"type":"Feature","id":"pmtiles:10/900/515:landcover:3596452002:0","properties":{"subclass":"forest","class":"wood","kind":"green","verification":"verified","source":"OpenMapTiles/OpenStreetMap national PMTiles","sourceId":"10/900/515:landcover:3596452002:0","sourceLayer":"landcover","archive":"https://its.hanifahseptiani45.workers.dev/v1/map/archive/indonesia.pmtiles","updatedAt":"2026-07-26T09:42:12.487Z"},"geometry":{"type":"Polygon","coordinates":[[[136.6768741607666,-1.2909559732444507],[136.67824745178223,-1.2931870037368043],[136.67807579040527,-1.2952464147584521],[136.6721534729004,-1.2983355281519522],[136.67086601257324,-1.2981639108401595],[136.669921875,-1.2961045021903175],[136.67043685913086,-1.2933586213858064],[136.67232513427734,-1.293272812562762],[136.6768741607666,-1.2909559732444507]]]}},{"type":"Feature","id":"pmtiles:10/900/515:landcover:6330688922:0","properties":{"subclass":"wood","class":"wood","kind":"green","verification":"verified","source":"OpenMapTiles/OpenStreetMap national PMTiles","sourceId":"10/900/515:landcover:6330688922:0","sourceLayer":"landcover","archive":"https://its.hanifahseptiani45.workers.dev/v1/map/archive/indonesia.pmtiles","updatedAt":"2026-07-26T09:42:12.487Z"},"geometry":{"type":"Polygon","coordinates":[[[136.70416831970215,-1.2130403196998003],[136.7062282562256,-1.214241679775867],[136.7076873779297,-1.2163011529495265],[136.70777320861816,-1.217416700262504],[136.7065715789795,-1.2205917170101799],[136.704683303833,-1.2229086187580123],[136.7032241821289,-1.2235951077808664],[136.70013427734375,-1.2242815966280318],[136.69695854187012,-1.2238525411191432],[136.69438362121582,-1.2204200945790262],[136.69361114501953,-1.218103190687259],[136.6951560974121,-1.2141558683595548],[136.69695854187012,-1.2130403196998003],[136.6999626159668,-1.2124396394617207],[136.70416831970215,-1.2130403196998003]]]}},{"type":"Feature","id":"pmtiles:10/900/515:landuse:2993558230:0","properties":{"class":"residential","kind":"green","verification":"verified","source":"OpenMapTiles/OpenStreetMap national PMTiles","sourceId":"10/900/515:landuse:2993558230:0","sourceLayer":"landuse","archive":"https://its.hanifahseptiani45.workers.dev/v1/map/archive/indonesia.pmtiles","updatedAt":"2026-07-26T09:42:12.487Z"},"geometry":{"type":"Polygon","coordinates":[[[136.43749237060547,-1.2189613034722413],[136.44041061401367,-1.2219646960649158],[136.43938064575195,-1.222994429895465],[136.43714904785156,-1.2206775282216427],[136.43766403198242,-1.2200768496838776],[136.4369773864746,-1.2193903597622011],[136.43749237060547,-1.2189613034722413]]]}},{"type":"Feature","id":"pmtiles:10/900/515:landuse:2993558230:1","properties":{"class":"residential","kind":"green","verification":"verified","source":"OpenMapTiles/OpenStreetMap national PMTiles","sourceId":"10/900/515:landuse:2993558230:1","sourceLayer":"landuse","archive":"https://its.hanifahseptiani45.workers.dev/v1/map/archive/indonesia.pmtiles","updatedAt":"2026-07-26T09:42:12.487Z"},"geometry":{"type":"Polygon","coordinates":[[[136.44109725952148,-1.2200768496838776],[136.43680572509766,-1.2180173793937286],[136.43534660339355,-1.2189613034722413],[136.43508911132812,-1.217588322885078],[136.43088340759277,-1.214928171008225],[136.42985343933105,-1.2134693769310871],[136.430025100708,-1.2126112624004861],[136.43105506896973,-1.2125254509324606],[136.4337158203125,-1.2155288506934454],[136.43465995788574,-1.2150997937890509],[136.4355182647705,-1.2156146620661445],[136.43508911132812,-1.2164727756430835],[136.43680572509766,-1.2169018323292278],[136.439208984375,-1.2184464358340534],[136.44109725952148,-1.2185322471139273],[136.44169807434082,-1.2192187372544367],[136.44109725952148,-1.2200768496838776]]]}},{"type":"Feature","id":"pmtiles:10/900/515:landuse:2993558230:2","properties":{"class":"residential","kind":"green","verification":"verified","source":"OpenMapTiles/OpenStreetMap national PMTiles","sourceId":"10/900/515:landuse:2993558230:2","sourceLayer":"landuse","archive":"https://its.hanifahseptiani45.workers.dev/v1/map/archive/indonesia.pmtiles","updatedAt":"2026-07-26T09:42:12.487Z"},"geometry":{"type":"Polygon","coordinates":[[[136.602201461792,-1.251741005325286],[136.60554885864258,-1.252599107246482],[136.60537719726562,-1.2529423479362833],[136.60700798034668,-1.2538004494640091],[136.6036605834961,-1.2531997784241184],[136.6032314300537,-1.2536288291809683],[136.60297393798828,-1.2529423479362833],[136.6017723083496,-1.252341676699615],[136.602201461792,-1.251741005325286]]]}},{"type":"Feature","id":"pmtiles:10/900/515:landuse:2993558230:3","properties":{"class":"residential","kind":"green","verification":"verified","source":"OpenMapTiles/OpenStreetMap national PMTiles","sourceId":"10/900/515:landuse:2993558230:3","sourceLayer":"landuse","archive":"https://its.hanifahseptiani45.workers.dev/v1/map/archive/indonesia.pmtiles","updatedAt":"2026-07-26T09:42:12.487Z"},"geometry":{"type":"Polygon","coordinates":[[[136.602201461792,-1.2939592830659024],[136.60211563110352,-1.2961045021903175],[136.60340309143066,-1.298936188651524],[136.60271644592285,-1.299021997282665],[136.60237312316895,-1.2982497194975195],[136.60151481628418,-1.2985071454521204],[136.60005569458008,-1.2947315621598392],[136.6003131866455,-1.2943883270360175],[136.60160064697266,-1.2952464147584521],[136.60168647766113,-1.2939592830659024],[136.602201461792,-1.2939592830659024]]]}},{"type":"Feature","id":"pmtiles:10/900/515:landuse:2993558230:4","properties":{"class":"residential","kind":"green","verification":"verified","source":"OpenMapTiles/OpenStreetMap national PMTiles","sourceId":"10/900/515:landuse:2993558230:4","sourceLayer":"landuse","archive":"https://its.hanifahseptiani45.workers.dev/v1/map/archive/indonesia.pmtiles","updatedAt":"2026-07-26T09:42:12.487Z"},"geometry":{"type":"Polygon","coordinates":[[[136.60529136657715,-1.2230802410302033],[136.605806350708,-1.224367407721573],[136.5996265411377,-1.2264268731420316],[136.59954071044922,-1.2251397074397943],[136.59859657287598,-1.2251397074397943],[136.59859657287598,-1.2247106520682678],[136.60529136657715,-1.2230802410302033]]]}},{"type":"Feature","id":"pmtiles:10/900/515:landuse:2993558230:5","properties":{"class":"residential","kind":"green","verification":"verified","source":"OpenMapTiles/OpenStreetMap national PMTiles","sourceId":"10/900/515:landuse:2993558230:5","sourceLayer":"landuse","archive":"https://its.hanifahseptiani45.workers.dev/v1/map/archive/indonesia.pmtiles","updatedAt":"2026-07-26T09:42:12.487Z"},"geometry":{"type":"Polygon","coordinates":[[[136.60503387451172,-1.2289153917437403],[136.60597801208496,-1.2297735010690474],[136.6017723083496,-1.2307174210082081],[136.59911155700684,-1.232948503172281],[136.59971237182617,-1.2309748536609106],[136.60091400146484,-1.2299451229010003],[136.60271644592285,-1.2290012026886927],[136.60503387451172,-1.2289153917437403]]]}},{"type":"Feature","id":"pmtiles:10/900/515:landuse:2993558230:6","properties":{"class":"residential","kind":"green","verification":"verified","source":"OpenMapTiles/OpenStreetMap national PMTiles","sourceId":"10/900/515:landuse:2993558230:6","sourceLayer":"landuse","archive":"https://its.hanifahseptiani45.workers.dev/v1/map/archive/indonesia.pmtiles","updatedAt":"2026-07-26T09:42:12.487Z"},"geometry":{"type":"Polygon","coordinates":[[[136.59602165222168,-1.1902143775131293],[136.5973949432373,-1.1896136922567706],[136.60022735595703,-1.1912441233624236],[136.60057067871094,-1.1919306203815125],[136.59902572631836,-1.192016432496871],[136.5978240966797,-1.1915873718933625],[136.5977382659912,-1.1907292504858589],[136.59645080566406,-1.1907292504858589],[136.59602165222168,-1.1902143775131293]]]}},{"type":"Feature","id":"pmtiles:10/900/515:landuse:2993558230:7","properties":{"class":"residential","kind":"green","verification":"verified","source":"OpenMapTiles/OpenStreetMap national PMTiles","sourceId":"10/900/515:landuse:2993558230:7","sourceLayer":"landuse","archive":"https://its.hanifahseptiani45.workers.dev/v1/map/archive/indonesia.pmtiles","updatedAt":"2026-07-26T09:42:12.487Z"},"geometry":{"type":"Polygon","coordinates":[[[136.60855293273926,-1.1693619417949037],[136.60863876342773,-1.1708207592418916],[136.60778045654297,-1.1722795759297497],[136.60743713378906,-1.172193763204433],[136.60778045654297,-1.1715072613072692],[136.60709381103516,-1.1709065720092582],[136.60743713378906,-1.1703058825825394],[136.60709381103516,-1.1697910058286567],[136.60760879516602,-1.1694477546069066],[136.60786628723145,-1.1699626314237719],[136.60855293273926,-1.1693619417949037]]]}},{"type":"Feature","id":"pmtiles:10/900/515:landuse:2993558230:8","properties":{"class":"residential","kind":"green","verification":"verified","source":"OpenMapTiles/OpenStreetMap national PMTiles","sourceId":"10/900/515:landuse:2993558230:8","sourceLayer":"landuse","archive":"https://its.hanifahseptiani45.workers.dev/v1/map/archive/indonesia.pmtiles","updatedAt":"2026-07-26T09:42:12.487Z"},"geometry":{"type":"Polygon","coordinates":[[[136.59945487976074,-1.1500539927607463],[136.60022735595703,-1.1468788952441287],[136.6006565093994,-1.1467930817487968],[136.6010856628418,-1.147822843522846],[136.60160064697266,-1.1467072682508928],[136.60314559936523,-1.1467930817487968],[136.602201461792,-1.1503114329452444],[136.60160064697266,-1.1501398061581511],[136.6018581390381,-1.1487667914899902],[136.6014289855957,-1.1485951646100574],[136.60125732421875,-1.14953911232206],[136.59945487976074,-1.1500539927607463]]]}},{"type":"Feature","id":"pmtiles:10/900/515:landuse:2993558230:9","properties":{"class":"residential","kind":"green","verification":"verified","source":"OpenMapTiles/OpenStreetMap national PMTiles","sourceId":"10/900/515:landuse:2993558230:9","sourceLayer":"landuse","archive":"https://its.hanifahseptiani45.workers.dev/v1/map/archive/indonesia.pmtiles","updatedAt":"2026-07-26T09:42:12.487Z"},"geometry":{"type":"Polygon","coordinates":[[[136.61327362060547,-1.1617245910431393],[136.6138744354248,-1.1618104040878592],[136.61396026611328,-1.1625827213730844],[136.6127586364746,-1.1641273553096028],[136.61198616027832,-1.162754347407784],[136.61327362060547,-1.1617245910431393]]]}},{"type":"Feature","id":"pmtiles:10/900/515:park:77514593:0","properties":{"name":"Taman Wisata Perairan Kepulauan Padaido","name_int":"Padaido Islands Marine Park","class":"protected_area","name:latin":"Taman Wisata Perairan Kepulauan Padaido","name_de":"Taman Wisata Perairan Kepulauan Padaido","name_en":"Padaido Islands Marine Park","kind":"green","verification":"verified","source":"OpenMapTiles/OpenStreetMap national PMTiles","sourceId":"10/900/515:park:77514593:0","sourceLayer":"park","archive":"https://its.hanifahseptiani45.workers.dev/v1/map/archive/indonesia.pmtiles","updatedAt":"2026-07-26T09:42:12.487Z"},"geometry":{"type":"Polygon","coordinates":[[[136.50744438171387,-1.0796861560644828],[136.7633056640625,-1.0885251345012392],[136.7633056640625,-1.1076618628436137],[136.75274848937988,-1.4116003389233214],[136.6512107849121,-1.4116003389233214],[136.4007568359375,-1.4029340540842696],[136.4007568359375,-1.1443044892659486],[136.50744438171387,-1.0796861560644828]]]}},{"type":"Feature","id":"pmtiles:10/900/515:transportation:10305438360:0","properties":{"class":"ferry","highway":"ferry","kind":"road","verification":"verified","source":"OpenMapTiles/OpenStreetMap national PMTiles","sourceId":"10/900/515:transportation:10305438360:0","sourceLayer":"transportation","archive":"https://its.hanifahseptiani45.workers.dev/v1/map/archive/indonesia.pmtiles","updatedAt":"2026-07-26T09:42:12.487Z"},"geometry":{"type":"LineString","coordinates":[[136.4007568359375,-1.172193763204433],[136.41895294189453,-1.1687612520374984],[136.56460762023926,-1.1028562385632057],[136.7633056640625,-1.0715336774378414]]}},{"type":"Feature","id":"pmtiles:10/900/515:transportation:10305438360:1","properties":{"class":"ferry","highway":"ferry","kind":"road","verification":"verified","source":"OpenMapTiles/OpenStreetMap national PMTiles","sourceId":"10/900/515:transportation:10305438360:1","sourceLayer":"transportation","archive":"https://its.hanifahseptiani45.workers.dev/v1/map/archive/indonesia.pmtiles","updatedAt":"2026-07-26T09:42:12.487Z"},"geometry":{"type":"LineString","coordinates":[[136.4007568359375,-1.1873825744459339],[136.43380165100098,-1.1855805164377955],[136.4468479156494,-1.1860095779747581],[136.58452033996582,-1.2305457992259363],[136.59215927124023,-1.2315755297539113],[136.5981674194336,-1.2296876901489213],[136.6003131866455,-1.2284863369776957],[136.60082817077637,-1.2275424162499178],[136.6007423400879,-1.2265984951889095]]}},{"type":"Feature","id":"pmtiles:10/900/515:water:380:0","properties":{"class":"ocean","water":"ocean","kind":"waterway","verification":"verified","source":"OpenMapTiles/OpenStreetMap national PMTiles","sourceId":"10/900/515:water:380:0","sourceLayer":"water","archive":"https://its.hanifahseptiani45.workers.dev/v1/map/archive/indonesia.pmtiles","updatedAt":"2026-07-26T09:42:12.487Z"},"geometry":{"type":"Polygon","coordinates":[[[136.4007568359375,-1.0491357039128246],[136.7633056640625,-1.0491357039128246],[136.7633056640625,-1.4116003389233214],[136.4007568359375,-1.4116003389233214],[136.4007568359375,-1.0491357039128246]],[[136.62005424499512,-1.3363484728438237],[136.6204833984375,-1.3380646191208427],[136.62202835083008,-1.340209800278501],[136.6226291656494,-1.3404672218912168],[136.6230583190918,-1.3403814146899862],[136.624174118042,-1.3385794627698857],[136.62434577941895,-1.336777509525561],[136.6237449645996,-1.3338600586126432],[136.62391662597656,-1.333087791615199],[136.62280082702637,-1.3318864869155647],[136.62134170532227,-1.3316290644037139],[136.6204833984375,-1.3323155243755451],[136.61996841430664,-1.3342890957287068],[136.62005424499512,-1.3363484728438237]],[[136.61490440368652,-1.3155830083070867],[136.6124153137207,-1.317299168990104],[136.6120719909668,-1.3178998249499614],[136.6127586364746,-1.3188437125942016],[136.61541938781738,-1.3195301761106322],[136.6164493560791,-1.3185862887267206],[136.61662101745605,-1.317299168990104],[136.61602020263672,-1.3160120485885756],[136.61559104919434,-1.315668816369282],[136.61490440368652,-1.3155830083070867]],[[136.59198760986328,-1.271048230266004],[136.59001350402832,-1.2723353734870955],[136.58941268920898,-1.2731076591115311],[136.58872604370117,-1.2749096580019597],[136.58906936645508,-1.2780846053580461],[136.59061431884766,-1.2830615419593414],[136.59911155700684,-1.294045091865712],[136.60022735595703,-1.2952464147584521],[136.60125732421875,-1.297391632792909],[136.60228729248047,-1.3045137436059093],[136.60228729248047,-1.30837512056533],[136.60134315490723,-1.3135236139293482],[136.59979820251465,-1.318243056862002],[136.59954071044922,-1.319615984036858],[136.60005569458008,-1.3204740631363592],[136.60194396972656,-1.321675373377957],[136.60314559936523,-1.3227908752248396],[136.60451889038086,-1.3233057220619742],[136.60494804382324,-1.3230482986567722],[136.60563468933105,-1.32193279692558],[136.60666465759277,-1.3192727523141627],[136.60640716552734,-1.3154113921738286],[136.60717964172363,-1.3104345191812286],[136.60717964172363,-1.3063157202588371],[136.60675048828125,-1.3045995520472218],[136.60529136657715,-1.3013388292212937],[136.60417556762695,-1.300137509222239],[136.60263061523438,-1.297391632792909],[136.60211563110352,-1.2957612672524448],[136.602201461792,-1.2943883270360175],[136.6028881072998,-1.2918140621272158],[136.60520553588867,-1.2862364792176635],[136.6051197052002,-1.2839196334992238],[136.60554885864258,-1.2827183052627902],[136.605806350708,-1.2822892593273565],[136.60683631896973,-1.28168859489692],[136.6083812713623,-1.2813453580162815],[136.60829544067383,-1.2799724100339063],[136.6087245941162,-1.2793717450604163],[136.61035537719727,-1.2780846053580461],[136.6106128692627,-1.27705489313162],[136.6102695465088,-1.2760251804926668],[136.60941123962402,-1.2747380391143395],[136.60795211791992,-1.2737083255483697],[136.60572052001953,-1.2729360401038576],[136.60194396972656,-1.27173470673047],[136.5962791442871,-1.2706191823830437],[136.5941333770752,-1.2705333727978996],[136.59198760986328,-1.271048230266004]],[[136.67713165283203,-1.2911275910441873],[136.67670249938965,-1.2907843554331322],[136.67635917663574,-1.2907843554331322],[136.67558670043945,-1.2913850177220496],[136.67352676391602,-1.2922431064599493],[136.67266845703125,-1.2929295772415657],[136.67198181152344,-1.2931011949079618],[136.67086601257324,-1.2931011949079618],[136.67035102844238,-1.2933586213858064],[136.66983604431152,-1.296190310917524],[136.6706943511963,-1.2980781021798862],[136.67146682739258,-1.2985071454521204],[136.67258262634277,-1.2982497194975195],[136.67524337768555,-1.2970483980295455],[136.6783332824707,-1.2951606059992855],[136.67850494384766,-1.294474135821332],[136.67824745178223,-1.2930153860762061],[136.67713165283203,-1.2911275910441873]],[[136.69455528259277,-1.2954180322680742],[136.69867515563965,-1.293272812562762],[136.69910430908203,-1.2926721507202075],[136.69876098632812,-1.292414724172744],[136.69730186462402,-1.292500533024807],[136.69567108154297,-1.293272812562762],[136.69180870056152,-1.294474135821332],[136.69129371643066,-1.2951606059992855],[136.69137954711914,-1.2955896497660717],[136.69206619262695,-1.296190310917524],[136.6925811767578,-1.29584707599129],[136.69455528259277,-1.2954180322680742]],[[136.41122817993164,-1.2785994613164462],[136.41011238098145,-1.2828899236168354],[136.4099407196045,-1.2848635338604026],[136.41019821166992,-1.2893256035694662],[136.4124298095703,-1.3041705098113425],[136.4132022857666,-1.308031887298256],[136.41337394714355,-1.305457636299451],[136.41423225402832,-1.3021111060614317],[136.41423225402832,-1.2994510403946578],[136.41363143920898,-1.2972200154170537],[136.41294479370117,-1.2959328847272076],[136.4106273651123,-1.2893256035694662],[136.41079902648926,-1.2882100868743578],[136.4110565185547,-1.2877810418615638],[136.41122817993164,-1.2864939063899214],[136.41182899475098,-1.2852067702689283],[136.41182899475098,-1.2824608777101645],[136.41200065612793,-1.2810879303256115],[136.41268730163574,-1.2783420333501425],[136.4139747619629,-1.275853561679412],[136.41551971435547,-1.273879944504614],[136.41886711120605,-1.2711340398340525],[136.4204978942871,-1.2703617536190563],[136.42152786254883,-1.26924622867881],[136.42212867736816,-1.2678732742456447],[136.42178535461426,-1.2677016548902884],[136.4201545715332,-1.2679590839190524],[136.41809463500977,-1.2677874645693805],[136.41697883605957,-1.2683881322434587],[136.41603469848633,-1.2694178479317202],[136.41457557678223,-1.2712198493992304],[136.4124298095703,-1.2747380391143395],[136.41122817993164,-1.2785994613164462]],[[136.67438507080078,-1.2780846053580461],[136.67438507080078,-1.2772265118646828],[136.67404174804688,-1.2767116556311322],[136.6736125946045,-1.2767116556311322],[136.6724967956543,-1.2784278426751143],[136.67009353637695,-1.2807446933644826],[136.66949272155762,-1.2822892593273565],[136.66906356811523,-1.2846919156388594],[136.66906356811523,-1.2855500066313112],[136.66932106018066,-1.2860648610883771],[136.66966438293457,-1.2861506701544698],[136.6702651977539,-1.2858932429475658],[136.6724967956543,-1.2834047786098495],[136.67387008666992,-1.2808305026090778],[136.67438507080078,-1.2780846053580461]],[[136.67009353637695,-1.2724211830123409],[136.67035102844238,-1.2724211830123409],[136.67095184326172,-1.2719921353575785],[136.6710376739502,-1.2700185152271786],[136.6713809967041,-1.2690746094145027],[136.67455673217773,-1.2660712704472274],[136.6757583618164,-1.2642692653962513],[136.67593002319336,-1.2637544065804462],[136.67584419250488,-1.262724688642706],[136.67635917663574,-1.261694970297043],[136.67635917663574,-1.2608368713643046],[136.67593002319336,-1.2605794416293037],[136.67292594909668,-1.2608368713643046],[136.6691493988037,-1.2622956393815628],[136.66708946228027,-1.2637544065804462],[136.66528701782227,-1.265728031486418],[136.66399955749512,-1.2689887997780858],[136.6640853881836,-1.2707049919653457],[136.6644287109375,-1.2714772780776826],[136.66485786437988,-1.2720779448942352],[136.66563034057617,-1.2723353734870955],[136.66743278503418,-1.2719921353575785],[136.66863441467285,-1.2725928020542767],[136.66949272155762,-1.2722495639589937],[136.67009353637695,-1.2724211830123409]],[[136.7003059387207,-1.25096871335613],[136.69979095458984,-1.2507112826492204],[136.69876098632812,-1.2507112826492204],[136.69798851013184,-1.2512261440377728],[136.7003059387207,-1.2520842461274668],[136.70047760009766,-1.2516551951177348],[136.7003059387207,-1.25096871335613]],[[136.60683631896973,-1.2543153102456444],[136.60958290100098,-1.2538004494640091],[136.61215782165527,-1.2528565377680536],[136.61361694335938,-1.251912625732004],[136.61541938781738,-1.249509939016491],[136.6171360015869,-1.2435032126222296],[136.6172218322754,-1.2404998442949875],[136.61696434020996,-1.2392126853963816],[136.6164493560791,-1.2368099871125509],[136.61473274230957,-1.2332917464162563],[136.61335945129395,-1.2318329623237503],[136.61069869995117,-1.2296018792260526],[136.60795211791992,-1.2290012026886927],[136.60263061523438,-1.2290012026886927],[136.60125732421875,-1.2296018792260526],[136.59988403320312,-1.2305457992259363],[136.5978240966797,-1.2336349896159646],[136.5970516204834,-1.234493097421506],[136.59653663635254,-1.2346647189493751],[136.59576416015625,-1.2353512049500779],[136.5952491760254,-1.2360376907734292],[136.59421920776367,-1.240156601983216],[136.59404754638672,-1.2437606440342392],[136.59421920776367,-1.2456484736213582],[136.5944766998291,-1.2466781982807476],[136.59533500671387,-1.2481369741920787],[136.59876823425293,-1.2511403338133675],[136.60305976867676,-1.253886259601316],[136.60400390625,-1.2550017911302405],[136.60451889038086,-1.2550017911302405],[136.60563468933105,-1.254401120366083],[136.60683631896973,-1.2543153102456444]],[[136.50057792663574,-1.2302025556282388],[136.49971961975098,-1.2305457992259363],[136.4996337890625,-1.2309748536609106],[136.49989128112793,-1.2318329623237503],[136.5007495880127,-1.2326052598840391],[136.5010929107666,-1.2338924219867096],[136.50083541870117,-1.2391268747808795],[136.50306701660156,-1.240585654865967],[136.50452613830566,-1.2410147076791418],[136.50538444519043,-1.2407572759995844],[136.5124225616455,-1.24118632878492],[136.51456832885742,-1.2420444341467203],[136.5182590484619,-1.2425592972300734],[136.51997566223145,-1.241958623623077],[136.52109146118164,-1.24118632878492],[136.52546882629395,-1.239899170220184],[136.52752876281738,-1.2399849808106325],[136.52881622314453,-1.240585654865967],[136.53345108032227,-1.241357949879557],[136.53422355651855,-1.2409288971220604],[136.53499603271484,-1.2408430865622222],[136.5358543395996,-1.2402424125653368],[136.5369701385498,-1.238526200394631],[136.53705596923828,-1.2370674191756592],[136.53679847717285,-1.236209312201538],[136.53619766235352,-1.2350079619719025],[136.5347385406494,-1.232948503172281],[136.52993202209473,-1.2298593119864023],[136.5264129638672,-1.2284005260162303],[136.52280807495117,-1.2277140382252156],[136.51817321777344,-1.227628227238938],[136.50959014892578,-1.2288295807960594],[136.50701522827148,-1.2296876901489213],[136.50555610656738,-1.2304599883306508],[136.50392532348633,-1.2304599883306508],[136.50238037109375,-1.2297735010690474],[136.50100708007812,-1.2296018792260526],[136.50057792663574,-1.2302025556282388]],[[136.43174171447754,-1.2096078594023538],[136.430025100708,-1.21192477058014],[136.42993927001953,-1.2137268112371942],[136.4307975769043,-1.215013982399995],[136.43895149230957,-1.222994429895465],[136.44367218017578,-1.229087013630874],[136.44624710083008,-1.234235665108912],[136.44830703735352,-1.2402424125653368],[136.4479637145996,-1.2309748536609106],[136.4498519897461,-1.2284005260162303],[136.4498519897461,-1.2254829516875532],[136.4508819580078,-1.2220505072325523],[136.45002365112305,-1.217588322885078],[136.44813537597656,-1.2117531475978467],[136.44418716430664,-1.2021422432804343],[136.44315719604492,-1.199053016837965],[136.4398956298828,-1.2021422432804343],[136.43577575683594,-1.203343608175743],[136.43328666687012,-1.2077200043872551],[136.43174171447754,-1.2096078594023538]],[[136.6959285736084,-1.2228228076178027],[136.69721603393555,-1.224024163330938],[136.69858932495117,-1.224367407721573],[136.70013427734375,-1.224367407721573],[136.70339584350586,-1.2236809188963633],[136.70408248901367,-1.223337674417877],[136.70485496520996,-1.2228228076178027],[136.7061424255371,-1.2214498290015996],[136.7069149017334,-1.2199052272198827],[136.70794486999512,-1.2173308889471173],[136.7076015472412,-1.2156146620661445],[136.7065715789795,-1.214413302600306],[136.70571327209473,-1.2138126226671062],[136.70416831970215,-1.2130403196998003],[136.7021942138672,-1.2124396394617207],[136.69876098632812,-1.2126112624004861],[136.69695854187012,-1.2130403196998003],[136.69567108154297,-1.2137268112371942],[136.69455528259277,-1.2151856051753924],[136.69361114501953,-1.2173308889471173],[136.69361114501953,-1.2179315680974554],[136.6944694519043,-1.220763339430377],[136.6959285736084,-1.2228228076178027]],[[136.5985107421875,-1.227113361263477],[136.59911155700684,-1.2271991722662676],[136.60057067871094,-1.2261694400510947],[136.60237312316895,-1.2254829516875532],[136.60855293273926,-1.2236809188963633],[136.60889625549316,-1.2238525411191432],[136.6102695465088,-1.2238525411191432],[136.61181449890137,-1.223337674417877],[136.6124153137207,-1.2228228076178027],[136.6138744354248,-1.2202484721369302],[136.61447525024414,-1.217588322885078],[136.61404609680176,-1.2128686967882345],[136.61293029785156,-1.2085781204659014],[136.6101837158203,-1.201455748817196],[136.60898208618164,-1.1987955811435995],[136.60683631896973,-1.1957921629223023],[136.60374641418457,-1.1930461776724854],[136.5973949432373,-1.1895278800666205],[136.59619331359863,-1.1896136922567706],[136.59473419189453,-1.1903001896819063],[136.5937900543213,-1.1905576261722928],[136.58958435058594,-1.1910724990809172],[136.5878677368164,-1.1908150626386202],[136.58615112304688,-1.1910724990809172],[136.5834903717041,-1.1925313051328317],[136.57919883728027,-1.194419170640387],[136.57825469970703,-1.1953631029079475],[136.57816886901855,-1.1957921629223023],[136.57773971557617,-1.1957921629223023],[136.57713890075684,-1.1961354108855033],[136.57636642456055,-1.1977658381241696],[136.57645225524902,-1.1981090858403292],[136.57610893249512,-1.1985381454250472],[136.5758514404297,-1.1998253237757694],[136.57645225524902,-1.2005118186485646],[136.5773105621338,-1.200597630495551],[136.57773971557617,-1.2009408778565245],[136.57902717590332,-1.200855066020324],[136.58048629760742,-1.2016273724491668],[136.58306121826172,-1.2039442904250137],[136.5842628479004,-1.2055747130057028],[136.58452033996582,-1.2061753947630507],[136.58434867858887,-1.2072909462463173],[136.5849494934082,-1.2091788015596308],[136.5846061706543,-1.2111524670742426],[136.58469200134277,-1.212010582067208],[136.58443450927734,-1.214499114008433],[136.5868377685547,-1.218703869665461],[136.58700942993164,-1.2195619822590373],[136.5867519378662,-1.2210207730401237],[136.58692359924316,-1.2219646960649158],[136.58795356750488,-1.222651185329184],[136.5882968902588,-1.224195785531748],[136.58924102783203,-1.2244532188123713],[136.58949851989746,-1.2259120069353884],[136.59018516540527,-1.2270275502579295],[136.5907859802246,-1.2273707942635923],[136.59507751464844,-1.2277998492087363],[136.5985107421875,-1.227113361263477]],[[136.6226291656494,-1.1547737257818227],[136.62039756774902,-1.1570906827626146],[136.61919593811035,-1.1578630013358548],[136.61876678466797,-1.1597508902954843],[136.61816596984863,-1.160866460452553],[136.6183376312256,-1.1614671518933193],[136.6197967529297,-1.1604373950596027],[136.62099838256836,-1.1601799557925716],[136.62134170532227,-1.159836703400103],[136.62322998046875,-1.156489990393581],[136.62503242492676,-1.1552027920319858],[136.62537574768066,-1.154687912524011],[136.6259765625,-1.1521135135861726],[136.62571907043457,-1.1503972463349186],[136.62537574768066,-1.1503114329452444],[136.6248607635498,-1.150826313244579],[136.62443161010742,-1.1515128201657774],[136.62391662597656,-1.1531432734407616],[136.6226291656494,-1.1547737257818227]],[[136.59567832946777,-1.1609522735233355],[136.5951633453369,-1.1612097127200514],[136.59439086914062,-1.1610380865915175],[136.5937042236328,-1.1614671518933193],[136.59310340881348,-1.1619820301694972],[136.59284591674805,-1.162411095327954],[136.59284591674805,-1.1632692254492554],[136.5937042236328,-1.165071297854297],[136.59610748291016,-1.1687612520374984],[136.5996265411377,-1.1726228268047123],[136.60134315490723,-1.1733951411194425],[136.60426139831543,-1.174167455220939],[136.60503387451172,-1.1740816425535456],[136.60537719726562,-1.1745107058642361],[136.60572052001953,-1.1745107058642361],[136.6062355041504,-1.1736525791769736],[136.6080379486084,-1.1723653886524374],[136.60846710205078,-1.171850512276876],[136.6088104248047,-1.171249823052463],[136.60923957824707,-1.1695335674162806],[136.61009788513184,-1.1679031235897668],[136.61413192749023,-1.1630975994458765],[136.6142177581787,-1.1617245910431393],[136.613187789917,-1.1607806473791697],[136.613187789917,-1.1591501984902806],[136.6146469116211,-1.1569190563844387],[136.61524772644043,-1.154687912524011],[136.61619186401367,-1.1545162860006428],[136.6164493560791,-1.154687912524011],[136.61696434020996,-1.1559751111189627],[136.6172218322754,-1.1558892978974455],[136.61876678466797,-1.154859539037048],[136.62022590637207,-1.1530574601337662],[136.6186809539795,-1.1461065736935865],[136.61747932434082,-1.1434463534261852],[136.61559104919434,-1.1409577580408694],[136.61147117614746,-1.13795427798523],[136.60760879516602,-1.1361521884501542],[136.60340309143066,-1.1349507948021653],[136.6010856628418,-1.1348649809510647],[136.6007423400879,-1.1351224224967353],[136.60057067871094,-1.1358089331731236],[136.6006565093994,-1.1370961402516855],[136.60082817077637,-1.137439395375722],[136.60134315490723,-1.1373535815985463],[136.60151481628418,-1.137782650458945],[136.60211563110352,-1.13795427798523],[136.602201461792,-1.1382117192555086],[136.60237312316895,-1.1399279938031839],[136.60228729248047,-1.140700317015984],[136.60160064697266,-1.1431030990184325],[136.59936904907227,-1.1492816720679144],[136.59893989562988,-1.150225619552998],[136.59833908081055,-1.1507404998678084],[136.59842491149902,-1.1511695667258408],[136.59799575805664,-1.1524567669124082],[136.59756660461426,-1.1528858335120304],[136.5977382659912,-1.1533149000469791],[136.5973949432373,-1.1536581532283634],[136.59756660461426,-1.15374396651724],[136.59799575805664,-1.1532290867451565],[136.59833908081055,-1.1531432734407616],[136.5978240966797,-1.1545162860006428],[136.59765243530273,-1.1563183639790964],[136.5970516204834,-1.158978572236819],[136.59748077392578,-1.1607806473791697],[136.59730911254883,-1.1610380865915175],[136.59653663635254,-1.160694834303186],[136.59567832946777,-1.1609522735233355]]]}},{"type":"Feature","id":"pmtiles:10/900/515:water:2993558162:0","properties":{"intermittent":0,"class":"lake","id":299355816,"water":"lake","kind":"waterway","verification":"verified","source":"OpenMapTiles/OpenStreetMap national PMTiles","sourceId":"10/900/515:water:2993558162:0","sourceLayer":"water","archive":"https://its.hanifahseptiani45.workers.dev/v1/map/archive/indonesia.pmtiles","updatedAt":"2026-07-26T09:42:12.487Z"},"geometry":{"type":"Polygon","coordinates":[[[136.44556045532227,-1.2193045485096832],[136.44598960876465,-1.2193903597622011],[136.44719123840332,-1.2211065842378872],[136.4468479156494,-1.222651185329184],[136.44521713256836,-1.224195785531748],[136.44461631774902,-1.2245390299003986],[136.44427299499512,-1.222994429895465],[136.4443588256836,-1.2205917170101799],[136.44556045532227,-1.2193045485096832]]]}},{"type":"Feature","id":"pmtiles:8/224/127:park:77514593:0","properties":{"name_int":"Padaido Islands Marine Park","name_de":"Taman Wisata Perairan Kepulauan Padaido","name":"Taman Wisata Perairan Kepulauan Padaido","rank":1,"name:en":"Padaido Islands Marine Park","class":"protected_area","name:latin":"Taman Wisata Perairan Kepulauan Padaido","name_en":"Padaido Islands Marine Park","kind":"green","verification":"verified","source":"OpenMapTiles/OpenStreetMap national PMTiles","sourceId":"8/224/127:park:77514593:0","sourceLayer":"park","archive":"https://its.hanifahseptiani45.workers.dev/v1/map/archive/indonesia.pmtiles","updatedAt":"2026-07-26T09:35:31.115Z"},"geometry":{"type":"Point","coordinates":[136.50409698486328,-1.3151539679518152]}},{"type":"Feature","id":"pmtiles:8/225/127:park:77514593:0","properties":{"name_int":"Padaido Islands Marine Park","name_de":"Taman Wisata Perairan Kepulauan Padaido","name":"Taman Wisata Perairan Kepulauan Padaido","rank":1,"name:en":"Padaido Islands Marine Park","class":"protected_area","name:latin":"Taman Wisata Perairan Kepulauan Padaido","name_en":"Padaido Islands Marine Park","kind":"green","verification":"verified","source":"OpenMapTiles/OpenStreetMap national PMTiles","sourceId":"8/225/127:park:77514593:0","sourceLayer":"park","archive":"https://its.hanifahseptiani45.workers.dev/v1/map/archive/indonesia.pmtiles","updatedAt":"2026-07-26T09:35:31.176Z"},"geometry":{"type":"Point","coordinates":[136.50409698486328,-1.3151539679518152]}},{"type":"Feature","id":"pmtiles:8/226/127:park:77514593:0","properties":{"name_int":"Padaido Islands Marine Park","name_de":"Taman Wisata Perairan Kepulauan Padaido","name":"Taman Wisata Perairan Kepulauan Padaido","rank":1,"name:en":"Padaido Islands Marine Park","class":"protected_area","name:latin":"Taman Wisata Perairan Kepulauan Padaido","name_en":"Padaido Islands Marine Park","kind":"green","verification":"verified","source":"OpenMapTiles/OpenStreetMap national PMTiles","sourceId":"8/226/127:park:77514593:0","sourceLayer":"park","archive":"https://its.hanifahseptiani45.workers.dev/v1/map/archive/indonesia.pmtiles","updatedAt":"2026-07-26T09:35:31.239Z"},"geometry":{"type":"Point","coordinates":[136.50409698486328,-1.3151539679518152]}},{"type":"Feature","id":"pmtiles:8/225/128:park:77514593:0","properties":{"name":"Taman Wisata Perairan Kepulauan Padaido","name_int":"Padaido Islands Marine Park","class":"protected_area","name:latin":"Taman Wisata Perairan Kepulauan Padaido","name_de":"Taman Wisata Perairan Kepulauan Padaido","name_en":"Padaido Islands Marine Park","kind":"green","verification":"verified","source":"OpenMapTiles/OpenStreetMap national PMTiles","sourceId":"8/225/128:park:77514593:0","sourceLayer":"park","archive":"https://its.hanifahseptiani45.workers.dev/v1/map/archive/indonesia.pmtiles","updatedAt":"2026-07-26T09:35:33.893Z"},"geometry":{"type":"Polygon","coordinates":[[[136.50753021240234,-1.0796861560644828],[136.7639923095703,-1.0886109496992162],[136.7526626586914,-1.4150325220203825],[136.38427734375,-1.4023334192896897],[136.38427734375,-1.1541730329227988],[136.50753021240234,-1.0796861560644828]]]}},{"type":"Feature","id":"pmtiles:8/225/128:transportation:7066506610:1","properties":{"class":"ferry","highway":"ferry","kind":"road","verification":"verified","source":"OpenMapTiles/OpenStreetMap national PMTiles","sourceId":"8/225/128:transportation:7066506610:1","sourceLayer":"transportation","archive":"https://its.hanifahseptiani45.workers.dev/v1/map/archive/indonesia.pmtiles","updatedAt":"2026-07-26T09:35:33.893Z"},"geometry":{"type":"LineString","coordinates":[[136.38427734375,-1.18815488466133],[136.4337158203125,-1.1857521410605472],[136.44676208496094,-1.1860953902741613],[136.58443450927734,-1.2307174210082081],[136.5923309326172,-1.231403908026877],[136.60022735595703,-1.2283147150519795],[136.60091400146484,-1.2265984951889095]]}},{"type":"Feature","id":"pmtiles:8/226/128:park:77514593:0","properties":{"name_int":"Padaido Islands Marine Park","name_de":"Taman Wisata Perairan Kepulauan Padaido","name":"Taman Wisata Perairan Kepulauan Padaido","rank":1,"name:en":"Padaido Islands Marine Park","class":"protected_area","name:latin":"Taman Wisata Perairan Kepulauan Padaido","name_en":"Padaido Islands Marine Park","kind":"green","verification":"verified","source":"OpenMapTiles/OpenStreetMap national PMTiles","sourceId":"8/226/128:park:77514593:0","sourceLayer":"park","archive":"https://its.hanifahseptiani45.workers.dev/v1/map/archive/indonesia.pmtiles","updatedAt":"2026-07-26T09:35:33.958Z"},"geometry":{"type":"Point","coordinates":[136.50409698486328,-1.3151539679518152]}},{"type":"Feature","id":"pmtiles:8/225/129:park:77514593:0","properties":{"name":"Taman Wisata Perairan Kepulauan Padaido","name_int":"Padaido Islands Marine Park","class":"protected_area","name:latin":"Taman Wisata Perairan Kepulauan Padaido","name_de":"Taman Wisata Perairan Kepulauan Padaido","name_en":"Padaido Islands Marine Park","kind":"green","verification":"verified","source":"OpenMapTiles/OpenStreetMap national PMTiles","sourceId":"8/225/129:park:77514593:0","sourceLayer":"park","archive":"https://its.hanifahseptiani45.workers.dev/v1/map/archive/indonesia.pmtiles","updatedAt":"2026-07-26T09:35:36.703Z"},"geometry":{"type":"Polygon","coordinates":[[[136.75369262695312,-1.3841426927919969],[136.7526626586914,-1.4150325220203825],[136.38427734375,-1.4023334192896897],[136.38427734375,-1.3841426927919969],[136.75369262695312,-1.3841426927919969]]]}},{"type":"Feature","id":"pmtiles:8/226/129:park:77514593:0","properties":{"name_int":"Padaido Islands Marine Park","name_de":"Taman Wisata Perairan Kepulauan Padaido","name":"Taman Wisata Perairan Kepulauan Padaido","rank":1,"name:en":"Padaido Islands Marine Park","class":"protected_area","name:latin":"Taman Wisata Perairan Kepulauan Padaido","name_en":"Padaido Islands Marine Park","kind":"green","verification":"verified","source":"OpenMapTiles/OpenStreetMap national PMTiles","sourceId":"8/226/129:park:77514593:0","sourceLayer":"park","archive":"https://its.hanifahseptiani45.workers.dev/v1/map/archive/indonesia.pmtiles","updatedAt":"2026-07-26T09:35:36.804Z"},"geometry":{"type":"Point","coordinates":[136.50409698486328,-1.3151539679518152]}}]}