{"type":"FeatureCollection","features":[{"type":"Feature","id":"pmtiles:10/908/499:water:2810:0","properties":{"class":"ocean","water":"ocean","kind":"waterway","verification":"verified","source":"OpenMapTiles/OpenStreetMap national PMTiles","sourceId":"10/908/499:water:2810:0","sourceLayer":"water","archive":"https://its.hanifahseptiani45.workers.dev/v1/map/archive/indonesia.pmtiles","updatedAt":"2026-07-26T09:39:17.365Z"},"geometry":{"type":"Polygon","coordinates":[[[139.2132568359375,4.570949264200536],[139.5758056640625,4.570949264200536],[139.5758056640625,4.2094648151634715],[139.2132568359375,4.2094648151634715],[139.2132568359375,4.570949264200536]]]}}]}