{"type":"FeatureCollection","features":[{"type":"Feature","id":"pmtiles:10/912/526:mountain_peak:66335410351:0","properties":{"rank":1,"class":"peak","ele_ft":3248,"ele":990,"kind":"poi","verification":"verified","source":"OpenMapTiles/OpenStreetMap national PMTiles","sourceId":"10/912/526:mountain_peak:66335410351:0","sourceLayer":"mountain_peak","archive":"https://its.hanifahseptiani45.workers.dev/v1/map/archive/indonesia.pmtiles","updatedAt":"2026-07-26T09:44:26.171Z"},"geometry":{"type":"Point","coordinates":[140.99098205566406,-5.273101721582549]}},{"type":"Feature","id":"pmtiles:10/912/526:mountain_peak:66335410341:0","properties":{"rank":3,"class":"saddle","ele_ft":2854,"ele":870,"kind":"poi","verification":"verified","source":"OpenMapTiles/OpenStreetMap national PMTiles","sourceId":"10/912/526:mountain_peak:66335410341:0","sourceLayer":"mountain_peak","archive":"https://its.hanifahseptiani45.workers.dev/v1/map/archive/indonesia.pmtiles","updatedAt":"2026-07-26T09:44:26.171Z"},"geometry":{"type":"Point","coordinates":[140.9963893890381,-5.26763178075835]}},{"type":"Feature","id":"pmtiles:10/913/526:mountain_peak:66335410351:0","properties":{"rank":1,"class":"peak","ele_ft":3248,"ele":990,"kind":"poi","verification":"verified","source":"OpenMapTiles/OpenStreetMap national PMTiles","sourceId":"10/913/526:mountain_peak:66335410351:0","sourceLayer":"mountain_peak","archive":"https://its.hanifahseptiani45.workers.dev/v1/map/archive/indonesia.pmtiles","updatedAt":"2026-07-26T09:44:26.237Z"},"geometry":{"type":"Point","coordinates":[140.99098205566406,-5.273101721582549]}},{"type":"Feature","id":"pmtiles:10/913/526:mountain_peak:66335410341:0","properties":{"rank":3,"class":"saddle","ele_ft":2854,"ele":870,"kind":"poi","verification":"verified","source":"OpenMapTiles/OpenStreetMap national PMTiles","sourceId":"10/913/526:mountain_peak:66335410341:0","sourceLayer":"mountain_peak","archive":"https://its.hanifahseptiani45.workers.dev/v1/map/archive/indonesia.pmtiles","updatedAt":"2026-07-26T09:44:26.237Z"},"geometry":{"type":"Point","coordinates":[140.9963893890381,-5.26763178075835]}},{"type":"Feature","id":"pmtiles:10/912/527:mountain_peak:66335410351:0","properties":{"rank":1,"class":"peak","ele_ft":3248,"ele":990,"kind":"poi","verification":"verified","source":"OpenMapTiles/OpenStreetMap national PMTiles","sourceId":"10/912/527:mountain_peak:66335410351:0","sourceLayer":"mountain_peak","archive":"https://its.hanifahseptiani45.workers.dev/v1/map/archive/indonesia.pmtiles","updatedAt":"2026-07-26T09:44:35.752Z"},"geometry":{"type":"Point","coordinates":[140.99098205566406,-5.273101721582549]}},{"type":"Feature","id":"pmtiles:10/912/527:mountain_peak:66335410341:0","properties":{"rank":3,"class":"saddle","ele_ft":2854,"ele":870,"kind":"poi","verification":"verified","source":"OpenMapTiles/OpenStreetMap national PMTiles","sourceId":"10/912/527:mountain_peak:66335410341:0","sourceLayer":"mountain_peak","archive":"https://its.hanifahseptiani45.workers.dev/v1/map/archive/indonesia.pmtiles","updatedAt":"2026-07-26T09:44:35.752Z"},"geometry":{"type":"Point","coordinates":[140.9963893890381,-5.26763178075835]}},{"type":"Feature","id":"pmtiles:10/912/527:waterway:6738906410:0","properties":{"name":"Ok Birim","name_int":"Ok Birim","class":"river","name:latin":"Ok Birim","name_de":"Ok Birim","name_en":"Ok Birim","waterway":"river","kind":"waterway","verification":"verified","source":"OpenMapTiles/OpenStreetMap national PMTiles","sourceId":"10/912/527:waterway:6738906410:0","sourceLayer":"waterway","archive":"https://its.hanifahseptiani45.workers.dev/v1/map/archive/indonesia.pmtiles","updatedAt":"2026-07-26T09:44:35.753Z"},"geometry":{"type":"LineString","coordinates":[[140.9828281402588,-5.348223042213689],[140.9820556640625,-5.348650327231056],[140.9817123413086,-5.350103094058483],[140.98085403442383,-5.351812227085944],[140.98076820373535,-5.353264986404156],[140.9820556640625,-5.354205005300244],[140.98291397094727,-5.35548684692003],[140.98299980163574,-5.356170494684719],[140.98119735717773,-5.357195964897755],[140.98042488098145,-5.359161444661709],[140.97905158996582,-5.360015999108157],[140.9787940979004,-5.360528731202038],[140.97930908203125,-5.362921475280132],[140.97922325134277,-5.363861479316043],[140.97853660583496,-5.365741483043678],[140.9787940979004,-5.36770693529121],[140.97845077514648,-5.36950147311515],[140.97862243652344,-5.372492357747902],[140.97784996032715,-5.375654134108714],[140.97853660583496,-5.377106836662264],[140.978364944458,-5.378901346794876],[140.97853660583496,-5.3797558735695645],[140.98111152648926,-5.384370297408992],[140.98154067993164,-5.38667749619546],[140.98265647888184,-5.388899234895277]]}},{"type":"Feature","id":"pmtiles:10/912/527:waterway:6738906410:1","properties":{"name":"Ok Birim","name_int":"Ok Birim","class":"river","name:latin":"Ok Birim","name_de":"Ok Birim","name_en":"Ok Birim","waterway":"river","kind":"waterway","verification":"verified","source":"OpenMapTiles/OpenStreetMap national PMTiles","sourceId":"10/912/527:waterway:6738906410:1","sourceLayer":"waterway","archive":"https://its.hanifahseptiani45.workers.dev/v1/map/archive/indonesia.pmtiles","updatedAt":"2026-07-26T09:44:35.753Z"},"geometry":{"type":"LineString","coordinates":[[140.98231315612793,-5.39325723719827],[140.98145484924316,-5.397017057177322],[140.97939491271973,-5.397957008530668],[140.97793579101562,-5.399067858251485],[140.97707748413086,-5.400605954504471],[140.97613334655762,-5.401289551586217],[140.9757900238037,-5.401887698400174],[140.97570419311523,-5.402742192824363],[140.97639083862305,-5.405903811712733],[140.97613334655762,-5.407612788022362],[140.97630500793457,-5.408809068568132],[140.97707748413086,-5.410518036673878],[140.9780216217041,-5.410859829715719],[140.97930908203125,-5.410176243438912],[140.97999572753906,-5.410176243438912],[140.98068237304688,-5.410347140080532],[140.98119735717773,-5.4107743814733595],[140.98033905029297,-5.412739687993465],[140.98008155822754,-5.414961331150664],[140.9791374206543,-5.419319145930331],[140.9791374206543,-5.421882551702396],[140.97896575927734,-5.422480678149796],[140.97716331481934,-5.424360500268449],[140.97673416137695,-5.425727639949116],[140.9773349761963,-5.4273511142955755],[140.98033905029297,-5.427778343660393],[140.9809398651123,-5.428632801481939],[140.98085403442383,-5.4293163668672975],[140.97956657409668,-5.430598049875599],[140.97930908203125,-5.431281613032269],[140.9799098968506,-5.43213606588769],[140.98119735717773,-5.432563291861015],[140.98162651062012,-5.433075962629118],[140.98154067993164,-5.433844967963168],[140.97973823547363,-5.435639309924298],[140.97896575927734,-5.437177313063742],[140.97930908203125,-5.438117201936777],[140.98102569580078,-5.439227977803441],[140.9812831878662,-5.439911531163787],[140.98102569580078,-5.440936859748149],[140.97999572753906,-5.4419621865848455],[140.9798240661621,-5.4426457368381875],[140.9799098968506,-5.442987511673508],[140.98179817199707,-5.44435460907205],[140.98454475402832,-5.445123599992584]]}},{"type":"Feature","id":"pmtiles:10/912/527:waterway:6738906410:2","properties":{"name":"Ok Birim","name_int":"Ok Birim","class":"river","name:latin":"Ok Birim","name_de":"Ok Birim","name_en":"Ok Birim","waterway":"river","kind":"waterway","verification":"verified","source":"OpenMapTiles/OpenStreetMap national PMTiles","sourceId":"10/912/527:waterway:6738906410:2","sourceLayer":"waterway","archive":"https://its.hanifahseptiani45.workers.dev/v1/map/archive/indonesia.pmtiles","updatedAt":"2026-07-26T09:44:35.753Z"},"geometry":{"type":"LineString","coordinates":[[140.98454475402832,-5.445978033194834],[140.9820556640625,-5.447345123791649],[140.98248481750488,-5.448455882611157],[140.98257064819336,-5.449395753854205],[140.9820556640625,-5.450933721806578],[140.9827423095703,-5.452044473988934]]}},{"type":"Feature","id":"pmtiles:10/912/527:waterway:6738906410:3","properties":{"name":"Ok Birim","name_int":"Ok Birim","class":"river","name:latin":"Ok Birim","name_de":"Ok Birim","name_en":"Ok Birim","waterway":"river","kind":"waterway","verification":"verified","source":"OpenMapTiles/OpenStreetMap national PMTiles","sourceId":"10/912/527:waterway:6738906410:3","sourceLayer":"waterway","archive":"https://its.hanifahseptiani45.workers.dev/v1/map/archive/indonesia.pmtiles","updatedAt":"2026-07-26T09:44:35.753Z"},"geometry":{"type":"LineString","coordinates":[[140.98360061645508,-5.458708943908661],[140.9820556640625,-5.458879826779068],[140.9817123413086,-5.459307033741993],[140.98154067993164,-5.460161446754569],[140.98188400268555,-5.461699387107942],[140.98222732543945,-5.4621265920612245]]}},{"type":"Feature","id":"pmtiles:10/912/527:waterway:6738906410:4","properties":{"name":"Ok Birim","name_int":"Ok Birim","class":"river","name:latin":"Ok Birim","name_de":"Ok Birim","name_en":"Ok Birim","waterway":"river","kind":"waterway","verification":"verified","source":"OpenMapTiles/OpenStreetMap national PMTiles","sourceId":"10/912/527:waterway:6738906410:4","sourceLayer":"waterway","archive":"https://its.hanifahseptiani45.workers.dev/v1/map/archive/indonesia.pmtiles","updatedAt":"2026-07-26T09:44:35.753Z"},"geometry":{"type":"LineString","coordinates":[[140.98222732543945,-5.464518934170172],[140.98179817199707,-5.464860696548627],[140.98162651062012,-5.465458780241605],[140.9820556640625,-5.466569505515153],[140.98445892333984,-5.467936549176827]]}},{"type":"Feature","id":"pmtiles:10/912/527:waterway:6738906410:5","properties":{"name":"Ok Birim","name_int":"Ok Birim","class":"river","name:latin":"Ok Birim","name_de":"Ok Birim","name_en":"Ok Birim","waterway":"river","kind":"waterway","verification":"verified","source":"OpenMapTiles/OpenStreetMap national PMTiles","sourceId":"10/912/527:waterway:6738906410:5","sourceLayer":"waterway","archive":"https://its.hanifahseptiani45.workers.dev/v1/map/archive/indonesia.pmtiles","updatedAt":"2026-07-26T09:44:35.753Z"},"geometry":{"type":"LineString","coordinates":[[140.9823989868164,-5.481179622904023],[140.98179817199707,-5.482461195107959],[140.98214149475098,-5.482973823219211]]}},{"type":"Feature","id":"pmtiles:10/912/527:waterway:6738906410:6","properties":{"name":"Ok Birim","name_int":"Ok Birim","class":"river","name:latin":"Ok Birim","name_de":"Ok Birim","name_en":"Ok Birim","waterway":"river","kind":"waterway","verification":"verified","source":"OpenMapTiles/OpenStreetMap national PMTiles","sourceId":"10/912/527:waterway:6738906410:6","sourceLayer":"waterway","archive":"https://its.hanifahseptiani45.workers.dev/v1/map/archive/indonesia.pmtiles","updatedAt":"2026-07-26T09:44:35.753Z"},"geometry":{"type":"LineString","coordinates":[[140.9827423095703,-5.475284355346673],[140.98196983337402,-5.475626111575892],[140.98179817199707,-5.476480501293963],[140.98214149475098,-5.477334889790541]]}},{"type":"Feature","id":"pmtiles:10/913/527:landuse:6738906190:0","properties":{"class":"residential","kind":"green","verification":"verified","source":"OpenMapTiles/OpenStreetMap national PMTiles","sourceId":"10/913/527:landuse:6738906190:0","sourceLayer":"landuse","archive":"https://its.hanifahseptiani45.workers.dev/v1/map/archive/indonesia.pmtiles","updatedAt":"2026-07-26T09:44:35.809Z"},"geometry":{"type":"Polygon","coordinates":[[[140.99716186523438,-5.524922394470394],[140.99947929382324,-5.523555481620036],[141.00342750549316,-5.524153506380159],[141.00265502929688,-5.524751530536591],[141.00059509277344,-5.52440980252112],[140.99724769592285,-5.525691281562587],[140.99716186523438,-5.524922394470394]]]}},{"type":"Feature","id":"pmtiles:10/913/527:mountain_peak:66335410351:0","properties":{"rank":1,"class":"peak","ele_ft":3248,"ele":990,"kind":"poi","verification":"verified","source":"OpenMapTiles/OpenStreetMap national PMTiles","sourceId":"10/913/527:mountain_peak:66335410351:0","sourceLayer":"mountain_peak","archive":"https://its.hanifahseptiani45.workers.dev/v1/map/archive/indonesia.pmtiles","updatedAt":"2026-07-26T09:44:35.809Z"},"geometry":{"type":"Point","coordinates":[140.99098205566406,-5.273101721582549]}},{"type":"Feature","id":"pmtiles:10/913/527:mountain_peak:66335410341:0","properties":{"rank":3,"class":"saddle","ele_ft":2854,"ele":870,"kind":"poi","verification":"verified","source":"OpenMapTiles/OpenStreetMap national PMTiles","sourceId":"10/913/527:mountain_peak:66335410341:0","sourceLayer":"mountain_peak","archive":"https://its.hanifahseptiani45.workers.dev/v1/map/archive/indonesia.pmtiles","updatedAt":"2026-07-26T09:44:35.809Z"},"geometry":{"type":"Point","coordinates":[140.9963893890381,-5.26763178075835]}},{"type":"Feature","id":"pmtiles:10/913/527:waterway:6738906410:0","properties":{"name":"Ok Birim","name_int":"Ok Birim","class":"river","name:latin":"Ok Birim","name_de":"Ok Birim","name_en":"Ok Birim","waterway":"river","kind":"waterway","verification":"verified","source":"OpenMapTiles/OpenStreetMap national PMTiles","sourceId":"10/913/527:waterway:6738906410:0","sourceLayer":"waterway","archive":"https://its.hanifahseptiani45.workers.dev/v1/map/archive/indonesia.pmtiles","updatedAt":"2026-07-26T09:44:35.809Z"},"geometry":{"type":"LineString","coordinates":[[141.00505828857422,-5.274127330122994],[141.0043716430664,-5.2737854607977965],[141.00385665893555,-5.274127330122994],[141.0025691986084,-5.2738709281467635],[141.00196838378906,-5.275409338415329],[141.00239753723145,-5.275836673924232],[141.00214004516602,-5.276349476146407],[141.00128173828125,-5.276520410126281],[141.0014533996582,-5.276947744869901],[141.00265502929688,-5.276862277944716],[141.00214004516602,-5.277973347053489],[141.00205421447754,-5.2790844141718765],[141.00153923034668,-5.279511747148888],[141.0014533996582,-5.280451878661566],[141.0011100769043,-5.2805373450920285],[141.00119590759277,-5.281221076111493],[141.0006809234619,-5.281648407615677],[141.00102424621582,-5.282844934259842],[141.00153923034668,-5.28310133252586],[141.00153923034668,-5.283870526687323],[141.00214004516602,-5.283699594733974],[141.00265502929688,-5.283870526687323],[141.00214004516602,-5.284554254029132],[141.00205421447754,-5.286178103441088],[141.00128173828125,-5.286605431526027],[141.0014533996582,-5.287631017726625],[141.0006809234619,-5.288229275559061],[141.00059509277344,-5.289083928602366],[141.00093841552734,-5.289340324285234],[141.0006809234619,-5.290793231148243],[141.00016593933105,-5.290964161143137],[141.000337600708,-5.29164788065043],[140.99870681762695,-5.292246134599424],[140.99716186523438,-5.294553680124707],[140.9978485107422,-5.296262967554071],[140.99690437316895,-5.298057714267358],[140.99621772766113,-5.297801322198893],[140.9959602355957,-5.298057714267358],[140.99587440490723,-5.300621629099481],[140.99535942077637,-5.300878019997327],[140.99501609802246,-5.301561728537806],[140.99407196044922,-5.301903582524147],[140.99432945251465,-5.302587289928979],[140.9948444366455,-5.3031000699856605],[140.99441528320312,-5.303612849616371],[140.99467277526855,-5.3048093337645525],[140.9937286376953,-5.305920352681994],[140.9926986694336,-5.305749426824917],[140.99295616149902,-5.30720229510051],[140.99218368530273,-5.308398772287248],[140.9926986694336,-5.310022559041627],[140.99244117736816,-5.311048106367053],[140.9926986694336,-5.312159114043922],[140.99149703979492,-5.312671886142283],[140.9912395477295,-5.3136974290587204],[140.9908103942871,-5.3137828908913605],[140.99072456359863,-5.314124738103374],[140.9904670715332,-5.314295661638226],[140.98995208740234,-5.314039276318155],[140.9896945953369,-5.315150278601067],[140.99029541015625,-5.316432201821627],[140.989351272583,-5.316944970362584],[140.989351272583,-5.319252423511131],[140.98797798156738,-5.319508806660295],[140.98780632019043,-5.321730789477897],[140.98849296569824,-5.3220726322759475],[140.98926544189453,-5.323610922515826],[140.98875045776367,-5.324294605831625],[140.98952293395996,-5.326003810794674],[140.98772048950195,-5.327029331491019],[140.98849296569824,-5.328396689757042],[140.9883213043213,-5.329934964168373],[140.9897804260254,-5.331815072105215],[140.99252700805664,-5.3319859907230835],[140.9941577911377,-5.330789559398752],[140.9948444366455,-5.329678585367361],[140.99681854248047,-5.330105883309599],[140.99699020385742,-5.330533180954518],[140.99604606628418,-5.3326696647186935],[140.9959602355957,-5.334037010425419],[140.99355697631836,-5.336088023272765],[140.99329948425293,-5.336857151322704],[140.99347114562988,-5.3387372380507685],[140.99287033081055,-5.337626278408152],[140.99132537841797,-5.337797195407234],[140.99029541015625,-5.338908154740196],[140.98995208740234,-5.340531860913245],[140.98875045776367,-5.3424973942095875],[140.98746299743652,-5.342839225443612],[140.98746299743652,-5.3434374296442115],[140.9890079498291,-5.343608345022815],[140.98952293395996,-5.34403563326066],[140.9896945953369,-5.344804751337605],[140.98806381225586,-5.345146581283998],[140.9864330291748,-5.345915697965722],[140.9846305847168,-5.345659325845816],[140.98505973815918,-5.347026642578115],[140.98488807678223,-5.347453928430696],[140.9842872619629,-5.347881213985005],[140.9828281402588,-5.348223042213689],[140.9820556640625,-5.348650327231056],[140.9817123413086,-5.350103094058483],[140.98085403442383,-5.351812227085944],[140.98076820373535,-5.353264986404156],[140.9820556640625,-5.354205005300244],[140.98291397094727,-5.35548684692003],[140.98299980163574,-5.356170494684719],[140.98119735717773,-5.357195964897755],[140.98042488098145,-5.359161444661709],[140.97905158996582,-5.360015999108157],[140.9787940979004,-5.360528731202038],[140.97930908203125,-5.362921475280132],[140.97922325134277,-5.363861479316043],[140.97853660583496,-5.365741483043678],[140.9787940979004,-5.36770693529121],[140.97845077514648,-5.36950147311515],[140.97862243652344,-5.372492357747902],[140.97784996032715,-5.375654134108714],[140.97853660583496,-5.377106836662264],[140.978364944458,-5.378901346794876],[140.97853660583496,-5.3797558735695645],[140.98111152648926,-5.384370297408992],[140.98154067993164,-5.38667749619546],[140.98265647888184,-5.388899234895277],[140.98394393920898,-5.390181003525569],[140.9842014312744,-5.390864612355472],[140.9835147857666,-5.391975475062452],[140.98231315612793,-5.39325723719827],[140.98145484924316,-5.397017057177322],[140.97939491271973,-5.397957008530668],[140.97793579101562,-5.399067858251485],[140.97707748413086,-5.400605954504471],[140.97613334655762,-5.401289551586217],[140.9757900238037,-5.401887698400174],[140.97570419311523,-5.402742192824363],[140.97639083862305,-5.405903811712733],[140.97613334655762,-5.407612788022362],[140.97630500793457,-5.408809068568132],[140.97707748413086,-5.410518036673878],[140.9780216217041,-5.410859829715719],[140.97930908203125,-5.410176243438912],[140.97999572753906,-5.410176243438912],[140.98068237304688,-5.410347140080532],[140.98119735717773,-5.4107743814733595],[140.98033905029297,-5.412739687993465],[140.98008155822754,-5.414961331150664],[140.9791374206543,-5.419319145930331],[140.9791374206543,-5.421882551702396],[140.97896575927734,-5.422480678149796],[140.97716331481934,-5.424360500268449],[140.97673416137695,-5.425727639949116],[140.9773349761963,-5.4273511142955755],[140.98033905029297,-5.427778343660393],[140.9809398651123,-5.428632801481939],[140.98085403442383,-5.4293163668672975],[140.97956657409668,-5.430598049875599],[140.97930908203125,-5.431281613032269],[140.9799098968506,-5.43213606588769],[140.98119735717773,-5.432563291861015],[140.98162651062012,-5.433075962629118],[140.98154067993164,-5.433844967963168],[140.97973823547363,-5.435639309924298],[140.97896575927734,-5.437177313063742],[140.97930908203125,-5.438117201936777],[140.98102569580078,-5.439227977803441],[140.9812831878662,-5.439911531163787],[140.98102569580078,-5.440936859748149],[140.97999572753906,-5.4419621865848455],[140.9798240661621,-5.4426457368381875],[140.9799098968506,-5.442987511673508],[140.98179817199707,-5.44435460907205],[140.98454475402832,-5.445123599992584],[140.98471641540527,-5.445465373419239],[140.98454475402832,-5.445978033194834],[140.9820556640625,-5.447345123791649],[140.98248481750488,-5.448455882611157],[140.98257064819336,-5.449395753854205],[140.9820556640625,-5.450933721806578],[140.9827423095703,-5.452044473988934],[140.9842014312744,-5.453411550776551],[140.98505973815918,-5.45563304391446],[140.98505973815918,-5.456145695008942],[140.98411560058594,-5.458367178021717],[140.98360061645508,-5.458708943908661],[140.9820556640625,-5.458879826779068],[140.9817123413086,-5.459307033741993],[140.98154067993164,-5.460161446754569],[140.98188400268555,-5.461699387107942],[140.98222732543945,-5.4621265920612245],[140.98291397094727,-5.462041151094937],[140.9838581085205,-5.4613576229260445],[140.98437309265137,-5.46127218185012],[140.98505973815918,-5.46144306398979],[140.98548889160156,-5.462041151094937],[140.9854030609131,-5.462639237603099],[140.9849739074707,-5.463237323514221],[140.98222732543945,-5.464518934170172],[140.98179817199707,-5.464860696548627],[140.98162651062012,-5.465458780241605],[140.9820556640625,-5.466569505515153],[140.98445892333984,-5.467936549176827],[140.9842014312744,-5.469987108814948],[140.98488807678223,-5.47203766142546],[140.9827423095703,-5.475284355346673],[140.98196983337402,-5.475626111575892],[140.98179817199707,-5.476480501293963],[140.98214149475098,-5.477334889790541],[140.9828281402588,-5.477420328573004],[140.98377227783203,-5.478189277065411],[140.98591804504395,-5.478787347430838],[140.98617553710938,-5.479214540182397],[140.985746383667,-5.479983486365256],[140.9846305847168,-5.480581554934133],[140.9823989868164,-5.481179622904023],[140.98179817199707,-5.482461195107959],[140.98214149475098,-5.482973823219211],[140.98368644714355,-5.483315575048778],[140.9842014312744,-5.484084515949846],[140.9842872619629,-5.4845971426668],[140.98368644714355,-5.485024331261187],[140.9835147857666,-5.48664764513039],[140.98360061645508,-5.487587456403986],[140.98437309265137,-5.488954451976369],[140.98488807678223,-5.489039889095565],[140.9853172302246,-5.488783577701199],[140.9854030609131,-5.48681852001755],[140.98651885986328,-5.486305895209227],[140.98917961120605,-5.48681852001755],[140.9912395477295,-5.488100080110854],[140.99141120910645,-5.488783577701199],[140.99115371704102,-5.489381637450023],[140.99029541015625,-5.490065133571221],[140.98797798156738,-5.490321444414647],[140.98746299743652,-5.490834065770855],[140.98763465881348,-5.491517560226626],[140.9883213043213,-5.492371927194014],[140.99149703979492,-5.494080657453594],[140.99184036254883,-5.49467871188655],[140.99149703979492,-5.495362201931741],[140.98952293395996,-5.496643743652172],[140.98797798156738,-5.49912138315625],[140.98626136779785,-5.500915529461807],[140.98402976989746,-5.503820326293905],[140.98402976989746,-5.504503805839505],[140.98480224609375,-5.505529023684645],[140.9849739074707,-5.506297935908165],[140.98505973815918,-5.510655086381291],[140.98471641540527,-5.512278330346646],[140.98514556884766,-5.512876366478352],[140.98651885986328,-5.512876366478352],[140.98660469055176,-5.513218101140282],[140.98634719848633,-5.514841338097554],[140.9838581085205,-5.516635436937108],[140.98342895507812,-5.517404334778917],[140.98325729370117,-5.518514963235191],[140.9835147857666,-5.518942127472243],[140.9842014312744,-5.5191129930808955],[140.98591804504395,-5.5191129930808955],[140.98806381225586,-5.518685828966923],[140.98986625671387,-5.518771261814351],[140.9901237487793,-5.519198425866762],[140.9897804260254,-5.520565348766496],[140.99072456359863,-5.523555481620036],[140.99055290222168,-5.523897210128311],[140.9868621826172,-5.526545599383184],[140.98634719848633,-5.527229052752247],[140.98548889160156,-5.5309880321776745],[140.98377227783203,-5.532611220457056],[140.9838581085205,-5.533209236068828],[140.9853172302246,-5.534661557179916],[140.9854030609131,-5.535430431618167],[140.9849739074707,-5.536199305056485],[140.98308563232422,-5.538078769250816],[140.98291397094727,-5.538676779331894],[140.9831714630127,-5.539103929019234],[140.9842014312744,-5.53944564854676],[140.98617553710938,-5.540641665336452],[140.98626136779785,-5.541666820657198],[140.98548889160156,-5.542691974198306],[140.98394393920898,-5.54346083818605],[140.98188400268555,-5.543887984413232],[140.9798240661621,-5.5449985631573355],[140.97905158996582,-5.54585285307688],[140.97793579101562,-5.547817715197951],[140.9765625,-5.548757429551102],[140.97613334655762,-5.548501143966902],[140.9757900238037,-5.547903143837388],[140.97596168518066,-5.543119120981785],[140.97493171691895,-5.542521115398387],[140.97381591796875,-5.542435685979896],[140.97244262695312,-5.543119120981785],[140.97158432006836,-5.543289979608659],[140.97012519836426,-5.542435685979896]]}},{"type":"Feature","id":"pmtiles:10/913/527:waterway:6738906410:1","properties":{"name":"Ok Birim","name_int":"Ok Birim","class":"river","name:latin":"Ok Birim","name_de":"Ok Birim","name_en":"Ok Birim","waterway":"river","kind":"waterway","verification":"verified","source":"OpenMapTiles/OpenStreetMap national PMTiles","sourceId":"10/913/527:waterway:6738906410:1","sourceLayer":"waterway","archive":"https://its.hanifahseptiani45.workers.dev/v1/map/archive/indonesia.pmtiles","updatedAt":"2026-07-26T09:44:35.809Z"},"geometry":{"type":"LineString","coordinates":[[140.97081184387207,-5.5924097781444],[140.97132682800293,-5.592580622442924],[140.97158432006836,-5.592751466691581],[140.9721851348877,-5.5941182188847876],[140.97390174865723,-5.59591207629208],[140.97518920898438,-5.59967061682363],[140.9758758544922,-5.600183143205356],[140.97793579101562,-5.600268564225274],[140.97930908203125,-5.6006956691375365],[140.9798240661621,-5.6012081946201135],[140.9802532196045,-5.602233244236359],[140.98016738891602,-5.6030020302680725],[140.97956657409668,-5.60368539478003],[140.97673416137695,-5.604454178900099],[140.97518920898438,-5.605393802561082],[140.97458839416504,-5.606162584431544],[140.97467422485352,-5.607102205342571],[140.97501754760742,-5.607529305256591],[140.97742080688477,-5.608896022880728],[140.9809398651123,-5.608981442625932],[140.98583221435547,-5.610604415408432],[140.99166870117188,-5.611629448523161],[140.9948444366455,-5.611544029165742],[140.99862098693848,-5.610262737303174],[140.9999942779541,-5.610604415408432],[141.0006809234619,-5.611373190413389],[141.00171089172363,-5.615473306653328],[141.0033416748047,-5.617694190906008],[141.00351333618164,-5.618377538203461],[141.00299835205078,-5.619658812225111],[141.00136756896973,-5.619915066691149],[140.9970760345459,-5.619231721197792]]}},{"type":"Feature","id":"pmtiles:10/912/528:waterway:6738906410:0","properties":{"name":"Ok Birim","name_int":"Ok Birim","class":"river","name:latin":"Ok Birim","name_de":"Ok Birim","name_en":"Ok Birim","waterway":"river","kind":"waterway","verification":"verified","source":"OpenMapTiles/OpenStreetMap national PMTiles","sourceId":"10/912/528:waterway:6738906410:0","sourceLayer":"waterway","archive":"https://its.hanifahseptiani45.workers.dev/v1/map/archive/indonesia.pmtiles","updatedAt":"2026-07-26T09:44:45.919Z"},"geometry":{"type":"LineString","coordinates":[[140.9809398651123,-5.608981442625932],[140.98583221435547,-5.610604415408432]]}},{"type":"Feature","id":"pmtiles:10/913/528:waterway:6738906410:0","properties":{"name":"Ok Birim","name_int":"Ok Birim","class":"river","name:latin":"Ok Birim","name_de":"Ok Birim","name_en":"Ok Birim","waterway":"river","kind":"waterway","verification":"verified","source":"OpenMapTiles/OpenStreetMap national PMTiles","sourceId":"10/913/528:waterway:6738906410:0","sourceLayer":"waterway","archive":"https://its.hanifahseptiani45.workers.dev/v1/map/archive/indonesia.pmtiles","updatedAt":"2026-07-26T09:44:45.995Z"},"geometry":{"type":"LineString","coordinates":[[140.9809398651123,-5.608981442625932],[140.98583221435547,-5.610604415408432],[140.99166870117188,-5.611629448523161],[140.9948444366455,-5.611544029165742],[140.99862098693848,-5.610262737303174],[140.9999942779541,-5.610604415408432],[141.0006809234619,-5.611373190413389],[141.00171089172363,-5.615473306653328],[141.0033416748047,-5.617694190906008],[141.00351333618164,-5.618377538203461],[141.00299835205078,-5.619658812225111],[141.00136756896973,-5.619915066691149],[140.9970760345459,-5.619231721197792]]}},{"type":"Feature","id":"pmtiles:8/228/131:mountain_peak:66335410351:0","properties":{"rank":5,"class":"peak","ele_ft":3248,"ele":990,"kind":"poi","verification":"verified","source":"OpenMapTiles/OpenStreetMap national PMTiles","sourceId":"8/228/131:mountain_peak:66335410351:0","sourceLayer":"mountain_peak","archive":"https://its.hanifahseptiani45.workers.dev/v1/map/archive/indonesia.pmtiles","updatedAt":"2026-07-26T09:35:41.762Z"},"geometry":{"type":"Point","coordinates":[140.99098205566406,-5.2731871890256485]}},{"type":"Feature","id":"pmtiles:8/228/132:mountain_peak:66335410351:0","properties":{"rank":5,"class":"peak","ele_ft":3248,"ele":990,"kind":"poi","verification":"verified","source":"OpenMapTiles/OpenStreetMap national PMTiles","sourceId":"8/228/132:mountain_peak:66335410351:0","sourceLayer":"mountain_peak","archive":"https://its.hanifahseptiani45.workers.dev/v1/map/archive/indonesia.pmtiles","updatedAt":"2026-07-26T09:35:44.497Z"},"geometry":{"type":"Point","coordinates":[140.99098205566406,-5.2731871890256485]}}]}