{"type":"FeatureCollection","features":[{"type":"Feature","id":"pmtiles:10/907/520:landcover:77491923:0","properties":{"subclass":"wood","class":"wood","kind":"green","verification":"verified","source":"OpenMapTiles/OpenStreetMap national PMTiles","sourceId":"10/907/520:landcover:77491923:0","sourceLayer":"landcover","archive":"https://its.hanifahseptiani45.workers.dev/v1/map/archive/indonesia.pmtiles","updatedAt":"2026-07-26T09:43:28.467Z"},"geometry":{"type":"Polygon","coordinates":[[[138.8616943359375,-3.167940314402756],[138.8616943359375,-2.8058846278244545],[139.0327548980713,-2.8058846278244545],[139.0381622314453,-2.8199439002659403],[139.04485702514648,-2.831774132042142],[139.0546417236328,-2.8444614927040135],[139.07403945922852,-2.8751506110219935],[139.0894889831543,-2.8969239546196377],[139.0975570678711,-2.906696106746665],[139.12433624267578,-2.921954210033988],[139.13068771362305,-2.9296689024848632],[139.1330909729004,-2.9356691820900096],[139.13755416870117,-2.9560698913173553],[139.14098739624023,-2.960870003778325],[139.14579391479492,-2.963098620352568],[139.1521453857422,-2.9646415061218363],[139.15437698364258,-2.9677272712041542],[139.1550636291504,-2.9721844722213433],[139.15231704711914,-2.9761273658074856],[139.15008544921875,-2.977841662967748],[139.14939880371094,-2.980755962015863],[139.1451072692871,-2.984184539248716],[139.1282844543457,-2.990355951307066],[139.1140365600586,-2.990355951307066],[139.1118049621582,-3.0023558197290754],[139.11266326904297,-3.022755293251336],[139.12090301513672,-3.047782694562244],[139.11944389343262,-3.0491540422402466],[139.11944389343262,-3.052239568122019],[139.11858558654785,-3.055067959063777],[139.11944389343262,-3.057724925584708],[139.1195297241211,-3.060553302068115],[139.12107467651367,-3.062610298458452],[139.12081718444824,-3.067838479827401],[139.12364959716797,-3.0752093150348117],[139.1257095336914,-3.077866231520275],[139.12845611572266,-3.07940895418173],[139.1287136077881,-3.084894172205537],[139.13283348083496,-3.092350595062598],[139.13257598876953,-3.0950931741973307],[139.13549423217773,-3.1014353612479795],[139.13549423217773,-3.103920802559969],[139.13798332214355,-3.1087202588887948],[139.14570808410645,-3.1318601877374164],[139.14690971374512,-3.1367452185855456],[139.1466522216797,-3.1411160163141716],[139.14862632751465,-3.1480578339118352],[139.1517162322998,-3.151914379262749],[139.1575527191162,-3.156199412886963],[139.16579246520996,-3.1644266278890854],[139.16888236999512,-3.167940314402756],[138.8616943359375,-3.167940314402756]]]}},{"type":"Feature","id":"pmtiles:10/907/520:park:77491923:0","properties":{"name":"Taman Nasional Mamberamo Foja","name_int":"Mamberamo Foja National Park","class":"national_park","name:latin":"Taman Nasional Mamberamo Foja","name_de":"Taman Nasional Mamberamo Foja","name_en":"Mamberamo Foja National Park","kind":"green","verification":"verified","source":"OpenMapTiles/OpenStreetMap national PMTiles","sourceId":"10/907/520:park:77491923:0","sourceLayer":"park","archive":"https://its.hanifahseptiani45.workers.dev/v1/map/archive/indonesia.pmtiles","updatedAt":"2026-07-26T09:43:28.467Z"},"geometry":{"type":"Polygon","coordinates":[[[138.8616943359375,-3.167940314402756],[138.8616943359375,-2.8058846278244545],[139.0327548980713,-2.8058846278244545],[139.0381622314453,-2.8199439002659403],[139.04485702514648,-2.831774132042142],[139.0546417236328,-2.8444614927040135],[139.07403945922852,-2.8751506110219935],[139.0894889831543,-2.8969239546196377],[139.0975570678711,-2.906696106746665],[139.12433624267578,-2.921954210033988],[139.13068771362305,-2.9296689024848632],[139.1330909729004,-2.9356691820900096],[139.13497924804688,-2.945098127766684],[139.13755416870117,-2.9560698913173553],[139.14098739624023,-2.960870003778325],[139.14579391479492,-2.963098620352568],[139.1521453857422,-2.9646415061218363],[139.15437698364258,-2.9677272712041542],[139.1550636291504,-2.9721844722213433],[139.15231704711914,-2.9761273658074856],[139.15008544921875,-2.977841662967748],[139.14939880371094,-2.980755962015863],[139.1451072692871,-2.984184539248716],[139.1282844543457,-2.990355951307066],[139.1140365600586,-2.990355951307066],[139.1118049621582,-3.0023558197290754],[139.11266326904297,-3.022755293251336],[139.12090301513672,-3.047782694562244],[139.11944389343262,-3.0491540422402466],[139.11944389343262,-3.052239568122019],[139.11858558654785,-3.055067959063777],[139.11944389343262,-3.057724925584708],[139.1195297241211,-3.060553302068115],[139.12107467651367,-3.062610298458452],[139.12081718444824,-3.067838479827401],[139.1227912902832,-3.0721238553260406],[139.12364959716797,-3.0752093150348117],[139.1257095336914,-3.077866231520275],[139.12845611572266,-3.07940895418173],[139.1287136077881,-3.084894172205537],[139.13283348083496,-3.092350595062598],[139.13257598876953,-3.0950931741973307],[139.13549423217773,-3.1014353612479795],[139.13549423217773,-3.103920802559969],[139.13798332214355,-3.1087202588887948],[139.14570808410645,-3.1318601877374164],[139.14690971374512,-3.1367452185855456],[139.1466522216797,-3.1411160163141716],[139.14862632751465,-3.1480578339118352],[139.1517162322998,-3.151914379262749],[139.1575527191162,-3.156199412886963],[139.16579246520996,-3.1644266278890854],[139.16888236999512,-3.167940314402756],[138.8616943359375,-3.167940314402756]]]}}]}