{"type":"FeatureCollection","features":[{"type":"Feature","id":"pmtiles:10/909/507:water:2800:0","properties":{"class":"ocean","water":"ocean","kind":"waterway","verification":"verified","source":"OpenMapTiles/OpenStreetMap national PMTiles","sourceId":"10/909/507:water:2800:0","sourceLayer":"water","archive":"https://its.hanifahseptiani45.workers.dev/v1/map/archive/indonesia.pmtiles","updatedAt":"2026-07-26T09:40:32.504Z"},"geometry":{"type":"Polygon","coordinates":[[[139.5648193359375,1.7630273831138794],[139.9273681640625,1.7630273831138794],[139.9273681640625,1.4006173190275177],[139.5648193359375,1.4006173190275177],[139.5648193359375,1.7630273831138794]]]}}]}