{"type":"FeatureCollection","features":[{"type":"Feature","id":"pmtiles:10/902/540:water:650:0","properties":{"class":"ocean","water":"ocean","kind":"waterway","verification":"verified","source":"OpenMapTiles/OpenStreetMap national PMTiles","sourceId":"10/902/540:water:650:0","sourceLayer":"water","archive":"https://its.hanifahseptiani45.workers.dev/v1/map/archive/indonesia.pmtiles","updatedAt":"2026-07-26T09:47:06.529Z"},"geometry":{"type":"Polygon","coordinates":[[[137.1038818359375,-9.790264460914443],[137.4664306640625,-9.790264460914443],[137.4664306640625,-10.147338971518465],[137.1038818359375,-10.147338971518465],[137.1038818359375,-9.790264460914443]]]}}]}