{"type":"FeatureCollection","features":[{"type":"Feature","id":"pmtiles:10/911/539:water:570:0","properties":{"class":"ocean","water":"ocean","kind":"waterway","verification":"verified","source":"OpenMapTiles/OpenStreetMap national PMTiles","sourceId":"10/911/539:water:570:0","sourceLayer":"water","archive":"https://its.hanifahseptiani45.workers.dev/v1/map/archive/indonesia.pmtiles","updatedAt":"2026-07-26T09:46:57.888Z"},"geometry":{"type":"Polygon","coordinates":[[[140.2679443359375,-9.443643151732559],[140.6304931640625,-9.443643151732559],[140.6304931640625,-9.801090616449585],[140.2679443359375,-9.801090616449585],[140.2679443359375,-9.443643151732559]]]}}]}