{"type":"FeatureCollection","features":[{"type":"Feature","id":"pmtiles:12/3608/1984:water:140:0","properties":{"class":"ocean","water":"ocean","kind":"waterway","verification":"verified","source":"OpenMapTiles/OpenStreetMap national PMTiles","sourceId":"12/3608/1984:water:140:0","sourceLayer":"water","archive":"https://its.hanifahseptiani45.workers.dev/v1/map/archive/indonesia.pmtiles","updatedAt":"2026-07-26T10:40:30.499Z"},"geometry":{"type":"Polygon","coordinates":[[[137.10800170898438,5.617352516956672],[137.19863891601562,5.617352516956672],[137.19863891601562,5.527143621124267],[137.10800170898438,5.527143621124267],[137.10800170898438,5.617352516956672]]]}},{"type":"Feature","id":"pmtiles:12/3609/1984:water:140:0","properties":{"class":"ocean","water":"ocean","kind":"waterway","verification":"verified","source":"OpenMapTiles/OpenStreetMap national PMTiles","sourceId":"12/3609/1984:water:140:0","sourceLayer":"water","archive":"https://its.hanifahseptiani45.workers.dev/v1/map/archive/indonesia.pmtiles","updatedAt":"2026-07-26T10:40:30.571Z"},"geometry":{"type":"Polygon","coordinates":[[[137.19589233398438,5.617352516956672],[137.28652954101562,5.617352516956672],[137.28652954101562,5.527143621124267],[137.19589233398438,5.527143621124267],[137.19589233398438,5.617352516956672]]]}},{"type":"Feature","id":"pmtiles:12/3610/1984:water:140:0","properties":{"class":"ocean","water":"ocean","kind":"waterway","verification":"verified","source":"OpenMapTiles/OpenStreetMap national PMTiles","sourceId":"12/3610/1984:water:140:0","sourceLayer":"water","archive":"https://its.hanifahseptiani45.workers.dev/v1/map/archive/indonesia.pmtiles","updatedAt":"2026-07-26T10:40:30.657Z"},"geometry":{"type":"Polygon","coordinates":[[[137.28378295898438,5.617352516956672],[137.37442016601562,5.617352516956672],[137.37442016601562,5.527143621124267],[137.28378295898438,5.527143621124267],[137.28378295898438,5.617352516956672]]]}},{"type":"Feature","id":"pmtiles:12/3611/1984:water:140:0","properties":{"class":"ocean","water":"ocean","kind":"waterway","verification":"verified","source":"OpenMapTiles/OpenStreetMap national PMTiles","sourceId":"12/3611/1984:water:140:0","sourceLayer":"water","archive":"https://its.hanifahseptiani45.workers.dev/v1/map/archive/indonesia.pmtiles","updatedAt":"2026-07-26T10:40:30.734Z"},"geometry":{"type":"Polygon","coordinates":[[[137.37167358398438,5.617352516956672],[137.46231079101562,5.617352516956672],[137.46231079101562,5.527143621124267],[137.37167358398438,5.527143621124267],[137.37167358398438,5.617352516956672]]]}},{"type":"Feature","id":"pmtiles:12/3608/1985:water:2780:0","properties":{"class":"ocean","water":"ocean","kind":"waterway","verification":"verified","source":"OpenMapTiles/OpenStreetMap national PMTiles","sourceId":"12/3608/1985:water:2780:0","sourceLayer":"water","archive":"https://its.hanifahseptiani45.workers.dev/v1/map/archive/indonesia.pmtiles","updatedAt":"2026-07-26T10:41:09.735Z"},"geometry":{"type":"Polygon","coordinates":[[[137.10800170898438,5.52987742710495],[137.19863891601562,5.52987742710495],[137.19863891601562,5.439655198744674],[137.10800170898438,5.439655198744674],[137.10800170898438,5.52987742710495]]]}},{"type":"Feature","id":"pmtiles:12/3609/1985:water:2780:0","properties":{"class":"ocean","water":"ocean","kind":"waterway","verification":"verified","source":"OpenMapTiles/OpenStreetMap national PMTiles","sourceId":"12/3609/1985:water:2780:0","sourceLayer":"water","archive":"https://its.hanifahseptiani45.workers.dev/v1/map/archive/indonesia.pmtiles","updatedAt":"2026-07-26T10:41:09.816Z"},"geometry":{"type":"Polygon","coordinates":[[[137.19589233398438,5.52987742710495],[137.28652954101562,5.52987742710495],[137.28652954101562,5.439655198744674],[137.19589233398438,5.439655198744674],[137.19589233398438,5.52987742710495]]]}},{"type":"Feature","id":"pmtiles:12/3610/1985:water:2780:0","properties":{"class":"ocean","water":"ocean","kind":"waterway","verification":"verified","source":"OpenMapTiles/OpenStreetMap national PMTiles","sourceId":"12/3610/1985:water:2780:0","sourceLayer":"water","archive":"https://its.hanifahseptiani45.workers.dev/v1/map/archive/indonesia.pmtiles","updatedAt":"2026-07-26T10:41:09.971Z"},"geometry":{"type":"Polygon","coordinates":[[[137.28378295898438,5.52987742710495],[137.37442016601562,5.52987742710495],[137.37442016601562,5.439655198744674],[137.28378295898438,5.439655198744674],[137.28378295898438,5.52987742710495]]]}},{"type":"Feature","id":"pmtiles:12/3611/1985:water:2780:0","properties":{"class":"ocean","water":"ocean","kind":"waterway","verification":"verified","source":"OpenMapTiles/OpenStreetMap national PMTiles","sourceId":"12/3611/1985:water:2780:0","sourceLayer":"water","archive":"https://its.hanifahseptiani45.workers.dev/v1/map/archive/indonesia.pmtiles","updatedAt":"2026-07-26T10:41:10.177Z"},"geometry":{"type":"Polygon","coordinates":[[[137.37167358398438,5.52987742710495],[137.46231079101562,5.52987742710495],[137.46231079101562,5.439655198744674],[137.37167358398438,5.439655198744674],[137.37167358398438,5.52987742710495]]]}},{"type":"Feature","id":"pmtiles:12/3608/1986:water:2780:0","properties":{"class":"ocean","water":"ocean","kind":"waterway","verification":"verified","source":"OpenMapTiles/OpenStreetMap national PMTiles","sourceId":"12/3608/1986:water:2780:0","sourceLayer":"water","archive":"https://its.hanifahseptiani45.workers.dev/v1/map/archive/indonesia.pmtiles","updatedAt":"2026-07-26T10:41:44.901Z"},"geometry":{"type":"Polygon","coordinates":[[[137.10800170898438,5.442389405584223],[137.19863891601562,5.442389405584223],[137.19863891601562,5.352154053118355],[137.10800170898438,5.352154053118355],[137.10800170898438,5.442389405584223]]]}},{"type":"Feature","id":"pmtiles:12/3609/1986:water:2780:0","properties":{"class":"ocean","water":"ocean","kind":"waterway","verification":"verified","source":"OpenMapTiles/OpenStreetMap national PMTiles","sourceId":"12/3609/1986:water:2780:0","sourceLayer":"water","archive":"https://its.hanifahseptiani45.workers.dev/v1/map/archive/indonesia.pmtiles","updatedAt":"2026-07-26T10:41:44.965Z"},"geometry":{"type":"Polygon","coordinates":[[[137.19589233398438,5.442389405584223],[137.28652954101562,5.442389405584223],[137.28652954101562,5.352154053118355],[137.19589233398438,5.352154053118355],[137.19589233398438,5.442389405584223]]]}},{"type":"Feature","id":"pmtiles:12/3610/1986:water:2780:0","properties":{"class":"ocean","water":"ocean","kind":"waterway","verification":"verified","source":"OpenMapTiles/OpenStreetMap national PMTiles","sourceId":"12/3610/1986:water:2780:0","sourceLayer":"water","archive":"https://its.hanifahseptiani45.workers.dev/v1/map/archive/indonesia.pmtiles","updatedAt":"2026-07-26T10:41:45.028Z"},"geometry":{"type":"Polygon","coordinates":[[[137.28378295898438,5.442389405584223],[137.37442016601562,5.442389405584223],[137.37442016601562,5.352154053118355],[137.28378295898438,5.352154053118355],[137.28378295898438,5.442389405584223]]]}},{"type":"Feature","id":"pmtiles:12/3611/1986:water:2780:0","properties":{"class":"ocean","water":"ocean","kind":"waterway","verification":"verified","source":"OpenMapTiles/OpenStreetMap national PMTiles","sourceId":"12/3611/1986:water:2780:0","sourceLayer":"water","archive":"https://its.hanifahseptiani45.workers.dev/v1/map/archive/indonesia.pmtiles","updatedAt":"2026-07-26T10:41:45.091Z"},"geometry":{"type":"Polygon","coordinates":[[[137.37167358398438,5.442389405584223],[137.46231079101562,5.442389405584223],[137.46231079101562,5.352154053118355],[137.37167358398438,5.352154053118355],[137.37167358398438,5.442389405584223]]]}},{"type":"Feature","id":"pmtiles:12/3608/1987:water:2780:0","properties":{"class":"ocean","water":"ocean","kind":"waterway","verification":"verified","source":"OpenMapTiles/OpenStreetMap national PMTiles","sourceId":"12/3608/1987:water:2780:0","sourceLayer":"water","archive":"https://its.hanifahseptiani45.workers.dev/v1/map/archive/indonesia.pmtiles","updatedAt":"2026-07-26T10:42:25.738Z"},"geometry":{"type":"Polygon","coordinates":[[[137.10800170898438,5.354888654498652],[137.19863891601562,5.354888654498652],[137.19863891601562,5.264640386502251],[137.10800170898438,5.264640386502251],[137.10800170898438,5.354888654498652]]]}},{"type":"Feature","id":"pmtiles:12/3609/1987:water:2780:0","properties":{"class":"ocean","water":"ocean","kind":"waterway","verification":"verified","source":"OpenMapTiles/OpenStreetMap national PMTiles","sourceId":"12/3609/1987:water:2780:0","sourceLayer":"water","archive":"https://its.hanifahseptiani45.workers.dev/v1/map/archive/indonesia.pmtiles","updatedAt":"2026-07-26T10:42:25.802Z"},"geometry":{"type":"Polygon","coordinates":[[[137.19589233398438,5.354888654498652],[137.28652954101562,5.354888654498652],[137.28652954101562,5.264640386502251],[137.19589233398438,5.264640386502251],[137.19589233398438,5.354888654498652]]]}},{"type":"Feature","id":"pmtiles:12/3610/1987:water:2780:0","properties":{"class":"ocean","water":"ocean","kind":"waterway","verification":"verified","source":"OpenMapTiles/OpenStreetMap national PMTiles","sourceId":"12/3610/1987:water:2780:0","sourceLayer":"water","archive":"https://its.hanifahseptiani45.workers.dev/v1/map/archive/indonesia.pmtiles","updatedAt":"2026-07-26T10:42:25.870Z"},"geometry":{"type":"Polygon","coordinates":[[[137.28378295898438,5.354888654498652],[137.37442016601562,5.354888654498652],[137.37442016601562,5.264640386502251],[137.28378295898438,5.264640386502251],[137.28378295898438,5.354888654498652]]]}},{"type":"Feature","id":"pmtiles:12/3611/1987:water:2780:0","properties":{"class":"ocean","water":"ocean","kind":"waterway","verification":"verified","source":"OpenMapTiles/OpenStreetMap national PMTiles","sourceId":"12/3611/1987:water:2780:0","sourceLayer":"water","archive":"https://its.hanifahseptiani45.workers.dev/v1/map/archive/indonesia.pmtiles","updatedAt":"2026-07-26T10:42:25.950Z"},"geometry":{"type":"Polygon","coordinates":[[[137.37167358398438,5.354888654498652],[137.46231079101562,5.354888654498652],[137.46231079101562,5.264640386502251],[137.37167358398438,5.264640386502251],[137.37167358398438,5.354888654498652]]]}},{"type":"Feature","id":"pmtiles:10/902/496:water:140:0","properties":{"class":"ocean","water":"ocean","kind":"waterway","verification":"verified","source":"OpenMapTiles/OpenStreetMap national PMTiles","sourceId":"10/902/496:water:140:0","sourceLayer":"water","archive":"https://its.hanifahseptiani45.workers.dev/v1/map/archive/indonesia.pmtiles","updatedAt":"2026-07-26T09:38:26.937Z"},"geometry":{"type":"Polygon","coordinates":[[[137.1038818359375,5.621452591118839],[137.4664306640625,5.621452591118839],[137.4664306640625,5.260537879550753],[137.1038818359375,5.260537879550753],[137.1038818359375,5.621452591118839]]]}}]}