{"type":"FeatureCollection","features":[{"type":"Feature","id":"pmtiles:10/902/510:water:2770:0","properties":{"class":"ocean","water":"ocean","kind":"waterway","verification":"verified","source":"OpenMapTiles/OpenStreetMap national PMTiles","sourceId":"10/902/510:water:2770:0","sourceLayer":"water","archive":"https://its.hanifahseptiani45.workers.dev/v1/map/archive/indonesia.pmtiles","updatedAt":"2026-07-26T09:41:09.612Z"},"geometry":{"type":"Polygon","coordinates":[[[137.1038818359375,0.708600099655115],[137.4664306640625,0.708600099655115],[137.4664306640625,0.34606723172845477],[137.1038818359375,0.34606723172845477],[137.1038818359375,0.708600099655115]]]}},{"type":"Feature","id":"pmtiles:8/225/127:water:380:0","properties":{"class":"ocean","water":"ocean","kind":"waterway","verification":"verified","source":"OpenMapTiles/OpenStreetMap national PMTiles","sourceId":"8/225/127:water:380:0","sourceLayer":"water","archive":"https://its.hanifahseptiani45.workers.dev/v1/map/archive/indonesia.pmtiles","updatedAt":"2026-07-26T09:35:31.176Z"},"geometry":{"type":"Polygon","coordinates":[[[136.38427734375,1.4280747713669228],[137.83447265625,1.4280747713669228],[137.83447265625,-0.021972655711422817],[136.38427734375,-0.021972655711422817],[136.38427734375,1.4280747713669228]]]}}]}