{"type":"FeatureCollection","features":[{"type":"Feature","id":"pmtiles:10/908/541:water:570:0","properties":{"class":"ocean","water":"ocean","kind":"waterway","verification":"verified","source":"OpenMapTiles/OpenStreetMap national PMTiles","sourceId":"10/908/541:water:570:0","sourceLayer":"water","archive":"https://its.hanifahseptiani45.workers.dev/v1/map/archive/indonesia.pmtiles","updatedAt":"2026-07-26T09:47:15.681Z"},"geometry":{"type":"Polygon","coordinates":[[[139.2132568359375,-10.13652430945622],[139.5758056640625,-10.13652430945622],[139.5758056640625,-10.493213228263954],[139.2132568359375,-10.493213228263954],[139.2132568359375,-10.13652430945622]]]}}]}