{"type":"FeatureCollection","features":[{"type":"Feature","id":"pmtiles:10/909/521:landcover:77491923:0","properties":{"subclass":"wood","class":"wood","kind":"green","verification":"verified","source":"OpenMapTiles/OpenStreetMap national PMTiles","sourceId":"10/909/521:landcover:77491923:0","sourceLayer":"landcover","archive":"https://its.hanifahseptiani45.workers.dev/v1/map/archive/indonesia.pmtiles","updatedAt":"2026-07-26T09:43:38.493Z"},"geometry":{"type":"Polygon","coordinates":[[[139.5648193359375,-3.4058141800461073],[139.62129592895508,-3.4633888003800593],[139.63168144226074,-3.4616753202769814],[139.63640213012695,-3.4615039720961676],[139.6615505218506,-3.466644404030575],[139.67717170715332,-3.4676724870662383],[139.6981143951416,-3.464074191553024],[139.7365665435791,-3.473241250741367],[139.7402572631836,-3.4751260556239316],[139.75296020507812,-3.47555441984494],[139.75296020507812,-3.4795810340115594],[139.7541618347168,-3.48266523748174],[139.75021362304688,-3.4946592659576226],[139.75064277648926,-3.497143724132087],[139.7523593902588,-3.499114151796192],[139.77622032165527,-3.510593952241152],[139.78059768676758,-3.5109366306848244],[139.79089736938477,-3.516762144978003],[139.8013687133789,-3.5166764759137266],[139.80239868164062,-3.5189038690258485],[139.5648193359375,-3.5189038690258485],[139.5648193359375,-3.4058141800461073]]]}},{"type":"Feature","id":"pmtiles:10/909/521:park:77491923:0","properties":{"name":"Taman Nasional Mamberamo Foja","name_int":"Mamberamo Foja National Park","class":"national_park","name:latin":"Taman Nasional Mamberamo Foja","name_de":"Taman Nasional Mamberamo Foja","name_en":"Mamberamo Foja National Park","kind":"green","verification":"verified","source":"OpenMapTiles/OpenStreetMap national PMTiles","sourceId":"10/909/521:park:77491923:0","sourceLayer":"park","archive":"https://its.hanifahseptiani45.workers.dev/v1/map/archive/indonesia.pmtiles","updatedAt":"2026-07-26T09:43:38.493Z"},"geometry":{"type":"Polygon","coordinates":[[[139.5648193359375,-3.4058141800461073],[139.62129592895508,-3.4633888003800593],[139.63168144226074,-3.4616753202769814],[139.63640213012695,-3.4615039720961676],[139.6615505218506,-3.466644404030575],[139.67717170715332,-3.4676724870662383],[139.6981143951416,-3.464074191553024],[139.7365665435791,-3.473241250741367],[139.7402572631836,-3.4751260556239316],[139.75296020507812,-3.47555441984494],[139.75296020507812,-3.4795810340115594],[139.7541618347168,-3.48266523748174],[139.75021362304688,-3.4946592659576226],[139.75064277648926,-3.497143724132087],[139.7523593902588,-3.499114151796192],[139.7585391998291,-3.5018556094789517],[139.76909637451172,-3.507509840591595],[139.77622032165527,-3.510593952241152],[139.78059768676758,-3.5109366306848244],[139.79089736938477,-3.516762144978003],[139.8013687133789,-3.5166764759137266],[139.80239868164062,-3.5189038690258485],[139.5648193359375,-3.5189038690258485],[139.5648193359375,-3.4058141800461073]]]}},{"type":"Feature","id":"pmtiles:10/909/521:water:23113433:0","properties":{"intermittent":0,"class":"river","id":2311343,"water":"river","kind":"waterway","verification":"verified","source":"OpenMapTiles/OpenStreetMap national PMTiles","sourceId":"10/909/521:water:23113433:0","sourceLayer":"water","archive":"https://its.hanifahseptiani45.workers.dev/v1/map/archive/indonesia.pmtiles","updatedAt":"2026-07-26T09:43:38.493Z"},"geometry":{"type":"Polygon","coordinates":[[[139.5977783203125,-3.5189038690258485],[139.60043907165527,-3.5183041867885834],[139.6029281616211,-3.5172761591983033],[139.60455894470215,-3.515220100616844],[139.60430145263672,-3.512992698705716],[139.6003532409668,-3.5094802464309396],[139.5955467224121,-3.5091375674529957],[139.59271430969238,-3.5083665392930925],[139.59031105041504,-3.5070814909463763],[139.5885944366455,-3.505710770762974],[139.58576202392578,-3.5066531411049198],[139.57923889160156,-3.5133353762688984],[139.57640647888184,-3.51770450416538],[139.57571983337402,-3.5189038690258485],[139.57091331481934,-3.5189038690258485],[139.5750331878662,-3.512992698705716],[139.57975387573242,-3.507167160891129],[139.58361625671387,-3.5042543783668947],[139.58833694458008,-3.5017699390478327],[139.58953857421875,-3.50159859816209],[139.59322929382324,-3.4984287861220054],[139.59752082824707,-3.4962870151602345],[139.60052490234375,-3.495515976416371],[139.60378646850586,-3.495515976416371],[139.6076488494873,-3.4962870151602345],[139.61382865905762,-3.500827563788249],[139.616060256958,-3.5045113889544837],[139.61743354797363,-3.507595510497069],[139.6168327331543,-3.5101656040097566],[139.61322784423828,-3.5157341156872377],[139.61176872253418,-3.5172761591983033],[139.6079921722412,-3.5189038690258485],[139.5977783203125,-3.5189038690258485]],[[139.5900535583496,-3.5042543783668947],[139.59185600280762,-3.505025409917863],[139.59271430969238,-3.5060534509972],[139.59494590759277,-3.507338500757058],[139.59983825683594,-3.507167160891129],[139.60318565368652,-3.507938190040491],[139.6066188812256,-3.510079934339899],[139.60782051086426,-3.510422612972178],[139.60885047912598,-3.5117933262438044],[139.61030960083008,-3.5098229252832027],[139.61219787597656,-3.506139121036128],[139.6120262145996,-3.5026266430062094],[139.60936546325684,-3.5003135405196986],[139.60644721984863,-3.499199822470217],[139.60344314575195,-3.4986001275875367],[139.5999240875244,-3.498942810424637],[139.59717750549316,-3.499885187580446],[139.5900535583496,-3.5042543783668947]]]}},{"type":"Feature","id":"pmtiles:10/909/521:waterway:566313430:1","properties":{"name":"Sungai Taritatu","name_int":"Sungai Taritatu","class":"river","name:latin":"Sungai Taritatu","name_de":"Sungai Taritatu","name_en":"Sungai Taritatu","waterway":"river","kind":"waterway","verification":"verified","source":"OpenMapTiles/OpenStreetMap national PMTiles","sourceId":"10/909/521:waterway:566313430:1","sourceLayer":"waterway","archive":"https://its.hanifahseptiani45.workers.dev/v1/map/archive/indonesia.pmtiles","updatedAt":"2026-07-26T09:43:38.493Z"},"geometry":{"type":"LineString","coordinates":[[139.59245681762695,-3.5220736115810354],[139.60455894470215,-3.5186468624000042],[139.6121120452881,-3.5136780537062435],[139.6157169342041,-3.5078525201664092],[139.6150302886963,-3.505282420293625],[139.61271286010742,-3.5013415867746716],[139.60867881774902,-3.4986857983085713],[139.6055030822754,-3.497315065832538],[139.60052490234375,-3.4970580532701376],[139.5952033996582,-3.499114151796192],[139.58662033081055,-3.5048540696281094],[139.5806121826172,-3.5085378789391655],[139.57305908203125,-3.519246544416731]]}},{"type":"Feature","id":"pmtiles:8/227/130:landcover:77485120:0","properties":{"subclass":"wood","class":"wood","kind":"green","verification":"verified","source":"OpenMapTiles/OpenStreetMap national PMTiles","sourceId":"8/227/130:landcover:77485120:0","sourceLayer":"landcover","archive":"https://its.hanifahseptiani45.workers.dev/v1/map/archive/indonesia.pmtiles","updatedAt":"2026-07-26T09:35:39.263Z"},"geometry":{"type":"Polygon","coordinates":[[[139.47246551513672,-3.4047860303606683],[139.46971893310547,-3.3986171092087005],[139.4721221923828,-3.3965607933890567],[139.47795867919922,-3.399987983987117],[139.47521209716797,-3.394161752730355],[139.47864532470703,-3.3866218718943912],[139.49718475341797,-3.3945044731893006],[139.54181671142578,-3.3825091848636646],[139.62112426757812,-3.4633888003800593],[139.63623046875,-3.4613326238843456],[139.67708587646484,-3.4675011399712616],[139.69802856445312,-3.464074191553024],[139.7402572631836,-3.4750403827564043],[139.75296020507812,-3.4753830741798737],[139.75399017333984,-3.4825795652995026],[139.75021362304688,-3.4945735948687258],[139.7522735595703,-3.499028481114337],[139.7907257080078,-3.516847814034392],[139.8013687133789,-3.5165051377615555],[139.8072052001953,-3.532953456566844],[139.91878509521484,-3.5346668063669],[139.976806640625,-3.545289504429988],[140.02384185791016,-3.561394652508227],[140.03173828125,-3.564821243451746],[140.08289337158203,-3.659732694731531],[140.09525299072266,-3.67789150946507],[140.0983428955078,-3.6775488937374945],[140.1034927368164,-3.683030729568827],[140.11756896972656,-3.6847437963449323],[140.1199722290039,-3.690910809416863],[140.12649536132812,-3.696392562869562],[140.15567779541016,-3.697762995940579],[140.1628875732422,-3.708383780353728],[140.17147064208984,-3.7039299185334613],[140.18451690673828,-3.702902101083353],[140.1906967163086,-3.6936516903753756],[140.19893646240234,-3.6885125316397023],[140.20889282226562,-3.673780112045719],[140.22605895996094,-3.674465346264995],[140.2353286743164,-3.6638441567851316],[140.25970458984375,-3.670011314436721],[140.22296905517578,-3.6100510427647237],[140.22605895996094,-3.6086804757389643],[140.24768829345703,-3.6090231176892758],[140.27755737304688,-3.6127921706101773],[140.29094696044922,-3.6179317629982393],[140.3448486328125,-3.646027685048992],[140.3781509399414,-3.653222841228356],[140.3887939453125,-3.657334333150942],[140.42827606201172,-3.6617884281185127],[140.44612884521484,-3.6669277409287275],[140.45608520507812,-3.6758358131245643],[140.46157836914062,-3.6871420842897606],[140.46398162841797,-3.703244707032667],[140.46226501464844,-3.7155784328033548],[140.45333862304688,-3.724828614015678],[140.4444122314453,-3.7292823703096616],[140.43479919433594,-3.7313379425284268],[140.4049301147461,-3.730995347492552],[140.3887939453125,-3.7340786980049216],[140.35480499267578,-3.7316805374307194],[140.27446746826172,-3.7337361040381722],[140.19001007080078,-3.7275693897886697],[140.15670776367188,-3.722773026584264],[140.0979995727539,-3.7094115914342183],[140.01766204833984,-3.6847437963449323],[139.97817993164062,-3.676863661887282],[139.95105743408203,-3.6686408386356533],[139.9115753173828,-3.667955599946893],[139.88479614257812,-3.670011314436721],[139.84153747558594,-3.675150579957972],[139.81304168701172,-3.6826881158179248],[139.80754852294922,-3.6820028879205466],[139.79930877685547,-3.6754931966070785],[139.79312896728516,-3.6631589144209187],[139.78900909423828,-3.661103184180533],[139.78282928466797,-3.6621310498908173],[139.7797393798828,-3.664872019347513],[139.77767944335938,-3.675150579957972],[139.77252960205078,-3.684058570030203],[139.76909637451172,-3.684058570030203],[139.76051330566406,-3.6775488937374945],[139.7563934326172,-3.676863661887282],[139.73888397216797,-3.694336909292687],[139.72515106201172,-3.698448211681736],[139.71965789794922,-3.6970777796698258],[139.70386505126953,-3.6857716348274323],[139.68395233154297,-3.664872019347513],[139.6753692626953,-3.6617884281185127],[139.66575622558594,-3.6617884281185127],[139.658203125,-3.667955599946893],[139.6530532836914,-3.6761784295104434],[139.6530532836914,-3.6837159566749733],[139.6585464477539,-3.6950221276809003],[139.65511322021484,-3.699818641574822],[139.64344024658203,-3.7059855498525565],[139.63932037353516,-3.6950221276809003],[139.62696075439453,-3.690225587855437],[139.6245574951172,-3.696392562869562],[139.6204376220703,-3.7001612487169524],[139.62352752685547,-3.7056429449643673],[139.6200942993164,-3.7056429449643673],[139.6139144897461,-3.7025594950014664],[139.60498809814453,-3.689197754522297],[139.59606170654297,-3.6604179397181866],[139.5981216430664,-3.653908091190843],[139.6142578125,-3.6563064619374614],[139.61631774902344,-3.653565466275012],[139.61528778076172,-3.6463703128402045],[139.6194076538086,-3.6408882525204973],[139.61803436279297,-3.6357487906574164],[139.6094512939453,-3.6326650994760996],[139.60430145263672,-3.622728689594254],[139.59640502929688,-3.6199875917935884],[139.58404541015625,-3.623756599129294],[139.5651626586914,-3.6131348110087913],[139.5600128173828,-3.6127921706101773],[139.55589294433594,-3.6138200914178498],[139.5428466796875,-3.624441871503862],[139.53563690185547,-3.625812414695403],[139.52774047851562,-3.624441871503862],[139.51263427734375,-3.625469779092242],[139.50061798095703,-3.6292387635837997],[139.48894500732422,-3.6261550501687054],[139.4827651977539,-3.620330229472515],[139.46834564208984,-3.594289397282708],[139.4501495361328,-3.5514574666895555],[139.4446563720703,-3.54426150671857],[139.43710327148438,-3.5398068367722146],[139.41513061523438,-3.532268115760999],[139.40826416015625,-3.528156060302905],[139.40139770507812,-3.517190490181264],[139.39727783203125,-3.5034833461805306],[139.3893814086914,-3.4942309104348936],[139.38182830810547,-3.4942309104348936],[139.3783950805664,-3.4976577491394636],[139.37599182128906,-3.5065674711130725],[139.38045501708984,-3.524386660147954],[139.3777084350586,-3.5302120903077423],[139.37393188476562,-3.5315827744491486],[139.36912536621094,-3.5302120903077423],[139.36328887939453,-3.5223306172612467],[139.34955596923828,-3.517875842097098],[139.34406280517578,-3.51307836810831],[139.3282699584961,-3.4894333152258667],[139.32552337646484,-3.4880625692368312],[139.32174682617188,-3.490804059215222],[139.3227767944336,-3.4983431153774944],[139.31968688964844,-3.5027979837038146],[139.3114471435547,-3.4928601714481573],[139.30011749267578,-3.495258963360911],[139.29119110107422,-3.505539430598759],[139.29325103759766,-3.513763723045926],[139.29943084716797,-3.5195892196815777],[139.31659698486328,-3.526442698490527],[139.31865692138672,-3.530897432631363],[139.31625366210938,-3.542205507868843],[139.30252075195312,-3.5432335078647412],[139.29290771484375,-3.536037483928368],[139.27539825439453,-3.5278133881931097],[139.27162170410156,-3.516162461362782],[139.27093505859375,-3.5021126207252564],[139.26647186279297,-3.494916279177403],[139.2623519897461,-3.494916279177403],[139.2578887939453,-3.500056528779652],[139.26029205322266,-3.519246544416731],[139.2575454711914,-3.5219879430052003],[139.24930572509766,-3.5226732913911576],[139.24484252929688,-3.5213025941146867],[139.23660278320312,-3.5123930126673883],[139.22046661376953,-3.507595510497069],[139.2026138305664,-3.4914894304597794],[139.19677734375,-3.490118687470556],[139.19677734375,-3.20941805023611],[139.21428680419922,-3.227585455151896],[139.23213958740234,-3.237868748038167],[139.2626953125,-3.2796863933238285],[139.2675018310547,-3.2837995102248385],[139.28123474121094,-3.2896263968293056],[139.2949676513672,-3.308477855123485],[139.30767059326172,-3.3215022897185946],[139.31316375732422,-3.322873272850103],[139.32037353515625,-3.316703833770333],[139.32655334472656,-3.317046581396525],[139.3560791015625,-3.3547480920841224],[139.37702178955078,-3.3664009928576633],[139.41547393798828,-3.3605745598667056],[139.43401336669922,-3.3640018776081604],[139.45632934570312,-3.3811382853083245],[139.47246551513672,-3.4047860303606683]]]}},{"type":"Feature","id":"pmtiles:8/227/130:park:77491923:0","properties":{"name":"Taman Nasional Mamberamo Foja","name_int":"Mamberamo Foja National Park","class":"national_park","name:latin":"Taman Nasional Mamberamo Foja","name_de":"Taman Nasional Mamberamo Foja","name_en":"Mamberamo Foja National Park","kind":"green","verification":"verified","source":"OpenMapTiles/OpenStreetMap national PMTiles","sourceId":"8/227/130:park:77491923:0","sourceLayer":"park","archive":"https://its.hanifahseptiani45.workers.dev/v1/map/archive/indonesia.pmtiles","updatedAt":"2026-07-26T09:35:39.265Z"},"geometry":{"type":"Polygon","coordinates":[[[139.47246551513672,-3.4047860303606683],[139.46971893310547,-3.400330702377275],[139.46971893310547,-3.3986171092087005],[139.4721221923828,-3.3965607933890567],[139.47315216064453,-3.3969035129965732],[139.47418212890625,-3.3993025468414544],[139.47795867919922,-3.399987983987117],[139.47521209716797,-3.394161752730355],[139.47795867919922,-3.391077263130015],[139.4776153564453,-3.388335486335862],[139.47864532470703,-3.3866218718943912],[139.47967529296875,-3.3862791486421173],[139.4820785522461,-3.389020931262891],[139.482421875,-3.387650040923319],[139.48345184326172,-3.387650040923319],[139.48516845703125,-3.390734541455771],[139.49718475341797,-3.3945044731893006],[139.50096130371094,-3.393819032149821],[139.54181671142578,-3.3825091848636646],[139.62112426757812,-3.4633888003800593],[139.63623046875,-3.4613326238843456],[139.66163635253906,-3.466473056749308],[139.67708587646484,-3.4675011399712616],[139.69802856445312,-3.464074191553024],[139.73648071289062,-3.4733269237722197],[139.7402572631836,-3.4750403827564043],[139.75296020507812,-3.4753830741798737],[139.75296020507812,-3.4794953615488],[139.75399017333984,-3.4825795652995026],[139.75021362304688,-3.4945735948687258],[139.75055694580078,-3.496972382400344],[139.7522735595703,-3.499028481114337],[139.77630615234375,-3.510679621863858],[139.78042602539062,-3.511022300276082],[139.7907257080078,-3.516847814034392],[139.8013687133789,-3.5165051377615555],[139.8061752319336,-3.527470715956966],[139.8072052001953,-3.532953456566844],[139.84325408935547,-3.532953456566844],[139.8607635498047,-3.5346668063669],[139.91878509521484,-3.5346668063669],[139.93080139160156,-3.536037483928368],[139.94590759277344,-3.5398068367722146],[139.976806640625,-3.545289504429988],[140.01079559326172,-3.5562547421822615],[140.02384185791016,-3.561394652508227],[140.02796173095703,-3.563793267508629],[140.03173828125,-3.564821243451746],[140.08289337158203,-3.659732694731531],[140.09525299072266,-3.67789150946507],[140.09628295898438,-3.677206277878213],[140.0983428955078,-3.6775488937374945],[140.1034927368164,-3.683030729568827],[140.1082992553711,-3.6823455019351456],[140.11756896972656,-3.6847437963449323],[140.11756896972656,-3.687827308228819],[140.1199722290039,-3.690910809416863],[140.12374877929688,-3.6946795185529453],[140.12649536132812,-3.696392562869562],[140.13164520263672,-3.6974203878714036],[140.14606475830078,-3.6960499542708902],[140.15567779541016,-3.697762995940579],[140.15911102294922,-3.7005038557265806],[140.15979766845703,-3.7059855498525565],[140.1628875732422,-3.708383780353728],[140.17147064208984,-3.7039299185334613],[140.17765045166016,-3.703587312849365],[140.1803970336914,-3.704272524084928],[140.18451690673828,-3.702902101083353],[140.1906967163086,-3.6936516903753756],[140.19550323486328,-3.6895403657654526],[140.19893646240234,-3.6885125316397023],[140.20648956298828,-3.6754931966070785],[140.20889282226562,-3.673780112045719],[140.22228240966797,-3.675150579957972],[140.22605895996094,-3.674465346264995],[140.2288055419922,-3.672067024195684],[140.2301788330078,-3.6682982193569416],[140.23292541503906,-3.664872019347513],[140.2353286743164,-3.6638441567851316],[140.23876190185547,-3.6638441567851316],[140.24391174316406,-3.6669277409287275],[140.24871826171875,-3.6672703607327577],[140.2511215209961,-3.6686408386356533],[140.2573013305664,-3.6686408386356533],[140.25970458984375,-3.670011314436721],[140.2569580078125,-3.666585120993375],[140.25318145751953,-3.6583622031857885],[140.22296905517578,-3.6100510427647237],[140.22605895996094,-3.6086804757389643],[140.24768829345703,-3.6090231176892758],[140.26348114013672,-3.6100510427647237],[140.27755737304688,-3.6127921706101773],[140.29094696044922,-3.6179317629982393],[140.3335189819336,-3.6415735118867474],[140.3448486328125,-3.646027685048992],[140.36373138427734,-3.651509714033068],[140.3781509399414,-3.653222841228356],[140.3887939453125,-3.657334333150942],[140.42827606201172,-3.6617884281185127],[140.43994903564453,-3.6641867777704817],[140.44612884521484,-3.6669277409287275],[140.45127868652344,-3.670011314436721],[140.45608520507812,-3.6758358131245643],[140.4595184326172,-3.6813176594957895],[140.46157836914062,-3.6871420842897606],[140.46329498291016,-3.694336909292687],[140.46398162841797,-3.703244707032667],[140.46398162841797,-3.7100967981571387],[140.46226501464844,-3.7155784328033548],[140.4595184326172,-3.7200322358784774],[140.45333862304688,-3.724828614015678],[140.4488754272461,-3.727911986159853],[140.4444122314453,-3.7292823703096616],[140.43479919433594,-3.7313379425284268],[140.4169464111328,-3.7306527523230955],[140.4049301147461,-3.730995347492552],[140.3887939453125,-3.7340786980049216],[140.35480499267578,-3.7316805374307194],[140.32081604003906,-3.7316805374307194],[140.29644012451172,-3.7337361040381722],[140.27446746826172,-3.7337361040381722],[140.21095275878906,-3.727911986159853],[140.19001007080078,-3.7275693897886697],[140.15670776367188,-3.722773026584264],[140.0979995727539,-3.7094115914342183],[140.01766204833984,-3.6847437963449323],[139.97817993164062,-3.676863661887282],[139.95105743408203,-3.6686408386356533],[139.9115753173828,-3.667955599946893],[139.88479614257812,-3.670011314436721],[139.8672866821289,-3.673094877300258],[139.84153747558594,-3.675150579957972],[139.83158111572266,-3.676863661887282],[139.81304168701172,-3.6826881158179248],[139.80754852294922,-3.6820028879205466],[139.79930877685547,-3.6754931966070785],[139.79312896728516,-3.6631589144209187],[139.78900909423828,-3.661103184180533],[139.78282928466797,-3.6621310498908173],[139.7797393798828,-3.664872019347513],[139.77767944335938,-3.675150579957972],[139.77252960205078,-3.684058570030203],[139.76909637451172,-3.684058570030203],[139.76051330566406,-3.6775488937374945],[139.7563934326172,-3.676863661887282],[139.75330352783203,-3.678919355857616],[139.73888397216797,-3.694336909292687],[139.73167419433594,-3.697762995940579],[139.72515106201172,-3.698448211681736],[139.71965789794922,-3.6970777796698258],[139.70386505126953,-3.6857716348274323],[139.68395233154297,-3.664872019347513],[139.6753692626953,-3.6617884281185127],[139.66575622558594,-3.6617884281185127],[139.658203125,-3.667955599946893],[139.6530532836914,-3.6761784295104434],[139.6530532836914,-3.6837159566749733],[139.6575164794922,-3.6905681987022234],[139.6585464477539,-3.6950221276809003],[139.65511322021484,-3.699818641574822],[139.64618682861328,-3.7053003399435056],[139.64344024658203,-3.7059855498525565],[139.64275360107422,-3.7008464626037068],[139.63932037353516,-3.6950221276809003],[139.63382720947266,-3.691938640767816],[139.62696075439453,-3.690225587855437],[139.62661743164062,-3.692623861007519],[139.6245574951172,-3.696392562869562],[139.6204376220703,-3.7001612487169524],[139.62352752685547,-3.7046151295037646],[139.62352752685547,-3.7056429449643673],[139.6200942993164,-3.7056429449643673],[139.6139144897461,-3.7025594950014664],[139.6094512939453,-3.6970777796698258],[139.60498809814453,-3.689197754522297],[139.59915161132812,-3.673780112045719],[139.59606170654297,-3.6604179397181866],[139.59640502929688,-3.6559638379377617],[139.5981216430664,-3.653908091190843],[139.60189819335938,-3.653565466275012],[139.61151123046875,-3.6563064619374614],[139.6142578125,-3.6563064619374614],[139.61631774902344,-3.653565466275012],[139.6146011352539,-3.648768703722041],[139.61528778076172,-3.6463703128402045],[139.61769104003906,-3.6443145441347724],[139.6194076538086,-3.6408882525204973],[139.6200942993164,-3.638147209841435],[139.61803436279297,-3.6357487906574164],[139.6094512939453,-3.6326650994760996],[139.60704803466797,-3.6261550501687054],[139.60430145263672,-3.622728689594254],[139.59640502929688,-3.6199875917935884],[139.58782196044922,-3.6240992353814647],[139.58404541015625,-3.623756599129294],[139.57202911376953,-3.6162185687724673],[139.5651626586914,-3.6131348110087913],[139.5600128173828,-3.6127921706101773],[139.55589294433594,-3.6138200914178498],[139.5428466796875,-3.624441871503862],[139.53563690185547,-3.625812414695403],[139.52774047851562,-3.624441871503862],[139.51950073242188,-3.625812414695403],[139.51263427734375,-3.625469779092242],[139.50061798095703,-3.6292387635837997],[139.49512481689453,-3.628896129279582],[139.48894500732422,-3.6261550501687054],[139.4827651977539,-3.620330229472515],[139.4765853881836,-3.607995191450655],[139.46834564208984,-3.594289397282708],[139.45735931396484,-3.5703037624016787],[139.4556427001953,-3.563450608605649],[139.4501495361328,-3.5514574666895555],[139.4446563720703,-3.54426150671857],[139.43710327148438,-3.5398068367722146],[139.41513061523438,-3.532268115760999],[139.40826416015625,-3.528156060302905],[139.40448760986328,-3.524386660147954],[139.40139770507812,-3.517190490181264],[139.39727783203125,-3.5034833461805306],[139.3938446044922,-3.4976577491394636],[139.3893814086914,-3.4942309104348936],[139.38526153564453,-3.4935455411917644],[139.38182830810547,-3.4942309104348936],[139.3783950805664,-3.4976577491394636],[139.37667846679688,-3.5021126207252564],[139.37599182128906,-3.5065674711130725],[139.37942504882812,-3.517190490181264],[139.38045501708984,-3.524386660147954],[139.37976837158203,-3.527470715956966],[139.3777084350586,-3.5302120903077423],[139.37393188476562,-3.5315827744491486],[139.36912536621094,-3.5302120903077423],[139.3663787841797,-3.525072006767175],[139.36328887939453,-3.5223306172612467],[139.3557357788086,-3.520617244719702],[139.34955596923828,-3.517875842097098],[139.34406280517578,-3.51307836810831],[139.339599609375,-3.507938190040491],[139.33307647705078,-3.495601647419221],[139.3282699584961,-3.4894333152258667],[139.32552337646484,-3.4880625692368312],[139.3231201171875,-3.4890906289160455],[139.32174682617188,-3.490804059215222],[139.3227767944336,-3.4983431153774944],[139.32209014892578,-3.5017699390478327],[139.31968688964844,-3.5027979837038146],[139.317626953125,-3.501427257244984],[139.31488037109375,-3.4959443313523337],[139.3114471435547,-3.4928601714481573],[139.30870056152344,-3.4928601714481573],[139.30011749267578,-3.495258963360911],[139.29256439208984,-3.5017699390478327],[139.29119110107422,-3.505539430598759],[139.29119110107422,-3.5099942646621827],[139.29325103759766,-3.513763723045926],[139.2959976196289,-3.517190490181264],[139.29943084716797,-3.5195892196815777],[139.31659698486328,-3.526442698490527],[139.31865692138672,-3.530897432631363],[139.3179702758789,-3.5401495044521596],[139.31625366210938,-3.542205507868843],[139.30767059326172,-3.54426150671857],[139.30252075195312,-3.5432335078647412],[139.29702758789062,-3.5401495044521596],[139.29290771484375,-3.536037483928368],[139.28672790527344,-3.532953456566844],[139.2798614501953,-3.530897432631363],[139.27539825439453,-3.5278133881931097],[139.2733383178711,-3.5233586392724447],[139.27162170410156,-3.516162461362782],[139.27093505859375,-3.5021126207252564],[139.2688751220703,-3.496972382400344],[139.26647186279297,-3.494916279177403],[139.2623519897461,-3.494916279177403],[139.25960540771484,-3.496629698842895],[139.2578887939453,-3.500056528779652],[139.2578887939453,-3.5048540696281094],[139.26029205322266,-3.519246544416731],[139.2575454711914,-3.5219879430052003],[139.25308227539062,-3.5230159653948903],[139.24930572509766,-3.5226732913911576],[139.24484252929688,-3.5213025941146867],[139.23660278320312,-3.5123930126673883],[139.23282623291016,-3.510679621863858],[139.2245864868164,-3.5099942646621827],[139.22046661376953,-3.507595510497069],[139.20948028564453,-3.4962870151602345],[139.2026138305664,-3.4914894304597794],[139.19677734375,-3.4894333152258667],[139.19677734375,-3.209075265900694],[139.20398712158203,-3.2159309307458557],[139.21428680419922,-3.227585455151896],[139.22012329101562,-3.2299848994800726],[139.22080993652344,-3.232384338137564],[139.2293930053711,-3.2371831984236934],[139.23213958740234,-3.237868748038167],[139.2513656616211,-3.2659758815709807],[139.2626953125,-3.2796863933238285],[139.2675018310547,-3.2837995102248385],[139.28123474121094,-3.2896263968293056],[139.28913116455078,-3.3012800677970375],[139.2949676513672,-3.308477855123485],[139.29908752441406,-3.312248103821588],[139.3011474609375,-3.3156755901788983],[139.30767059326172,-3.3215022897185946],[139.31316375732422,-3.322873272850103],[139.31556701660156,-3.3215022897185946],[139.3169403076172,-3.3187603177446903],[139.32037353515625,-3.316703833770333],[139.32655334472656,-3.317046581396525],[139.33135986328125,-3.322873272850103],[139.34268951416016,-3.3393249216403262],[139.3560791015625,-3.3547480920841224],[139.36054229736328,-3.358175430283964],[139.37702178955078,-3.3664009928576633],[139.38732147216797,-3.365715531960575],[139.40105438232422,-3.3626309519569872],[139.41547393798828,-3.3605745598667056],[139.42302703857422,-3.3609172921827764],[139.43401336669922,-3.3640018776081604],[139.44843292236328,-3.3732555752815188],[139.45632934570312,-3.3811382853083245],[139.46044921875,-3.3859364252685253],[139.46353912353516,-3.3931335906240605],[139.47246551513672,-3.4047860303606683]]]}},{"type":"Feature","id":"pmtiles:8/227/130:waterway:566310880:0","properties":{"name_int":"Sungai Taritatu","name_de":"Sungai Taritatu","name":"Sungai Taritatu","class":"river","name:latin":"Sungai Taritatu","name_en":"Sungai Taritatu","waterway":"river","kind":"waterway","verification":"verified","source":"OpenMapTiles/OpenStreetMap national PMTiles","sourceId":"8/227/130:waterway:566310880:0","sourceLayer":"waterway","archive":"https://its.hanifahseptiani45.workers.dev/v1/map/archive/indonesia.pmtiles","updatedAt":"2026-07-26T09:35:39.270Z"},"geometry":{"type":"LineString","coordinates":[[140.1848602294922,-2.95092689063722],[140.18348693847656,-2.9567556229411167],[140.17902374267578,-2.9584699501457408],[140.17593383789062,-2.956412757182221],[140.17353057861328,-2.956412757182221],[140.17044067382812,-2.959498545196155],[140.1690673828125,-2.9560698913173553],[140.1749038696289,-2.9516126254371216],[140.1694107055664,-2.9492125517868004],[140.16597747802734,-2.9516126254371216],[140.16117095947266,-2.947155341678112],[140.1573944091797,-2.947498210293716],[140.15670776367188,-2.9485268155065967],[140.15705108642578,-2.952298359813838],[140.15945434570312,-2.9567556229411167],[140.15911102294922,-2.9574413541409825],[140.15361785888672,-2.95778421958191],[140.15602111816406,-2.9615557324327284],[140.15533447265625,-2.963612915848003],[140.1522445678711,-2.96292718846766],[140.14984130859375,-2.966355821119606],[140.1470947265625,-2.966698683800246],[140.14400482177734,-2.9618985966007045],[140.14022827148438,-2.9591556802854058],[140.13885498046875,-2.9591556802854058],[140.13748168945312,-2.9615557324327284],[140.13439178466797,-2.9632700522109445],[140.13473510742188,-2.96704154637456],[140.1302719116211,-2.967384408842534],[140.12958526611328,-2.969441581416504],[140.1251220703125,-2.972527333092728],[140.12409210205078,-2.9752702162272584],[140.12065887451172,-2.9759559359447536],[140.11653900146484,-2.979041669392444],[140.1141357421875,-2.982470251968465],[140.11207580566406,-2.9797273867622067],[140.11310577392578,-2.977327374099758],[140.11070251464844,-2.971498750159057],[140.1089859008789,-2.970813027670758],[140.1082992553711,-2.973898775512694],[140.10692596435547,-2.9756130761393393],[140.10452270507812,-2.9762987956435296],[140.10074615478516,-2.97355591506755],[140.10074615478516,-2.970470166266878],[140.09525299072266,-2.963612915848003],[140.09456634521484,-2.9653272324398046],[140.09078979492188,-2.965670095439364],[140.09078979492188,-2.96395577937885],[140.0928497314453,-2.9618985966007045],[140.0918197631836,-2.959498545196155],[140.08460998535156,-2.9601842746994436],[140.08460998535156,-2.9632700522109445],[140.08220672607422,-2.96292718846766],[140.07980346679688,-2.9653272324398046],[140.07259368896484,-2.9684129956082757],[140.0698471069336,-2.966355821119606],[140.06229400634766,-2.965670095439364],[140.0598907470703,-2.9618985966007045],[140.05508422851562,-2.9601842746994436],[140.0537109375,-2.9601842746994436],[140.05268096923828,-2.9615557324327284],[140.05096435546875,-2.9660129583326267],[140.04993438720703,-2.966355821119606],[140.0478744506836,-2.963612915848003],[140.04650115966797,-2.9632700522109445],[140.04547119140625,-2.9653272324398046],[140.0365447998047,-2.970470166266878],[140.03517150878906,-2.9742416358512287],[140.0313949584961,-2.9793845281307085],[140.0320816040039,-2.984184539248716],[140.0313949584961,-2.9858988238551234],[140.02864837646484,-2.9886416736598846],[140.02933502197266,-2.99104166161581],[140.0269317626953,-2.9968701819174015],[140.02830505371094,-2.9978987411030573],[140.0320816040039,-2.995841621765095],[140.0324249267578,-2.9982415939500697],[140.02967834472656,-3.000641560869667],[140.03311157226562,-3.0026986711781944],[140.03276824951172,-3.0037272248798104],[140.03036499023438,-3.003384373753562],[140.02899169921875,-3.005098628308076],[140.03002166748047,-3.006127179748489],[140.0324249267578,-3.0064700300131477],[140.0320816040039,-3.007841429994201],[140.02830505371094,-3.0071557302192247],[140.02727508544922,-3.0081842797199982],[140.02899169921875,-3.010584224781155],[140.02967834472656,-3.015384099038357],[140.0310516357422,-3.015384099038357],[140.0313949584961,-3.01366986066202],[140.0324249267578,-3.0133270126626854],[140.0324249267578,-3.0160697936325107],[140.02830505371094,-3.0174411815235516],[140.0269317626953,-3.015041251579177],[140.0259017944336,-3.015041251579177],[140.02487182617188,-3.0181268748202967],[140.0255584716797,-3.0194982601156397],[140.02281188964844,-3.0222410255112067],[140.02487182617188,-3.0242980950090583],[140.02418518066406,-3.02601231661005],[140.02246856689453,-3.02601231661005],[140.0210952758789,-3.022926715777217],[140.01972198486328,-3.0222410255112067],[140.01869201660156,-3.0239552503636418],[140.01972198486328,-3.026698004491408],[140.01663208007812,-3.029097908658599],[140.01319885253906,-3.0256694725067206],[140.01148223876953,-3.028755065531726],[140.0101089477539,-3.028755065531726],[140.01182556152344,-3.0249837839747045],[140.01079559326172,-3.02155533481195],[140.0101089477539,-3.021898180215743],[140.00289916992188,-3.0318406497645043],[140.0035858154297,-3.0345833839163987],[140.00083923339844,-3.0345833839163987],[139.99980926513672,-3.036640429962972],[139.99500274658203,-3.0356119074292423],[139.99534606933594,-3.038697472091741],[139.99431610107422,-3.040411670871052],[139.99568939208984,-3.0431543832512773],[139.9936294555664,-3.045897088651614],[139.99568939208984,-3.048639787065838],[139.99431610107422,-3.050011133651182],[139.99156951904297,-3.04932546057708],[139.99122619628906,-3.0551536677639035],[139.99053955078125,-3.0558393371185133],[139.98538970947266,-3.0544679979713294],[139.98607635498047,-3.056182171631562],[139.98470306396484,-3.05858201015549],[139.9819564819336,-3.0578963425536614],[139.98092651367188,-3.061324676177364],[139.97955322265625,-3.0620103415859745],[139.97509002685547,-3.0602961772416393],[139.97543334960938,-3.0633816710863044],[139.97474670410156,-3.0650958304915292],[139.97577667236328,-3.065781493484806],[139.97783660888672,-3.06475299883013],[139.97920989990234,-3.065438662043107],[139.97817993164062,-3.070581122126981],[139.98092651367188,-3.073666586295701],[139.97852325439453,-3.075037900840641],[139.97852325439453,-3.0777805246402465],[139.97577667236328,-3.0801803146745215],[139.97577667236328,-3.0815516208374163],[139.97817993164062,-3.0839514023703885],[139.98092651367188,-3.0836085767685546],[139.9819564819336,-3.085665528721549],[139.9871063232422,-3.0863511784880444],[139.9881362915039,-3.0887509491861636],[139.99191284179688,-3.0911507144605963],[139.99191284179688,-3.094921763209314],[139.99465942382812,-3.094921763209314],[139.99603271484375,-3.0959502287214775],[139.99671936035156,-3.098349977699556],[139.99534606933594,-3.0997212603874686],[139.99568939208984,-3.100749721237122],[139.998779296875,-3.0993784398820736],[140.00015258789062,-3.1000640807817916],[140.00186920166016,-3.1052063733585697],[140.00564575195312,-3.1076061013286846],[140.0046157836914,-3.1096630066744524],[140.00564575195312,-3.113433989387289],[140.00770568847656,-3.1148052524820997],[140.00804901123047,-3.116519328839118],[140.0049591064453,-3.119947473175685],[140.0049591064453,-3.1213187277805474],[140.00633239746094,-3.123032793519883],[140.00564575195312,-3.1261181047992466],[140.00701904296875,-3.1285177850770793],[140.00804901123047,-3.134345557159264],[140.01079559326172,-3.1374308351244906],[140.01354217529297,-3.137773643225316],[140.0159454345703,-3.140173296782251],[140.0210952758789,-3.1405161039832308],[140.02384185791016,-3.146343809172137],[140.02349853515625,-3.1501146598767633],[140.02487182617188,-3.1511430713355537],[140.0265884399414,-3.151828678410169],[140.03002166748047,-3.1508002676288527],[140.03826141357422,-3.157313518735691],[140.04615783691406,-3.1614271299758343],[140.04650115966797,-3.1662263224705214],[140.0537109375,-3.1737678657359965],[140.0537109375,-3.1761674361474803],[140.05474090576172,-3.1771958217598097],[140.05783081054688,-3.1768530266695336],[140.0598907470703,-3.1802809724478607],[140.06092071533203,-3.1854228697449827],[140.0643539428711,-3.1891935781100926],[140.064697265625,-3.1936498519864642],[140.07465362548828,-3.202219555062598],[140.08392333984375,-3.203247914616526],[140.08392333984375,-3.2059902017093265],[140.0859832763672,-3.208732481450312],[140.0873565673828,-3.2097608344565174],[140.08941650390625,-3.208732481450312],[140.09319305419922,-3.2128458872634127],[140.09422302246094,-3.2169592764997077],[140.09593963623047,-3.217644839759288],[140.10143280029297,-3.226557120133492],[140.10143280029297,-3.227928233260087],[140.09971618652344,-3.2286137891295112],[140.09868621826172,-3.234440995327404],[140.10040283203125,-3.2347837711201777],[140.1038360595703,-3.2330698909975553],[140.10726928710938,-3.238211522671392],[140.11104583740234,-3.2395826200439473],[140.11207580566406,-3.240953715559371],[140.11241912841797,-3.247466393872145],[140.11722564697266,-3.2587777879047337],[140.1244354248047,-3.2615199249026574],[140.1254653930664,-3.258435020254467],[140.12649536132812,-3.258435020254467],[140.12615203857422,-3.261862691501676],[140.12683868408203,-3.2628909905975263],[140.13198852539062,-3.266661411611608],[140.13404846191406,-3.270774582020792],[140.1364517211914,-3.271460108782307],[140.13713836669922,-3.2755732595026075],[140.14057159423828,-3.279343632818012],[140.13816833496094,-3.2834567511298616],[140.13919830322266,-3.284827786803831],[140.1409149169922,-3.284827786803831],[140.14503479003906,-3.287227094701933],[140.14606475830078,-3.287227094701933],[140.14881134033203,-3.284827786803831],[140.15018463134766,-3.286198820594848],[140.15361785888672,-3.2865415787482846],[140.15567779541016,-3.288255367749116],[140.1580810546875,-3.287227094701933],[140.16220092773438,-3.288940882524855],[140.16494750976562,-3.288255367749116],[140.16563415527344,-3.284827786803831],[140.1683807373047,-3.284485028061823],[140.17009735107422,-3.287912610184506],[140.174560546875,-3.2875698525021164],[140.17593383789062,-3.2865415787482846],[140.17662048339844,-3.2841422692021496],[140.17799377441406,-3.2834567511298616],[140.1797103881836,-3.275230497587742],[140.18211364746094,-3.2735166862535294],[140.18142700195312,-3.2718028719872763],[140.1793670654297,-3.270774582020792],[140.1793670654297,-3.2694035270916117],[140.18280029296875,-3.2659758815709807],[140.185546875,-3.2670041764563535],[140.18760681152344,-3.2659758815709807],[140.19001007080078,-3.268717998924174],[140.19515991210938,-3.2694035270916117],[140.1968765258789,-3.2718028719872763],[140.19859313964844,-3.2724883980455246],[140.20065307617188,-3.2718028719872763],[140.20442962646484,-3.267689705794723],[140.2082061767578,-3.269060763066463],[140.21472930908203,-3.268375234664788],[140.2181625366211,-3.2700890547905175],[140.22125244140625,-3.2694035270916117],[140.2239990234375,-3.263233756729008],[140.22640228271484,-3.263233756729008],[140.22674560546875,-3.2601488573381374],[140.22743225097656,-3.2601488573381374],[140.23086547851562,-3.262548224349132],[140.23189544677734,-3.2663186466498217],[140.23395538330078,-3.265290351062319],[140.23601531982422,-3.2663186466498217],[140.2408218383789,-3.2663186466498217],[140.24322509765625,-3.265290351062319],[140.24425506591797,-3.2670041764563535],[140.24425506591797,-3.2694035270916117],[140.2466583251953,-3.271460108782307],[140.24837493896484,-3.2718028719872763],[140.25043487548828,-3.271460108782307],[140.25352478027344,-3.2694035270916117],[140.25421142578125,-3.2738594487549904],[140.2507781982422,-3.279000872194729],[140.25249481201172,-3.281742953890671],[140.24906158447266,-3.2837995102248385],[140.24837493896484,-3.2855133039347493],[140.24974822998047,-3.2899691538047335],[140.24940490722656,-3.2920256931817136],[140.24803161621094,-3.292711205363986],[140.24871826171875,-3.2937394727525913],[140.25455474853516,-3.2937394727525913],[140.25558471679688,-3.29888079375867],[140.262451171875,-3.2964815139292085],[140.26657104492188,-3.29716702304259],[140.26451110839844,-3.3029938314193856],[140.26622772216797,-3.3036793360400907],[140.2686309814453,-3.3012800677970375],[140.27000427246094,-3.298195285826722],[140.27240753173828,-3.297509777422107],[140.2734375,-3.299909054770197],[140.2741241455078,-3.299909054770197],[140.27549743652344,-3.2951104942853107],[140.2792739868164,-3.2947677390791767],[140.28133392333984,-3.2957960043434014],[140.28030395507812,-3.2985380398517776],[140.28270721435547,-3.3036793360400907],[140.28236389160156,-3.3047075920834175],[140.27996063232422,-3.3047075920834175],[140.28030395507812,-3.3081351045304075],[140.28682708740234,-3.3081351045304075],[140.28751373291016,-3.308820605598001],[140.28717041015625,-3.3119053545330246],[140.2851104736328,-3.313961848484297],[140.28545379638672,-3.3153328420774955],[140.28682708740234,-3.3156755901788983],[140.29232025146484,-3.3091633559539986],[140.29403686523438,-3.308820605598001],[140.2957534790039,-3.3101916063106103],[140.29644012451172,-3.313961848484297],[140.29884338378906,-3.3149900938573325],[140.30193328857422,-3.3149900938573325],[140.30502319335938,-3.317046581396525],[140.30914306640625,-3.313961848484297],[140.31463623046875,-3.3173893289038716],[140.30982971191406,-3.3211595436382026],[140.30982971191406,-3.3225305272457604],[140.31875610351562,-3.323558763701655],[140.3225326538086,-3.319103064657682],[140.32459259033203,-3.3194458114517857],[140.32424926757812,-3.329385416700788],[140.32699584960938,-3.3300709030238806],[140.328369140625,-3.3328128435433086],[140.3331756591797,-3.3369257399929495],[140.33729553222656,-3.336240258446196],[140.34072875976562,-3.334183810937901],[140.34313201904297,-3.3310991316137404],[140.3451919555664,-3.3314418742383793],[140.3451919555664,-3.3358975174935495],[140.34210205078125,-3.337953961416474],[140.34141540527344,-3.342066836345097],[140.3455352783203,-3.3430950523842284],[140.34759521484375,-3.3389821817637824],[140.350341796875,-3.337268480587028],[140.35171508789062,-3.337953961416474],[140.35171508789062,-3.3430950523842284],[140.3496551513672,-3.3489215895699402],[140.34313201904297,-3.350635270381801],[140.34313201904297,-3.352006212870805],[140.34622192382812,-3.354405357602957],[140.34656524658203,-3.356461762687033],[140.3441619873047,-3.356804496446955],[140.34381866455078,-3.3598890948733953],[140.3506851196289,-3.358175430283964],[140.3554916381836,-3.358175430283964],[140.35789489746094,-3.3605745598667056],[140.35858154296875,-3.3602318274302263],[140.35926818847656,-3.35406262300161],[140.36407470703125,-3.3526916833948377],[140.36441802978516,-3.359203629398621],[140.3668212890625,-3.3602318274302263],[140.3675079345703,-3.3622882202430304],[140.36407470703125,-3.362973683550507],[140.3616714477539,-3.3622882202430304],[140.3609848022461,-3.3640018776081604],[140.36304473876953,-3.3701710191664347],[140.36476135253906,-3.3701710191664347],[140.3664779663086,-3.367771913204564],[140.36819458007812,-3.36708645327235],[140.37025451660156,-3.3674291832987677],[140.36956787109375,-3.3753119405877356],[140.3616714477539,-3.3852509781574867],[140.35995483398438,-3.3807955601166526],[140.35377502441406,-3.37839648038468],[140.35205841064453,-3.3790819323419754],[140.3496551513672,-3.3835373582579393],[140.35137176513672,-3.384565530561389],[140.35274505615234,-3.387650040923319],[140.35480499267578,-3.388678208860071],[140.35720825195312,-3.384908254420054],[140.35858154296875,-3.384565530561389],[140.35995483398438,-3.3862791486421173],[140.35961151123047,-3.3921054274238287],[140.35411834716797,-3.394161752730355],[140.35240173339844,-3.3969035129965732],[140.35274505615234,-3.3979316710889833],[140.3565216064453,-3.398274390209707],[140.35720825195312,-3.399645265475158],[140.3565216064453,-3.4006734206456173],[140.35480499267578,-3.401358856816856],[140.34828186035156,-3.4006734206456173],[140.34862518310547,-3.4030724451125423],[140.35308837890625,-3.4044433135549212],[140.3565216064453,-3.4088986225131066],[140.3554916381836,-3.4160956164563316],[140.35411834716797,-3.4164383291084874],[140.35205841064453,-3.414382051360235],[140.350341796875,-3.414382051360235],[140.34896850585938,-3.415410190784897],[140.34896850585938,-3.4178091784932576],[140.35343170166016,-3.4208935824457996],[140.361328125,-3.421579004198776],[140.36235809326172,-3.4328883922707973],[140.36441802978516,-3.4359727476140733],[140.3668212890625,-3.444883051464302],[140.3671646118164,-3.4524224741951457],[140.36270141601562,-3.456534861375289],[140.3606414794922,-3.4657876673138475],[140.35480499267578,-3.4678438341301927],[140.35343170166016,-3.4736696158179257],[140.34622192382812,-3.477781910658166],[140.34381866455078,-3.482922253981627],[140.34038543701172,-3.4815514985047997],[140.33832550048828,-3.481894187561082],[140.33729553222656,-3.4870345084332257],[140.33832550048828,-3.4880625692368312],[140.3441619873047,-3.4894333152258667],[140.3451919555664,-3.4914894304597794],[140.34347534179688,-3.4938882258758923],[140.3448486328125,-3.494916279177403],[140.34656524658203,-3.4942309104348936],[140.34862518310547,-3.4897760014106893],[140.35240173339844,-3.4897760014106893],[140.35274505615234,-3.4928601714481573],[140.35137176513672,-3.495258963360911],[140.3506851196289,-3.4997138463498914],[140.35137176513672,-3.501427257244984],[140.3561782836914,-3.496629698842895],[140.36407470703125,-3.4938882258758923],[140.3664779663086,-3.4938882258758923],[140.3675079345703,-3.4980004323211205],[140.37094116210938,-3.503826027230673],[140.36991119384766,-3.5069101510333525],[140.37128448486328,-3.510679621863858],[140.36819458007812,-3.510679621863858],[140.36510467529297,-3.5069101510333525],[140.36304473876953,-3.5072528308280084],[140.36235809326172,-3.508280869458275],[140.36441802978516,-3.516162461362782],[140.3668212890625,-3.516162461362782],[140.37059783935547,-3.5141064003259856],[140.3716278076172,-3.515134431410914],[140.37334442138672,-3.5209599194802337],[140.37506103515625,-3.5199318948203455],[140.37437438964844,-3.5123930126673883],[140.37677764892578,-3.512050334758243],[140.37918090820312,-3.5147917545084795],[140.3781509399414,-3.5195892196815777],[140.37437438964844,-3.5240439866489908],[140.37094116210938,-3.5223306172612467],[140.36853790283203,-3.5233586392724447],[140.36888122558594,-3.525072006767175],[140.37437438964844,-3.532268115760999],[140.37403106689453,-3.5336387968665264],[140.3730010986328,-3.534324136660018],[140.36888122558594,-3.532268115760999],[140.36476135253906,-3.524386660147954],[140.3620147705078,-3.527128043594459],[140.3616714477539,-3.529184075874113],[140.36476135253906,-3.532610786227181],[140.36853790283203,-3.5418628409498183],[140.36991119384766,-3.5415201739039333],[140.37094116210938,-3.5394641689654947],[140.372314453125,-3.5398068367722146],[140.37403106689453,-3.5439188405608917],[140.3716278076172,-3.5456321700798696],[140.3719711303711,-3.5473454964242848],[140.37506103515625,-3.5473454964242848],[140.37883758544922,-3.54426150671857],[140.38021087646484,-3.5466601662675714],[140.3781509399414,-3.5511148032000364],[140.37883758544922,-3.5531707822290457],[140.38467407226562,-3.5531707822290457],[140.38604736328125,-3.5541987700258204],[140.38536071777344,-3.557625387739492],[140.3774642944336,-3.564478584931692],[140.3774642944336,-3.5655065601088296],[140.38021087646484,-3.567562507015154],[140.37986755371094,-3.5689331357309015],[140.3778076171875,-3.569961105925742],[140.37471771240234,-3.5689331357309015],[140.37403106689453,-3.569961105925742],[140.37609100341797,-3.572702354152355],[140.3778076171875,-3.572702354152355],[140.38055419921875,-3.5706464187497318],[140.3826141357422,-3.572017042863152],[140.38124084472656,-3.581954006425619],[140.37952423095703,-3.5829819620212646],[140.3781509399414,-3.5792127858606335],[140.37643432617188,-3.578870132713078],[140.37609100341797,-3.5826393102843497],[140.3781509399414,-3.586408472331186],[140.38227081298828,-3.5891496713323647],[140.3881072998047,-3.594974691888808],[140.3891372680664,-3.5980585112422006],[140.3887939453125,-3.6001143850134127],[140.3829574584961,-3.601827609610808],[140.38089752197266,-3.6045687622587934],[140.38089752197266,-3.6062819784690134],[140.3836441040039,-3.6090231176892758],[140.3891372680664,-3.6210155044414165],[140.3946304321289,-3.6240992353814647],[140.39703369140625,-3.6302666657166327],[140.39531707763672,-3.6316372000737402],[140.39085388183594,-3.6302666657166327],[140.3881072998047,-3.6402029926327515],[140.3784942626953,-3.64568505712721],[140.37643432617188,-3.647740822699248],[140.37471771240234,-3.651167088201703],[140.37471771240234,-3.660075317290378],[140.3730010986328,-3.6631589144209187],[140.36991119384766,-3.6635015356686154],[140.3675079345703,-3.659732694731531],[140.3661346435547,-3.6593900720416457],[140.36373138427734,-3.6617884281185127],[140.36373138427734,-3.6635015356686154],[140.3661346435547,-3.6655572603996376],[140.36544799804688,-3.6676129804054796],[140.35995483398438,-3.6686408386356533],[140.3565216064453,-3.6717244062311636],[140.34896850585938,-3.669326076798967],[140.34656524658203,-3.6696686956835407],[140.34622192382812,-3.6727522597302453],[140.350341796875,-3.678234125060982],[140.35171508789062,-3.6844011832535273],[140.350341796875,-3.686114247391018],[140.3441619873047,-3.686799472122189],[140.34175872802734,-3.6885125316397023],[140.3451919555664,-3.690225587855437],[140.34793853759766,-3.6936516903753756],[140.34931182861328,-3.6936516903753756],[140.35480499267578,-3.6895403657654526],[140.3558349609375,-3.6847437963449323],[140.36373138427734,-3.6826881158179248],[140.36510467529297,-3.683373343187853],[140.3661346435547,-3.690225587855437],[140.36510467529297,-3.6936516903753756],[140.3609848022461,-3.6946795185529453],[140.35892486572266,-3.696735171335888],[140.35995483398438,-3.7008464626037068],[140.36270141601562,-3.701531675960453],[140.36373138427734,-3.7039299185334613],[140.3616714477539,-3.7046151295037646],[140.35823822021484,-3.710782004348701],[140.36270141601562,-3.709068987873522],[140.37094116210938,-3.7104394013193485],[140.3719711303711,-3.708726384180011],[140.37574768066406,-3.712837619734273],[140.37334442138672,-3.715235831635212],[140.37334442138672,-3.716948836145434],[140.38021087646484,-3.7176340370180156],[140.38467407226562,-3.7193470368698485],[140.38707733154297,-3.7258564059311254],[140.38742065429688,-3.7292823703096616],[140.38673400878906,-3.7313379425284268],[140.38433074951172,-3.7337361040381722],[140.38433074951172,-3.736476852028119],[140.38089752197266,-3.738532407402161],[140.37574768066406,-3.743671274749701],[140.3726577758789,-3.7446990446015747],[140.36785125732422,-3.743328684531008],[140.36510467529297,-3.745041634284064],[140.35446166992188,-3.739902774974638],[140.350341796875,-3.739560183282336],[140.34725189208984,-3.7419583223160657],[140.34656524658203,-3.745384223832474],[140.33832550048828,-3.7460694025269845],[140.33283233642578,-3.7481249353912176],[140.32974243164062,-3.746754580685007],[140.3290557861328,-3.747097169562821],[140.3287124633789,-3.7522359866240578],[140.32665252685547,-3.7539489189294812],[140.32424926757812,-3.754634090910912],[140.31944274902344,-3.7539489189294812],[140.3173828125,-3.7515508127614225],[140.3177261352539,-3.7498378757545083],[140.3228759765625,-3.74846752373233],[140.3232192993164,-3.747097169562821],[140.3221893310547,-3.745041634284064],[140.3112030029297,-3.737504630317318],[140.3012466430664,-3.728939774472451],[140.29644012451172,-3.726541599874423],[140.29266357421875,-3.72208782970732],[140.2851104736328,-3.7159210338384554],[140.28133392333984,-3.702902101083353],[140.28133392333984,-3.699818641574822],[140.284423828125,-3.6939942999001687],[140.2840805053711,-3.6905681987022234],[140.2792739868164,-3.6813176594957895],[140.2789306640625,-3.671039169907729],[140.27790069580078,-3.6672703607327577],[140.2734375,-3.6655572603996376],[140.2676010131836,-3.6713817881351645],[140.26348114013672,-3.672409642028711],[140.24391174316406,-3.6717244062311636],[140.23086547851562,-3.674122729221125],[140.22846221923828,-3.6761784295104434],[140.21713256835938,-3.680975045085688],[140.20648956298828,-3.678576740525159],[140.20477294921875,-3.679947201064607],[140.20065307617188,-3.686799472122189],[140.19790649414062,-3.6974203878714036],[140.18829345703125,-3.7001612487169524],[140.17593383789062,-3.708726384180011],[140.1694107055664,-3.7076985723028173],[140.16563415527344,-3.709068987873522],[140.1584243774414,-3.7053003399435056],[140.1573944091797,-3.6987908193536754],[140.15533447265625,-3.6974203878714036],[140.14366149902344,-3.695707345539887],[140.12958526611328,-3.6970777796698258],[140.12134552001953,-3.693309080718322],[140.11619567871094,-3.6864568598225986],[140.11138916015625,-3.6826881158179248],[140.1031494140625,-3.6820028879205466],[140.10040283203125,-3.680975045085688],[140.0973129272461,-3.677206277878213],[140.09387969970703,-3.6820028879205466],[140.09113311767578,-3.684058570030203],[140.0873565673828,-3.683030729568827],[140.0818634033203,-3.6748079631772725],[140.0753402709961,-3.670353933058479],[140.07293701171875,-3.6655572603996376],[140.07328033447266,-3.6583622031857885],[140.07122039794922,-3.6569917095440587],[140.06881713867188,-3.6528802160508747],[140.0650405883789,-3.648768703722041],[140.06195068359375,-3.650481836146753],[140.05508422851562,-3.6576769566268865],[140.05233764648438,-3.6638441567851316],[140.05165100097656,-3.672067024195684],[140.0489044189453,-3.674122729221125],[140.04615783691406,-3.674122729221125],[140.03826141357422,-3.670353933058479],[140.03036499023438,-3.659732694731531],[140.02967834472656,-3.65425071597582],[140.03173828125,-3.6484260768450696],[140.0313949584961,-3.646027685048992],[140.0255584716797,-3.642601399958096],[140.020751953125,-3.6422587707314023],[140.01834869384766,-3.6436292868555142],[140.01731872558594,-3.64568505712721],[140.01388549804688,-3.6470555680309076],[140.0094223022461,-3.6470555680309076],[140.0049591064453,-3.651167088201703],[139.9991226196289,-3.6528802160508747],[139.99088287353516,-3.657334333150942],[139.98367309570312,-3.6566490858062366],[139.97920989990234,-3.653908091190843],[139.96994018554688,-3.6412308822688146],[139.96685028076172,-3.6402029926327515],[139.9610137939453,-3.6419161413742813],[139.95826721191406,-3.6402029926327515],[139.95826721191406,-3.632322466472047],[139.96410369873047,-3.623756599129294],[139.96891021728516,-3.6196449539850306],[139.96719360351562,-3.6127921706101773],[139.9654769897461,-3.61176424863811],[139.94384765625,-3.61416273142828],[139.94213104248047,-3.614848011060843],[139.93972778320312,-3.6196449539850306],[139.93492126464844,-3.623413962747364],[139.92393493652344,-3.6247845074964573],[139.9160385131836,-3.6240992353814647],[139.90745544433594,-3.617246485696512],[139.90299224853516,-3.616561207876657],[139.90093231201172,-3.6169038468513577],[139.89543914794922,-3.6213581417313634],[139.89337921142578,-3.622043415922221],[139.8885726928711,-3.6213581417313634],[139.88136291503906,-3.607652549112686],[139.8731231689453,-3.5984011571929386],[139.86831665039062,-3.5901776188373304],[139.8617935180664,-3.584352567685684],[139.8497772216797,-3.5857231712962943],[139.8394775390625,-3.590520267748545],[139.83570098876953,-3.590520267748545],[139.83089447021484,-3.585037869747765],[139.83089447021484,-3.5816113543038455],[139.8291778564453,-3.5792127858606335],[139.82540130615234,-3.5754435941903466],[139.822998046875,-3.5751009396336286],[139.81956481933594,-3.575786248619025],[139.8113250732422,-3.5826393102843497],[139.8072052001953,-3.585037869747765],[139.8065185546875,-3.580240744534194],[139.8072052001953,-3.5689331357309015],[139.80377197265625,-3.564478584931692],[139.79930877685547,-3.564478584931692],[139.78076934814453,-3.57098907496993],[139.7783660888672,-3.5703037624016787],[139.76703643798828,-3.559338691819235],[139.76463317871094,-3.5583107097537123],[139.76085662841797,-3.559338691819235],[139.75811004638672,-3.5620799717176794],[139.7577667236328,-3.564478584931692],[139.75433349609375,-3.5689331357309015],[139.74987030029297,-3.5696184493219647],[139.74815368652344,-3.5689331357309015],[139.74712371826172,-3.565163901844116],[139.74884033203125,-3.5617373121767457],[139.75330352783203,-3.5583107097537123],[139.75296020507812,-3.552485456394919],[139.75021362304688,-3.550429475839479],[139.73854064941406,-3.5518001300518733],[139.7354507446289,-3.5487161552131283],[139.73373413085938,-3.54426150671857],[139.73133087158203,-3.542890841326326],[139.71965789794922,-3.5408348394316533],[139.7186279296875,-3.5394641689654947],[139.7189712524414,-3.53809349647112],[139.71965789794922,-3.537065490769791],[139.7234344482422,-3.5363801530021703],[139.72515106201172,-3.532610786227181],[139.72515106201172,-3.530554761532784],[139.72206115722656,-3.524386660147954],[139.71691131591797,-3.5209599194802337],[139.7124481201172,-3.5219879430052003],[139.70935821533203,-3.526100025749116],[139.7079849243164,-3.537065490769791],[139.70352172851562,-3.5432335078647412],[139.69974517822266,-3.5432335078647412],[139.69493865966797,-3.538778832971772],[139.68669891357422,-3.528841404143435],[139.6805191040039,-3.526442698490527],[139.6746826171875,-3.5278133881931097],[139.67262268066406,-3.530554761532784],[139.67262268066406,-3.5339814668265603],[139.67914581298828,-3.5432335078647412],[139.68360900878906,-3.5463175009986685],[139.68463897705078,-3.550429475839479],[139.68395233154297,-3.553513444955229],[139.68154907226562,-3.555569418639422],[139.6743392944336,-3.5583107097537123],[139.67021942138672,-3.557625387739492],[139.66644287109375,-3.554541432370172],[139.66541290283203,-3.5511148032000364],[139.66506958007812,-3.5466601662675714],[139.66781616210938,-3.5408348394316533],[139.66506958007812,-3.527128043594459],[139.6585464477539,-3.520274569833063],[139.65442657470703,-3.519246544416731],[139.64996337890625,-3.5223306172612467],[139.64893341064453,-3.528156060302905],[139.64378356933594,-3.5350094759471915],[139.6410369873047,-3.541177506731202],[139.6300506591797,-3.5538561075541537],[139.625244140625,-3.554541432370172],[139.62078094482422,-3.553513444955229],[139.6094512939453,-3.545974835602763],[139.6039581298828,-3.5466601662675714],[139.59949493408203,-3.5507721395833443],[139.5874786376953,-3.554541432370172],[139.58267211914062,-3.553513444955229],[139.57683563232422,-3.549401483845031],[139.5754623413086,-3.5470028314094435],[139.5754623413086,-3.5432335078647412],[139.58438873291016,-3.528156060302905],[139.5926284790039,-3.5219879430052003],[139.60464477539062,-3.5185611935089582],[139.61219787597656,-3.513763723045926],[139.61563110351562,-3.507938190040491],[139.61288452148438,-3.501427257244984],[139.60567474365234,-3.497315065832538],[139.60052490234375,-3.496972382400344],[139.59503173828125,-3.499028481114337],[139.5806121826172,-3.508623548750407],[139.5651626586914,-3.5315827744491486],[139.5479965209961,-3.5432335078647412],[139.53872680664062,-3.542890841326326],[139.53460693359375,-3.5408348394316533],[139.53083038330078,-3.53809349647112],[139.5260238647461,-3.528156060302905],[139.52430725097656,-3.526442698490527],[139.5105743408203,-3.5240439866489908],[139.49752807617188,-3.517875842097098],[139.49100494384766,-3.5134210456400297],[139.48413848876953,-3.5134210456400297],[139.47830200195312,-3.52164526862299],[139.47246551513672,-3.5226732913911576],[139.47006225585938,-3.5213025941146867],[139.46800231933594,-3.5185611935089582],[139.46903228759766,-3.508623548750407],[139.4652557373047,-3.496972382400344],[139.4655990600586,-3.4938882258758923],[139.46697235107422,-3.4894333152258667],[139.48345184326172,-3.4801807410327683],[139.4872283935547,-3.4753830741798737],[139.4879150390625,-3.470928075969667],[139.4872283935547,-3.468529222075418],[139.48448181152344,-3.4661303620936508],[139.47898864746094,-3.464759582229661],[139.47452545166016,-3.459619140061733],[139.46903228759766,-3.457562955385484],[139.46250915527344,-3.4579056531412107],[139.45323944091797,-3.463731496028572],[139.44190979003906,-3.463731496028572],[139.43401336669922,-3.4609899273677343],[139.4271469116211,-3.4531078732956786],[139.42474365234375,-3.4483100692078352],[139.41822052001953,-3.4421414283846445],[139.41513061523438,-3.4421414283846445],[139.4051742553711,-3.445225753794105],[139.40105438232422,-3.445225753794105],[139.37908172607422,-3.437000863846947],[139.36946868896484,-3.4352873361767706],[139.3663787841797,-3.4366581585590836],[139.36294555664062,-3.439399797414154],[139.361572265625,-3.4431695379645504],[139.361572265625,-3.4503662739260648],[139.36363220214844,-3.453793271901475],[139.36603546142578,-3.455164067628445],[139.37564849853516,-3.457562955385484],[139.3783950805664,-3.459619140061733],[139.37942504882812,-3.464416886953373],[139.3773651123047,-3.470585382929073],[139.37496185302734,-3.472984231602126],[139.36466217041016,-3.476411147703402],[139.3553924560547,-3.4825795652995026],[139.34749603271484,-3.4842930074624974],[139.34165954589844,-3.4842930074624974],[139.33650970458984,-3.483607630971619],[139.3334197998047,-3.481208809323803],[139.33101654052734,-3.477781910658166],[139.32964324951172,-3.470585382929073],[139.33170318603516,-3.464416886953373],[139.33547973632812,-3.4579056531412107],[139.33582305908203,-3.4531078732956786],[139.33547973632812,-3.449680872847537],[139.3337631225586,-3.446939263591915],[139.3289566040039,-3.4445403490110778],[139.32586669921875,-3.4445403490110778],[139.32106018066406,-3.4472819651811193],[139.31385040283203,-3.4599618370741467],[139.31110382080078,-3.471270768885944],[139.30904388427734,-3.4733269237722197],[139.306640625,-3.4740123077392013],[139.30320739746094,-3.472984231602126],[139.3008041381836,-3.470585382929073],[139.29325103759766,-3.4671584456881277],[139.28192138671875,-3.466473056749308],[139.27608489990234,-3.464759582229661],[139.27196502685547,-3.4616753202769814],[139.27059173583984,-3.4582483507730757],[139.27230834960938,-3.4472819651811193],[139.27230834960938,-3.4407706138853484],[139.27024841308594,-3.437343569011688],[139.2675018310547,-3.435630041956955],[139.26509857177734,-3.4352873361767706],[139.2620086669922,-3.437000863846947],[139.25994873046875,-3.439742501716779],[139.25823211669922,-3.45002357344859],[139.25617218017578,-3.4544786700124206],[139.25308227539062,-3.456192163124257],[139.24861907958984,-3.455849464749434],[139.2462158203125,-3.4520797744593636],[139.2455291748047,-3.4445403490110778],[139.2510223388672,-3.43014673471491],[139.25514221191406,-3.426376942737278],[139.26956176757812,-3.4205508713855153],[139.27024841308594,-3.418837314246389],[139.26956176757812,-3.4174664663306658],[139.26578521728516,-3.4164383291084874],[139.25582885742188,-3.417123754045676],[139.24793243408203,-3.4198654488973403],[139.24278259277344,-3.4243206863072544],[139.23385620117188,-3.434601924247289],[139.2290496826172,-3.4363154531481257],[139.22115325927734,-3.437000863846947],[139.21188354492188,-3.44111331769507],[139.19677734375,-3.439742501716779]]}}]}