{"type":"FeatureCollection","features":[{"type":"Feature","id":"pmtiles:10/909/510:water:2800:0","properties":{"class":"ocean","water":"ocean","kind":"waterway","verification":"verified","source":"OpenMapTiles/OpenStreetMap national PMTiles","sourceId":"10/909/510:water:2800:0","sourceLayer":"water","archive":"https://its.hanifahseptiani45.workers.dev/v1/map/archive/indonesia.pmtiles","updatedAt":"2026-07-26T09:41:10.043Z"},"geometry":{"type":"Polygon","coordinates":[[[139.5648193359375,0.708600099655115],[139.9273681640625,0.708600099655115],[139.9273681640625,0.34606723172845477],[139.5648193359375,0.34606723172845477],[139.5648193359375,0.708600099655115]]]}}]}