{"type":"FeatureCollection","features":[{"type":"Feature","id":"pmtiles:10/902/502:water:2780:0","properties":{"class":"ocean","water":"ocean","kind":"waterway","verification":"verified","source":"OpenMapTiles/OpenStreetMap national PMTiles","sourceId":"10/902/502:water:2780:0","sourceLayer":"water","archive":"https://its.hanifahseptiani45.workers.dev/v1/map/archive/indonesia.pmtiles","updatedAt":"2026-07-26T09:39:41.758Z"},"geometry":{"type":"Polygon","coordinates":[[[137.1038818359375,3.5189038690258627],[137.4664306640625,3.5189038690258627],[137.4664306640625,3.156970717063345],[137.1038818359375,3.156970717063345],[137.1038818359375,3.5189038690258627]]]}},{"type":"Feature","id":"pmtiles:8/225/125:water:2770:0","properties":{"class":"ocean","water":"ocean","kind":"waterway","verification":"verified","source":"OpenMapTiles/OpenStreetMap national PMTiles","sourceId":"8/225/125:water:2770:0","sourceLayer":"water","archive":"https://its.hanifahseptiani45.workers.dev/v1/map/archive/indonesia.pmtiles","updatedAt":"2026-07-26T09:35:22.643Z"},"geometry":{"type":"Polygon","coordinates":[[[136.38427734375,4.236856059768954],[137.83447265625,4.236856059768954],[137.83447265625,2.7894247770059906],[136.38427734375,2.7894247770059906],[136.38427734375,4.236856059768954]]]}}]}