{"type":"FeatureCollection","features":[{"type":"Feature","id":"pmtiles:10/910/530:landcover:6675067782:0","properties":{"subclass":"orchard","class":"farmland","kind":"green","verification":"verified","source":"OpenMapTiles/OpenStreetMap national PMTiles","sourceId":"10/910/530:landcover:6675067782:0","sourceLayer":"landcover","archive":"https://its.hanifahseptiani45.workers.dev/v1/map/archive/indonesia.pmtiles","updatedAt":"2026-07-26T09:45:04.934Z"},"geometry":{"type":"Polygon","coordinates":[[[140.27721405029297,-6.670063575977267],[140.2766990661621,-6.669211077824045],[140.27532577514648,-6.669211077824045],[140.27438163757324,-6.668443828218045],[140.27506828308105,-6.667335576666531],[140.27446746826172,-6.6665683241244835],[140.2727508544922,-6.66784707769402],[140.2676010131836,-6.6637550545304265],[140.26708602905273,-6.662902545406311],[140.2679443359375,-6.660089254784609],[140.26674270629883,-6.658213718742061],[140.26554107666016,-6.654036362710826],[140.25944709777832,-6.65318383670558],[140.2554988861084,-6.646704590724127],[140.25592803955078,-6.64397646160441],[140.24974822998047,-6.641333572090488],[140.2470874786377,-6.6347689141516355],[140.24477005004883,-6.633745842694751],[140.24090766906738,-6.629653535624627],[140.23953437805176,-6.625390679634748],[140.2401351928711,-6.623173979959589],[140.23910522460938,-6.62180985213277],[140.2390193939209,-6.619678394855569],[140.2356719970703,-6.61942261936386],[140.2349853515625,-6.618399516072074],[140.23515701293945,-6.617717446033211],[140.24219512939453,-6.61038513364079],[140.2789306640625,-6.573636676506439],[140.2789306640625,-6.670063575977267],[140.27721405029297,-6.670063575977267]]]}},{"type":"Feature","id":"pmtiles:10/910/530:landuse:7786363200:0","properties":{"class":"residential","kind":"green","verification":"verified","source":"OpenMapTiles/OpenStreetMap national PMTiles","sourceId":"10/910/530:landuse:7786363200:0","sourceLayer":"landuse","archive":"https://its.hanifahseptiani45.workers.dev/v1/map/archive/indonesia.pmtiles","updatedAt":"2026-07-26T09:45:04.934Z"},"geometry":{"type":"Polygon","coordinates":[[[139.9295997619629,-6.660856517463188],[139.9335479736328,-6.661794281329762],[139.93414878845215,-6.662732043403679],[139.92899894714355,-6.661197522712982],[139.9291706085205,-6.660686014749416],[139.9295997619629,-6.660856517463188]]]}},{"type":"Feature","id":"pmtiles:10/910/530:landuse:7786363200:1","properties":{"class":"residential","kind":"green","verification":"verified","source":"OpenMapTiles/OpenStreetMap national PMTiles","sourceId":"10/910/530:landuse:7786363200:1","sourceLayer":"landuse","archive":"https://its.hanifahseptiani45.workers.dev/v1/map/archive/indonesia.pmtiles","updatedAt":"2026-07-26T09:45:04.934Z"},"geometry":{"type":"Polygon","coordinates":[[[140.1577377319336,-6.657020192074299],[140.16151428222656,-6.65753170385868],[140.16254425048828,-6.6561676712492925],[140.16254425048828,-6.65488888723624],[140.1642608642578,-6.6561676712492925],[140.16297340393066,-6.656679183921938],[140.16417503356934,-6.65753170385868],[140.16400337219238,-6.658128466933476],[140.16237258911133,-6.658128466933476],[140.16151428222656,-6.659918751804227],[140.16151428222656,-6.6580432151100695],[140.15790939331055,-6.657702207668379],[140.15645027160645,-6.658128466933476],[140.15705108642578,-6.657020192074299],[140.1577377319336,-6.657020192074299]]]}},{"type":"Feature","id":"pmtiles:10/910/530:landuse:7786363200:2","properties":{"class":"residential","kind":"green","verification":"verified","source":"OpenMapTiles/OpenStreetMap national PMTiles","sourceId":"10/910/530:landuse:7786363200:2","sourceLayer":"landuse","archive":"https://its.hanifahseptiani45.workers.dev/v1/map/archive/indonesia.pmtiles","updatedAt":"2026-07-26T09:45:04.934Z"},"geometry":{"type":"Polygon","coordinates":[[[140.17335891723633,-6.65318383670558],[140.17799377441406,-6.652501814836015],[140.1789379119873,-6.6502852372210555],[140.1793670654297,-6.650199984036178],[140.1789379119873,-6.652501814836015],[140.17816543579102,-6.653269089372685],[140.17361640930176,-6.653951110176891],[140.17335891723633,-6.65318383670558]]]}},{"type":"Feature","id":"pmtiles:10/910/531:landuse:7786363160:0","properties":{"class":"residential","kind":"green","verification":"verified","source":"OpenMapTiles/OpenStreetMap national PMTiles","sourceId":"10/910/531:landuse:7786363160:0","sourceLayer":"landuse","archive":"https://its.hanifahseptiani45.workers.dev/v1/map/archive/indonesia.pmtiles","updatedAt":"2026-07-26T09:45:14.724Z"},"geometry":{"type":"Polygon","coordinates":[[[139.9295997619629,-6.660856517463188],[139.9335479736328,-6.661794281329762],[139.93414878845215,-6.662732043403679],[139.92899894714355,-6.661197522712982],[139.9291706085205,-6.660686014749416],[139.9295997619629,-6.660856517463188]]]}}]}