{"type":"FeatureCollection","features":[{"type":"Feature","id":"pmtiles:10/901/531:water:2390:0","properties":{"class":"ocean","water":"ocean","kind":"waterway","verification":"verified","source":"OpenMapTiles/OpenStreetMap national PMTiles","sourceId":"10/901/531:water:2390:0","sourceLayer":"water","archive":"https://its.hanifahseptiani45.workers.dev/v1/map/archive/indonesia.pmtiles","updatedAt":"2026-07-26T09:45:14.127Z"},"geometry":{"type":"Polygon","coordinates":[[[136.7523193359375,-6.659151487659315],[137.1148681640625,-6.659151487659315],[137.1148681640625,-7.019119954643813],[136.7523193359375,-7.019119954643813],[136.7523193359375,-6.659151487659315]]]}}]}