{"type":"FeatureCollection","features":[{"type":"Feature","id":"pmtiles:10/900/518:landuse:78291920:0","properties":{"class":"residential","kind":"green","verification":"verified","source":"OpenMapTiles/OpenStreetMap national PMTiles","sourceId":"10/900/518:landuse:78291920:0","sourceLayer":"landuse","archive":"https://its.hanifahseptiani45.workers.dev/v1/map/archive/indonesia.pmtiles","updatedAt":"2026-07-26T09:42:50.946Z"},"geometry":{"type":"Polygon","coordinates":[[[136.4260768890381,-2.2041890053594955],[136.42908096313477,-2.2041890053594955],[136.43199920654297,-2.2053897454366194],[136.43646240234375,-2.205046676942004],[136.44161224365234,-2.205303978320387],[136.44453048706055,-2.2063331833888356],[136.4479637145996,-2.2059901151118027],[136.44976615905762,-2.2077054557054083],[136.4564609527588,-2.2116507315549967],[136.45697593688965,-2.213022998957399],[136.45740509033203,-2.212937232281945],[136.4574909210205,-2.2139664320598484],[136.45586013793945,-2.2143094984936766],[136.45543098449707,-2.2150813976793557],[136.4508819580078,-2.214652564848066],[136.45079612731934,-2.213623365546624],[136.44770622253418,-2.2107930637838678],[136.44753456115723,-2.2116507315549967],[136.44118309020996,-2.213709132182359],[136.4399814605713,-2.2147383314242575],[136.4395523071289,-2.213880665438978],[136.44023895263672,-2.212336865414912],[136.4413547515869,-2.2121653319796764],[136.44049644470215,-2.210964597377753],[136.44118309020996,-2.209506561197955],[136.44195556640625,-2.209592328071693],[136.44195556640625,-2.212251098699781],[136.4440155029297,-2.210621530170158],[136.44418716430664,-2.2087346591113857],[136.4435863494873,-2.210106929210113],[136.44238471984863,-2.209763861804319],[136.4425563812256,-2.207876989655901],[136.44006729125977,-2.2072766207425474],[136.43963813781738,-2.207876989655901],[136.43603324890137,-2.20676201862382],[136.42762184143066,-2.205904348030174],[136.4275360107422,-2.205046676942004],[136.42624855041504,-2.205303978320387],[136.4260768890381,-2.2041890053594955]]]}},{"type":"Feature","id":"pmtiles:10/900/518:landuse:78291920:2","properties":{"class":"residential","kind":"green","verification":"verified","source":"OpenMapTiles/OpenStreetMap national PMTiles","sourceId":"10/900/518:landuse:78291920:2","sourceLayer":"landuse","archive":"https://its.hanifahseptiani45.workers.dev/v1/map/archive/indonesia.pmtiles","updatedAt":"2026-07-26T09:42:50.946Z"},"geometry":{"type":"Polygon","coordinates":[[[136.4007568359375,-2.2413257297458813],[136.4033317565918,-2.2396104282352667],[136.4007568359375,-2.2360082885277706],[136.4007568359375,-2.2343787462305755],[136.40522003173828,-2.2312911874464163],[136.40925407409668,-2.2366944110589912],[136.41363143920898,-2.233435326179304],[136.41311645507812,-2.232749202125106],[136.41955375671387,-2.2279463247815414],[136.41826629638672,-2.226145241737683],[136.426420211792,-2.2209992780626777],[136.42976760864258,-2.2249445184856427],[136.42667770385742,-2.227002900604603],[136.43397331237793,-2.2345502770838834],[136.42848014831543,-2.2385812463648165],[136.42693519592285,-2.2366086457601426],[136.41826629638672,-2.2385812463648165],[136.41603469848633,-2.236265584514584],[136.4110565185547,-2.2399534886980916],[136.41225814819336,-2.24184031980721],[136.40796661376953,-2.2452709155904103],[136.40625,-2.2427837344497163],[136.40273094177246,-2.2452709155904103],[136.4007568359375,-2.2424406746500978],[136.4007568359375,-2.2413257297458813]]]}},{"type":"Feature","id":"pmtiles:10/900/518:landuse:78291920:3","properties":{"class":"residential","kind":"green","verification":"verified","source":"OpenMapTiles/OpenStreetMap national PMTiles","sourceId":"10/900/518:landuse:78291920:3","sourceLayer":"landuse","archive":"https://its.hanifahseptiani45.workers.dev/v1/map/archive/indonesia.pmtiles","updatedAt":"2026-07-26T09:42:50.946Z"},"geometry":{"type":"Polygon","coordinates":[[[136.4535427093506,-2.3205704429514498],[136.4550018310547,-2.322199887724878],[136.45671844482422,-2.3217710866508554],[136.4574909210205,-2.3225429284904067],[136.4513111114502,-2.327945809551551],[136.44847869873047,-2.3280315694015314],[136.44822120666504,-2.327173970666891],[136.45028114318848,-2.321170764928638],[136.45156860351562,-2.3204846826481855],[136.4535427093506,-2.3205704429514498]]]}},{"type":"Feature","id":"pmtiles:10/900/518:landuse:78291920:4","properties":{"class":"residential","kind":"green","verification":"verified","source":"OpenMapTiles/OpenStreetMap national PMTiles","sourceId":"10/900/518:landuse:78291920:4","sourceLayer":"landuse","archive":"https://its.hanifahseptiani45.workers.dev/v1/map/archive/indonesia.pmtiles","updatedAt":"2026-07-26T09:42:50.946Z"},"geometry":{"type":"Polygon","coordinates":[[[136.46066665649414,-2.3180833920456507],[136.46615982055664,-2.322285647924062],[136.4674472808838,-2.327431250342073],[136.4700222015381,-2.330604362473508],[136.47062301635742,-2.331890757246626],[136.470365524292,-2.332576833978081],[136.46950721740723,-2.332576833978081],[136.46727561950684,-2.330947401194635],[136.4648723602295,-2.327173970666891],[136.46478652954102,-2.3254587716328388],[136.45998001098633,-2.3215138059439795],[136.459379196167,-2.3189409963001566],[136.46066665649414,-2.3180833920456507]]]}},{"type":"Feature","id":"pmtiles:10/900/518:landuse:78291920:5","properties":{"class":"residential","kind":"green","verification":"verified","source":"OpenMapTiles/OpenStreetMap national PMTiles","sourceId":"10/900/518:landuse:78291920:5","sourceLayer":"landuse","archive":"https://its.hanifahseptiani45.workers.dev/v1/map/archive/indonesia.pmtiles","updatedAt":"2026-07-26T09:42:50.946Z"},"geometry":{"type":"Polygon","coordinates":[[[136.49225234985352,-2.3715968943150187],[136.49328231811523,-2.37211143724889],[136.4978313446045,-2.3724544657651307],[136.49697303771973,-2.3733120366834584],[136.49439811706543,-2.372197194385919],[136.49216651916504,-2.373140522542357],[136.49173736572266,-2.372197194385919],[136.49225234985352,-2.3715968943150187]]]}},{"type":"Feature","id":"pmtiles:10/900/518:landuse:78291920:6","properties":{"class":"residential","kind":"green","verification":"verified","source":"OpenMapTiles/OpenStreetMap national PMTiles","sourceId":"10/900/518:landuse:78291920:6","sourceLayer":"landuse","archive":"https://its.hanifahseptiani45.workers.dev/v1/map/archive/indonesia.pmtiles","updatedAt":"2026-07-26T09:42:50.946Z"},"geometry":{"type":"Polygon","coordinates":[[[136.50907516479492,-2.39140665872614],[136.50753021240234,-2.3906348550627285],[136.50409698486328,-2.3908063670254336],[136.5036678314209,-2.391921194260547],[136.50323867797852,-2.391921194260547],[136.5025520324707,-2.3900345630244146],[136.49989128112793,-2.389005490348069],[136.49714469909668,-2.3859182676936825],[136.49534225463867,-2.3863470490325795],[136.4952564239502,-2.385660998826168],[136.49645805358887,-2.3850607046148156],[136.4967155456543,-2.3783716942667326],[136.49611473083496,-2.3769138287289593],[136.49774551391602,-2.3769138287289593],[136.49723052978516,-2.3834313332922648],[136.49791717529297,-2.3855752425263006],[136.4996337890625,-2.3878906607451853],[136.50169372558594,-2.3893485146592184],[136.503324508667,-2.389520026782648],[136.50426864624023,-2.390463343078565],[136.50753021240234,-2.3896915388846622],[136.50967597961426,-2.3908063670254336],[136.50907516479492,-2.39140665872614]]]}},{"type":"Feature","id":"pmtiles:10/900/518:landuse:78291920:7","properties":{"class":"residential","kind":"green","verification":"verified","source":"OpenMapTiles/OpenStreetMap national PMTiles","sourceId":"10/900/518:landuse:78291920:7","sourceLayer":"landuse","archive":"https://its.hanifahseptiani45.workers.dev/v1/map/archive/indonesia.pmtiles","updatedAt":"2026-07-26T09:42:50.946Z"},"geometry":{"type":"Polygon","coordinates":[[[136.51740074157715,-2.391663926517481],[136.51851654052734,-2.391149390886582],[136.51894569396973,-2.39149241466194],[136.51800155639648,-2.392950264750297],[136.5167999267578,-2.392607241339519],[136.51740074157715,-2.391663926517481]]]}},{"type":"Feature","id":"pmtiles:10/900/518:landuse:78291920:8","properties":{"class":"residential","kind":"green","verification":"verified","source":"OpenMapTiles/OpenStreetMap national PMTiles","sourceId":"10/900/518:landuse:78291920:8","sourceLayer":"landuse","archive":"https://its.hanifahseptiani45.workers.dev/v1/map/archive/indonesia.pmtiles","updatedAt":"2026-07-26T09:42:50.946Z"},"geometry":{"type":"Polygon","coordinates":[[[136.57490730285645,-2.295185166901007],[136.57499313354492,-2.2961285467418264],[136.57293319702148,-2.2954424523738908],[136.5721607208252,-2.29690040251198],[136.571044921875,-2.2976722578650737],[136.57155990600586,-2.2988729209183703],[136.57370567321777,-2.298444112800965],[136.57490730285645,-2.2997305367666456],[136.57490730285645,-2.3008454365986353],[136.57447814941406,-2.3009311980880796],[136.57078742980957,-2.29930172890694],[136.57001495361328,-2.2981868278687188],[136.56984329223633,-2.2961285467418264],[136.5721607208252,-2.2948421195317934],[136.57001495361328,-2.2933841672945476],[136.56795501708984,-2.2976722578650737],[136.57010078430176,-2.3009311980880796],[136.5703582763672,-2.3026464267934585],[136.56941413879395,-2.303504040371976],[136.56598091125488,-2.304790459771496],[136.56314849853516,-2.307449056179351],[136.5629768371582,-2.306677206121151],[136.56400680541992,-2.3052192659797015],[136.56932830810547,-2.3025606654072135],[136.56898498535156,-2.3009311980880796],[136.56709671020508,-2.2977580195452276],[136.56941413879395,-2.2926123096262074],[136.571044921875,-2.2926123096262074],[136.57490730285645,-2.295185166901007]]]}},{"type":"Feature","id":"pmtiles:10/900/518:landuse:78291920:9","properties":{"class":"residential","kind":"green","verification":"verified","source":"OpenMapTiles/OpenStreetMap national PMTiles","sourceId":"10/900/518:landuse:78291920:9","sourceLayer":"landuse","archive":"https://its.hanifahseptiani45.workers.dev/v1/map/archive/indonesia.pmtiles","updatedAt":"2026-07-26T09:42:50.946Z"},"geometry":{"type":"Polygon","coordinates":[[[136.59138679504395,-2.3111367784498498],[136.59387588500977,-2.3119943869078554],[136.59945487976074,-2.312337430145945],[136.60168647766113,-2.310364930394684],[136.60374641418457,-2.313709602268858],[136.60537719726562,-2.3138811236908765],[136.60572052001953,-2.3156820973691907],[136.6018581390381,-2.3132807986230404],[136.59567832946777,-2.3131092771284187],[136.59173011779785,-2.3120801477251405],[136.59112930297852,-2.311479821895233],[136.59138679504395,-2.3111367784498498]]]}},{"type":"Feature","id":"pmtiles:10/900/518:landuse:78291920:10","properties":{"class":"residential","kind":"green","verification":"verified","source":"OpenMapTiles/OpenStreetMap national PMTiles","sourceId":"10/900/518:landuse:78291920:10","sourceLayer":"landuse","archive":"https://its.hanifahseptiani45.workers.dev/v1/map/archive/indonesia.pmtiles","updatedAt":"2026-07-26T09:42:50.946Z"},"geometry":{"type":"Polygon","coordinates":[[[136.62400245666504,-2.3175688292434984],[136.6208267211914,-2.3191982774751523],[136.6197967529297,-2.3190267566970277],[136.6252040863037,-2.3166254636205252],[136.6288948059082,-2.3166254636205252],[136.6377353668213,-2.3143956878324445],[136.63833618164062,-2.315510576165096],[136.6348171234131,-2.3161109002885922],[136.63207054138184,-2.3174830687582926],[136.62400245666504,-2.3175688292434984]]]}},{"type":"Feature","id":"pmtiles:10/900/518:landuse:78291920:11","properties":{"class":"residential","kind":"green","verification":"verified","source":"OpenMapTiles/OpenStreetMap national PMTiles","sourceId":"10/900/518:landuse:78291920:11","sourceLayer":"landuse","archive":"https://its.hanifahseptiani45.workers.dev/v1/map/archive/indonesia.pmtiles","updatedAt":"2026-07-26T09:42:50.946Z"},"geometry":{"type":"Polygon","coordinates":[[[136.6552448272705,-2.309850364791501],[136.6552448272705,-2.3106222131263507],[136.6512107849121,-2.311651343586817],[136.65138244628906,-2.3110510175755508],[136.65292739868164,-2.3105364522209726],[136.65284156799316,-2.3091642770306464],[136.65352821350098,-2.310364930394684],[136.6552448272705,-2.309850364791501]]]}},{"type":"Feature","id":"pmtiles:10/900/518:landuse:78291920:12","properties":{"class":"residential","kind":"green","verification":"verified","source":"OpenMapTiles/OpenStreetMap national PMTiles","sourceId":"10/900/518:landuse:78291920:12","sourceLayer":"landuse","archive":"https://its.hanifahseptiani45.workers.dev/v1/map/archive/indonesia.pmtiles","updatedAt":"2026-07-26T09:42:50.946Z"},"geometry":{"type":"Polygon","coordinates":[[[136.66279792785645,-2.307792100515158],[136.6658878326416,-2.3071917728731535],[136.67601585388184,-2.3022176198106195],[136.67936325073242,-2.301617289817898],[136.68228149414062,-2.2999020598744266],[136.68356895446777,-2.2976722578650737],[136.68597221374512,-2.297071925959827],[136.68760299682617,-2.297243449387082],[136.6845989227295,-2.2976722578650737],[136.6830539703369,-2.3006739136042995],[136.6801357269287,-2.3023891426192478],[136.6754150390625,-2.303075233647249],[136.67387008666992,-2.3043616534341282],[136.67043685913086,-2.3057338332590263],[136.66399955749512,-2.3094215599797963],[136.65936470031738,-2.308992755038659],[136.66279792785645,-2.307792100515158]]]}},{"type":"Feature","id":"pmtiles:10/900/518:landuse:78291920:13","properties":{"class":"residential","kind":"green","verification":"verified","source":"OpenMapTiles/OpenStreetMap national PMTiles","sourceId":"10/900/518:landuse:78291920:13","sourceLayer":"landuse","archive":"https://its.hanifahseptiani45.workers.dev/v1/map/archive/indonesia.pmtiles","updatedAt":"2026-07-26T09:42:50.946Z"},"geometry":{"type":"Polygon","coordinates":[[[136.6955852508545,-2.303075233647249],[136.69618606567383,-2.3029037109212283],[136.6962718963623,-2.3032467563526353],[136.69549942016602,-2.3071060117607516],[136.6951560974121,-2.3067629672594165],[136.6955852508545,-2.303075233647249]]]}},{"type":"Feature","id":"pmtiles:10/900/518:landuse:78291920:14","properties":{"class":"residential","kind":"green","verification":"verified","source":"OpenMapTiles/OpenStreetMap national PMTiles","sourceId":"10/900/518:landuse:78291920:14","sourceLayer":"landuse","archive":"https://its.hanifahseptiani45.workers.dev/v1/map/archive/indonesia.pmtiles","updatedAt":"2026-07-26T09:42:50.946Z"},"geometry":{"type":"Polygon","coordinates":[[[136.6995334625244,-2.3005023905893154],[136.69979095458984,-2.2998162983231083],[136.7003059387207,-2.3010169595723653],[136.7021083831787,-2.3009311980880796],[136.70648574829102,-2.2995590136382162],[136.70674324035645,-2.29895868252639],[136.7076873779297,-2.2999020598744266],[136.7135238647461,-2.299387490489181],[136.7172145843506,-2.3005881520993796],[136.71215057373047,-2.300159344497459],[136.7109489440918,-2.3005881520993796],[136.71120643615723,-2.301874574131446],[136.7105197906494,-2.3017030512609153],[136.71026229858398,-2.3007596751040325],[136.7057991027832,-2.3002451060281572],[136.70167922973633,-2.3017030512609153],[136.70082092285156,-2.30247490401581],[136.70047760009766,-2.301874574131446],[136.69910430908203,-2.30178881269876],[136.6995334625244,-2.3005023905893154]]]}},{"type":"Feature","id":"pmtiles:10/900/518:landuse:78291920:15","properties":{"class":"residential","kind":"green","verification":"verified","source":"OpenMapTiles/OpenStreetMap national PMTiles","sourceId":"10/900/518:landuse:78291920:15","sourceLayer":"landuse","archive":"https://its.hanifahseptiani45.workers.dev/v1/map/archive/indonesia.pmtiles","updatedAt":"2026-07-26T09:42:50.946Z"},"geometry":{"type":"Polygon","coordinates":[[[136.73532485961914,-2.297329211092972],[136.74150466918945,-2.2981868278687188],[136.74236297607422,-2.294070262650152],[136.74236297607422,-2.2981868278687188],[136.74622535705566,-2.299473252066278],[136.74819946289062,-2.29895868252639],[136.74871444702148,-2.299387490489181],[136.74528121948242,-2.2998162983231083],[136.74116134643555,-2.298787159305192],[136.73832893371582,-2.29895868252639],[136.73738479614258,-2.298101066214315],[136.73498153686523,-2.298101066214315],[136.73532485961914,-2.297329211092972]]]}},{"type":"Feature","id":"pmtiles:10/900/518:landuse:78291920:16","properties":{"class":"residential","kind":"green","verification":"verified","source":"OpenMapTiles/OpenStreetMap national PMTiles","sourceId":"10/900/518:landuse:78291920:16","sourceLayer":"landuse","archive":"https://its.hanifahseptiani45.workers.dev/v1/map/archive/indonesia.pmtiles","updatedAt":"2026-07-26T09:42:50.946Z"},"geometry":{"type":"Polygon","coordinates":[[[136.71944618225098,-2.3004166290740784],[136.71815872192383,-2.3004166290740784],[136.7208194732666,-2.299387490489181],[136.7241668701172,-2.299387490489181],[136.7269992828369,-2.29827258951795],[136.7285442352295,-2.298444112800965],[136.73086166381836,-2.2977580195452276],[136.73154830932617,-2.2986156360634027],[136.72837257385254,-2.299473252066278],[136.72614097595215,-2.29930172890694],[136.72468185424805,-2.2999878214206007],[136.71944618225098,-2.3004166290740784]]]}},{"type":"Feature","id":"pmtiles:10/900/518:mountain_peak:10701816151:0","properties":{"name_int":"Gunung Van Dori","name_de":"Gunung Van Dori","name":"Gunung Van Dori","rank":1,"class":"peak","name:latin":"Gunung Van Dori","name_en":"Gunung Van Dori","kind":"poi","verification":"verified","source":"OpenMapTiles/OpenStreetMap national PMTiles","sourceId":"10/900/518:mountain_peak:10701816151:0","sourceLayer":"mountain_peak","archive":"https://its.hanifahseptiani45.workers.dev/v1/map/archive/indonesia.pmtiles","updatedAt":"2026-07-26T09:42:50.946Z"},"geometry":{"type":"Point","coordinates":[136.75000190734863,-2.3166254636205252]}},{"type":"Feature","id":"pmtiles:10/900/518:transportation:13628370750:0","properties":{"class":"ferry","highway":"ferry","kind":"road","verification":"verified","source":"OpenMapTiles/OpenStreetMap national PMTiles","sourceId":"10/900/518:transportation:13628370750:0","sourceLayer":"transportation","archive":"https://its.hanifahseptiani45.workers.dev/v1/map/archive/indonesia.pmtiles","updatedAt":"2026-07-26T09:42:50.946Z"},"geometry":{"type":"LineString","coordinates":[[136.4007568359375,-2.1604471036473427],[136.42135620117188,-2.1991287329705784],[136.4219570159912,-2.200758314089839],[136.42101287841797,-2.199214500442295],[136.41680717468262,-2.196555706527505],[136.40745162963867,-2.1956122623876695],[136.40195846557617,-2.1973276149260386],[136.4007568359375,-2.198099522925517]]}},{"type":"Feature","id":"pmtiles:10/900/518:water:380:0","properties":{"class":"ocean","water":"ocean","kind":"waterway","verification":"verified","source":"OpenMapTiles/OpenStreetMap national PMTiles","sourceId":"10/900/518:water:380:0","sourceLayer":"water","archive":"https://its.hanifahseptiani45.workers.dev/v1/map/archive/indonesia.pmtiles","updatedAt":"2026-07-26T09:42:50.946Z"},"geometry":{"type":"Polygon","coordinates":[[[136.7633056640625,-2.2345502770838834],[136.7600440979004,-2.234979104129465],[136.75832748413086,-2.2366086457601426],[136.75532341003418,-2.238667011548287],[136.7545509338379,-2.240382314163668],[136.75395011901855,-2.2426122045599612],[136.75352096557617,-2.2452709155904103],[136.7544651031494,-2.2464716222125247],[136.75386428833008,-2.247672327847553],[136.75283432006836,-2.2480153864190555],[136.75060272216797,-2.2513602032635447],[136.74957275390625,-2.252303611755309],[136.7446804046631,-2.2540188983567475],[136.74433708190918,-2.252046318590871],[136.74382209777832,-2.2505883231342096],[136.73970222473145,-2.244155972843643],[136.7379856109619,-2.244499032240924],[136.73575401306152,-2.2455282099496543],[136.72605514526367,-2.237980889939962],[136.7226219177246,-2.2341214499130615],[136.72210693359375,-2.23283496764941],[136.72236442565918,-2.2315484842594913],[136.7211627960205,-2.2324919055221955],[136.72064781188965,-2.2336068571427887],[136.71747207641602,-2.232148843314903],[136.71369552612305,-2.229918937016464],[136.712064743042,-2.2287182168404343],[136.71077728271484,-2.2290612798478264],[136.70777320861816,-2.2287182168404343],[136.70631408691406,-2.2279463247815414],[136.70476913452148,-2.2284609195324236],[136.70442581176758,-2.22931857705089],[136.70442581176758,-2.2303477654133417],[136.70382499694824,-2.232063077750567],[136.70125007629395,-2.237380533269274],[136.6959285736084,-2.2413257297458813],[136.69026374816895,-2.246728916360283],[136.68477058410645,-2.247586563192087],[136.6830539703369,-2.2529039622956333],[136.67498588562012,-2.257706757703559],[136.67481422424316,-2.262681064785994],[136.67309761047363,-2.261480371533878],[136.6665744781494,-2.258221341985049],[136.66382789611816,-2.259078982049161],[136.66279792785645,-2.256163003766062],[136.66090965270996,-2.260279677288082],[136.65902137756348,-2.2578782858176254],[136.65472984313965,-2.2573637014146755],[136.65404319763184,-2.254619248189826],[136.65078163146973,-2.251531732125656],[136.6464900970459,-2.2484442095200308],[136.64082527160645,-2.24638585748653],[136.63936614990234,-2.2468146810661267],[136.6380786895752,-2.2468146810661267],[136.63670539855957,-2.247586563192087],[136.6366195678711,-2.2490445616496686],[136.63593292236328,-2.249387619898556],[136.63593292236328,-2.2503310296669383],[136.6355037689209,-2.2511886743812397],[136.63533210754395,-2.252732433595071],[136.63490295410156,-2.253075490975988],[136.63430213928223,-2.2523893761333653],[136.6336154937744,-2.2511886743812397],[136.6325855255127,-2.250845616556063],[136.63207054138184,-2.2505883231342096],[136.63121223449707,-2.249387619898556],[136.63052558898926,-2.2493018553439015],[136.62975311279297,-2.2487872679100605],[136.6293239593506,-2.2475007985315756],[136.6282081604004,-2.248272680294747],[136.62683486938477,-2.24784385714338],[136.62589073181152,-2.2481869156745518],[136.62546157836914,-2.247157739839153],[136.6252040863037,-2.2469862104627083],[136.62443161010742,-2.247586563192087],[136.62322998046875,-2.247329269195447],[136.62254333496094,-2.247672327847553],[136.62220001220703,-2.248272680294747],[136.62168502807617,-2.248358444909897],[136.62091255187988,-2.2475007985315756],[136.62039756774902,-2.2474150338660195],[136.61962509155273,-2.2486157387251353],[136.61911010742188,-2.24887303249497],[136.61850929260254,-2.2484442095200308],[136.61747932434082,-2.2485299741250913],[136.6171360015869,-2.24887303249497],[136.61696434020996,-2.249387619898556],[136.61627769470215,-2.249816442596213],[136.6157627105713,-2.2497306780667685],[136.61541938781738,-2.250245265167763],[136.6146469116211,-2.250502558650169],[136.61087036132812,-2.2499879716399676],[136.61035537719727,-2.2490445616496686],[136.60992622375488,-2.2489587970748346],[136.6054630279541,-2.2529039622956333],[136.60348892211914,-2.2531612553085836],[136.60263061523438,-2.2535900768958186],[136.60048484802246,-2.2534185482760876],[136.60022735595703,-2.2506740876132056],[136.59971237182617,-2.249816442596213],[136.59979820251465,-2.2487872679100605],[136.5981674194336,-2.24690044576694],[136.5978240966797,-2.246128563278333],[136.5973949432373,-2.245957033781025],[136.59799575805664,-2.2451851507939296],[136.59722328186035,-2.2442417377005057],[136.5978240966797,-2.241926084799843],[136.59859657287598,-2.2410684346473744],[136.5996265411377,-2.2385812463648165],[136.60005569458008,-2.2366944110589912],[136.6003131866455,-2.236351349833498],[136.60022735595703,-2.235579461782848],[136.59979820251465,-2.2345502770838834],[136.5985107421875,-2.2345502770838834],[136.59687995910645,-2.234979104129465],[136.59421920776367,-2.2366944110589912],[136.59250259399414,-2.2369517069254528],[136.5882110595703,-2.2393531328354186],[136.58855438232422,-2.2385812463648165],[136.58812522888184,-2.2375520637717017],[136.5875244140625,-2.237380533269274],[136.58846855163574,-2.2371232374780305],[136.5886402130127,-2.2369517069254528],[136.58958435058594,-2.235064869523569],[136.58941268920898,-2.2348075733262647],[136.58795356750488,-2.234893338730373],[136.58589363098145,-2.235922523188819],[136.58246040344238,-2.2371232374780305],[136.5827178955078,-2.235579461782848],[136.5823745727539,-2.234979104129465],[136.58194541931152,-2.234721807917154],[136.57928466796875,-2.229833171322099],[136.57859802246094,-2.2279463247815414],[136.5779972076416,-2.223829560304779],[136.57602310180664,-2.218940887571378],[136.5761947631836,-2.215939062969454],[136.57842636108398,-2.213623365546624],[136.5798854827881,-2.210621530170158],[136.58005714416504,-2.2089061929430613],[136.57954216003418,-2.208134290544521],[136.58143043518066,-2.2056470467556437],[136.58160209655762,-2.2037601693829174],[136.58340454101562,-2.199643337726897],[136.5864086151123,-2.197584917636874],[136.58906936645508,-2.194840353102933],[136.59241676330566,-2.1923530871416403],[136.593017578125,-2.1892654408878656],[136.5937900543213,-2.1879789197375885],[136.5963649749756,-2.1861777882731843],[136.59687995910645,-2.1854916423847612],[136.59687995910645,-2.1851485693229478],[136.5962791442871,-2.1848912644751692],[136.59241676330566,-2.185234337595759],[136.58949851989746,-2.186006251830463],[136.5860652923584,-2.1889223686890773],[136.58452033996582,-2.1911523365771473],[136.58323287963867,-2.192524622857931],[136.58434867858887,-2.190294657012984],[136.58941268920898,-2.1848054961827614],[136.5896701812744,-2.1840335813308087],[136.58949851989746,-2.1835189712091676],[136.58872604370117,-2.183090129306507],[136.58735275268555,-2.1839478129894445],[136.5831470489502,-2.188064687848623],[136.58048629760742,-2.190380424991517],[136.57919883728027,-2.1912381045065388],[136.57791137695312,-2.192010015650041],[136.57525062561035,-2.192953462062647],[136.5736198425293,-2.193296533337943],[136.57241821289062,-2.193124997710129],[136.5721607208252,-2.193296533337943],[136.57198905944824,-2.1937253723213956],[136.57258987426758,-2.195183423945366],[136.57207489013672,-2.195183423945366],[136.57095909118652,-2.1949261208209236],[136.57044410705566,-2.1953549593370525],[136.57001495361328,-2.1993002679090665],[136.56907081604004,-2.2017017549764546],[136.56761169433594,-2.2044463068861404],[136.56452178955078,-2.208220057497499],[136.5640926361084,-2.2085631252599],[136.5633201599121,-2.2086488921881084],[136.5622043609619,-2.2083915913886045],[136.55911445617676,-2.209763861804319],[136.558256149292,-2.2096780949404717],[136.55542373657227,-2.211564964800189],[136.5552520751953,-2.212422632125083],[136.55405044555664,-2.2120795652546263],[136.55267715454102,-2.2143952650897205],[136.55113220214844,-2.2158532964627824],[136.54520988464355,-2.2199700831753546],[136.54486656188965,-2.222028472232992],[136.54443740844727,-2.2225430690491805],[136.54452323913574,-2.223829560304779],[136.5443515777588,-2.2239153263486173],[136.54400825500488,-2.2233149639371135],[136.5435791015625,-2.223057665685971],[136.5428924560547,-2.223057665685971],[136.53963088989258,-2.2203131482174427],[136.5384292602539,-2.220227381964392],[136.53834342956543,-2.2199700831753546],[136.53636932373047,-2.2203989144655196],[136.5355110168457,-2.221256576672488],[136.5348243713379,-2.2211708104741916],[136.5347385406494,-2.220656213179879],[136.5355110168457,-2.2190266538990784],[136.53542518615723,-2.2178259248587153],[136.53345108032227,-2.2156817634345742],[136.53362274169922,-2.214995631123017],[136.53285026550293,-2.2147383314242575],[136.53207778930664,-2.212336865414912],[136.5314769744873,-2.211564964800189],[136.5304470062256,-2.2112218977314058],[136.52976036071777,-2.2119080317896476],[136.5259838104248,-2.2121653319796764],[136.52589797973633,-2.2107072969794928],[136.5264129638672,-2.2052182111991954],[136.52615547180176,-2.2031597988082012],[136.5256404876709,-2.2025594279914884],[136.5248680114746,-2.2025594279914884],[136.52503967285156,-2.2016159876477985],[136.52503967285156,-2.201272918283834],[136.5248680114746,-2.201187150930508],[136.52349472045898,-2.2039317037883706],[136.5230655670166,-2.2044463068861404],[136.52255058288574,-2.2046178412125386],[136.5222930908203,-2.2043605397155233],[136.5219497680664,-2.203331333282833],[136.52143478393555,-2.202988264313845],[136.52143478393555,-2.2017017549764546],[136.5209197998047,-2.2015302203142113],[136.5204906463623,-2.200415244528486],[136.51988983154297,-2.1971560797608305],[136.51954650878906,-2.196727241761664],[136.5182590484619,-2.196555706527505],[136.51808738708496,-2.1962126360001406],[136.51911735534668,-2.196041100706907],[136.5194606781006,-2.195698030061365],[136.51971817016602,-2.1957837977301153],[136.5193748474121,-2.1949261208209236],[136.51920318603516,-2.1935538367427654],[136.5175724029541,-2.1914954082652542],[136.51594161987305,-2.192267319276098],[136.5131950378418,-2.1923530871416403],[136.51113510131836,-2.1913238724310276],[136.51036262512207,-2.190551960933803],[136.50959014892578,-2.190294657012984],[136.5098476409912,-2.1911523365771473],[136.5091609954834,-2.192267319276098],[136.50667190551758,-2.1942399789392653],[136.50538444519043,-2.1962126360001406],[136.50203704833984,-2.200758314089839],[136.5004062652588,-2.199986407465815],[136.4992904663086,-2.199643337726897],[136.49499893188477,-2.1998148726062112],[136.49396896362305,-2.200758314089839],[136.49362564086914,-2.201444452975693],[136.4926815032959,-2.201444452975693],[136.492338180542,-2.202473660712201],[136.4915657043457,-2.202902497059256],[136.49036407470703,-2.202988264313845],[136.48881912231445,-2.203588634957697],[136.4878749847412,-2.204274772539989],[136.48701667785645,-2.205303978320387],[136.48564338684082,-2.205818580943614],[136.484956741333,-2.205818580943614],[136.48435592651367,-2.205475512547906],[136.4839267730713,-2.205818580943614],[136.48298263549805,-2.2059901151118027],[136.48160934448242,-2.205303978320387],[136.4809226989746,-2.205475512547906],[136.4805793762207,-2.2051324440730724],[136.4798069000244,-2.205475512547906],[136.4791202545166,-2.205475512547906],[136.47860527038574,-2.2059901151118027],[136.4750862121582,-2.2076196887227297],[136.47482872009277,-2.207876989655901],[136.47465705871582,-2.2087346591113857],[136.4743995666504,-2.208991959851474],[136.4736270904541,-2.208477358326718],[136.4725112915039,-2.2085631252599],[136.47096633911133,-2.2077054557054083],[136.47010803222656,-2.2076196887227297],[136.4681339263916,-2.2077054557054083],[136.46615982055664,-2.2083915913886045],[136.46504402160645,-2.2083915913886045],[136.46281242370605,-2.2093350274356],[136.46255493164062,-2.2100211623660897],[136.46143913269043,-2.210278462883281],[136.46100997924805,-2.2111361309518145],[136.459379196167,-2.2119937985246168],[136.45800590515137,-2.213623365546624],[136.45757675170898,-2.2137948988131484],[136.45740509033203,-2.213451832260219],[136.4578342437744,-2.210621530170158],[136.45766258239746,-2.210621530170158],[136.4574909210205,-2.2113076645060374],[136.45723342895508,-2.2128514656015454],[136.45697593688965,-2.213022998957399],[136.4564609527588,-2.2116507315549967],[136.4549160003662,-2.2108788305832974],[136.4523410797119,-2.208820426029689],[136.44976615905762,-2.2077054557054083],[136.44882202148438,-2.2065904845446624],[136.448392868042,-2.206418950445709],[136.4479637145996,-2.2059901151118027],[136.44453048706055,-2.2063331833888356],[136.4435863494873,-2.2062474163270025],[136.44315719604492,-2.205818580943614],[136.44161224365234,-2.205303978320387],[136.43938064575195,-2.2053897454366194],[136.43646240234375,-2.205046676942004],[136.4330291748047,-2.2051324440730724],[136.43199920654297,-2.2053897454366194],[136.43011093139648,-2.2044463068861404],[136.42848014831543,-2.204017470983686],[136.4241886138916,-2.2044463068861404],[136.42367362976074,-2.2032455660479826],[136.4223861694336,-2.2036744021727657],[136.42281532287598,-2.205046676942004],[136.42247200012207,-2.2053897454366194],[136.42144203186035,-2.2057328138520944],[136.4204978942871,-2.2055612796542476],[136.4194679260254,-2.2063331833888356],[136.41775131225586,-2.206847785655981],[136.4161205291748,-2.207876989655901],[136.41423225402832,-2.2100211623660897],[136.41234397888184,-2.2113934312757095],[136.41036987304688,-2.2119937985246168],[136.4091682434082,-2.2120795652546263],[136.40856742858887,-2.211479198040422],[136.40813827514648,-2.2113934312757095],[136.40599250793457,-2.2119080317896476],[136.40487670898438,-2.2125941655305468],[136.40376091003418,-2.214052198675745],[136.4025592803955,-2.2150813976793557],[136.4014434814453,-2.215767529951165],[136.4007568359375,-2.215939062969454],[136.4007568359375,-2.103409206077373],[136.7633056640625,-2.103409206077373],[136.7633056640625,-2.2345502770838834]]]}},{"type":"Feature","id":"pmtiles:10/900/518:water:6197047692:0","properties":{"intermittent":0,"class":"river","id":619704769,"water":"river","kind":"waterway","verification":"verified","source":"OpenMapTiles/OpenStreetMap national PMTiles","sourceId":"10/900/518:water:6197047692:0","sourceLayer":"water","archive":"https://its.hanifahseptiani45.workers.dev/v1/map/archive/indonesia.pmtiles","updatedAt":"2026-07-26T09:42:50.947Z"},"geometry":{"type":"Polygon","coordinates":[[[136.75274848937988,-2.2763174396875314],[136.7523193359375,-2.274945231685848],[136.75025939941406,-2.2717719956829256],[136.7497444152832,-2.2693706232620485],[136.74785614013672,-2.2661973750175974],[136.7471694946289,-2.2644821027999313],[136.7471694946289,-2.2598508576738823],[136.74596786499023,-2.256163003766062],[136.7446804046631,-2.2540188983567475],[136.74656867980957,-2.2534185482760876],[136.74802780151367,-2.2575352295692426],[136.748628616333,-2.2608800245351546],[136.74914360046387,-2.261480371533878],[136.75068855285645,-2.261737663028711],[136.75137519836426,-2.261480371533878],[136.75077438354492,-2.260279677288082],[136.75206184387207,-2.2591647460277215],[136.7530059814453,-2.2591647460277215],[136.75575256347656,-2.260279677288082],[136.7552375793457,-2.261137316136441],[136.7541217803955,-2.2624237734584938],[136.75463676452637,-2.263881757043933],[136.75249099731445,-2.264653630113102],[136.75189018249512,-2.263881757043933],[136.75111770629883,-2.2637959933442033],[136.74914360046387,-2.2644821027999313],[136.74845695495605,-2.2650824483071688],[136.75060272216797,-2.2693706232620485],[136.7508602142334,-2.2713431794719128],[136.7512035369873,-2.2722008117666377],[136.75352096557617,-2.2763174396875314],[136.75463676452637,-2.2766604914838666],[136.7570400238037,-2.277946934992741],[136.75755500793457,-2.277946934992741],[136.75884246826172,-2.2772608319309455],[136.76030158996582,-2.2744306533486025],[136.7611598968506,-2.2735730223786277],[136.76064491271973,-2.2735730223786277],[136.7599582672119,-2.272886917235681],[136.7607307434082,-2.2722008117666377],[136.76064491271973,-2.271943522131693],[136.7603874206543,-2.271943522131693],[136.76012992858887,-2.2724581013557383],[136.75978660583496,-2.272543864541916],[136.76047325134277,-2.271171652951864],[136.76141738891602,-2.271257416214425],[136.7610740661621,-2.2705713099713165],[136.76236152648926,-2.2705713099713165],[136.76287651062012,-2.270142493403924],[136.7633056640625,-2.270485546668027],[136.7633056640625,-2.2746879425401687],[136.76030158996582,-2.276403202644275],[136.75875663757324,-2.277946934992741],[136.7581558227539,-2.2782899864010915],[136.75738334655762,-2.2783757492404106],[136.75626754760742,-2.2781184607071197],[136.75386428833008,-2.2770893061144477],[136.75334930419922,-2.2772608319309455],[136.75283432006836,-2.27683201735141],[136.75274848937988,-2.2763174396875314]]]}},{"type":"Feature","id":"pmtiles:10/900/518:waterway:6411844260:0","properties":{"name":"Water Way MFR","name_int":"Water Way MFR","class":"river","name:latin":"Water Way MFR","name_de":"Water Way MFR","name_en":"Water Way MFR","waterway":"river","kind":"waterway","verification":"verified","source":"OpenMapTiles/OpenStreetMap national PMTiles","sourceId":"10/900/518:waterway:6411844260:0","sourceLayer":"waterway","archive":"https://its.hanifahseptiani45.workers.dev/v1/map/archive/indonesia.pmtiles","updatedAt":"2026-07-26T09:42:50.947Z"},"geometry":{"type":"LineString","coordinates":[[136.66193962097168,-2.3056480720587302],[136.66176795959473,-2.3057338332590263],[136.66125297546387,-2.305305027205847],[136.6596221923828,-2.3047046985143567],[136.6582489013672,-2.303504040371976],[136.65807723999023,-2.3026464267934585],[136.65593147277832,-2.3013600054578944],[136.6556739807129,-2.3006739136042995],[136.65661811828613,-2.299387490489181],[136.65644645690918,-2.2983583511620367],[136.65721893310547,-2.297929542890074],[136.65739059448242,-2.295185166901007],[136.65627479553223,-2.2948421195317934],[136.6560173034668,-2.2933841672945476],[136.65464401245117,-2.292783833588487],[136.65292739868164,-2.2901252098638025],[136.65224075317383,-2.288066917139986],[136.65112495422363,-2.2866947203492742],[136.64966583251953,-2.286008621461761],[136.64743423461914,-2.284036085333611],[136.64588928222656,-2.282149309111304],[136.64554595947266,-2.281120157400821],[136.6458034515381,-2.280262530412884],[136.64709091186523,-2.2797479539747627],[136.64743423461914,-2.277946934992741],[136.64889335632324,-2.2772608319309455],[136.6494083404541,-2.276746254420189],[136.6500949859619,-2.27477370559383],[136.6508674621582,-2.2738303117231453],[136.65206909179688,-2.2729726803963786],[136.6530990600586,-2.2727153908989806],[136.6542148590088,-2.2731442067025114]]}},{"type":"Feature","id":"pmtiles:10/900/518:waterway:6411844260:1","properties":{"name":"Water Way MFR","name_int":"Water Way MFR","class":"river","name:latin":"Water Way MFR","name_de":"Water Way MFR","name_en":"Water Way MFR","waterway":"river","kind":"waterway","verification":"verified","source":"OpenMapTiles/OpenStreetMap national PMTiles","sourceId":"10/900/518:waterway:6411844260:1","sourceLayer":"waterway","archive":"https://its.hanifahseptiani45.workers.dev/v1/map/archive/indonesia.pmtiles","updatedAt":"2026-07-26T09:42:50.947Z"},"geometry":{"type":"LineString","coordinates":[[136.69472694396973,-2.266626192754572],[136.69275283813477,-2.2664546656750133],[136.69206619262695,-2.2677411182761062],[136.69103622436523,-2.268770279533456],[136.68957710266113,-2.2683414624318914],[136.6882038116455,-2.2671407738712475],[136.68597221374512,-2.2667977198137947],[136.68511390686035,-2.2659400843144653],[136.68545722961426,-2.263967520738589],[136.68434143066406,-2.261480371533878],[136.68537139892578,-2.2581355779507817],[136.68794631958008,-2.256934880939724],[136.69069290161133,-2.255048069347538],[136.69086456298828,-2.2545334839431064],[136.6907787322998,-2.2536758411981026],[136.68983459472656,-2.252046318590871],[136.68992042541504,-2.2511886743812397],[136.69017791748047,-2.2510171454787553],[136.6922378540039,-2.2510171454787553],[136.6926670074463,-2.250502558650169],[136.69240951538086,-2.249816442596213],[136.6911220550537,-2.2480153864190555],[136.68665885925293,-2.247329269195447]]}},{"type":"Feature","id":"pmtiles:10/900/518:waterway:6411844260:2","properties":{"name":"Water Way MFR","name_int":"Water Way MFR","class":"river","name:latin":"Water Way MFR","name_de":"Water Way MFR","name_en":"Water Way MFR","waterway":"river","kind":"waterway","verification":"verified","source":"OpenMapTiles/OpenStreetMap national PMTiles","sourceId":"10/900/518:waterway:6411844260:2","sourceLayer":"waterway","archive":"https://its.hanifahseptiani45.workers.dev/v1/map/archive/indonesia.pmtiles","updatedAt":"2026-07-26T09:42:50.947Z"},"geometry":{"type":"LineString","coordinates":[[136.64039611816406,-2.2800052422168307],[136.64005279541016,-2.2794049029137966],[136.63893699645996,-2.2785472749037297],[136.6391944885254,-2.277346594831542],[136.63902282714844,-2.2753740468266557],[136.63799285888672,-2.2735730223786277],[136.63859367370605,-2.2724581013557383],[136.63850784301758,-2.2717719956829256],[136.6380786895752,-2.2713431794719128],[136.63687705993652,-2.271171652951864],[136.63679122924805,-2.270742836562647],[136.63756370544434,-2.2697994400584207],[136.6376495361328,-2.269284859887506],[136.63722038269043,-2.268598752708087],[136.63713455200195,-2.267826881742181],[136.63885116577148,-2.2673123008694773],[136.6395378112793,-2.2649966846785077],[136.6403102874756,-2.263881757043933],[136.6432285308838,-2.261737663028711],[136.64477348327637,-2.2615661353705576],[136.6464900970459,-2.2585643980714565],[136.64631843566895,-2.2571921732398863],[136.6457176208496,-2.255562654569971],[136.64657592773438,-2.252217847372208],[136.6472625732422,-2.2511886743812397],[136.6487216949463,-2.2500737361542775]]}},{"type":"Feature","id":"pmtiles:10/901/518:mountain_peak:10701816151:0","properties":{"name_int":"Gunung Van Dori","name_de":"Gunung Van Dori","name":"Gunung Van Dori","rank":1,"class":"peak","name:latin":"Gunung Van Dori","name_en":"Gunung Van Dori","kind":"poi","verification":"verified","source":"OpenMapTiles/OpenStreetMap national PMTiles","sourceId":"10/901/518:mountain_peak:10701816151:0","sourceLayer":"mountain_peak","archive":"https://its.hanifahseptiani45.workers.dev/v1/map/archive/indonesia.pmtiles","updatedAt":"2026-07-26T09:42:51.016Z"},"geometry":{"type":"Point","coordinates":[136.75000190734863,-2.3166254636205252]}},{"type":"Feature","id":"pmtiles:10/901/518:water:6197047692:0","properties":{"intermittent":0,"class":"river","id":619704769,"water":"river","kind":"waterway","verification":"verified","source":"OpenMapTiles/OpenStreetMap national PMTiles","sourceId":"10/901/518:water:6197047692:0","sourceLayer":"water","archive":"https://its.hanifahseptiani45.workers.dev/v1/map/archive/indonesia.pmtiles","updatedAt":"2026-07-26T09:42:51.016Z"},"geometry":{"type":"Polygon","coordinates":[[[136.75249099731445,-2.264653630113102],[136.7523193359375,-2.2644821027999313],[136.7523193359375,-2.2591647460277215],[136.7530059814453,-2.2591647460277215],[136.75575256347656,-2.260279677288082],[136.7552375793457,-2.261137316136441],[136.7541217803955,-2.2624237734584938],[136.75463676452637,-2.263881757043933],[136.75249099731445,-2.264653630113102]]]}},{"type":"Feature","id":"pmtiles:8/224/129:landuse:78291920:2","properties":{"class":"residential","kind":"green","verification":"verified","source":"OpenMapTiles/OpenStreetMap national PMTiles","sourceId":"8/224/129:landuse:78291920:2","sourceLayer":"landuse","archive":"https://its.hanifahseptiani45.workers.dev/v1/map/archive/indonesia.pmtiles","updatedAt":"2026-07-26T09:35:36.638Z"},"geometry":{"type":"Polygon","coordinates":[[[136.4000701904297,-2.2416687898068517],[136.40316009521484,-2.2396104282352667],[136.4000701904297,-2.2348075733262647],[136.40522003173828,-2.231376953055772],[136.40933990478516,-2.236865941641639],[136.41963958740234,-2.2279463247815414],[136.41826629638672,-2.2262310076468452],[136.42650604248047,-2.2210850442709216],[136.42822265625,-2.223143431774673],[136.42822265625,-2.2258879439802968],[136.42684936523438,-2.2269171347403756],[136.42822265625,-2.2286324510760807],[136.42822265625,-2.2382381855807125],[136.42684936523438,-2.2365228804562634],[136.41826629638672,-2.2385812463648165],[136.41620635986328,-2.236179819190653],[136.40796661376953,-2.245099385992418],[136.40625,-2.242697969507361],[136.40281677246094,-2.245099385992418],[136.4000701904297,-2.2416687898068517]]]}},{"type":"Feature","id":"pmtiles:8/224/129:mountain_peak:10701816151:0","properties":{"name_int":"Gunung Van Dori","name_de":"Gunung Van Dori","name":"Gunung Van Dori","rank":1,"class":"peak","name:latin":"Gunung Van Dori","name_en":"Gunung Van Dori","kind":"poi","verification":"verified","source":"OpenMapTiles/OpenStreetMap national PMTiles","sourceId":"8/224/129:mountain_peak:10701816151:0","sourceLayer":"mountain_peak","archive":"https://its.hanifahseptiani45.workers.dev/v1/map/archive/indonesia.pmtiles","updatedAt":"2026-07-26T09:35:36.638Z"},"geometry":{"type":"Point","coordinates":[136.74991607666016,-2.3167969846896312]}},{"type":"Feature","id":"pmtiles:8/225/129:landuse:78291920:2","properties":{"class":"residential","kind":"green","verification":"verified","source":"OpenMapTiles/OpenStreetMap national PMTiles","sourceId":"8/225/129:landuse:78291920:2","sourceLayer":"landuse","archive":"https://its.hanifahseptiani45.workers.dev/v1/map/archive/indonesia.pmtiles","updatedAt":"2026-07-26T09:35:36.702Z"},"geometry":{"type":"Polygon","coordinates":[[[136.44264221191406,-2.208048523586612],[136.42616271972656,-2.204274772539989],[136.44813537597656,-2.2059901151118027],[136.45740509033203,-2.213880665438978],[136.4508819580078,-2.2145667982669153],[136.44779205322266,-2.2107930637838678],[136.4398956298828,-2.2145667982669153],[136.44126892089844,-2.209420794319243],[136.44195556640625,-2.2121653319796764],[136.44332885742188,-2.209763861804319],[136.44264221191406,-2.208048523586612]]]}},{"type":"Feature","id":"pmtiles:8/225/129:landuse:78291920:4","properties":{"class":"residential","kind":"green","verification":"verified","source":"OpenMapTiles/OpenStreetMap national PMTiles","sourceId":"8/225/129:landuse:78291920:4","sourceLayer":"landuse","archive":"https://its.hanifahseptiani45.workers.dev/v1/map/archive/indonesia.pmtiles","updatedAt":"2026-07-26T09:35:36.702Z"},"geometry":{"type":"Polygon","coordinates":[[[136.4000701904297,-2.2416687898068517],[136.40316009521484,-2.2396104282352667],[136.4000701904297,-2.2348075733262647],[136.40522003173828,-2.231376953055772],[136.40933990478516,-2.236865941641639],[136.41963958740234,-2.2279463247815414],[136.41826629638672,-2.2262310076468452],[136.42650604248047,-2.2210850442709216],[136.42959594726562,-2.2248587525016745],[136.42684936523438,-2.2269171347403756],[136.4340591430664,-2.2344645116597377],[136.4285659790039,-2.2385812463648165],[136.42684936523438,-2.2365228804562634],[136.41826629638672,-2.2385812463648165],[136.41620635986328,-2.236179819190653],[136.40796661376953,-2.245099385992418],[136.40625,-2.242697969507361],[136.40281677246094,-2.245099385992418],[136.4000701904297,-2.2416687898068517]]]}},{"type":"Feature","id":"pmtiles:8/225/129:landuse:78291920:5","properties":{"class":"residential","kind":"green","verification":"verified","source":"OpenMapTiles/OpenStreetMap national PMTiles","sourceId":"8/225/129:landuse:78291920:5","sourceLayer":"landuse","archive":"https://its.hanifahseptiani45.workers.dev/v1/map/archive/indonesia.pmtiles","updatedAt":"2026-07-26T09:35:36.702Z"},"geometry":{"type":"Polygon","coordinates":[[[136.50924682617188,-2.3912351468384543],[136.50341033935547,-2.391921194260547],[136.49551391601562,-2.3864328052843007],[136.49620056152344,-2.3768280718846597],[136.49791717529297,-2.3768280718846597],[136.49723052978516,-2.3833455768534435],[136.4996337890625,-2.3878049045844136],[136.50924682617188,-2.3912351468384543]]]}},{"type":"Feature","id":"pmtiles:8/225/129:landuse:78291920:6","properties":{"class":"residential","kind":"green","verification":"verified","source":"OpenMapTiles/OpenStreetMap national PMTiles","sourceId":"8/225/129:landuse:78291920:6","sourceLayer":"landuse","archive":"https://its.hanifahseptiani45.workers.dev/v1/map/archive/indonesia.pmtiles","updatedAt":"2026-07-26T09:35:36.702Z"},"geometry":{"type":"Polygon","coordinates":[[[136.4604949951172,-2.3181691524944767],[136.4659881591797,-2.322285647924062],[136.47045135498047,-2.332576833978081],[136.45980834960938,-2.3215995661848154],[136.4604949951172,-2.3181691524944767]]]}},{"type":"Feature","id":"pmtiles:8/225/129:landuse:78291920:7","properties":{"class":"residential","kind":"green","verification":"verified","source":"OpenMapTiles/OpenStreetMap national PMTiles","sourceId":"8/225/129:landuse:78291920:7","sourceLayer":"landuse","archive":"https://its.hanifahseptiani45.workers.dev/v1/map/archive/indonesia.pmtiles","updatedAt":"2026-07-26T09:35:36.702Z"},"geometry":{"type":"Polygon","coordinates":[[[136.45362854003906,-2.3205704429514498],[136.45740509033203,-2.3226286886687575],[136.45122528076172,-2.3281173292462967],[136.44847869873047,-2.3281173292462967],[136.4501953125,-2.321256525190279],[136.45362854003906,-2.3205704429514498]]]}},{"type":"Feature","id":"pmtiles:8/225/129:mountain_peak:10701816151:0","properties":{"name_int":"Gunung Van Dori","name_de":"Gunung Van Dori","name":"Gunung Van Dori","rank":1,"class":"peak","name:latin":"Gunung Van Dori","name_en":"Gunung Van Dori","kind":"poi","verification":"verified","source":"OpenMapTiles/OpenStreetMap national PMTiles","sourceId":"8/225/129:mountain_peak:10701816151:0","sourceLayer":"mountain_peak","archive":"https://its.hanifahseptiani45.workers.dev/v1/map/archive/indonesia.pmtiles","updatedAt":"2026-07-26T09:35:36.703Z"},"geometry":{"type":"Point","coordinates":[136.74991607666016,-2.3167969846896312]}}]}