{"features":[{"geometry":{"coordinates":[125.041013,1.405979],"type":"Point"},"id":"bpjt-manado-bitung-2055-30-641-manado-bitung-km-18-600","properties":{"accessLicense":"public-view-no-explicit-reuse-license","address":"(Manado-Bitung) KM 18+600, Jalan Tol Manado-Bitung, Sulawesi Utara","administrativeAreaMethod":"official-catalog-operator-jurisdiction","administrativeAreaUpdatedAt":"2026-08-08T09:21:05.080Z","attribution":"BPJT / Direktorat Jenderal Bina Marga, Kementerian PU · PT Jasamarga Manado Bitung","catalogSourceKey":"bpjt-binamarga-manado-bitung","city":"Sulawesi Utara","codec":"H.264/AVC","corsAllowOrigin":null,"datasetLicense":"not_specified","directoryUrl":"https://binamarga.pu.go.id/contents/cctv_tol/?id_ruas=manado-bitung","freshnessBasis":"pcr-90khz-advance-plus-distinct-segment-digest","freshnessVerifiedAt":"2026-07-30T04:21:11.813Z","kind":"cctv","lastHealthCheckAt":"2026-07-30T04:21:11.813Z","mediaFormat":"hls","mediaSequence":257,"mimeType":"","name":"(Manado-Bitung) KM 18+600","operator":"PT Jasamarga Manado Bitung","operatorEvidenceUrl":"https://pu.go.id/berita/penilaian-jalan-tol-manado-bitung-dan-jalan-tol-makassar-kementerian-pupr-dukung-penerapan-ruang-terbuka-hijau-guna-kurangi-emisi-karbon","playbackAccess":"restricted-media-proxy-required","province":"Sulawesi Utara","publicUrl":"https://bpjt.pu.go.id/cctv/","region":"Sulawesi Utara","roadCorridor":{"attribution":"© OpenStreetMap contributors","boundaryMethod":"nearest-connected-highway-node-before-and-after-camera","bufferM":50,"cameraDistanceM":3,"fetchedAt":"2026-07-30T04:27:22.675Z","geometry":[[124.9724972,1.4158477],[124.9744338,1.4145338],[124.9766283,1.4134005],[124.9775076,1.4129464],[124.9797928,1.4118685],[124.9810696,1.4114073],[124.9820995,1.4110855],[124.9833012,1.4107852],[124.9849105,1.4105171],[124.9865734,1.4102275],[124.9903607,1.4094472],[124.9914604,1.4092434],[124.9944041,1.4087132],[124.9961711,1.4083907],[124.997822,1.4081367],[124.9986427,1.4080817],[124.9994855,1.4080576],[124.9996354,1.4080568],[125.0001562,1.4080595],[125.0005746,1.4080876],[125.0014215,1.408146],[125.0020793,1.4082245],[125.0028652,1.4083458],[125.005255,1.4087969],[125.0060898,1.4089149],[125.0072949,1.4090162],[125.0081009,1.409043],[125.0087768,1.4090383],[125.0093742,1.4090088],[125.0100777,1.4089468],[125.0104348,1.4089183],[125.0113021,1.4087789],[125.0118513,1.408673],[125.0124581,1.4085383],[125.0130174,1.4083955],[125.0152932,1.4077733],[125.0160127,1.4076164],[125.0165531,1.4075032],[125.0171111,1.4074247],[125.0176657,1.4073631],[125.0183201,1.407294],[125.0189129,1.4072713],[125.0193936,1.4072666],[125.0198844,1.4072586],[125.0219853,1.4073116],[125.0245492,1.4073169],[125.0268084,1.4072185],[125.0286833,1.4070608],[125.0299531,1.406954],[125.0345095,1.40653],[125.0404017,1.4060045],[125.0466577,1.4054225],[125.0494218,1.405232],[125.0505495,1.4052134]],"highway":"motorway","lengthM":8875,"osmWayId":587078149,"responseDigest":"c4c47d2a02d987c17a538bc69e91ae4f0d3c999213dc888fd3cbdf613ae7c2f3","roadName":"Jalan Tol Manado - Bitung","source":"OpenStreetMap","sourceUrl":"https://www.openstreetmap.org/way/587078149"},"roadCorridorStatus":"source-derived","roadSection":"Manado-Bitung","segmentDigestSha256":"cfb0d9001302960a39d37be070d5ef0b0a4a535881a2dcabb2738c8eee96cf44","source":"BPJT dan Direktorat Jenderal Bina Marga — CCTV Jalan Tol Manado-Bitung","sourceCameraId":"2055","sourceId":"2055-30-641","sourceUrl":"https://bpjt.pu.go.id/cctv/","streamStatus":"verified-live","streamUrl":"https://jmlive.jasamarga.com/hls/30/cbd8a1f1-6316-445d-b8b0-f43f530cc6f9/index.m3u8","streamVerifiedAt":"2026-07-30T04:21:11.813Z","streams":[{"codec":"H.264/AVC","id":"2055-30-641","mediaSequence":257,"name":"(Manado-Bitung) KM 18+600","streamUrl":"https://jmlive.jasamarga.com/hls/30/cbd8a1f1-6316-445d-b8b0-f43f530cc6f9/index.m3u8","targetDuration":10,"verifiedAt":"2026-07-30T04:21:11.813Z"}],"targetDuration":10,"timelineMarker":{"kind":"pcr-90khz","value":14012847},"tollRoadSegment":"AIRMADIDI - KAUDITAN","updatedAt":"2026-07-30T04:21:11.813Z","usageConstraint":"Akses tayangan publik; lisensi penggunaan ulang tidak dinyatakan. Pertahankan atribusi dan tautan sumber resmi.","verification":"verified","verificationMethod":"exact-normalized-name-join-of-official-bpjt-coordinate-registry-and-current-bina-marga-live-page-plus-two-advancing-hls-polls-distinct-segment-digest-and-recent-program-date-time-or-advancing-mpeg-ts-pcr-pts"},"type":"Feature"},{"geometry":{"coordinates":[125.057546,1.406224],"type":"Point"},"id":"bpjt-manado-bitung-2057-30-641-manado-bitung-km-20-500-ss-kauditan","properties":{"accessLicense":"public-view-no-explicit-reuse-license","address":"(Manado-Bitung) KM 20+500 (SS KAUDITAN), Jalan Tol Manado-Bitung, Sulawesi Utara","administrativeAreaMethod":"official-catalog-operator-jurisdiction","administrativeAreaUpdatedAt":"2026-08-08T09:21:05.080Z","attribution":"BPJT / Direktorat Jenderal Bina Marga, Kementerian PU · PT Jasamarga Manado Bitung","catalogSourceKey":"bpjt-binamarga-manado-bitung","city":"Sulawesi Utara","codec":"H.264/AVC","corsAllowOrigin":null,"datasetLicense":"not_specified","directoryUrl":"https://binamarga.pu.go.id/contents/cctv_tol/?id_ruas=manado-bitung","freshnessBasis":"pcr-90khz-advance-plus-distinct-segment-digest","freshnessVerifiedAt":"2026-07-30T04:21:11.813Z","kind":"cctv","lastHealthCheckAt":"2026-07-30T04:21:11.813Z","mediaFormat":"hls","mediaSequence":535,"mimeType":"","name":"(Manado-Bitung) KM 20+500 (SS KAUDITAN)","operator":"PT Jasamarga Manado Bitung","operatorEvidenceUrl":"https://pu.go.id/berita/penilaian-jalan-tol-manado-bitung-dan-jalan-tol-makassar-kementerian-pupr-dukung-penerapan-ruang-terbuka-hijau-guna-kurangi-emisi-karbon","playbackAccess":"restricted-media-proxy-required","province":"Sulawesi Utara","publicUrl":"https://bpjt.pu.go.id/cctv/","region":"Sulawesi Utara","roadCorridor":{"attribution":"© OpenStreetMap contributors","boundaryMethod":"nearest-connected-highway-node-before-and-after-camera","bufferM":50,"cameraDistanceM":2,"fetchedAt":"2026-07-30T04:27:50.782Z","geometry":[[125.0560814,1.4058746],[125.0573142,1.4061732],[125.0587548,1.4066184],[125.0603051,1.407188],[125.0607293,1.4073642]],"highway":"motorway","lengthM":543,"osmWayId":828128674,"responseDigest":"21c3b2e37e0bbc14639296bb4c82a72c5521c65a3ef3ab379fed643dcc8cd7da","roadName":"Jalan Tol Manado - Bitung","source":"OpenStreetMap","sourceUrl":"https://www.openstreetmap.org/way/828128674"},"roadCorridorStatus":"source-derived","roadSection":"Manado-Bitung","segmentDigestSha256":"c1443687a20efd363711e1e22b4953115173faf9bdc928fad9289ccad34c392e","source":"BPJT dan Direktorat Jenderal Bina Marga — CCTV Jalan Tol Manado-Bitung","sourceCameraId":"2057","sourceId":"2057-30-641","sourceUrl":"https://bpjt.pu.go.id/cctv/","streamStatus":"verified-live","streamUrl":"https://jmlive.jasamarga.com/hls/30/79dfeeb3-cce3-401b-8053-24e937bf3512/index.m3u8","streamVerifiedAt":"2026-07-30T04:21:11.813Z","streams":[{"codec":"H.264/AVC","id":"2057-30-641","mediaSequence":535,"name":"(Manado-Bitung) KM 20+500 (SS KAUDITAN)","streamUrl":"https://jmlive.jasamarga.com/hls/30/79dfeeb3-cce3-401b-8053-24e937bf3512/index.m3u8","targetDuration":10,"verifiedAt":"2026-07-30T04:21:11.813Z"}],"targetDuration":10,"timelineMarker":{"kind":"pcr-90khz","value":7088330816},"tollRoadSegment":"AIRMADIDI - KAUDITAN","updatedAt":"2026-07-30T04:21:11.813Z","usageConstraint":"Akses tayangan publik; lisensi penggunaan ulang tidak dinyatakan. Pertahankan atribusi dan tautan sumber resmi.","verification":"verified","verificationMethod":"exact-normalized-name-join-of-official-bpjt-coordinate-registry-and-current-bina-marga-live-page-plus-two-advancing-hls-polls-distinct-segment-digest-and-recent-program-date-time-or-advancing-mpeg-ts-pcr-pts"},"type":"Feature"},{"geometry":{"coordinates":[125.049727,1.39583],"type":"Point"},"id":"bpjt-manado-bitung-2065-30-642-manado-bitung-access-road-kauditan","properties":{"accessLicense":"public-view-no-explicit-reuse-license","address":"(Manado-Bitung) ACCESS ROAD KAUDITAN, Jalan Tol Manado-Bitung, Sulawesi Utara","administrativeAreaMethod":"official-catalog-operator-jurisdiction","administrativeAreaUpdatedAt":"2026-08-08T09:21:05.080Z","attribution":"BPJT / Direktorat Jenderal Bina Marga, Kementerian PU · PT Jasamarga Manado Bitung","catalogSourceKey":"bpjt-binamarga-manado-bitung","city":"Sulawesi Utara","codec":"H.264/AVC","corsAllowOrigin":null,"datasetLicense":"not_specified","directoryUrl":"https://binamarga.pu.go.id/contents/cctv_tol/?id_ruas=manado-bitung","freshnessBasis":"pcr-90khz-advance-plus-distinct-segment-digest","freshnessVerifiedAt":"2026-07-30T04:21:11.813Z","kind":"cctv","lastHealthCheckAt":"2026-07-30T04:21:11.813Z","mediaFormat":"hls","mediaSequence":184,"mimeType":"","name":"(Manado-Bitung) ACCESS ROAD KAUDITAN","operator":"PT Jasamarga Manado Bitung","operatorEvidenceUrl":"https://pu.go.id/berita/penilaian-jalan-tol-manado-bitung-dan-jalan-tol-makassar-kementerian-pupr-dukung-penerapan-ruang-terbuka-hijau-guna-kurangi-emisi-karbon","playbackAccess":"restricted-media-proxy-required","province":"Sulawesi Utara","publicUrl":"https://bpjt.pu.go.id/cctv/","region":"Sulawesi Utara","roadCorridor":{"attribution":"© OpenStreetMap contributors","boundaryMethod":"nearest-connected-highway-node-before-and-after-camera","bufferM":50,"cameraDistanceM":25,"fetchedAt":"2026-07-30T04:28:21.383Z","geometry":[[125.0499571,1.3957941],[125.0499447,1.3960929]],"highway":"residential","lengthM":33,"osmWayId":587964056,"responseDigest":"81bd265988e85942085174d6baa5fee4ce550ad9ebfef327ef3c6a9366fb56f8","roadName":"residential","source":"OpenStreetMap","sourceUrl":"https://www.openstreetmap.org/way/587964056"},"roadCorridorStatus":"source-derived","roadSection":"Manado-Bitung","segmentDigestSha256":"b105183971cbec7abf415ca7325beaaa207c8d6335c592d4a9acdb7196a8698a","source":"BPJT dan Direktorat Jenderal Bina Marga — CCTV Jalan Tol Manado-Bitung","sourceCameraId":"2065","sourceId":"2065-30-642","sourceUrl":"https://bpjt.pu.go.id/cctv/","streamStatus":"verified-live","streamUrl":"https://jmlive.jasamarga.com/hls/30/6e884106-b2cf-45ae-aaf9-8f3c57f2f5f1/index.m3u8","streamVerifiedAt":"2026-07-30T04:21:11.813Z","streams":[{"codec":"H.264/AVC","id":"2065-30-642","mediaSequence":184,"name":"(Manado-Bitung) ACCESS ROAD KAUDITAN","streamUrl":"https://jmlive.jasamarga.com/hls/30/6e884106-b2cf-45ae-aaf9-8f3c57f2f5f1/index.m3u8","targetDuration":10,"verifiedAt":"2026-07-30T04:21:11.813Z"}],"targetDuration":10,"timelineMarker":{"kind":"pcr-90khz","value":9771016},"tollRoadSegment":"KAUDITAN - DANOWUDU","updatedAt":"2026-07-30T04:21:11.813Z","usageConstraint":"Akses tayangan publik; lisensi penggunaan ulang tidak dinyatakan. Pertahankan atribusi dan tautan sumber resmi.","verification":"verified","verificationMethod":"exact-normalized-name-join-of-official-bpjt-coordinate-registry-and-current-bina-marga-live-page-plus-two-advancing-hls-polls-distinct-segment-digest-and-recent-program-date-time-or-advancing-mpeg-ts-pcr-pts"},"type":"Feature"}],"type":"FeatureCollection"}
