{"features":[{"geometry":{"coordinates":[115.188916,-8.4095178],"type":"Point"},"id":"cctv-national-6020eafff58f465e5d7b58d3","properties":{"address":"Bali","attribution":"Sumber publik: Sumber publik terindeks OpenCCTV","catalogSourceKey":"national-public-directory-live","city":"","kind":"cctv","mediaFormat":"iframe","mimeType":"","name":"Bali Elephant Cam Trail Path","operator":"Sumber publik terindeks OpenCCTV","province":"Bali","publicUrl":"https://opencctv.org/cameras/indonesia/bali/bali-elephant-cam-trail-path-126869","region":"Bali","source":"Sumber publik terindeks OpenCCTV","sourceId":"cctv:6020eafff58f465e5d7b58d3","sourceUrl":"https://opencctv.org/cameras/indonesia/bali/bali-elephant-cam-trail-path-126869","streamStatus":"public-page","streamUrl":"https://opencctv.org/cameras/indonesia/bali/bali-elephant-cam-trail-path-126869","updatedAt":"2026-08-11T15:20:39.760Z","verification":"public-directory-live"},"type":"Feature"}],"type":"FeatureCollection"}
