{"features":[{"geometry":{"coordinates":[110.38200785,-8.00114638],"type":"Point"},"id":"cctv-national-159a7752185e1aa2d244ab17","properties":{"address":"DI Yogyakarta","attribution":"Sumber publik: Sumber publik terindeks OpenCCTV","catalogSourceKey":"national-public-directory-live","city":"","kind":"cctv","mediaFormat":"iframe","mimeType":"","name":"Simpang Petoyan 1","operator":"Sumber publik terindeks OpenCCTV","province":"DI Yogyakarta","publicUrl":"https://opencctv.org/cameras/indonesia/di-yogyakarta/gunungkidul/simpang-petoyan-1-361130","region":"DI Yogyakarta","source":"Sumber publik terindeks OpenCCTV","sourceId":"cctv:159a7752185e1aa2d244ab17","sourceUrl":"https://opencctv.org/cameras/indonesia/di-yogyakarta/gunungkidul/simpang-petoyan-1-361130","streamStatus":"public-page","streamUrl":"https://opencctv.org/cameras/indonesia/di-yogyakarta/gunungkidul/simpang-petoyan-1-361130","updatedAt":"2026-08-11T15:20:39.773Z","verification":"public-directory-live"},"type":"Feature"},{"geometry":{"coordinates":[110.23407447,-7.94035989],"type":"Point"},"id":"cctv-national-3dacc144c44f52003437166d","properties":{"address":"DI Yogyakarta","attribution":"Sumber publik: Sumber publik terindeks OpenCCTV","catalogSourceKey":"national-public-directory-live","city":"","kind":"cctv","mediaFormat":"iframe","mimeType":"","name":"Simpang Brosot","operator":"Sumber publik terindeks OpenCCTV","province":"DI Yogyakarta","publicUrl":"https://opencctv.org/cameras/indonesia/di-yogyakarta/yogyakarta/simpang-brosot-397807","region":"DI Yogyakarta","source":"Sumber publik terindeks OpenCCTV","sourceId":"cctv:3dacc144c44f52003437166d","sourceUrl":"https://opencctv.org/cameras/indonesia/di-yogyakarta/yogyakarta/simpang-brosot-397807","streamStatus":"public-page","streamUrl":"https://opencctv.org/cameras/indonesia/di-yogyakarta/yogyakarta/simpang-brosot-397807","updatedAt":"2026-08-11T15:20:39.772Z","verification":"public-directory-live"},"type":"Feature"},{"geometry":{"coordinates":[110.3819635,-8.001201],"type":"Point"},"id":"cctv-national-449afbc790e834e6f8d7b662","properties":{"address":"DI Yogyakarta","attribution":"Sumber publik: Sumber publik terindeks OpenCCTV","catalogSourceKey":"national-public-directory-live","city":"","kind":"cctv","mediaFormat":"iframe","mimeType":"","name":"Simpang Petoyan 2","operator":"Sumber publik terindeks OpenCCTV","province":"DI Yogyakarta","publicUrl":"https://opencctv.org/cameras/indonesia/di-yogyakarta/gunungkidul/simpang-petoyan-2-361128","region":"DI Yogyakarta","source":"Sumber publik terindeks OpenCCTV","sourceId":"cctv:449afbc790e834e6f8d7b662","sourceUrl":"https://opencctv.org/cameras/indonesia/di-yogyakarta/gunungkidul/simpang-petoyan-2-361128","streamStatus":"public-page","streamUrl":"https://opencctv.org/cameras/indonesia/di-yogyakarta/gunungkidul/simpang-petoyan-2-361128","updatedAt":"2026-08-11T15:20:39.773Z","verification":"public-directory-live"},"type":"Feature"},{"geometry":{"coordinates":[110.31453,-8.00939],"type":"Point"},"id":"cctv-national-55fb7304dbfefba1830c02a9","properties":{"address":"Special Region of Yogyakarta","attribution":"Sumber publik: Sumber publik terindeks OpenCCTV","catalogSourceKey":"national-public-directory-live","city":"Special Region of Yogyakarta","kind":"cctv","mediaFormat":"iframe","mimeType":"","name":"Pulo","operator":"Sumber publik terindeks OpenCCTV","province":"DI Yogyakarta","publicUrl":"https://opencctv.org/cameras/indonesia/special-region-of-yogyakarta/pulo/pulo-311662","region":"DI Yogyakarta","source":"Sumber publik terindeks OpenCCTV","sourceId":"cctv:55fb7304dbfefba1830c02a9","sourceUrl":"https://opencctv.org/cameras/indonesia/special-region-of-yogyakarta/pulo/pulo-311662","streamStatus":"public-page","streamUrl":"https://opencctv.org/cameras/indonesia/special-region-of-yogyakarta/pulo/pulo-311662","updatedAt":"2026-08-11T15:20:39.771Z","verification":"public-directory-live"},"type":"Feature"},{"geometry":{"coordinates":[110.25294654,-7.9994579],"type":"Point"},"id":"cctv-national-58034b7f7192182386fe3fa4","properties":{"address":"DI Yogyakarta","attribution":"Sumber publik: Sumber publik terindeks OpenCCTV","catalogSourceKey":"national-public-directory-live","city":"","kind":"cctv","mediaFormat":"iframe","mimeType":"","name":"Pantai Pandansari","operator":"Sumber publik terindeks OpenCCTV","province":"DI Yogyakarta","publicUrl":"https://opencctv.org/cameras/indonesia/di-yogyakarta/yogyakarta/pantai-pandansari-360971","region":"DI Yogyakarta","source":"Sumber publik terindeks OpenCCTV","sourceId":"cctv:58034b7f7192182386fe3fa4","sourceUrl":"https://opencctv.org/cameras/indonesia/di-yogyakarta/yogyakarta/pantai-pandansari-360971","streamStatus":"public-page","streamUrl":"https://opencctv.org/cameras/indonesia/di-yogyakarta/yogyakarta/pantai-pandansari-360971","updatedAt":"2026-08-11T15:20:39.770Z","verification":"public-directory-live"},"type":"Feature"},{"geometry":{"coordinates":[110.24649,-7.93878],"type":"Point"},"id":"cctv-national-5dd63faa46c562c9227088db","properties":{"address":"DI Yogyakarta","attribution":"Sumber publik: Sumber publik terindeks OpenCCTV","catalogSourceKey":"national-public-directory-live","city":"","kind":"cctv","mediaFormat":"iframe","mimeType":"","name":"Bundaran Srandakan","operator":"Sumber publik terindeks OpenCCTV","province":"DI Yogyakarta","publicUrl":"https://opencctv.org/cameras/indonesia/di-yogyakarta/bantul/bundaran-srandakan-124222","region":"DI Yogyakarta","source":"Sumber publik terindeks OpenCCTV","sourceId":"cctv:5dd63faa46c562c9227088db","sourceUrl":"https://opencctv.org/cameras/indonesia/di-yogyakarta/bantul/bundaran-srandakan-124222","streamStatus":"public-page","streamUrl":"https://opencctv.org/cameras/indonesia/di-yogyakarta/bantul/bundaran-srandakan-124222","updatedAt":"2026-08-11T15:20:39.761Z","verification":"public-directory-live"},"type":"Feature"},{"geometry":{"coordinates":[110.27264452,-7.93083862],"type":"Point"},"id":"cctv-national-810c280b484ec34e0623b33d","properties":{"address":"DI Yogyakarta","attribution":"Sumber publik: Sumber publik terindeks OpenCCTV","catalogSourceKey":"national-public-directory-live","city":"","kind":"cctv","mediaFormat":"iframe","mimeType":"","name":"SrandakanTimur","operator":"Sumber publik terindeks OpenCCTV","province":"DI Yogyakarta","publicUrl":"https://opencctv.org/cameras/indonesia/di-yogyakarta/yogyakarta/srandakantimur-360927","region":"DI Yogyakarta","source":"Sumber publik terindeks OpenCCTV","sourceId":"cctv:810c280b484ec34e0623b33d","sourceUrl":"https://opencctv.org/cameras/indonesia/di-yogyakarta/yogyakarta/srandakantimur-360927","streamStatus":"public-page","streamUrl":"https://opencctv.org/cameras/indonesia/di-yogyakarta/yogyakarta/srandakantimur-360927","updatedAt":"2026-08-11T15:20:39.774Z","verification":"public-directory-live"},"type":"Feature"},{"geometry":{"coordinates":[110.34480236,-8.00335274],"type":"Point"},"id":"cctv-national-8181b3616a755e20f7d71e65","properties":{"address":"DI Yogyakarta","attribution":"Sumber publik: Sumber publik terindeks OpenCCTV","catalogSourceKey":"national-public-directory-live","city":"","kind":"cctv","mediaFormat":"iframe","mimeType":"","name":"Pertigaan SD Nanas","operator":"Sumber publik terindeks OpenCCTV","province":"DI Yogyakarta","publicUrl":"https://opencctv.org/cameras/indonesia/di-yogyakarta/gunungkidul/pertigaan-sd-nanas-361104","region":"DI Yogyakarta","source":"Sumber publik terindeks OpenCCTV","sourceId":"cctv:8181b3616a755e20f7d71e65","sourceUrl":"https://opencctv.org/cameras/indonesia/di-yogyakarta/gunungkidul/pertigaan-sd-nanas-361104","streamStatus":"public-page","streamUrl":"https://opencctv.org/cameras/indonesia/di-yogyakarta/gunungkidul/pertigaan-sd-nanas-361104","updatedAt":"2026-08-11T15:20:39.771Z","verification":"public-directory-live"},"type":"Feature"},{"geometry":{"coordinates":[110.24647864,-7.93874128],"type":"Point"},"id":"cctv-national-991bd589af7f4d69c72326ff","properties":{"address":"DI Yogyakarta","attribution":"Sumber publik: Sumber publik terindeks OpenCCTV","catalogSourceKey":"national-public-directory-live","city":"","kind":"cctv","mediaFormat":"iframe","mimeType":"","name":"Bunderan Srandakan","operator":"Sumber publik terindeks OpenCCTV","province":"DI Yogyakarta","publicUrl":"https://opencctv.org/cameras/indonesia/di-yogyakarta/bantul/bunderan-srandakan-360966","region":"DI Yogyakarta","source":"Sumber publik terindeks OpenCCTV","sourceId":"cctv:991bd589af7f4d69c72326ff","sourceUrl":"https://opencctv.org/cameras/indonesia/di-yogyakarta/bantul/bunderan-srandakan-360966","streamStatus":"public-page","streamUrl":"https://opencctv.org/cameras/indonesia/di-yogyakarta/bantul/bunderan-srandakan-360966","updatedAt":"2026-08-11T15:20:39.761Z","verification":"public-directory-live"},"type":"Feature"},{"geometry":{"coordinates":[110.32568,-7.95323],"type":"Point"},"id":"cctv-national-a6d5e8865d205b6f1cebac0d","properties":{"address":"DI Yogyakarta","attribution":"Sumber publik: Sumber publik terindeks OpenCCTV","catalogSourceKey":"national-public-directory-live","city":"","kind":"cctv","mediaFormat":"iframe","mimeType":"","name":"Bendung Klegen","operator":"Sumber publik terindeks OpenCCTV","province":"DI Yogyakarta","publicUrl":"https://opencctv.org/cameras/indonesia/di-yogyakarta/bantul/bendung-klegen-124220","region":"DI Yogyakarta","source":"Sumber publik terindeks OpenCCTV","sourceId":"cctv:a6d5e8865d205b6f1cebac0d","sourceUrl":"https://opencctv.org/cameras/indonesia/di-yogyakarta/bantul/bendung-klegen-124220","streamStatus":"public-page","streamUrl":"https://opencctv.org/cameras/indonesia/di-yogyakarta/bantul/bendung-klegen-124220","updatedAt":"2026-08-11T15:20:39.761Z","verification":"public-directory-live"},"type":"Feature"},{"geometry":{"coordinates":[110.27279607,-7.93064802],"type":"Point"},"id":"cctv-national-b45cde39d09cd5dbf6b32ed7","properties":{"address":"DI Yogyakarta","attribution":"Sumber publik: Sumber publik terindeks OpenCCTV","catalogSourceKey":"national-public-directory-live","city":"","kind":"cctv","mediaFormat":"iframe","mimeType":"","name":"Srandakan","operator":"Sumber publik terindeks OpenCCTV","province":"DI Yogyakarta","publicUrl":"https://opencctv.org/cameras/indonesia/di-yogyakarta/yogyakarta/srandakan-360909","region":"DI Yogyakarta","source":"Sumber publik terindeks OpenCCTV","sourceId":"cctv:b45cde39d09cd5dbf6b32ed7","sourceUrl":"https://opencctv.org/cameras/indonesia/di-yogyakarta/yogyakarta/srandakan-360909","streamStatus":"public-page","streamUrl":"https://opencctv.org/cameras/indonesia/di-yogyakarta/yogyakarta/srandakan-360909","updatedAt":"2026-08-11T15:20:39.774Z","verification":"public-directory-live"},"type":"Feature"},{"geometry":{"coordinates":[110.27293957,-7.93065665],"type":"Point"},"id":"cctv-national-ca4def506fa1aa1d47b84d45","properties":{"address":"DI Yogyakarta","attribution":"Sumber publik: Sumber publik terindeks OpenCCTV","catalogSourceKey":"national-public-directory-live","city":"","kind":"cctv","mediaFormat":"iframe","mimeType":"","name":"SrandakanBarat","operator":"Sumber publik terindeks OpenCCTV","province":"DI Yogyakarta","publicUrl":"https://opencctv.org/cameras/indonesia/di-yogyakarta/yogyakarta/srandakanbarat-360957","region":"DI Yogyakarta","source":"Sumber publik terindeks OpenCCTV","sourceId":"cctv:ca4def506fa1aa1d47b84d45","sourceUrl":"https://opencctv.org/cameras/indonesia/di-yogyakarta/yogyakarta/srandakanbarat-360957","streamStatus":"public-page","streamUrl":"https://opencctv.org/cameras/indonesia/di-yogyakarta/yogyakarta/srandakanbarat-360957","updatedAt":"2026-08-11T15:20:39.774Z","verification":"public-directory-live"},"type":"Feature"},{"geometry":{"coordinates":[110.325589,-7.953231],"type":"Point"},"id":"cctv-national-d2e391af940db56ddf836252","properties":{"address":"DI Yogyakarta","attribution":"Sumber publik: Sumber publik terindeks OpenCCTV","catalogSourceKey":"national-public-directory-live","city":"","kind":"cctv","mediaFormat":"iframe","mimeType":"","name":"Bendung Klegen","operator":"Sumber publik terindeks OpenCCTV","province":"DI Yogyakarta","publicUrl":"https://opencctv.org/cameras/indonesia/di-yogyakarta/bantul/bendung-klegen-361029","region":"DI Yogyakarta","source":"Sumber publik terindeks OpenCCTV","sourceId":"cctv:d2e391af940db56ddf836252","sourceUrl":"https://opencctv.org/cameras/indonesia/di-yogyakarta/bantul/bendung-klegen-361029","streamStatus":"public-page","streamUrl":"https://opencctv.org/cameras/indonesia/di-yogyakarta/bantul/bendung-klegen-361029","updatedAt":"2026-08-11T15:20:39.761Z","verification":"public-directory-live"},"type":"Feature"},{"geometry":{"coordinates":[110.33322808,-8.02517587],"type":"Point"},"id":"cctv-national-d32a9ad0d30bbc295421ffd1","properties":{"address":"DI Yogyakarta","attribution":"Sumber publik: Sumber publik terindeks OpenCCTV","catalogSourceKey":"national-public-directory-live","city":"","kind":"cctv","mediaFormat":"iframe","mimeType":"","name":"Pantai Parangtritis","operator":"Sumber publik terindeks OpenCCTV","province":"DI Yogyakarta","publicUrl":"https://opencctv.org/cameras/indonesia/di-yogyakarta/yogyakarta/pantai-parangtritis-360972","region":"DI Yogyakarta","source":"Sumber publik terindeks OpenCCTV","sourceId":"cctv:d32a9ad0d30bbc295421ffd1","sourceUrl":"https://opencctv.org/cameras/indonesia/di-yogyakarta/yogyakarta/pantai-parangtritis-360972","streamStatus":"public-page","streamUrl":"https://opencctv.org/cameras/indonesia/di-yogyakarta/yogyakarta/pantai-parangtritis-360972","updatedAt":"2026-08-11T15:20:39.770Z","verification":"public-directory-live"},"type":"Feature"},{"geometry":{"coordinates":[110.2533,-8.00035],"type":"Point"},"id":"cctv-national-f10d2b1419b3458cef0ca0f6","properties":{"address":"Special Region of Yogyakarta","attribution":"Sumber publik: Sumber publik terindeks OpenCCTV","catalogSourceKey":"national-public-directory-live","city":"Special Region of Yogyakarta","kind":"cctv","mediaFormat":"iframe","mimeType":"","name":"Pulo: Pantai Pandansari","operator":"Sumber publik terindeks OpenCCTV","province":"DI Yogyakarta","publicUrl":"https://opencctv.org/cameras/indonesia/special-region-of-yogyakarta/pulo/pulo-pantai-pandansari-315323","region":"DI Yogyakarta","source":"Sumber publik terindeks OpenCCTV","sourceId":"cctv:f10d2b1419b3458cef0ca0f6","sourceUrl":"https://opencctv.org/cameras/indonesia/special-region-of-yogyakarta/pulo/pulo-pantai-pandansari-315323","streamStatus":"public-page","streamUrl":"https://opencctv.org/cameras/indonesia/special-region-of-yogyakarta/pulo/pulo-pantai-pandansari-315323","updatedAt":"2026-08-11T15:20:39.771Z","verification":"public-directory-live"},"type":"Feature"}],"type":"FeatureCollection"}
