{"features":[{"geometry":{"coordinates":[111.924817,-8.01743509],"type":"Point"},"id":"binamarga-national-directory-ch-56/ch-jembatan-ngujang-tulungagung","properties":{"address":"Jawa Timur","attribution":"Koordinat dan tautan pemutar: Direktorat Jenderal Bina Marga, Kementerian PU","catalogSourceKey":"binamarga-national-directory","category":"ch","city":"","kind":"cctv","mediaFormat":"iframe","mimeType":"","name":"Jembatan Ngujang — Tulungagung","operator":"Direktorat Jenderal Bina Marga / penyedia terkait","province":"Jawa Timur","publicUrl":"https://binamarga.pu.go.id/cctv-non-tol","region":"Jawa Timur","source":"Direktori CCTV Jalan Non Tol Direktorat Jenderal Bina Marga","sourceId":"ch/56/ch","sourceUrl":"https://binamarga.pu.go.id/cctv-non-tol","streamStatus":"public-page","streamUrl":"https://binamarga.pu.go.id/play-hls/56/ch","updatedAt":"2026-07-29T15:13:44.212Z","usageNote":"Tautan berasal dari direktori resmi. Kemampuan embed/live bergantung pada kebijakan penyedia asal dan tidak disamakan dengan HLS verified-live.","verification":"directory-verified","verificationMethod":"official-directory-coordinate-and-player-link"},"type":"Feature"}],"type":"FeatureCollection"}
