{"features":[{"geometry":{"coordinates":[112.54676,-7.40044],"type":"Point"},"id":"cctv-national-05ece79152eea43b6ab42bad","properties":{"address":"East Java","attribution":"Sumber publik: Sumber publik terindeks OpenCCTV","catalogSourceKey":"national-public-directory-live","city":"East Java","kind":"cctv","mediaFormat":"iframe","mimeType":"","name":"Krian: Jalan Tol Manyar - Mojokerto","operator":"Sumber publik terindeks OpenCCTV","province":"Jawa Timur","publicUrl":"https://opencctv.org/cameras/indonesia/east-java/krian/krian-jalan-tol-manyar-mojokerto-314112","region":"Jawa Timur","source":"Sumber publik terindeks OpenCCTV","sourceId":"cctv:05ece79152eea43b6ab42bad","sourceUrl":"https://opencctv.org/cameras/indonesia/east-java/krian/krian-jalan-tol-manyar-mojokerto-314112","streamStatus":"public-page","streamUrl":"https://opencctv.org/cameras/indonesia/east-java/krian/krian-jalan-tol-manyar-mojokerto-314112","updatedAt":"2026-08-11T15:20:39.766Z","verification":"public-directory-live"},"type":"Feature"},{"geometry":{"coordinates":[112.5448,-7.38942],"type":"Point"},"id":"cctv-national-82f6549fc21fb214004caa55","properties":{"address":"East Java","attribution":"Sumber publik: Sumber publik terindeks OpenCCTV","catalogSourceKey":"national-public-directory-live","city":"East Java","kind":"cctv","mediaFormat":"iframe","mimeType":"","name":"Krian: Jalan Tol Manyar - Mojokerto","operator":"Sumber publik terindeks OpenCCTV","province":"Jawa Timur","publicUrl":"https://opencctv.org/cameras/indonesia/east-java/krian/krian-jalan-tol-manyar-mojokerto-315012","region":"Jawa Timur","source":"Sumber publik terindeks OpenCCTV","sourceId":"cctv:82f6549fc21fb214004caa55","sourceUrl":"https://opencctv.org/cameras/indonesia/east-java/krian/krian-jalan-tol-manyar-mojokerto-315012","streamStatus":"public-page","streamUrl":"https://opencctv.org/cameras/indonesia/east-java/krian/krian-jalan-tol-manyar-mojokerto-315012","updatedAt":"2026-08-11T15:20:39.766Z","verification":"public-directory-live"},"type":"Feature"},{"geometry":{"coordinates":[112.54496,-7.38926],"type":"Point"},"id":"cctv-national-a44e2144e0ffa27a4ff52c89","properties":{"address":"East Java","attribution":"Sumber publik: Sumber publik terindeks OpenCCTV","catalogSourceKey":"national-public-directory-live","city":"East Java","kind":"cctv","mediaFormat":"iframe","mimeType":"","name":"Krian: Kantor Pelayanan E-Toll Lebani Gresik - Jalan Tol Manyar - Mojokerto","operator":"Sumber publik terindeks OpenCCTV","province":"Jawa Timur","publicUrl":"https://opencctv.org/cameras/indonesia/east-java/krian/krian-kantor-pelayanan-e-toll-lebani-gresik-jalan-tol-manyar-mojokerto-312135","region":"Jawa Timur","source":"Sumber publik terindeks OpenCCTV","sourceId":"cctv:a44e2144e0ffa27a4ff52c89","sourceUrl":"https://opencctv.org/cameras/indonesia/east-java/krian/krian-kantor-pelayanan-e-toll-lebani-gresik-jalan-tol-manyar-mojokerto-312135","streamStatus":"public-page","streamUrl":"https://opencctv.org/cameras/indonesia/east-java/krian/krian-kantor-pelayanan-e-toll-lebani-gresik-jalan-tol-manyar-mojokerto-312135","updatedAt":"2026-08-11T15:20:39.766Z","verification":"public-directory-live"},"type":"Feature"},{"geometry":{"coordinates":[112.54548,-7.39359],"type":"Point"},"id":"cctv-national-bd630bfe57f6fe371efc28e2","properties":{"address":"East Java","attribution":"Sumber publik: Sumber publik terindeks OpenCCTV","catalogSourceKey":"national-public-directory-live","city":"East Java","kind":"cctv","mediaFormat":"iframe","mimeType":"","name":"Krian: Jalan Tol Manyar - Mojokerto","operator":"Sumber publik terindeks OpenCCTV","province":"Jawa Timur","publicUrl":"https://opencctv.org/cameras/indonesia/east-java/krian/krian-jalan-tol-manyar-mojokerto-314602","region":"Jawa Timur","source":"Sumber publik terindeks OpenCCTV","sourceId":"cctv:bd630bfe57f6fe371efc28e2","sourceUrl":"https://opencctv.org/cameras/indonesia/east-java/krian/krian-jalan-tol-manyar-mojokerto-314602","streamStatus":"public-page","streamUrl":"https://opencctv.org/cameras/indonesia/east-java/krian/krian-jalan-tol-manyar-mojokerto-314602","updatedAt":"2026-08-11T15:20:39.766Z","verification":"public-directory-live"},"type":"Feature"},{"geometry":{"coordinates":[112.5498,-7.40752],"type":"Point"},"id":"cctv-national-dcd99f5ee49efb131ced7a01","properties":{"address":"East Java","attribution":"Sumber publik: Sumber publik terindeks OpenCCTV","catalogSourceKey":"national-public-directory-live","city":"East Java","kind":"cctv","mediaFormat":"iframe","mimeType":"","name":"Krian","operator":"Sumber publik terindeks OpenCCTV","province":"Jawa Timur","publicUrl":"https://opencctv.org/cameras/indonesia/east-java/krian/krian-312399","region":"Jawa Timur","source":"Sumber publik terindeks OpenCCTV","sourceId":"cctv:dcd99f5ee49efb131ced7a01","sourceUrl":"https://opencctv.org/cameras/indonesia/east-java/krian/krian-312399","streamStatus":"public-page","streamUrl":"https://opencctv.org/cameras/indonesia/east-java/krian/krian-312399","updatedAt":"2026-08-11T15:20:39.766Z","verification":"public-directory-live"},"type":"Feature"}],"type":"FeatureCollection"}
